Company_Name,Category,Address,Url,Latitude,Longitude,State
Himachal Pradesh Village First Gym,Gym,"CJX6+CMP, Poshana, Himachal Pradesh 172001, India",https://www.google.co.kr/maps/place/Himachal+Pradesh+Village+First+Gym/data=!4m5!3m4!1s0x3905c1db92194835:0xab5547e047126ded!8m2!3d31.4485751!4d77.6116908?authuser=0&hl=en&rclk=1,31.4485751,77.61169079999998,Goa
Rudra's Gym | Best Unisex (ladies & Gents) Gym in kangra |,Fitness center,"Jaswal Complex, 4th Floor, opposite Rajput Sabha, Kangra, Himachal Pradesh 176001, India",https://www.google.co.kr/maps/place/Rudra's+Gym+%7C+Best+Unisex+(ladies+%26+Gents)+Gym+in+kangra+%7C/data=!4m5!3m4!1s0x391b4f80ff724b73:0xbe77b5e23e9b39e8!8m2!3d32.1044617!4d76.273651?authuser=0&hl=en&rclk=1,32.104461699999995,76.273651,Goa
Shiva Fitness Gym,Gym,"NH103, Ghumarwin, Himachal Pradesh 174034, India",https://www.google.co.kr/maps/place/Shiva+Fitness+Gym/data=!4m5!3m4!1s0x39053b1b0902bd6f:0x4abbbdf3b6cd8012!8m2!3d31.4327172!4d76.7135161?authuser=0&hl=en&rclk=1,31.43271720000001,76.71351609999998,Goa
P2i Gym Fitness,Gym,"NIT, Anu, Hamirpur, Himachal Pradesh 177005, India",https://www.google.co.kr/maps/place/P2i+Gym+Fitness/data=!4m5!3m4!1s0x3904d4410e34ad17:0xfdb3bff6bb190a0f!8m2!3d31.7008861!4d76.5217751?authuser=0&hl=en&rclk=1,31.7008861,76.5217751,Goa
City Fitness Gym,Gym,"Gandhi Chowk Street, Chakarwarti, Ghumarwin, Himachal Pradesh 174021, India",https://www.google.co.kr/maps/place/City+Fitness+Gym/data=!4m5!3m4!1s0x39053b72c1dd7307:0x9babece1bb554847!8m2!3d31.4420077!4d76.7109326?authuser=0&hl=en&rclk=1,31.442007699999998,76.71093259999998,Goa
Gym in Shimla,Fitness center,"Gymnazio health club, Ajay brar Nanta Niwas, near Andhra bank, Sector 1, New Shimla, Shimla, Himachal Pradesh 171009, India",https://www.google.co.kr/maps/place/Gym+in+Shimla/data=!4m5!3m4!1s0x3905794070767e41:0x987c754746964c55!8m2!3d31.0845796!4d77.1699412?authuser=0&hl=en&rclk=1,31.0845796,77.1699412,Goa
Ignite (The Fitness Era),Gym,"Mohal Rd, Mohal, Himachal Pradesh 175126, India",https://www.google.co.kr/maps/place/Ignite+(The+Fitness+Era)/data=!4m5!3m4!1s0x3904f722a25618b3:0x5a06471342ab2ec8!8m2!3d31.914842!4d77.1271?authuser=0&hl=en&rclk=1,31.914841999999997,77.1271,Goa
Iron Fist Gym,Gym,"2nd Floor ,Near Cinema Chowk, Sen Shopping Complex , Bhojpur, Sundar Nagar, Himachal Pradesh 175002, India",https://www.google.co.kr/maps/place/Iron+Fist+Gym/data=!4m5!3m4!1s0x390519bb53a1386b:0x60c9198f4407ad81!8m2!3d31.529765!4d76.888974?authuser=0&hl=en&rclk=1,31.529765,76.888974,Goa
Raaj Fitness Center(Gym),Gym,"tihra, mod, near bus stand, Sarkaghat, Himachal Pradesh 175024, India",https://www.google.co.kr/maps/place/Raaj+Fitness+Center(Gym)/data=!4m5!3m4!1s0x3904df2cbf98342f:0x98c62a3c9b3f6c0a!8m2!3d31.6989558!4d76.7324084?authuser=0&hl=en&rclk=1,31.6989558,76.7324084,Goa
Gym,Gym,"HV49+2J9, Mairajitpur, Himachal Pradesh 175036, India",https://www.google.co.kr/maps/place/Gym/data=!4m5!3m4!1s0x3905195b60bbaa39:0x7c1d6f2ad022c4f1!8m2!3d31.5550386!4d76.8691046?authuser=0&hl=en&rclk=1,31.5550386,76.8691046,Goa
Vibes Gym,Fitness center,"Opp. Central Bank Of India, Bhojpur, Sunder Nagar, Mandi, Himachal Pradesh 175002, India",https://www.google.co.kr/maps/place/Vibes+Gym/data=!4m5!3m4!1s0x3904e23c9f120ed3:0x3f37ca9fd94aeeed!8m2!3d31.708009!4d76.931285?authuser=0&hl=en&rclk=1,31.708009000000004,76.931285,Goa
The infinity gym,Gym,"ward no. 2 main bazar, near sabji Mandi top floor deep and company complex, Himachal Pradesh 177001, India",https://www.google.co.kr/maps/place/The+infinity+gym/data=!4m5!3m4!1s0x3904d512537a41ef:0x9ab86ec8b0f743e2!8m2!3d31.6862736!4d76.5227007?authuser=0&hl=en&rclk=1,31.686273600000003,76.5227007,Goa
The RED GYM,Gym,"Sai Rd, Baddi, Himachal Pradesh 173205, India",https://www.google.co.kr/maps/place/The+RED+GYM/data=!4m5!3m4!1s0x390ff58558431d97:0xbef880676b4f0aca!8m2!3d30.944419!4d76.8034522?authuser=0&hl=en&rclk=1,30.944419,76.8034522,Goa
Gym In Hamirpur-Vipul's HiTech GYM(Best Unisex Gym In Hamirpur),Gym,"Pratap Nagar, Hamirpur, Himachal Pradesh 177001, India",https://www.google.co.kr/maps/place/Gym+In+Hamirpur-Vipul's+HiTech+GYM(Best+Unisex+Gym+In+Hamirpur)/data=!4m5!3m4!1s0x3904d44f2795051d:0x7badfb9e2d692d1f!8m2!3d31.6900224!4d76.5190975?authuser=0&hl=en&rclk=1,31.6900224,76.5190975,Goa
Fit Connect Gym,Gym,"Naduan, Chowk, Shimla-Kangra Rd, Himachal Pradesh 177001, India",https://www.google.co.kr/maps/place/Fit+Connect+Gym/data=!4m5!3m4!1s0x3904d5e0f6c2db8f:0x197983c7af17f5f6!8m2!3d31.6891177!4d76.5177385?authuser=0&hl=en&rclk=1,31.689117699999997,76.51773850000002,Goa
Rv Fitness Gym,Fitness center,"P.O and Tehsil, VILLAGE Naldera, Anni, Himachal Pradesh 172026, India",https://www.google.co.kr/maps/place/Rv+Fitness+Gym/data=!4m5!3m4!1s0x3905bd6d889e3259:0x2460cd11ae7f81f2!8m2!3d31.433536!4d77.4171237?authuser=0&hl=en&rclk=1,31.433536,77.4171237,Goa
My Fitness Gym,Gym,"Vill.ghumani. p/o kandrour teh.ghumarwin, Ghumani, Himachal Pradesh 174004, India",https://www.google.co.kr/maps/place/My+Fitness+Gym/data=!4m5!3m4!1s0x39053d467af0f963:0xdd3e3bd8aadb2ffd!8m2!3d31.396362!4d76.7506891?authuser=0&hl=en&rclk=1,31.396362,76.75068909999997,Goa
Raghav Raj Fitness Center,Gym,"Raghav Raj Fitness Center Teh balh Distt (H.P, Ner Chowk, Himachal Pradesh 175008, India",https://www.google.co.kr/maps/place/Raghav+Raj+Fitness+Center/data=!4m5!3m4!1s0x39051ea3d0bc186d:0x1bfa4a0bf3f2c2ef!8m2!3d31.6075763!4d76.9119003?authuser=0&hl=en&rclk=1,31.607576300000005,76.9119003,Goa
Mcllo Gym,Gym,"Bhagsunag Rd, McLeod Ganj, Dharamshala, Himachal Pradesh 176219, India",https://www.google.co.kr/maps/place/Mcllo+Gym/data=!4m5!3m4!1s0x391b512d6824111f:0xe55f8a5a46277a0e!8m2!3d32.2387356!4d76.3248007?authuser=0&hl=en&rclk=1,32.238735600000005,76.3248007,Goa
The Midtown fitness,Gym,"Mall Road, Bajoral Khurd, Solan, Himachal Pradesh 173212, India",https://www.google.co.kr/maps/place/The+Midtown+fitness/data=!4m5!3m4!1s0x390f81b1d26bfe6f:0x43361f5352b92d31!8m2!3d30.9099283!4d77.1034997?authuser=0&hl=en&rclk=1,30.9099283,77.1034997,Goa
Gym,Gym,"130, Sai Rd, Housing Board Colony Phases I, Sai Rd, Housing Board Colony Phases I, Baddi, Himachal Pradesh 173205, India",https://www.google.co.kr/maps/place/Gym/data=!4m5!3m4!1s0x390ff55fc0982551:0x1d5ac4ead708ac81!8m2!3d30.9462311!4d76.8042931?authuser=0&hl=en&rclk=1,30.9462311,76.8042931,Goa
Sports central gym una,Gym,"Una - Hamirpur Rd, near Suvidha Hotel, Una, Himachal Pradesh 174303, India",https://www.google.co.kr/maps/place/Sports+central+gym+una/data=!4m5!3m4!1s0x391ad07f5a2aa40b:0xc19415eb8ddd6f0c!8m2!3d31.4709356!4d76.271497?authuser=0&hl=en&rclk=1,31.470935600000004,76.271497,Goa
UNISEX GYM BAIJNATH,Gym,"MDR56, Baijnath, Himachal Pradesh 176125, India",https://www.google.co.kr/maps/place/UNISEX+GYM+BAIJNATH/data=!4m5!3m4!1s0x3904b97a0c7cdb65:0x33956d835238bb1!8m2!3d32.049499!4d76.6472866?authuser=0&hl=en&rclk=1,32.049499,76.64728659999999,Goa
Gesundheit Unisex Gym,Gym,"Thakur Niwas, near Laxmi Narayan Temple, Kasumpti, Shimla, Himachal Pradesh 171009, India",https://www.google.co.kr/maps/place/Gesundheit+Unisex+Gym/data=!4m5!3m4!1s0x39057f529531f10f:0x80a671443e12d608!8m2!3d31.0753276!4d77.1845565?authuser=0&hl=en&rclk=1,31.0753276,77.1845565,Goa
Gym,Gym,"Sood Residence, Pagog Rd, Neri, Himachal Pradesh 171003, India",https://www.google.co.kr/maps/place/Gym/data=!4m5!3m4!1s0x390579148a0fa50f:0x42beac205d307ce!8m2!3d31.1204752!4d77.1720595?authuser=0&hl=en&rclk=1,31.120475199999998,77.1720595,Goa
GYM,Gym,"5WC7+P4M, Bharal, Himachal Pradesh 176022, India",https://www.google.co.kr/maps/place/GYM/data=!4m5!3m4!1s0x391b64c7ed0cdf41:0x9c7775e4a2a05105!8m2!3d32.1718494!4d75.9127871?authuser=0&hl=en&rclk=1,32.1718494,75.91278709999997,Goa
shoghi fitness center,Gym,"Verma Complex, राष्ट्रीय राजमार्ग 22, Shoghi, Himachal Pradesh 171219, India",https://www.google.co.kr/maps/place/shoghi+fitness+center/data=!4m5!3m4!1s0x39057f3482a9f883:0x7cf7cdbb41f3c9b6!8m2!3d31.0395842!4d77.1239997?authuser=0&hl=en&rclk=1,31.0395842,77.1239997,Goa
"Power Gym - Best Gym, Ladies Gym, Nutrition Gym, Unisex Gym, Fitness Centre in Bilaspur",Gym,"First floor, Congress Bhawan Near sai hostel, near hot spot, Bilaspur, Himachal Pradesh 174001, India","https://www.google.co.kr/maps/place/Power+Gym+-+Best+Gym,+Ladies+Gym,+Nutrition+Gym,+Unisex+Gym,+Fitness+Centre+in+Bilaspur/data=!4m5!3m4!1s0x39053f1c03a18d69:0xd3abc9602f915e89!8m2!3d31.3428077!4d76.7618751?authuser=0&hl=en&rclk=1",31.342807699999998,76.7618751,Goa
Intensity- The Power Gym,Gym,"North Oak, Sanjauli, Shimla, Himachal Pradesh 171006, India",https://www.google.co.kr/maps/place/Intensity-+The+Power+Gym/data=!4m5!3m4!1s0x3905789e1550317b:0x1374cd6f16792f5c!8m2!3d31.1045036!4d77.1931675?authuser=0&hl=en&rclk=1,31.1045036,77.1931675,Goa
Akhada Gym,Fitness center,"3rd floor, Palampur city mall, near V mart, Palampur, Himachal Pradesh 176061, India",https://www.google.co.kr/maps/place/Akhada+Gym/data=!4m5!3m4!1s0x3904b3bc667e568f:0xa14c9c64f11d5a0d!8m2!3d32.1053072!4d76.5338815?authuser=0&hl=en&rclk=1,32.1053072,76.53388149999998,Goa
GYM Center,Gym,"GP7H+FRP, Kuthera, Himachal Pradesh 174026, India",https://www.google.co.kr/maps/place/GYM+Center/data=!4m5!3m4!1s0x390525c53c9f57bb:0x16907c5195368efb!8m2!3d31.5137027!4d76.7295878?authuser=0&hl=en&rclk=1,31.5137027,76.7295878,Goa
First fitness gym,Gym,"PW2P+6H6, Kartarpur, Mandi, Himachal Pradesh 175001, India",https://www.google.co.kr/maps/place/First+fitness+gym/data=!4m5!3m4!1s0x3904e3b65b4d0bbb:0x279899ea86f3cebb!8m2!3d31.7005335!4d76.9363982?authuser=0&hl=en&rclk=1,31.700533500000002,76.93639820000001,Goa
GYM,Gymnastics center,"4G2W+53R, Holta, Banuri, Himachal Pradesh 176062, India",https://www.google.co.kr/maps/place/GYM/data=!4m5!3m4!1s0x3904b3e3a57822c1:0x8701f28478e7475f!8m2!3d32.1004936!4d76.545131?authuser=0&hl=en&rclk=1,32.1004936,76.54513100000001,Goa
NHC gym,Gym,"989M+M5J, Poona, Himachal Pradesh 174301, India",https://www.google.co.kr/maps/place/NHC+gym/data=!4m5!3m4!1s0x391acf109a6c58f5:0x9010580da156847!8m2!3d31.369221!4d76.3329022?authuser=0&hl=en&rclk=1,31.369221000000003,76.3329022,Goa
Fitness Point,Fitness center,"Luxmi Building Store, Sharma Niwas Hospital Rd, Kotla Nala, Solan, Himachal Pradesh 173212, India",https://www.google.co.kr/maps/place/Fitness+Point/data=!4m5!3m4!1s0x390f8149560b793d:0x42eb153f4f3f58c1!8m2!3d30.906028!4d77.108324?authuser=0&hl=en&rclk=1,30.90602800000001,77.108324,Goa
NHC GYM,Gym,"984F+F2V, Santokhgarh, Himachal Pradesh 174301, India",https://www.google.co.kr/maps/place/NHC+GYM/data=!4m5!3m4!1s0x391acf0094a3ea0d:0x1a8bdf73e61bf8ca!8m2!3d31.3562387!4d76.3225553?authuser=0&hl=en&rclk=1,31.3562387,76.32255529999998,Goa
City Fitness Gym Pro,Gym,"Kandaghat Chail Road, Kandaghat, Himachal Pradesh 173215, India",https://www.google.co.kr/maps/place/City+Fitness+Gym+Pro/data=!4m5!3m4!1s0x390f8184fbc3cbdf:0x878301e1c5e85275!8m2!3d30.9664246!4d77.1115245?authuser=0&hl=en&rclk=1,30.966424600000003,77.1115245,Goa
Sirmour Gym House,Gym,"H76W+2F4, Naya Bazar, Nahan, Himachal Pradesh 173001, India",https://www.google.co.kr/maps/place/Sirmour+Gym+House/data=!4m5!3m4!1s0x390f0c0e4b5c35c5:0xa3baccd2b146b2bc!8m2!3d30.5600229!4d77.2962105?authuser=0&hl=en&rclk=1,30.5600229,77.2962105,Goa
RP FITNESS CENTRE,Gym,"Villlage sanahan PO AG shimla 171003 Pagog, Himachal Pradesh 171003, India",https://www.google.co.kr/maps/place/RP+FITNESS+CENTRE/data=!4m5!3m4!1s0x3905795e82e1b93b:0xdc1eb20ce0631767!8m2!3d31.1187566!4d77.17229?authuser=0&hl=en&rclk=1,31.118756599999998,77.17229,Goa
fitness gym,Gym,"Chunahan PlayGround, Chunahan, Salwahan, Himachal Pradesh 175027, India",https://www.google.co.kr/maps/place/fitness+gym/data=!4m5!3m4!1s0x39051bbbba555555:0xf8a618f43c1026b8!8m2!3d31.5624257!4d76.9490025?authuser=0&hl=en&rclk=1,31.5624257,76.9490025,Goa
Diamond Gym,Gym,"Nangal Rd, Professor Colony, Una, Himachal Pradesh 174303, India",https://www.google.co.kr/maps/place/Diamond+Gym/data=!4m5!3m4!1s0x391ad06e120abccd:0x67dd633d6b929800!8m2!3d31.4609592!4d76.2840793?authuser=0&hl=en&rclk=1,31.4609592,76.28407929999999,Goa
The Fitness Connection,Gym,"Ram Nagar, Mant Khas, Himachal Pradesh 176215, India",https://www.google.co.kr/maps/place/The+Fitness+Connection/data=!4m5!3m4!1s0x391b5171492987d1:0xa51c48c5d9878396!8m2!3d32.2176605!4d76.3209667?authuser=0&hl=en&rclk=1,32.2176605,76.3209667,Goa
Ozal fitness academy,Fitness center,"Balduhak Rd, near G S S School, Balduhak, Himachal Pradesh 177048, India",https://www.google.co.kr/maps/place/Ozal+fitness+academy/data=!4m5!3m4!1s0x391b2dd04e26f267:0xcf8b1b20f26843c5!8m2!3d31.7575163!4d76.4476288?authuser=0&hl=en&rclk=1,31.7575163,76.44762879999998,Goa
Jalpa Gym,Gym,"HX8X+9W5, Chail-Chowk, Himachal Pradesh 175028, India",https://www.google.co.kr/maps/place/Jalpa+Gym/data=!4m5!3m4!1s0x39051b306ee0b4d9:0xd2a5c032366809d9!8m2!3d31.565898!4d76.9998519?authuser=0&hl=en&rclk=1,31.565897999999997,76.99985190000002,Goa
Lavi Fitness Center and Gym,Gym,"447, Airport Rd, Vijay Nagar, Airport Rd, Vijay Nagar, Totu, Shimla, Himachal Pradesh 171011, India",https://www.google.co.kr/maps/place/Lavi+Fitness+Center+and+Gym/data=!4m5!3m4!1s0x3905796bc0934773:0x74a9ff90df3e5119!8m2!3d31.0969577!4d77.1211042?authuser=0&hl=en&rclk=1,31.096957699999997,77.1211042,Goa
Fitness point,Gym,"Joginder Nagar - Sarkaghat - Ghumarwin, Jhalwan, Himachal Pradesh 175015, India",https://www.google.co.kr/maps/place/Fitness+point/data=!4m5!3m4!1s0x3904c1b22b09edf5:0xd1d1e21156e07ff0!8m2!3d31.982481!4d76.787701?authuser=0&hl=en&rclk=1,31.982481,76.787701,Goa
Purewal Gym,Gym,"Ward no 2 Soud, VPO, Samoor Kalan-I, Himachal Pradesh 174303, India",https://www.google.co.kr/maps/place/Purewal+Gym/data=!4m5!3m4!1s0x391ad1ebe0e05a27:0xe7a04c8d282e695!8m2!3d31.5084599!4d76.2945181?authuser=0&hl=en&rclk=1,31.5084599,76.2945181,Goa
Next Step Fitness,Gym,"opposite rishi Hp,Near Bus Stand, Himachal Pradesh, India",https://www.google.co.kr/maps/place/Next+Step+Fitness/data=!4m5!3m4!1s0x3904e23fbef827c9:0xee1118f84c5644a0!8m2!3d31.705106!4d76.9396254?authuser=0&hl=en&rclk=1,31.705106,76.93962540000003,Goa
Hadimba Fitness Gym,Gym,"Hadimba Motors Building, Gurudwara Rd, Siyal, Manali, Himachal Pradesh 175131, India",https://www.google.co.kr/maps/place/Hadimba+Fitness+Gym/data=!4m5!3m4!1s0x39048750982d5257:0x422c3ad93b381626!8m2!3d32.2462215!4d77.1875007?authuser=0&hl=en&rclk=1,32.246221500000004,77.1875007,Goa
peak Fitness Gym,Gym,"Samlana - Mutlahr - Jawali Rd, Mutlahr, Himachal Pradesh 176023, India",https://www.google.co.kr/maps/place/peak+Fitness+Gym/data=!4m5!3m4!1s0x391b65e15c5ab513:0x7a48210dfae6ac52!8m2!3d32.1315483!4d75.98818?authuser=0&hl=en&rclk=1,32.1315483,75.98818,Goa
FitnessWorld,Gym,"Manali-Chandigarh Rd, Ner Chowk, Himachal Pradesh 175008, India",https://www.google.co.kr/maps/place/FitnessWorld/data=!4m5!3m4!1s0x39051f2c3dc1c35f:0x4b139ccfc8a70b16!8m2!3d31.6074027!4d76.9129889?authuser=0&hl=en&rclk=1,31.6074027,76.9129889,Goa
FIT MUSCLES GYM,Gym,"#GROUND FLOOR, SIDDHI VINAYAK APARTMENT, below PETROL PUMP, Vikasnagar, Shimla, Himachal Pradesh 171009, India",https://www.google.co.kr/maps/place/FIT+MUSCLES+GYM/data=!4m5!3m4!1s0x390579bf2231bef9:0x4bd4d8f223622498!8m2!3d31.0841645!4d77.1787113?authuser=0&hl=en&rclk=1,31.084164500000004,77.1787113,Goa
SHIVAM GYM,Gym,"R697+WC5, Pragpur, Himachal Pradesh 177107, India",https://www.google.co.kr/maps/place/SHIVAM+GYM/data=!4m5!3m4!1s0x391b3b058f1ff089:0x82ffc042e6c2a983!8m2!3d31.8197512!4d76.2136022?authuser=0&hl=en&rclk=1,31.8197512,76.2136022,Goa
Pulse GYM Fitness Center,Gym,"H.Ho 13, Roura Sector 2, Bilaspur, Himachal Pradesh 174001, India",https://www.google.co.kr/maps/place/Pulse+GYM+Fitness+Center/data=!4m5!3m4!1s0x39053f1f152405ef:0xa40ee96a47f31378!8m2!3d31.3461108!4d76.7587427?authuser=0&hl=en&rclk=1,31.3461108,76.7587427,Goa
Ethereal GYM,Gym,"SH 39, near BSNL Exchange, Pratap Nagar, Hamirpur, Himachal Pradesh 177001, India",https://www.google.co.kr/maps/place/Ethereal+GYM/data=!4m5!3m4!1s0x3904d5111b85b777:0xb0cd2f87ecaf2e52!8m2!3d31.6920746!4d76.5186147?authuser=0&hl=en&rclk=1,31.692074600000005,76.5186147,Goa
Unique Fitness Center,Gym,"176048, Jahu Inner Market Rd, Jahu, Himachal Pradesh 176048, India",https://www.google.co.kr/maps/place/Unique+Fitness+Center/data=!4m5!3m4!1s0x390526b54042fdbd:0x14a52a097115e69e!8m2!3d31.5885719!4d76.7232213?authuser=0&hl=en&rclk=1,31.588571899999998,76.7232213,Goa
Fitness center,Fitness center,"Nahan road moginand, Nahan, Himachal Pradesh 173030, India",https://www.google.co.kr/maps/place/Fitness+center/data=!4m5!3m4!1s0x390f9d9c43862f1f:0x3668a44c4d7379a9!8m2!3d30.7235875!4d77.1847701?authuser=0&hl=en&rclk=1,30.7235875,77.1847701,Goa
M.A.D Unisex Gym & Fitness Center,Physical fitness program,"Ground Kay kay house Lorita Convent School, Kaithu Rd, Upper Kaithu, Shimla, Himachal Pradesh 171003, India",https://www.google.co.kr/maps/place/M.A.D+Unisex+Gym+%26+Fitness+Center/data=!4m5!3m4!1s0x390578f1c1ba381b:0x6c6b99f163f48a2a!8m2!3d31.109768!4d77.164216?authuser=0&hl=en&rclk=1,31.109768,77.16421600000002,Goa
Gym,Gym,"447W+WV5, Patlikuhal, Himachal Pradesh 175129, India",https://www.google.co.kr/maps/place/Gym/data=!4m5!3m4!1s0x39048bad3e50aebb:0x8f371fe04f7fc859!8m2!3d32.1147724!4d77.1472339?authuser=0&hl=en&rclk=1,32.1147724,77.1472339,Goa
HOC GYM,Gym,"ward no 9 daira shop no. 25d NH, Himachal Pradesh 174001, India",https://www.google.co.kr/maps/place/HOC+GYM/data=!4m5!3m4!1s0x390527efc4e62a3b:0x431882bb56ef3410!8m2!3d31.5726689!4d76.724477?authuser=0&hl=en&rclk=1,31.5726689,76.72447700000002,Goa
puri fitness world,Fitness center,"Hiranagar, Himachal Pradesh 177001, India",https://www.google.co.kr/maps/place/puri+fitness+world/data=!4m5!3m4!1s0x3904d445332cf091:0x55a78ff4ce039761!8m2!3d31.6937645!4d76.5123312?authuser=0&hl=en&rclk=1,31.6937645,76.5123312,Goa
Minhas Fitness Centre,Gym,"Dehra Rd, Dehra Gopipur, Himachal Pradesh 177101, India",https://www.google.co.kr/maps/place/Minhas+Fitness+Centre/data=!4m5!3m4!1s0x391b397a8489ed0d:0xaf38f74d70024da9!8m2!3d31.8828759!4d76.2154965?authuser=0&hl=en&rclk=1,31.882875899999995,76.2154965,Goa
Warrior gym 2.0,Gym,"IGMC Rd, Lakkar Bazar, Shimla, Himachal Pradesh 171001, India",https://www.google.co.kr/maps/place/Warrior+gym+2.0/data=!4m5!3m4!1s0x390579155fd8e3fb:0x8b395eb38c6f5db9!8m2!3d31.1062564!4d77.1813707?authuser=0&hl=en&rclk=1,31.106256400000003,77.1813707,Goa
The arnold gym,Muay Thai boxing gym,"J53P+8X6, Una, Himachal Pradesh 174314, India",https://www.google.co.kr/maps/place/The+arnold+gym/data=!4m5!3m4!1s0x391b270e9145e259:0xf5b53f25d173951d!8m2!3d31.6032882!4d76.1873971?authuser=0&hl=en&rclk=1,31.603288199999998,76.18739709999998,Goa
True Fitness Gym Bhawarna,Gym,"2FXX+2R4, Dhakrehr, Himachal Pradesh 176083, India",https://www.google.co.kr/maps/place/True+Fitness+Gym+Bhawarna/data=!4m5!3m4!1s0x3904b4f9d291218f:0xed4cd0582d25ec59!8m2!3d32.0475052!4d76.4995649?authuser=0&hl=en&rclk=1,32.047505199999996,76.49956490000002,Goa
Muscles Hub,Gym,"Number 11, Rajgarh Rd, Kotla Nala, Solan, Himachal Pradesh 173212, India",https://www.google.co.kr/maps/place/Muscles+Hub/data=!4m5!3m4!1s0x390f814c113f1da7:0x9078e8972981d6c!8m2!3d30.9045231!4d77.1074232?authuser=0&hl=en&rclk=1,30.904523100000002,77.10742320000001,Goa
S.S.Fitness GYM,Gym,"Shubham Complex, Meheli, Shimla, Himachal Pradesh 171013, India",https://www.google.co.kr/maps/place/S.S.Fitness+GYM/data=!4m5!3m4!1s0x39057fd2b4b73ee7:0xa6c250b4c0054302!8m2!3d31.0670814!4d77.1936579?authuser=0&hl=en&rclk=1,31.06708140000001,77.1936579,Goa
Paul's BodyFuel Fitness Gym,Gym,"474F+CRP, New Kangra, Kangra, Himachal Pradesh 176001, India",https://www.google.co.kr/maps/place/Paul's+BodyFuel+Fitness+Gym/data=!4m5!3m4!1s0x391b4f81231151b5:0xd21894769c3e2dcd!8m2!3d32.1060808!4d76.2745883?authuser=0&hl=en&rclk=1,32.1060808,76.27458829999998,Goa
Generation Iron,Gym,"Sanjauli Engine Ghar Rd, Engine Ghar, Sanjauli, Shimla, Himachal Pradesh 171006, India",https://www.google.co.kr/maps/place/Generation+Iron/data=!4m5!3m4!1s0x3905789f0753b36b:0xf7d4f771572845fa!8m2!3d31.1025298!4d77.1916164?authuser=0&hl=en&rclk=1,31.1025298,77.19161640000002,Goa
Power Booster Gym,Gym,"JMXV+VPX, Hamirpur, Himachal Pradesh 177024, India",https://www.google.co.kr/maps/place/Power+Booster+Gym/data=!4m5!3m4!1s0x3905277bf5de7efb:0x4c0084bca06a3c57!8m2!3d31.6497263!4d76.6943526?authuser=0&hl=en&rclk=1,31.649726300000005,76.6943526,Goa
Total fitness gym,Gym,"near honda agency, Upper Nihal, Bilaspur, Himachal Pradesh 174001, India",https://www.google.co.kr/maps/place/Total+fitness+gym/data=!4m5!3m4!1s0x39053fa7c93c8e85:0x895dcf0f18dfd9dc!8m2!3d31.3434006!4d76.7627104?authuser=0&hl=en&rclk=1,31.3434006,76.7627104,Goa
The Dumbbell Gym,Gym,"Auhar Rd, Bhager, Himachal Pradesh 174024, India",https://www.google.co.kr/maps/place/The+Dumbbell+Gym/data=!4m5!3m4!1s0x39053b0c046ffe49:0x4b6249ba5e620c12!8m2!3d31.3964099!4d76.7305628?authuser=0&hl=en&rclk=1,31.3964099,76.7305628,Goa
JUIT Gym,Gym,"Solan, Himachal Pradesh 173221, India",https://www.google.co.kr/maps/place/JUIT+Gym/data=!4m5!3m4!1s0x39057d6357ef91ed:0x840df19e25681c0f!8m2!3d31.0161338!4d77.0701355?authuser=0&hl=en&rclk=1,31.0161338,77.07013549999998,Goa
Friends Gym & Cardio,Gym,"2PG7+CG9, Nalagarh, Himachal Pradesh 174102, India",https://www.google.co.kr/maps/place/Friends+Gym+%26+Cardio/data=!4m5!3m4!1s0x390559abf2ae0e87:0x556bd1b1c06b8371!8m2!3d31.0260296!4d76.7138657?authuser=0&hl=en&rclk=1,31.026029600000005,76.7138657,Goa
Gym 29,Gym,"Unnamed Road, Aweri, Himachal Pradesh 176081, India",https://www.google.co.kr/maps/place/Gym+29/data=!4m5!3m4!1s0x3904b7123c5b33af:0x580e772449fe3e85!8m2!3d32.0655746!4d76.6055601?authuser=0&hl=en&rclk=1,32.065574600000005,76.60556009999998,Goa
Royal gym,Gym,"near rotary chowk (baddi, Baddi, Himachal Pradesh 173205, India",https://www.google.co.kr/maps/place/Royal+gym/data=!4m5!3m4!1s0x390ff5415ab2bd59:0x2723f29b6ef9c6b7!8m2!3d30.9337046!4d76.7998758?authuser=0&hl=en&rclk=1,30.933704600000002,76.7998758,Goa
SINGH FITNESS,Fitness center,"NH 21 Highway, Kullu - Naggar - Manali Rd, Patlikuhal, Himachal Pradesh 175129, India",https://www.google.co.kr/maps/place/SINGH+FITNESS/data=!4m5!3m4!1s0x39048b2df7b68301:0x289161f0bd33b2cc!8m2!3d32.1152824!4d77.1490107?authuser=0&hl=en&rclk=1,32.1152824,77.1490107,Goa
RS Gym Ladraur,Gymnasium Cz,"RS Gym P.O. Ladraur Distt. Hamirpur, Teh. Bhoranj First Floor - Above Punjab National Bank, near Hindustan Petrol Pump, Ladraur, Himachal Pradesh 176043, India",https://www.google.co.kr/maps/place/RS+Gym+Ladraur/data=!4m5!3m4!1s0x390529e4110b3891:0xbc8f21ab71694a8!8m2!3d31.5837032!4d76.6379532?authuser=0&hl=en&rclk=1,31.583703200000002,76.6379532,Goa
Anuraj,Gym,"kharoni, New Nalagarh, Himachal Pradesh 174101, India",https://www.google.co.kr/maps/place/Anuraj/data=!4m5!3m4!1s0x39055bc3436411ef:0x56a02b5829b89b65!8m2!3d31.0400809!4d76.7055371?authuser=0&hl=en&rclk=1,31.0400809,76.70553709999999,Goa
BANSAL GYM PANJEHRA,Gym,"4MP9+JC2, Panjehra, Himachal Pradesh 174101, India",https://www.google.co.kr/maps/place/BANSAL+GYM+PANJEHRA/data=!4m5!3m4!1s0x3905455ebe4889dd:0x6035ee6c088c6455!8m2!3d31.1365224!4d76.6685118?authuser=0&hl=en&rclk=1,31.1365224,76.6685118,Goa
Valhalla Fitness Studio,Gym,"Sood Building, 1st floor, Kotla Nala, Solan, Himachal Pradesh 173212, India",https://www.google.co.kr/maps/place/Valhalla+Fitness+Studio/data=!4m5!3m4!1s0x390f81e313cc725b:0xafbba81232d5f82!8m2!3d30.9054914!4d77.1075492?authuser=0&hl=en&rclk=1,30.9054914,77.10754920000002,Goa
Gesundheit Gym,Gym,"Khem Thakur Niwas, 9, Mashobra - Moolkoti Rd, Kasumpti, Mashobra, Himachal Pradesh 171007, India",https://www.google.co.kr/maps/place/Gesundheit+Gym/data=!4m5!3m4!1s0x390582f819650f1b:0x6a153d9478e9d58!8m2!3d31.1275105!4d77.229504?authuser=0&hl=en&rclk=1,31.1275105,77.229504,Goa
Muscle Hub,Fitness center,"W424+X66, Kotla Nala, Solan, Himachal Pradesh 173212, India",https://www.google.co.kr/maps/place/Muscle+Hub/data=!4m5!3m4!1s0x390f814daafadc95:0xfb888f814c9f58cc!8m2!3d30.9024137!4d77.1055123?authuser=0&hl=en&rclk=1,30.9024137,77.1055123,Goa
Avaso fitness and Boxing,Gym,"Himachal Pradesh 175036, India",https://www.google.co.kr/maps/place/Avaso+fitness+and+Boxing/data=!4m5!3m4!1s0x390519ee30ed6c5f:0xd140a82cccdb3ce9!8m2!3d31.5550571!4d76.8690783?authuser=0&hl=en&rclk=1,31.5550571,76.8690783,Goa
The GYM,Gym,"XFC9+9P2, Marhun Buhli, Himachal Pradesh 176093, India",https://www.google.co.kr/maps/place/The+GYM/data=!4m5!3m4!1s0x3904cbca6b22c953:0xe67ea9ee2cf4a2d6!8m2!3d31.9708841!4d76.4692573?authuser=0&hl=en&rclk=1,31.97088410000001,76.4692573,Goa
Power gym - Barmana,Gym,"Vill. Khater, Barmana, Himachal Pradesh 174001, India",https://www.google.co.kr/maps/place/Power+gym+-+Barmana/data=!4m5!3m4!1s0x390517c777fff949:0xe96cd4c167c30e81!8m2!3d31.4114577!4d76.8279917?authuser=0&hl=en&rclk=1,31.4114577,76.8279917,Goa
Gym,Gym,"Chhahar, Solan, NH-22, Ambala, Shimla Kaurik Road, Dharampur, Himachal Pradesh 173209, India",https://www.google.co.kr/maps/place/Gym/data=!4m5!3m4!1s0x390f878eb040debb:0x839e2d13c70ed204!8m2!3d30.8971653!4d77.0152362?authuser=0&hl=en&rclk=1,30.897165299999998,77.0152362,Goa
The Gym,Gym,"Rabon Rd, Deoghat, Solan, Himachal Pradesh 173211, India",https://www.google.co.kr/maps/place/The+Gym/data=!4m5!3m4!1s0x390f87d63f4882e7:0xd6eb3571536d8b7f!8m2!3d30.9015472!4d77.0914621?authuser=0&hl=en&rclk=1,30.9015472,77.09146209999999,Goa
RR Fitness Center,Gym,"RR fitness centre, Apple Garden, near SSB training centre, Kasumpti, Shimla, Himachal Pradesh 171009, India",https://www.google.co.kr/maps/place/RR+Fitness+Center/data=!4m5!3m4!1s0x39057f98090c4183:0xf09647caeaa62025!8m2!3d31.0715773!4d77.191024?authuser=0&hl=en&rclk=1,31.071577299999998,77.191024,Goa
Multi Gym Zone,Gym,"Near Lift, Mall Rd, Shimla, Himachal Pradesh 171001, India",https://www.google.co.kr/maps/place/Multi+Gym+Zone/data=!4m5!3m4!1s0x3905789426311c53:0x80705a01c3563563!8m2!3d31.102195!4d77.177061?authuser=0&hl=en&rclk=1,31.102195000000002,77.177061,Goa
Fitness On Fire Gym,Gym,"Baddi, Himachal Pradesh 173205, India",https://www.google.co.kr/maps/place/Fitness+On+Fire+Gym/data=!4m5!3m4!1s0x39055fae4a56e82d:0xdf1c99a662101e0e!8m2!3d30.9702876!4d76.8028933?authuser=0&hl=en&rclk=1,30.9702876,76.8028933,Goa
Raghav Gymnasium,Gym,"Opp Allahabad Bank Birta Dharamshala Road, kangra (H.P.), Kangra, Himachal Pradesh 176001, India",https://www.google.co.kr/maps/place/Raghav+Gymnasium/data=!4m5!3m4!1s0x391b4f8433e32c25:0x81900e30bac15a8a!8m2!3d32.1100439!4d76.2779074?authuser=0&hl=en&rclk=1,32.1100439,76.2779074,Goa
Gym,Gym,"Kahra Rd, Kamand Campus, Suran, Himachal Pradesh 175005, India",https://www.google.co.kr/maps/place/Gym/data=!4m5!3m4!1s0x3904e3614741fb93:0xfbce4d964eff3ce7!8m2!3d31.7705434!4d76.9829584?authuser=0&hl=en&rclk=1,31.7705434,76.9829584,Goa
Nirog Kaya Fitness Centre and Gym,Gym,"J3XF+7MX, Una, Himachal Pradesh 177201, India",https://www.google.co.kr/maps/place/Nirog+Kaya+Fitness+Centre+and+Gym/data=!4m5!3m4!1s0x391b1f658bbb43cf:0x2be0e3585d13926b!8m2!3d31.6482426!4d76.0742451?authuser=0&hl=en&rclk=1,31.648242600000003,76.07424509999998,Goa
Mahi fitness Gym,Gym,"WRP2+848, Baddi, Himachal Pradesh 173205, India",https://www.google.co.kr/maps/place/Mahi+fitness+Gym/data=!4m5!3m4!1s0x390ff588846c73c9:0xe67bdc861b69b391!8m2!3d30.9357771!4d76.8003165?authuser=0&hl=en&rclk=1,30.9357771,76.80031650000002,Goa
THE FITNESS LAB,Gym,"Naya Bazar Rd, BBMB Colony, Sundar Nagar, Himachal Pradesh 175019, India",https://www.google.co.kr/maps/place/THE+FITNESS+LAB/data=!4m5!3m4!1s0x3905199018aeb08f:0xd1664bf2fda5e51c!8m2!3d31.5324206!4d76.9033906?authuser=0&hl=en&rclk=1,31.532420600000002,76.9033906,Goa
Morsu Gym,Gym,"Bus Stop, Shimla-Kangra Rd, Jamna, Himachal Pradesh 176041, India",https://www.google.co.kr/maps/place/Morsu+Gym/data=!4m5!3m4!1s0x39052968b2f28c9f:0xe358fe731cb03b0f!8m2!3d31.6167223!4d76.5641049?authuser=0&hl=en&rclk=1,31.6167223,76.56410490000002,Goa
Gym Kotkhai,Gym,"Bus Stand Kki, Shimla, Himachal Pradesh 171202, India",https://www.google.co.kr/maps/place/Gym+Kotkhai/data=!4m5!3m4!1s0x39058daf066b5d0f:0x4e81e2e2fad5a8ea!8m2!3d31.11573!4d77.5412488?authuser=0&hl=en&rclk=1,31.11573,77.5412488,Goa
THE FITNESS WORLD (Gym),Gym,"Upper Malyana, Malyana, Shimla, Himachal Pradesh 171006, India",https://www.google.co.kr/maps/place/THE+FITNESS+WORLD+(Gym)/data=!4m5!3m4!1s0x390579ecaba783c9:0x59237de94ec918a1!8m2!3d31.0865495!4d77.1890065?authuser=0&hl=en&rclk=1,31.0865495,77.18900649999998,Goa
Deepu Gym,Gym,"Kawgri, Solan, Himachal Pradesh 173212, India",https://www.google.co.kr/maps/place/Deepu+Gym/data=!4m5!3m4!1s0x390f814601efcae9:0x3eda9bcabf05e6e!8m2!3d30.8916501!4d77.1051407?authuser=0&hl=en&rclk=1,30.8916501,77.1051407,Goa
Rimsha Fitness World,Fitness center,"Akhara Bazaar, opp. J&K Bank, Kullu, Himachal Pradesh 175101, India",https://www.google.co.kr/maps/place/Rimsha+Fitness+World/data=!4m5!3m4!1s0x3904f6a649a67d95:0x10ed3827bb05a82f!8m2!3d31.964769!4d77.1157011?authuser=0&hl=en&rclk=1,31.964769,77.1157011,Goa
Muscle gym,Gymnasium Cz,"boys school, Near, Auckland Bridge, Housing Board Colony, Lakkar Bazar, Shimla, Himachal Pradesh 171001, India",https://www.google.co.kr/maps/place/Muscle+gym/data=!4m5!3m4!1s0x390582750a78d64b:0xaa4ba7ebda73d480!8m2!3d31.1033436!4d77.1961664?authuser=0&hl=en&rclk=1,31.1033436,77.19616640000002,Goa
Daily Gym,Gym,"Shimla Bypass, Panthaghati, Shimla, Himachal Pradesh 171009, India",https://www.google.co.kr/maps/place/Daily+Gym/data=!4m5!3m4!1s0x39057f4e70348779:0xadeaf0446b31ed8b!8m2!3d31.070154!4d77.1810726?authuser=0&hl=en&rclk=1,31.070154,77.1810726,Goa
Mandi Vallabh Gym,Gym,"National Highway 21, Paddal, Kartarpur, Mandi, Himachal Pradesh 175001, India",https://www.google.co.kr/maps/place/Mandi+Vallabh+Gym/data=!4m5!3m4!1s0x3904e23e98860b73:0x3600931a5bef7bbe!8m2!3d31.7072904!4d76.9360086?authuser=0&hl=en&rclk=1,31.707290399999998,76.9360086,Goa
Gym 13 Jeori,Gym,"GQGF+8GH, Jeori, Himachal Pradesh 172101, India",https://www.google.co.kr/maps/place/Gym+13+Jeori/data=!4m5!3m4!1s0x3905db112b4597fb:0x55f26922e465f501!8m2!3d31.5258076!4d77.7738664?authuser=0&hl=en&rclk=1,31.5258076,77.77386640000002,Goa
World Power Gym,Gym,"LIC Building Ground Floor, near ACC Park, Rohru, Himachal Pradesh 171207, India",https://www.google.co.kr/maps/place/World+Power+Gym/data=!4m5!3m4!1s0x3905fa9feece6eef:0x8c59b6745b1db9a2!8m2!3d31.1988115!4d77.7449824?authuser=0&hl=en&rclk=1,31.198811499999998,77.7449824,Goa
Shapers & Builders Gym,Gym,"Dargah, Kalka - Shimla Rd, Ghora Chowki, Shimla, Himachal Pradesh 171005, India",https://www.google.co.kr/maps/place/Shapers+%26+Builders+Gym/data=!4m5!3m4!1s0x3905791876aaaaab:0x52722220231d0ab4!8m2!3d31.0922202!4d77.1397845?authuser=0&hl=en&rclk=1,31.0922202,77.13978449999998,Goa
Rana TheViper Fitness,Gym,"Chaklot Road, Poshana, Himachal Pradesh 172001, India",https://www.google.co.kr/maps/place/Rana+TheViper+Fitness/data=!4m5!3m4!1s0x3905c12a96902399:0x54262f7c03d436f!8m2!3d31.4485859!4d77.6116752?authuser=0&hl=en&rclk=1,31.4485859,77.6116752,Goa
Mehta Fitness Centre,Gym,"Doordarshan TV Tower, Forest Road, Kotla Nala, Solan, Himachal Pradesh 173212, India",https://www.google.co.kr/maps/place/Mehta+Fitness+Centre/data=!4m5!3m4!1s0x390f81d2aa647257:0x4c82238c602fbe65!8m2!3d30.9052037!4d77.1128694?authuser=0&hl=en&rclk=1,30.9052037,77.11286940000002,Goa
The Fitness Gym,Gym,"Mohalla, Upper Jalukari, Chamba, Himachal Pradesh 176318, India",https://www.google.co.kr/maps/place/The+Fitness+Gym/data=!4m5!3m4!1s0x391cbd32f1ecfcd5:0xe8c1e630e727fe2c!8m2!3d32.549368!4d76.1323642?authuser=0&hl=en&rclk=1,32.549368,76.1323642,Goa
kanwar gym,Gym,"35Q9+637, Khalini, Shimla, Himachal Pradesh 171002, India",https://www.google.co.kr/maps/place/kanwar+gym/data=!4m5!3m4!1s0x390578c646942847:0xccf0d75ea2a3df82!8m2!3d31.0880443!4d77.1676807?authuser=0&hl=en&rclk=1,31.088044300000004,77.1676807,Goa
The Pump Factory Gym,Gym,"4FCQ+R9P, Pragati Nagar, Gumma, Himachal Pradesh 171202, India",https://www.google.co.kr/maps/place/The+Pump+Factory+Gym/data=!4m5!3m4!1s0x39058d918f7d2f5f:0xf249aedce823ef29!8m2!3d31.122078!4d77.4884542?authuser=0&hl=en&rclk=1,31.122078000000002,77.4884542,Goa
24 Health Fitness Center,Gym,"Sundar Bagh Colony, Nahan, Himachal Pradesh 173001, India",https://www.google.co.kr/maps/place/24+Health+Fitness+Center/data=!4m5!3m4!1s0x390f0c0eadd10875:0x4edc4ee7cc70a0eb!8m2!3d30.561855!4d77.292559?authuser=0&hl=en&rclk=1,30.561854999999998,77.292559,Goa
Devils & Angels-The gym,Fitness center,"Butter Mere estate, Summer Hill, Shimla, Himachal Pradesh 171005, India",https://www.google.co.kr/maps/place/Devils+%26+Angels-The+gym/data=!4m5!3m4!1s0x3905797fd4583c79:0x8f4853ef505737a3!8m2!3d31.1105932!4d77.1382061?authuser=0&hl=en&rclk=1,31.110593199999997,77.1382061,Goa
Pulse GYM,Gym,"4 NH 88 main chowk, Totu, Shimla, Himachal Pradesh 171011, India",https://www.google.co.kr/maps/place/Pulse+GYM/data=!4m5!3m4!1s0x3905796dced5d75f:0xf549d033e245e566!8m2!3d31.101909!4d77.1208095?authuser=0&hl=en&rclk=1,31.10190900000001,77.1208095,Goa
Synergy Fitness Gym,Gym,"Lavighat, Solan, Himachal Pradesh 173211, India",https://www.google.co.kr/maps/place/Synergy+Fitness+Gym/data=!4m5!3m4!1s0x390f8742a7b604ab:0x53ba16d3a5ca98c4!8m2!3d30.9185726!4d77.0731519?authuser=0&hl=en&rclk=1,30.9185726,77.07315190000001,Goa
Bogyline Gym Gokak,Gym,"Old Bus Stand Rd, Shilli, Shimla, Himachal Pradesh 171001, India",https://www.google.co.kr/maps/place/Bogyline+Gym+Gokak/data=!4m5!3m4!1s0x390578ee9e8ee3bb:0x7646a2d79148f84e!8m2!3d31.1048239!4d77.1655675?authuser=0&hl=en&rclk=1,31.1048239,77.16556750000002,Goa
Nine fitness,Gym,"Sanket heights 1st floor, near apple mandi, Bhattakufer, Shimla, Himachal Pradesh 171006, India",https://www.google.co.kr/maps/place/Nine+fitness/data=!4m5!3m4!1s0x3905833c8772e9dd:0x148c397148017153!8m2!3d31.0978271!4d77.2083869?authuser=0&hl=en&rclk=1,31.0978271,77.20838690000002,Goa
gym,Gym,"Bhareri Maira Badehar Rd, Himachal Pradesh 177024, India",https://www.google.co.kr/maps/place/gym/data=!4m5!3m4!1s0x390527da1c7b7d17:0x73c9bb703ed1ab78!8m2!3d31.649813!4d76.693909?authuser=0&hl=en&rclk=1,31.649813,76.69390899999998,Goa
Ultimate gym,Gym,"MDR6, Subathu, Himachal Pradesh 173206, India",https://www.google.co.kr/maps/place/Ultimate+gym/data=!4m5!3m4!1s0x390563336b624cfb:0x6932cbbef706120d!8m2!3d30.9726196!4d76.9948687?authuser=0&hl=en&rclk=1,30.972619599999998,76.9948687,Goa
Kingfit gym,Gym,"GVCP+Q8H, Sundar Nagar, Himachal Pradesh 175019, India",https://www.google.co.kr/maps/place/Kingfit+gym/data=!4m5!3m4!1s0x390519501de468df:0x2e4e979056e775ec!8m2!3d31.5219442!4d76.8858607?authuser=0&hl=en&rclk=1,31.521944199999997,76.88586070000002,Goa
Reyaansh's Ripped House,Gym,"Una - Jahu - Ner Chowk Rd, Bangana, Himachal Pradesh 174307, India",https://www.google.co.kr/maps/place/Reyaansh's+Ripped+House/data=!4m5!3m4!1s0x391b29739a27b981:0x26fe4477196f2fcf!8m2!3d31.6254804!4d76.3488987?authuser=0&hl=en&rclk=1,31.6254804,76.3488987,Goa
"Beast Gym, Khera",Gym,"khera, Himachal Guest House Rajpura Bypass VPO, Nalagarh, Himachal Pradesh 174101, India","https://www.google.co.kr/maps/place/Beast+Gym,+Khera/data=!4m5!3m4!1s0x390559dfd94536a9:0x98c5c39f8a1aa88c!8m2!3d31.0166145!4d76.7183742?authuser=0&hl=en&rclk=1",31.01661450000001,76.71837420000001,Goa
Monty Gym,Fitness center,"P2V4+RH4, Nangal Jarialan, Amboa, Himachal Pradesh 144209, India",https://www.google.co.kr/maps/place/Monty+Gym/data=!4m5!3m4!1s0x391b199135faf521:0xe7759c862cc83a77!8m2!3d31.7445128!4d76.0064465?authuser=0&hl=en&rclk=1,31.74451280000001,76.0064465,Goa
PHYSIQUE ARCHITECT ( BEST GYM IN THE MOUNTAINS),Gym,"72, Post office, 3, Jail Rd, Palace Colony, Mandi, Himachal Pradesh 175001, India",https://www.google.co.kr/maps/place/PHYSIQUE+ARCHITECT+(+BEST+GYM+IN+THE+MOUNTAINS)/data=!4m5!3m4!1s0x3904e327ce880727:0xf73ca8492d31765e!8m2!3d31.7057418!4d76.9279436?authuser=0&hl=en&rclk=1,31.705741800000002,76.92794359999998,Goa
ARMOR FITNESS,Gym,"Swanal Garden, Phagli, Shimla, Himachal Pradesh 171003, India",https://www.google.co.kr/maps/place/ARMOR+FITNESS/data=!4m5!3m4!1s0x390579f96c5d3f65:0xe2aae135043dfeba!8m2!3d31.0996569!4d77.1559728?authuser=0&hl=en&rclk=1,31.099656899999996,77.1559728,Goa
SAINJ RAM PUR KEONTHAL,Gym,"34J5+FXQ, Shimla, Himachal Pradesh 171011, India",https://www.google.co.kr/maps/place/SAINJ+RAM+PUR+KEONTHAL/data=!4m5!3m4!1s0x3905792d1a3fb709:0xeb8222a82bfd854c!8m2!3d31.0812186!4d77.1099784?authuser=0&hl=en&rclk=1,31.0812186,77.10997840000002,Goa
JMD GYM,Gym,"8WM5+WQ8, Bhareet, Himachal Pradesh 176202, India",https://www.google.co.kr/maps/place/JMD+GYM/data=!4m5!3m4!1s0x391c9d3de644f495:0x3f60c7d649cb4438!8m2!3d32.334777!4d75.9094376?authuser=0&hl=en&rclk=1,32.334777,75.90943759999998,Goa
Hard Core Gym Bhambla,Gym,"HPRJ+9MG, Lakhahu, Himachal Pradesh 175033, India",https://www.google.co.kr/maps/place/Hard+Core+Gym+Bhambla/data=!4m5!3m4!1s0x3905276b129fee39:0xe9b3e6f99bb52408!8m2!3d31.5909486!4d76.7317068?authuser=0&hl=en&rclk=1,31.590948600000004,76.7317068,Goa
R.S GYM,Gym,"Una - Jahu - Ner Chowk Rd, Ladraur, Himachal Pradesh 176043, India",https://www.google.co.kr/maps/place/R.S+GYM/data=!4m5!3m4!1s0x390529547bd8b9b7:0x8d48a3401608e8!8m2!3d31.5833921!4d76.6352019?authuser=0&hl=en&rclk=1,31.583392100000005,76.63520190000001,Goa
Parmar Gymnasium,Gym,"238F+G2W, Solan, Himachal Pradesh 173221, India",https://www.google.co.kr/maps/place/Parmar+Gymnasium/data=!4m5!3m4!1s0x39057daac2baf9a5:0x14b5edf5477ca9e!8m2!3d31.0163628!4d77.0725777?authuser=0&hl=en&rclk=1,31.016362800000003,77.0725777,Goa
the warriors factory gym,Muay Thai boxing gym,"Chowk Bazar, Lower Bazar, Ganj Bazar, Upper Bazar, Bajoral Khurd, Solan, Himachal Pradesh 173212, India",https://www.google.co.kr/maps/place/the+warriors+factory+gym/data=!4m5!3m4!1s0x390f810268fc791f:0x81866f0521983923!8m2!3d30.9090215!4d77.1061129?authuser=0&hl=en&rclk=1,30.9090215,77.10611290000001,Goa
Blur Star Gym,Gym,"9HVM+678, Duttnagar, Himachal Pradesh 172001, India",https://www.google.co.kr/maps/place/Blur+Star+Gym/data=!4m5!3m4!1s0x3905c145a763f29f:0x96dc8fa407b4da24!8m2!3d31.3930321!4d77.5832173?authuser=0&hl=en&rclk=1,31.3930321,77.5832173,Goa
CrossFit Gym,Gym,"Rama Cottage, Beside Civil Hospital Block-E, Palace Rd, near Narsingh Temple, Solan, Himachal Pradesh 173212, India",https://www.google.co.kr/maps/place/CrossFit+Gym/data=!4m5!3m4!1s0x390f814bd7523817:0x623b0c53c4019e02!8m2!3d30.90767!4d77.107873?authuser=0&hl=en&rclk=1,30.90767,77.107873,Goa
Astra,Gym,"456G+6J7, Shankli, Longwood, Shimla, Himachal Pradesh 171001, India",https://www.google.co.kr/maps/place/Astra/data=!4m5!3m4!1s0x3905794769d2c019:0x1f6d9e11affda23e!8m2!3d31.1105351!4d77.1765548?authuser=0&hl=en&rclk=1,31.110535100000003,77.17655479999998,Goa
The Fitness Journey of Pankaj,Physical fitness program,"Baddi -Barotiwala Rd, Jattimajra, Baddi, Himachal Pradesh 174103, India",https://www.google.co.kr/maps/place/The+Fitness+Journey+of+Pankaj/data=!4m5!3m4!1s0x390ff5471a07b607:0x8f938484e0b5c4b7!8m2!3d30.9281198!4d76.8105036?authuser=0&hl=en&rclk=1,30.928119800000005,76.81050359999998,Goa
X men gym,Fitness center,"Una, Himachal Pradesh 174303, India",https://www.google.co.kr/maps/place/X+men+gym/data=!4m5!3m4!1s0x391ad902e942ec63:0x7bcd0f403ed7e491!8m2!3d31.5304602!4d76.231051?authuser=0&hl=en&rclk=1,31.5304602,76.23105100000002,Goa
Muscle Garage,Gym,"opposite post office, Chauntra, Himachal Pradesh 175032, India",https://www.google.co.kr/maps/place/Muscle+Garage/data=!4m5!3m4!1s0x3904c7e7284c1de5:0x40339c4f40a3b030!8m2!3d32.0159705!4d76.7319153?authuser=0&hl=en&rclk=1,32.0159705,76.7319153,Goa
धारकोट फागू,Gym,"V82W+M4Q, Phagu, Himachal Pradesh 173101, India",https://www.google.co.kr/maps/place/%E0%A4%A7%E0%A4%BE%E0%A4%B0%E0%A4%95%E0%A5%8B%E0%A4%9F+%E0%A4%AB%E0%A4%BE%E0%A4%97%E0%A5%82/data=!4m5!3m4!1s0x390f7bfe6ef386f1:0xde9b8f72bec47c4f!8m2!3d30.851716!4d77.3453639?authuser=0&hl=en&rclk=1,30.851715999999996,77.34536390000002,Goa
The Muscle Empower Fitness gym,Fitness center,"CJRF+9WV, Brow, Himachal Pradesh 172001, India",https://www.google.co.kr/maps/place/The+Muscle+Empower+Fitness+gym/data=!4m5!3m4!1s0x3905c141f52f9b89:0x68d5a2312dcc92e!8m2!3d31.4409881!4d77.6247878?authuser=0&hl=en&rclk=1,31.4409881,77.62478780000002,Goa
Aryan Fitness Zone,Fitness center,"Thakur Vatika, near Hanumaan Mandir, Khalini, Shimla, Himachal Pradesh 171002, India",https://www.google.co.kr/maps/place/Aryan+Fitness+Zone/data=!4m5!3m4!1s0x390579aed4039af9:0x4224511e98d9b916!8m2!3d31.0843682!4d77.161458?authuser=0&hl=en&rclk=1,31.084368199999997,77.161458,Goa
Tiger Fitness Gym,Gym,"Swastik bhawan, near tower building, Vikasnagar, Shimla, Himachal Pradesh 171009, India",https://www.google.co.kr/maps/place/Tiger+Fitness+Gym/data=!4m5!3m4!1s0x3905797dd75c595b:0x49302c752719359a!8m2!3d31.0786236!4d77.1782503?authuser=0&hl=en&rclk=1,31.078623600000004,77.1782503,Goa
Fitness Zone,Gym,"Bus Stand, National Highway 22, Rajpur, Rampur Bushahr, Himachal Pradesh 172001, India",https://www.google.co.kr/maps/place/Fitness+Zone/data=!4m5!3m4!1s0x3905c1a834eea78b:0xfb2b50c80a90d7cb!8m2!3d31.4504175!4d77.6312439?authuser=0&hl=en&rclk=1,31.4504175,77.6312439,Goa
Navya Gym Centre,Gym,"Galog - Dhami Rd, Dhami, Himachal Pradesh 171103, India",https://www.google.co.kr/maps/place/Navya+Gym+Centre/data=!4m5!3m4!1s0x3905716a0b7f7ed9:0x7dab606db4e7ffec!8m2!3d31.1787651!4d77.0326322?authuser=0&hl=en&rclk=1,31.1787651,77.03263220000002,Goa
GYM 29,Gym,"Banuri, Himachal Pradesh 176062, India",https://www.google.co.kr/maps/place/GYM+29/data=!4m5!3m4!1s0x3904b186de215067:0x6b050cc4016e881e!8m2!3d32.0952687!4d76.5687059?authuser=0&hl=en&rclk=1,32.0952687,76.5687059,Goa
RR Gym,Gym,"Shimla Bypass, Panthaghati, Shimla, Himachal Pradesh 171009, India",https://www.google.co.kr/maps/place/RR+Gym/data=!4m5!3m4!1s0x39057f4e6d0a131b:0x6b3b2cd6925072f2!8m2!3d31.0701582!4d77.1814134?authuser=0&hl=en&rclk=1,31.070158199999998,77.18141340000003,Goa
Sharanya Fitness Plaza,Gym,"101, Bhagani - Sahib Rd, Main Bazar, Paonta Sahib, Himachal Pradesh 173025, India",https://www.google.co.kr/maps/place/Sharanya+Fitness+Plaza/data=!4m5!3m4!1s0x390f23a64a91a36d:0xd38eaee0fe803a53!8m2!3d30.438447!4d77.6207374?authuser=0&hl=en&rclk=1,30.438446999999996,77.62073740000002,Goa
Heavy Metal Fitness Gym,Gym,"Heavy Metal Fitness Gym, near Paragaon Hotel, Solan, Himachal Pradesh 173212, India",https://www.google.co.kr/maps/place/Heavy+Metal+Fitness+Gym/data=!4m5!3m4!1s0x390f8739480343b5:0x5bca329aa85dd5fe!8m2!3d30.905647!4d77.1082444?authuser=0&hl=en&rclk=1,30.905647,77.1082444,Goa
Step 2 Gym,Fitness center,"near Thakurdawara, R.F.Chanaur-I, Himachal Pradesh 177113, India",https://www.google.co.kr/maps/place/Step+2+Gym/data=!4m5!3m4!1s0x391b3fd96ab97cff:0xa955139a8a07b347!8m2!3d31.8910798!4d76.1218479?authuser=0&hl=en&rclk=1,31.8910798,76.1218479,Goa
Body gym,Gym,"M43R+WFH, Chak Sarai, Himachal Pradesh 177211, India",https://www.google.co.kr/maps/place/Body+gym/data=!4m5!3m4!1s0x391b21ec7ae812d9:0x618f2dc8239e2202!8m2!3d31.6548187!4d76.1412372?authuser=0&hl=en&rclk=1,31.654818699999996,76.14123719999998,Goa
Cantonment Board Kasauli,Gym,"MDR6, Kasauli, Himachal Pradesh 173204, India",https://www.google.co.kr/maps/place/Cantonment+Board+Kasauli/data=!4m5!3m4!1s0x390f8902de365405:0x19859320a6e48b40!8m2!3d30.8990783!4d76.9594927?authuser=0&hl=en&rclk=1,30.8990783,76.9594927,Goa
Sumit Complex Gym,Gym,"W3HV+3H9, Chambaghat, Himachal Pradesh 173213, India",https://www.google.co.kr/maps/place/Sumit+Complex+Gym/data=!4m5!3m4!1s0x390f87ce86cb6731:0xf77e639053aaa8a7!8m2!3d30.9276631!4d77.0939743?authuser=0&hl=en&rclk=1,30.9276631,77.0939743,Goa
PUBLIC GYM LAMLEHRI,Gym,"G88G+X8G, Samur, Himachal Pradesh 174321, India",https://www.google.co.kr/maps/place/PUBLIC+GYM+LAMLEHRI/data=!4m5!3m4!1s0x391ad1c8e40d4485:0x39ca6aa7c5e55584!8m2!3d31.5174279!4d76.3258237?authuser=0&hl=en&rclk=1,31.517427899999998,76.32582370000002,Goa
Tuff Look Gym,Gym,"House number.154/155, ward number.3, near nathu sweets, Solan, India",https://www.google.co.kr/maps/place/Tuff+Look+Gym/data=!4m5!3m4!1s0x390f873a234b220d:0xa6bc4fc1dc2ed2dd!8m2!3d30.9084245!4d77.0999031?authuser=0&hl=en&rclk=1,30.9084245,77.09990309999998,Goa
Body Talk Gym,Gym,"Main Market Rd, Cinema Colony, Kosrian Sector, Bilaspur, Himachal Pradesh 174001, India",https://www.google.co.kr/maps/place/Body+Talk+Gym/data=!4m5!3m4!1s0x39053f1a87c7be09:0xea8bcf9fc965d647!8m2!3d31.3382323!4d76.7655051?authuser=0&hl=en&rclk=1,31.338232300000005,76.7655051,Goa
Rohit,Gym,"Himachal Pradesh 171103, India",https://www.google.co.kr/maps/place/Rohit/data=!4m5!3m4!1s0x390571cec16d697d:0x7af093ab049b6e6a!8m2!3d31.1862893!4d77.0310875?authuser=0&hl=en&rclk=1,31.1862893,77.0310875,Goa
Hardcore body builders gym,Gym,"VPO/Nagwain, TEH, Aut, Himachal Pradesh 175121, India",https://www.google.co.kr/maps/place/Hardcore+body+builders+gym/data=!4m5!3m4!1s0x3904f970424be077:0xaf0edd7515b94911!8m2!3d31.8139729!4d77.1801057?authuser=0&hl=en&rclk=1,31.8139729,77.1801057,Goa
Oxygen Fitness,Gym,"Mandi - Pathankot Rd, Dharman, Himachal Pradesh 176081, India",https://www.google.co.kr/maps/place/Oxygen+Fitness/data=!4m5!3m4!1s0x3904b7958ddf6003:0x8705d5cdefca1a40!8m2!3d32.0773626!4d76.5903751?authuser=0&hl=en&rclk=1,32.0773626,76.59037509999997,Goa
Peach Blossom,Gym,"35RG+8C7, Nigam Vihar, Chotta Shimla, Shimla, Himachal Pradesh 171002, India",https://www.google.co.kr/maps/place/Peach+Blossom/data=!4m5!3m4!1s0x390578b96d83c001:0xe5ce5841a82f7427!8m2!3d31.0907932!4d77.1760325?authuser=0&hl=en&rclk=1,31.090793199999997,77.17603249999998,Goa
HPU Girls Hostel Gym,Gym,"HPU Girls Hostel Road, Summer Hill, Shimla, Himachal Pradesh 171005, India",https://www.google.co.kr/maps/place/HPU+Girls+Hostel+Gym/data=!4m5!3m4!1s0x3905790405eea86f:0x6b406c91533310d0!8m2!3d31.1113555!4d77.1423596?authuser=0&hl=en&rclk=1,31.1113555,77.14235959999998,Goa
Himalaya,Gym,"Court Road, Janog Ghat, Theog, Himachal Pradesh 171201, India",https://www.google.co.kr/maps/place/Himalaya/data=!4m5!3m4!1s0x390585ecbad79001:0x550a6bd16b11082a!8m2!3d31.1162168!4d77.3619146?authuser=0&hl=en&rclk=1,31.1162168,77.36191459999998,Goa
NIRVANA,Gym,"Near Govt. School Saproon, Solan 173211, Himachal Pradesh 173212, India",https://www.google.co.kr/maps/place/NIRVANA/data=!4m5!3m4!1s0x390f870b4a496937:0xa617faf3006aad08!8m2!3d30.9075956!4d77.081602?authuser=0&hl=en&rclk=1,30.9075956,77.081602,Goa
Commando Fitness Gym Balhseena,Gym,"vill - balhseena p.o.- ghandhir teh - jhandutta, distt, Bilaspur, Himachal Pradesh 174029, India",https://www.google.co.kr/maps/place/Commando+Fitness+Gym+Balhseena/data=!4m5!3m4!1s0x390531af4aa1f621:0xde24df836259c13f!8m2!3d31.3762853!4d76.655855?authuser=0&hl=en&rclk=1,31.3762853,76.655855,Goa
Muscular planet,Gym,"near Ashoka jewellers, Banjar, Himachal Pradesh 174123, India",https://www.google.co.kr/maps/place/Muscular+planet/data=!4m5!3m4!1s0x3905ad170207bfa1:0x2190a05a074d1fdb!8m2!3d31.6375849!4d77.3442221?authuser=0&hl=en&rclk=1,31.6375849,77.3442221,Goa
नितेश फल व सब्जी भंडार,Gym,"Near, Sabzi Mandi, Dhalli, Himachal Pradesh 171012, India",https://www.google.co.kr/maps/place/%E0%A4%A8%E0%A4%BF%E0%A4%A4%E0%A5%87%E0%A4%B6+%E0%A4%AB%E0%A4%B2+%E0%A4%B5+%E0%A4%B8%E0%A4%AC%E0%A5%8D%E0%A4%9C%E0%A5%80+%E0%A4%AD%E0%A4%82%E0%A4%A1%E0%A4%BE%E0%A4%B0/data=!4m5!3m4!1s0x390579a5759d7b99:0xa64596de1cc75d1e!8m2!3d31.1038152!4d77.1748953?authuser=0&hl=en&rclk=1,31.1038152,77.1748953,Goa
Chakhra,Gym,"Junga Rd., Pujarli, Himachal Pradesh 171218, India",https://www.google.co.kr/maps/place/Chakhra/data=!4m5!3m4!1s0x39057f7e332aa925:0xa2c900946e1a6bf1!8m2!3d31.0354782!4d77.1936146?authuser=0&hl=en&rclk=1,31.0354782,77.19361459999998,Goa
kingsports sports goods,Gym,"shskti market middel bazar, Rampur Bushahr, Himachal Pradesh 172001, India",https://www.google.co.kr/maps/place/kingsports+sports+goods/data=!4m5!3m4!1s0x3905c11298d0bae3:0xc55710f7e1008e9d!8m2!3d31.4477756!4d77.6291166?authuser=0&hl=en&rclk=1,31.4477756,77.6291166,Goa
Athelatic trac,Gym,"Cricket Stadium Bilaspur Rd, Upper Nihal, Bilaspur, Himachal Pradesh 174001, India",https://www.google.co.kr/maps/place/Athelatic+trac/data=!4m5!3m4!1s0x39053f03969ddeb9:0xc20db10075190b66!8m2!3d31.3453921!4d76.7567663?authuser=0&hl=en&rclk=1,31.3453921,76.7567663,Goa
MAHAVIR GYM,Gym,"64QC+WV2, Suni, Himachal Pradesh 171301, India",https://www.google.co.kr/maps/place/MAHAVIR+GYM/data=!4m5!3m4!1s0x390576a32c2e8eb1:0x39338f779fab8c5!8m2!3d31.2397589!4d77.122151?authuser=0&hl=en&rclk=1,31.239758899999998,77.122151,Goa
Ojas Fitness And Gym,Gym,"Village nangabagh P.O Bandrol teh &, Himachal Pradesh, India",https://www.google.co.kr/maps/place/Ojas+Fitness+And+Gym/data=!4m5!3m4!1s0x3904f57e7c1a2613:0x63acd51818104f21!8m2!3d32.0389213!4d77.1254799?authuser=0&hl=en&rclk=1,32.0389213,77.12547990000002,Goa
The Brother's gym junga,Fitness center,"Junga Rd., Junga, Himachal Pradesh 171218, India",https://www.google.co.kr/maps/place/The+Brother's+gym+junga/data=!4m5!3m4!1s0x39057fc5528d1e09:0xbe129dfe3ccb918!8m2!3d31.024054!4d77.190653?authuser=0&hl=en&rclk=1,31.024054,77.190653,Goa
ZUMBA Fitness with ZIN vasundhara,Fitness center,"Gaiety theatre, the, Mall Rd, Shimla, Himachal Pradesh 171001, India",https://www.google.co.kr/maps/place/ZUMBA+Fitness+with+ZIN+vasundhara/data=!4m5!3m4!1s0x39057950643c3d2d:0x8dee6796b1b0edfa!8m2!3d31.0989034!4d77.175584?authuser=0&hl=en&rclk=1,31.098903399999998,77.175584,Goa
MUSCLE MANIA GYM OPPOSITE ESIC OFFICE BADDI,Gym,"WRV3+G2W, Housing Board Colony Phases I & II, Baddi, Himachal Pradesh 173205, India",https://www.google.co.kr/maps/place/MUSCLE+MANIA+GYM+OPPOSITE+ESIC+OFFICE+BADDI/data=!4m5!3m4!1s0x390ff54b0d87df43:0x4a7bed4a299badac!8m2!3d30.943857!4d76.8025805?authuser=0&hl=en&rclk=1,30.943857,76.8025805,Goa
RSV,Gym,"8W35+WRP, Malokhar, Himachal Pradesh 174033, India",https://www.google.co.kr/maps/place/RSV/data=!4m5!3m4!1s0x39056b66d1f5075d:0x4a19acd57928fb74!8m2!3d31.304849!4d76.9095646?authuser=0&hl=en&rclk=1,31.304849,76.9095646,Goa
Muscle Gym,Gym,"Bharari Rd, near Auckland School, Longwood, Shimla, Himachal Pradesh 171001, India",https://www.google.co.kr/maps/place/Muscle+Gym/data=!4m5!3m4!1s0x390579d2d7f961ab:0x9beacea66b0cc8c6!8m2!3d31.108363!4d77.1786639?authuser=0&hl=en&rclk=1,31.108363,77.1786639,Goa
Sana's Fitness Point,Gym,"Paonta Sahib - Purwala - Bharli Rd, Paonta Sahib, Himachal Pradesh 173025, India",https://www.google.co.kr/maps/place/Sana's+Fitness+Point/data=!4m5!3m4!1s0x390f23a864aab40b:0x7accdbf686f8138e!8m2!3d30.4387179!4d77.6185275?authuser=0&hl=en&rclk=1,30.4387179,77.6185275,Goa
CERAGEM CHAHAL SPINE CARE (SHIMLA),Fitness center,"Ratan Kunj, Khalini, Shimla, Himachal Pradesh 171002, India",https://www.google.co.kr/maps/place/CERAGEM+CHAHAL+SPINE+CARE+(SHIMLA)/data=!4m5!3m4!1s0x3905796e6afb8217:0x36238f22e216562f!8m2!3d31.0893781!4d77.1715248?authuser=0&hl=en&rclk=1,31.0893781,77.1715248,Goa
Rajan,Gym,"W452+G4R, Mall Road, Bajoral Khurd, Solan, Himachal Pradesh 173212, India",https://www.google.co.kr/maps/place/Rajan/data=!4m5!3m4!1s0x390f86b50d9a0d01:0x55b892a3d4c9f0e4!8m2!3d30.908855!4d77.1002698?authuser=0&hl=en&rclk=1,30.908855,77.10026979999998,Goa
IRON TRIBE GYM,Gym,"Lakkar Bazar, Shimla, Himachal Pradesh 171001, India",https://www.google.co.kr/maps/place/IRON+TRIBE+GYM/data=!4m5!3m4!1s0x390579bdfbbc8111:0x64a10b9d1aa7716d!8m2!3d31.107347!4d77.177894?authuser=0&hl=en&rclk=1,31.107346999999997,77.177894,Goa
Dhalku Sheel,Gym,"171209 tiyali theog, Himachal Pradesh, India",https://www.google.co.kr/maps/place/Dhalku+Sheel/data=!4m5!3m4!1s0x390587ad914a5797:0xd91303606a36acb8!8m2!3d31.0437598!4d77.3428632?authuser=0&hl=en&rclk=1,31.0437598,77.3428632,Goa
A.R GYM,Gym,"AR niwas, Sainj, Himachal Pradesh 171220, India",https://www.google.co.kr/maps/place/A.R+GYM/data=!4m5!3m4!1s0x3905893f00e256b3:0x1d087da22b2239b1!8m2!3d31.0782762!4d77.3888458?authuser=0&hl=en&rclk=1,31.078276199999998,77.3888458,Goa
Gym Point,Gym,"P275+4WM, Mathyani, Himachal Pradesh 175124, India",https://www.google.co.kr/maps/place/Gym+Point/data=!4m5!3m4!1s0x3904e362bfbea9ef:0xb008f87c511f2705!8m2!3d31.712834!4d77.0098036?authuser=0&hl=en&rclk=1,31.712834,77.0098036,Goa
Jangli ground,Gym,"35W2+PP9, Tutikandi, Shimla, Himachal Pradesh 171004, India",https://www.google.co.kr/maps/place/Jangli+ground/data=!4m5!3m4!1s0x390578e08682b1ed:0x42de92693758391b!8m2!3d31.0967943!4d77.1518559?authuser=0&hl=en&rclk=1,31.09679430000001,77.1518559,Goa
lana chabiual,Gym,"P74G+4R8, Lana Chabyul, Himachal Pradesh 173001, India",https://www.google.co.kr/maps/place/lana+chabiual/data=!4m5!3m4!1s0x390f75a504dd4cad:0xdee457ff3a0c52f0!8m2!3d30.7052863!4d77.2770683?authuser=0&hl=en&rclk=1,30.7052863,77.2770683,Goa
Diwan Assoiciates,Gym,"Central Park, -9, Shimla Bypass, Dev Nagar, Kasumpti, Shimla, Himachal Pradesh 171009, India",https://www.google.co.kr/maps/place/Diwan+Assoiciates/data=!4m5!3m4!1s0x390578b2e16752b9:0xccbc2c32a131201a!8m2!3d31.0781557!4d77.1804161?authuser=0&hl=en&rclk=1,31.078155699999996,77.1804161,Goa
BB Gym,Rock climbing gym,"35CJ+3H3, Panthaghati, Shimla, Himachal Pradesh 171002, India",https://www.google.co.kr/maps/place/BB+Gym/data=!4m5!3m4!1s0x39057f4e6d77169b:0x6e6506d88b54774!8m2!3d31.0701284!4d77.1814229?authuser=0&hl=en&rclk=1,31.070128399999998,77.1814229,Goa
SUNSHINE GYM,Gym,"Near royal palace, near binniz pizza, Nahan, Himachal Pradesh 173001, India",https://www.google.co.kr/maps/place/SUNSHINE+GYM/data=!4m5!3m4!1s0x390f0d167c6dde9f:0xb07f58c7cc4efbbe!8m2!3d30.5594215!4d77.2938363?authuser=0&hl=en&rclk=1,30.55942150000001,77.2938363,Goa
Sumit lab,Yoga studio,"5 minute walk from, Jakhoo road Sumit lab new folly estate near town's end cottage, Ridge, Jakhu, Shimla, Himachal Pradesh 171001, India",https://www.google.co.kr/maps/place/Sumit+lab/data=!4m5!3m4!1s0x390579f2149d7765:0x180d7e55bfed2a17!8m2!3d31.1035897!4d77.1798861?authuser=0&hl=en&rclk=1,31.1035897,77.17988609999998,Goa
Sankalp Upasana Niketan,Gym,"Shoghi Lagroo Rd, Shoghi, Himachal Pradesh 171219, India",https://www.google.co.kr/maps/place/Sankalp+Upasana+Niketan/data=!4m5!3m4!1s0x39057e934f0d16e5:0x1adb90fb9fc643cc!8m2!3d31.041728!4d77.1248828?authuser=0&hl=en&rclk=1,31.04172800000001,77.1248828,Goa
INTEN CITY GYM,Gym,"S.O Anil Bhawan, Sanjauli, Shimla, Himachal Pradesh 171006, India",https://www.google.co.kr/maps/place/INTEN+CITY+GYM/data=!4m5!3m4!1s0x3905833e092d9f09:0x4e520d35efb98084!8m2!3d31.0986853!4d77.2030634?authuser=0&hl=en&rclk=1,31.0986853,77.2030634,Goa
"Shoghi, Ankush Cottage",Gym,"24QF+26Q, Shoghi, Himachal Pradesh 171219, India","https://www.google.co.kr/maps/place/Shoghi,+Ankush+Cottage/data=!4m5!3m4!1s0x39057f0657c3e425:0x30a2fcee470e01dc!8m2!3d31.0375859!4d77.1231011?authuser=0&hl=en&rclk=1",31.0375859,77.1231011,Goa
S M INDUSTRIES,Gym,"Baddi - Jhar Majri Rd, Baddi, Himachal Pradesh 174103, India",https://www.google.co.kr/maps/place/S+M+INDUSTRIES/data=!4m5!3m4!1s0x390f8b26fb86aa37:0x440e00cc48f81f91!8m2!3d30.9297725!4d76.8299165?authuser=0&hl=en&rclk=1,30.9297725,76.82991650000002,Goa
BROCK HOUSE (VIBHAV),Gym,"PW5P+994, Kartarpur, Mandi, Himachal Pradesh 175001, India",https://www.google.co.kr/maps/place/BROCK+HOUSE+(VIBHAV)/data=!4m5!3m4!1s0x3904e23eac213a7d:0x2aca30d1e109fee!8m2!3d31.7083795!4d76.9359676?authuser=0&hl=en&rclk=1,31.7083795,76.9359676,Goa
Salman Hair Saloon,Gym,"Barotiwala, Himachal Pradesh 174103, India",https://www.google.co.kr/maps/place/Salman+Hair+Saloon/data=!4m5!3m4!1s0x390f8b20974d3b01:0x7e5d81a62cbceb15!8m2!3d30.90626!4d76.8450648?authuser=0&hl=en&rclk=1,30.906259999999996,76.84506479999997,Goa
Radha Soami satsang,Gym,"Unnamed Road, Himachal Pradesh 171103, India",https://www.google.co.kr/maps/place/Radha+Soami+satsang/data=!4m5!3m4!1s0x39057bf20849b3b7:0x3a2d701a13e7a86!8m2!3d31.1327605!4d77.0414915?authuser=0&hl=en&rclk=1,31.1327605,77.0414915,Goa
sandeep sanjeev bro's,Physical fitness program,"Ghuggar, Palampur, Himachal Pradesh 176061, India",https://www.google.co.kr/maps/place/sandeep+sanjeev+bro's/data=!4m5!3m4!1s0x3904b3c72661ddcb:0x2ea41d9fcb2c33f8!8m2!3d32.1135395!4d76.5283203?authuser=0&hl=en&rclk=1,32.1135395,76.5283203,Goa
GHAMBER RIVER,Gym,"3W3M+XFP, Solan, Himachal Pradesh 173207, India",https://www.google.co.kr/maps/place/GHAMBER+RIVER/data=!4m5!3m4!1s0x3905656b3383f29b:0xaf8bbef6685ec64b!8m2!3d31.0549666!4d76.9337105?authuser=0&hl=en&rclk=1,31.054966600000004,76.9337105,Goa
Pandit Empire Kolmu,Gym,"vill kolmu, po, teh, Tiyali, Himachal Pradesh, India",https://www.google.co.kr/maps/place/Pandit+Empire+Kolmu/data=!4m5!3m4!1s0x39058794a3d419d5:0xe21c235a97cf4f7d!8m2!3d31.0426397!4d77.3372547?authuser=0&hl=en&rclk=1,31.0426397,77.3372547,Goa
Yoga teacher,Yoga studio,"p, Cottage 5, dev bhoomi mount view, kalka-shimla rd, deonghat, P.O, Saproon, Solan, Himachal Pradesh 173211, India",https://www.google.co.kr/maps/place/Yoga+teacher/data=!4m5!3m4!1s0x390f873f07e82a9f:0xc9670887baabe419!8m2!3d30.9046837!4d77.0850341?authuser=0&hl=en&rclk=1,30.9046837,77.08503409999999,Goa
Yog Teerth The Health Pilgrimage,Yoga studio,"Sita Ram Mandir Village. Kathani, Post Subathu, Near Dharampur, Solan, Himachal Pradesh - 173 206, India, Himachal Pradesh 173206, India",https://www.google.co.kr/maps/place/Yog+Teerth+The+Health+Pilgrimage/data=!4m5!3m4!1s0x390f861900000001:0x230fd9089229b24f!8m2!3d31.0016831!4d76.9988669?authuser=0&hl=en&rclk=1,31.0016831,76.99886690000002,Goa
Tata Service Station Mehar Services,Gym,"8VCH+38W, Kharsi Kanaitan, Himachal Pradesh 174033, India",https://www.google.co.kr/maps/place/Tata+Service+Station+Mehar+Services/data=!4m5!3m4!1s0x390515143f4446ed:0xe0087076dc42f122!8m2!3d31.320241!4d76.87833?authuser=0&hl=en&rclk=1,31.320240999999996,76.87833,Goa
Indian Heritage Classes,Yoga studio,"Sharma Niwas, BCS, New Shimla, below BCS, Shimla, Himachal Pradesh 171009, India",https://www.google.co.kr/maps/place/Indian+Heritage+Classes/data=!4m5!3m4!1s0x390578b615049b75:0xa36eb67082453095!8m2!3d31.0827221!4d77.172646?authuser=0&hl=en&rclk=1,31.0827221,77.172646,Goa
Happy Yoga Group,Yoga studio,"2nd floor, Kotla-nala, Bhagnal Complex, Solan, Himachal Pradesh 173212, India",https://www.google.co.kr/maps/place/Happy+Yoga+Group/data=!4m5!3m4!1s0x390f81478fed9689:0x844acd1d6eeff6ee!8m2!3d30.904483!4d77.107263?authuser=0&hl=en&rclk=1,30.90448300000001,77.107263,Goa
The Power House Gym,Gym,"Arun Nagar Kalyari Morh, near Jio Office, Sujanpur, Punjab 145023, India",https://www.google.co.kr/maps/place/The+Power+House+Gym/data=!4m5!3m4!1s0x391c79acdda41b41:0xed6d50722cc845fc!8m2!3d32.3085478!4d75.6072211?authuser=0&hl=en&rclk=1,32.3085478,75.60722109999998,Goa
Shri Mahaprabhu Ram Mulkh Dayal Sadhna Mandir Yog Asharam,Gym,"Village Sheri Monja Rehu, Gandhi Gram, Himachal Pradesh, India",https://www.google.co.kr/maps/place/Shri+Mahaprabhu+Ram+Mulkh+Dayal+Sadhna+Mandir+Yog+Asharam/data=!4m5!3m4!1s0x390f8468a2d7fa2f:0x832bbd6419ff5a4b!8m2!3d30.8530789!4d77.0839646?authuser=0&hl=en&rclk=1,30.8530789,77.0839646,Goa
Herbalife,Gym,"Unnamed Road, Azad Colony, Kalka, Haryana 133302, India",https://www.google.co.kr/maps/place/Herbalife/data=!4m5!3m4!1s0x390f8e8e5d9b453f:0x506d31bfb7cff211!8m2!3d30.8348703!4d76.9340091?authuser=0&hl=en&rclk=1,30.8348703,76.93400909999998,Goa
Intensity Raw Gym,Gymnasium Cz,"Sanjauli - Bhattakufer Rd, Cemetery, Sanjauli, Shimla, Himachal Pradesh 171006, India",https://www.google.co.kr/maps/place/Intensity+Raw+Gym/data=!4m5!3m4!1s0x3905820d1d5a74f9:0x598de2ae8edf01d1!8m2!3d31.0991742!4d77.2031781?authuser=0&hl=en&rclk=1,31.099174199999997,77.2031781,Goa
Dietitian Vipasha,Medical clinic,"Mall Rd, Middle Bazar, Gunj Bazar, Shimla, Himachal Pradesh 171001, India",https://www.google.co.kr/maps/place/Dietitian+Vipasha/data=!4m5!3m4!1s0x3905839070829699:0xd10a525a9f6c8d71!8m2!3d31.104731!4d77.17246?authuser=0&hl=en&rclk=1,31.104731,77.17246,Goa
Herbalife Branch Office,Gym,"31.026070, 77.053535, India",https://www.google.co.kr/maps/place/Herbalife+Branch+Office/data=!4m5!3m4!1s0x39057cf91d839fa9:0x2bba3b7875f5376e!8m2!3d31.02607!4d77.053535?authuser=0&hl=en&rclk=1,31.02607,77.053535,Goa
The Fit Nation Gym,Gymnasium Cz,"Bhattakufer, Shimla, Himachal Pradesh 171006, India",https://www.google.co.kr/maps/place/The+Fit+Nation+Gym/data=!4m5!3m4!1s0x39058211d5f26009:0x9659be22d05b51ce!8m2!3d31.0933177!4d77.2060575?authuser=0&hl=en&rclk=1,31.093317699999997,77.2060575,Goa
Vishwa vijay,Yoga studio,"169, Palace Rd, Kotla Nala, Solan, Himachal Pradesh 173212, India",https://www.google.co.kr/maps/place/Vishwa+vijay/data=!4m5!3m4!1s0x390f86b3fcf94185:0x8bcacf479773acfa!8m2!3d30.9068432!4d77.1080871?authuser=0&hl=en&rclk=1,30.906843199999997,77.10808709999998,Goa
The Fitness World,Gymnasium Cz,"Malyana, Shimla, Himachal Pradesh 171006, India",https://www.google.co.kr/maps/place/The+Fitness+World/data=!4m5!3m4!1s0x390579c137c7e235:0xc69a248f7a169f7c!8m2!3d31.0865584!4d77.1890194?authuser=0&hl=en&rclk=1,31.086558399999998,77.1890194,Goa
Turning Point Gym.,Body shaping class,"Unnamed Road, Arki, Himachal Pradesh 173208, India",https://www.google.co.kr/maps/place/Turning+Point+Gym./data=!4m5!3m4!1s0x39056f8273915603:0xe2d959cdcf0496c7!8m2!3d31.1518943!4d76.9647321?authuser=0&hl=en&rclk=1,31.151894300000002,76.9647321,Goa
Crossfit Mussoorie,Gym,"Firs Estate, Char Dukan Chakar, Cantt, Landour, Mussoorie, Uttarakhand 248179, India",https://www.google.co.kr/maps/place/Crossfit+Mussoorie/data=!4m5!3m4!1s0x3908d095fb631d33:0x8efe4c00ee75091!8m2!3d30.4637296!4d78.093349?authuser=0&hl=en&rclk=1,30.463729600000004,78.093349,Goa
Fitness Planet,Physical fitness program,"Gole Market, Mandi Gobindgarh, Punjab 147301, India",https://www.google.co.kr/maps/place/Fitness+Planet/data=!4m5!3m4!1s0x39101a8cd3dc849d:0xa20e32f043f025df!8m2!3d30.6666753!4d76.2916717?authuser=0&hl=en&rclk=1,30.6666753,76.29167170000002,Goa
NEO FITNESS & SPORTS,Gym,"115 sayyad mohalla krishan nagar chowk chakrta road dehradun, India",https://www.google.co.kr/maps/place/NEO+FITNESS+%26+SPORTS/data=!4m5!3m4!1s0x390929fa6dd27e33:0xabc113b56980c3e8!8m2!3d30.3329838!4d78.0269864?authuser=0&hl=en&rclk=1,30.332983799999997,78.02698640000001,Goa
Oxyfit Gym,Gym,"2666, Sector 70, Sahibzada Ajit Singh Nagar, Punjab 160071, India",https://www.google.co.kr/maps/place/Oxyfit+Gym/data=!4m5!3m4!1s0x390fee93f94ec97d:0x7bef28a257d1ad48!8m2!3d30.6965316!4d76.7159461?authuser=0&hl=en&rclk=1,30.6965316,76.7159461,Goa
Fitness Planet,Fitness center,"Sco No 3, Pakhowal, Pakhowal Road, Green Park Avenue, Pakhowal Road, Ludhiana, Punjab 141001, India",https://www.google.co.kr/maps/place/Fitness+Planet/data=!4m5!3m4!1s0x391a8187aafc9dcb:0x56e52a8e56bf2b78!8m2!3d30.8749329!4d75.804585?authuser=0&hl=en&rclk=1,30.874932899999997,75.804585,Goa
Fitness Planet,Gym,"Doon University Rd, Tehri Nagar, Mothrowala, Dehradun, Uttarakhand 248001, India",https://www.google.co.kr/maps/place/Fitness+Planet/data=!4m5!3m4!1s0x3909292ba00edce1:0xa7963d2a86262b65!8m2!3d30.2797969!4d78.0403882?authuser=0&hl=en&rclk=1,30.279796899999997,78.0403882,Goa
Good life fitness,Gym,"Amloh - Khanna Rd, Gulmohar Nagar, Khanna, Punjab 147301, India",https://www.google.co.kr/maps/place/Good+life+fitness/data=!4m5!3m4!1s0x3910115b2f623053:0x2bb8a719bafc09a9!8m2!3d30.6847167!4d76.2279983?authuser=0&hl=en&rclk=1,30.68471670000001,76.2279983,Goa
Gold Gym,Gym,"202-203, Trade Avenue, 2nd Floor Suren Road, Off, Western Express Hwy, Andheri East, Mumbai, Maharashtra 400093, India",https://www.google.co.kr/maps/place/Gold+Gym/data=!4m5!3m4!1s0x391a838847841b8f:0xd154ad5df9a4be19!8m2!3d30.932974!4d75.8397345?authuser=0&hl=en&rclk=1,30.932973999999998,75.83973449999998,Goa
Gold Gym,Gym,"Lower Mall Rd, Moti Bagh, Patiala, Punjab 147001, India",https://www.google.co.kr/maps/place/Gold+Gym/data=!4m5!3m4!1s0x3910291dbd14d0c1:0xe0fa75a1532af30d!8m2!3d30.3164625!4d76.3947239?authuser=0&hl=en&rclk=1,30.3164625,76.3947239,Goa
Nitrro Bespoke Fitness,Gym,"Skybay Hubtown, Skybay Hubtown, Breach Candy, Mumbai, Maharashtra 400026, India",https://www.google.co.kr/maps/place/Nitrro+Bespoke+Fitness/data=!4m5!3m4!1s0x3be7ce782670d0db:0x973a8e97fb07b569!8m2!3d18.9751027!4d72.8062174?authuser=0&hl=en&rclk=1,18.9751027,72.80621740000002,Maharashtra
3 Fitness India Gym,Gym,"L.B.S Marg, Opp. Pankeshah Dargah, next to Shalimar Hotel, Ghatkopar West, Mumbai, Maharashtra 400086, India",https://www.google.co.kr/maps/place/3+Fitness+India+Gym/data=!4m5!3m4!1s0x3be7c7675d5c71f3:0x29fc9b923de59278!8m2!3d19.0961396!4d72.9151486?authuser=0&hl=en&rclk=1,19.0961396,72.9151486,Maharashtra
Fitness Holic,Gym,"4, Swami Vivekananda Rd, Malad, Reserve Bank of India Staff Quarters, Raheja Twp, Jogeshwari West, Mumbai, Maharashtra 400102, India",https://www.google.co.kr/maps/place/Fitness+Holic/data=!4m5!3m4!1s0x3be7b62bc3c8fa7d:0x6d9d841a9eed6e9e!8m2!3d19.174844!4d72.848494?authuser=0&hl=en&rclk=1,19.174844,72.84849399999997,Maharashtra
Fitness India Gym,Gym,"near Zenda Chowk, Dr.Ambedkar Nagar, Dharampeth, Nagpur, Maharashtra 440010, India",https://www.google.co.kr/maps/place/Fitness+India+Gym/data=!4m5!3m4!1s0x3bd4c17bee6b6617:0x1002689433e8cb8a!8m2!3d21.1413257!4d79.0626775?authuser=0&hl=en&rclk=1,21.1413257,79.0626775,Maharashtra
H FITNESS,Fitness center,"Floor 1,Bapu Bangla, above State Bank of India, Indira Nagar, Nashik, Maharashtra 422009, India",https://www.google.co.kr/maps/place/H+FITNESS/data=!4m5!3m4!1s0x3bddeb3d4085aff9:0x98860bc49803c59d!8m2!3d19.9735609!4d73.785847?authuser=0&hl=en&rclk=1,19.9735609,73.785847,Maharashtra
Global fitness & Gym,Gym,"Kedia Complex, Kirti Nagar, Akola, Maharashtra 444001, India",https://www.google.co.kr/maps/place/Global+fitness+%26+Gym/data=!4m5!3m4!1s0x3bd72fce0a734be7:0x79150713f9fe2367!8m2!3d20.6939864!4d77.0148334?authuser=0&hl=en&rclk=1,20.693986399999996,77.0148334,Maharashtra
Fitness India,Gym,"Siddi Vinayak Apartment, Plot No.1, Gajanan Mandir Rd, Khare Town, Dharampeth, Nagpur, Maharashtra 440010, India",https://www.google.co.kr/maps/place/Fitness+India/data=!4m5!3m4!1s0x3bd4c060453d531f:0x50cbe69fc6176d34!8m2!3d21.1413449!4d79.0624485?authuser=0&hl=en&rclk=1,21.1413449,79.0624485,Maharashtra
The Gym,Fitness center,"Ganga Home, Row House No.1/2, next to Bank of India, Viman Nagar, Pune, Maharashtra 411014, India",https://www.google.co.kr/maps/place/The+Gym/data=!4m5!3m4!1s0x3bc2c146c481ff81:0xc26293e10b8b3673!8m2!3d18.5646915!4d73.9164632?authuser=0&hl=en&rclk=1,18.564691500000002,73.9164632,Maharashtra
"PEPT Fitness Bootcamp, India",Fitness center,"A wing, First Floor Aditya Business Center ( Next to Jyoti Restaurant, N Main Rd, Kondhwa, Pune, Maharashtra 411048, India","https://www.google.co.kr/maps/place/PEPT+Fitness+Bootcamp,+India/data=!4m5!3m4!1s0x3bc2eb511244ed1b:0x5ae75f1a6a231311!8m2!3d18.4785044!4d73.8903496?authuser=0&hl=en&rclk=1",18.4785044,73.8903496,Maharashtra
MultiFit Baner,Gym,"Pride Gateway, 1st Floor, Sr. No. 112, Baner Rd, opp. Syngenta India Ltd, Pune, Maharashtra 411045, India",https://www.google.co.kr/maps/place/MultiFit+Baner/data=!4m5!3m4!1s0x3bc2beb56d52eae1:0xb8d2951049fa92c5!8m2!3d18.5658019!4d73.7712535?authuser=0&hl=en&rclk=1,18.565801899999997,73.7712535,Maharashtra
Cardio Fitness India Pvt. Ltd.,Physical fitness program,"1st Floor, Sai Krupa Building, Samir Chandavarkar Road, Dhanukar Wadi, Off M.G. Road, Kandivali West, Mumbai, Maharashtra 400067, India",https://www.google.co.kr/maps/place/Cardio+Fitness+India+Pvt.+Ltd./data=!4m5!3m4!1s0x3be7b6cff5571651:0xa7274633f7bf7b29!8m2!3d19.2078028!4d72.8382777?authuser=0&hl=en&rclk=1,19.207802800000003,72.8382777,Maharashtra
Power House Gym,Gym,"ward no, mai building gajanan nagar, 2, Arvi Rd, Wardha, Maharashtra 442001, India",https://www.google.co.kr/maps/place/Power+House+Gym/data=!4m5!3m4!1s0x3bd47f1d47eb8281:0x6b91c319c23b25!8m2!3d20.7587533!4d78.5994003?authuser=0&hl=en&rclk=1,20.7587533,78.5994003,Maharashtra
Life Fitness Gym,Gym,"P833+W96, Gandhinagar, Maharashtra 416119, India",https://www.google.co.kr/maps/place/Life+Fitness+Gym/data=!4m5!3m4!1s0x3bc10109d66349e1:0x83cdc54fe6c6149f!8m2!3d16.7047802!4d74.3033759?authuser=0&hl=en&rclk=1,16.7047802,74.3033759,Maharashtra
Raskar Gym,Gym,"JJFV+4CW, Renuka Nagar, Shrirampur, Maharashtra 413709, India",https://www.google.co.kr/maps/place/Raskar+Gym/data=!4m5!3m4!1s0x3bdc8a56f17bdb91:0x39ef555f2c0675d9!8m2!3d19.6228609!4d74.6435815?authuser=0&hl=en&rclk=1,19.6228609,74.6435815,Maharashtra
Fitness studio,Gym,"Laxmi Nagar, Amrutdham, near UNION BANK OF INDIA, Panchavati, Nashik, Maharashtra 422003, India",https://www.google.co.kr/maps/place/Fitness+studio/data=!4m5!3m4!1s0x3bddeb572178748b:0x46fa01be59b57e96!8m2!3d20.0183076!4d73.8284065?authuser=0&hl=en&rclk=1,20.0183076,73.8284065,Maharashtra
R FITNESS CENTRE with SWIMMING POOL,Fitness center,"Hotel Kalasagar Opp. State Bank Of India, Kasarwadi, Pimpri Colony, Pune, Maharashtra 411017, India",https://www.google.co.kr/maps/place/R+FITNESS+CENTRE+with+SWIMMING+POOL/data=!4m5!3m4!1s0x3bc2b88b53ec1cf5:0xd691c01cc261014f!8m2!3d18.6129!4d73.8184825?authuser=0&hl=en&rclk=1,18.6129,73.8184825,Maharashtra
"Bhosari, Pimpri-Chinchwad, Maharashtra 411039, India",Gym,"JRCX+P8P, Takalewada, Bhosari Gaonthan, Bhosari, Pimpri-Chinchwad, Maharashtra 411039, India","https://www.google.co.kr/maps/place/Bhosari,+Pimpri-Chinchwad,+Maharashtra+411039,+India/data=!4m5!3m4!1s0x3bc2c74acdacd14f:0x8a8242b43d2ae219!8m2!3d18.621827!4d73.8483143?authuser=0&hl=en&rclk=1",18.621827,73.8483143,Maharashtra
Fitbox India,Gym,"Bhosale Garden, near Savala Hari, behind Sahyadri hospital, Hadapsar, Pune, Maharashtra 411028, India",https://www.google.co.kr/maps/place/Fitbox+India/data=!4m5!3m4!1s0x3bc2c1403c5c7d8f:0x631454e99e99a2c7!8m2!3d18.5042098!4d73.9323871?authuser=0&hl=en&rclk=1,18.504209799999998,73.9323871,Maharashtra
RD fitness studio,Gym,"Laxmi Nagar, Amrutdham, near UNION BANK OF INDIA, Panchavati, Nashik, Maharashtra 422003, India",https://www.google.co.kr/maps/place/RD+fitness+studio/data=!4m5!3m4!1s0x3bddebf900716601:0xee58ceda4ecd9320!8m2!3d20.0183076!4d73.8284065?authuser=0&hl=en&rclk=1,20.0183076,73.8284065,Maharashtra
IFSI Academy,Gym,"IFSI Academy , 2nd Floor , Opp. Central Park, Apte Rd, near HDFC Bank, Deccan Gymkhana, Pune, Maharashtra 411004, India",https://www.google.co.kr/maps/place/IFSI+Academy/data=!4m5!3m4!1s0x3bc2c078fedf5411:0xf846483642394fd4!8m2!3d18.5204276!4d73.8446199?authuser=0&hl=en&rclk=1,18.5204276,73.8446199,Maharashtra
Winsome Fitness Centre,Gym,"Ambika Nagar, Behind Sudit Hotel, Jalochi, Ring Road, Baramati, Maharashtra 413102, India",https://www.google.co.kr/maps/place/Winsome+Fitness+Centre/data=!4m5!3m4!1s0x3bc3a01ee50c72c3:0x3784a1b050a6be5e!8m2!3d18.1569931!4d74.5893393?authuser=0&hl=en&rclk=1,18.1569931,74.58933929999998,Maharashtra
Fitness Pros India,Fitness center,"Shop no 18 shah alpine plot no, near allahabad bank branch navi, Sector 6, Mumbai, Maharashtra 410210, India",https://www.google.co.kr/maps/place/Fitness+Pros+India/data=!4m5!3m4!1s0x3be7c1d458be329f:0x9bd6d3678df0897f!8m2!3d19.0630231!4d73.0700421?authuser=0&hl=en&rclk=1,19.063023100000002,73.0700421,Maharashtra
Maharashtra Gym,Gymnastics center,"PCMC Link Rd, Bhat Nagar, Pimpri Colony, Pimpri-Chinchwad, Maharashtra 411017, India",https://www.google.co.kr/maps/place/Maharashtra+Gym/data=!4m5!3m4!1s0x3bc2b852f356ce55:0xe16fde6af00fbde0!8m2!3d18.6268391!4d73.7973985?authuser=0&hl=en&rclk=1,18.6268391,73.7973985,Maharashtra
Orangetheory Fitness Kemps Corner,Gym,"Unit 3A, 3rd Floor, Turquoise Building, Kemps Corner, Malabar Hill, Mumbai, Maharashtra 400036, India",https://www.google.co.kr/maps/place/Orangetheory+Fitness+Kemps+Corner/data=!4m5!3m4!1s0x3be7cf5aef72e8ef:0x9c4035cfa03ed67f!8m2!3d18.9641452!4d72.8062565?authuser=0&hl=en&rclk=1,18.964145199999997,72.80625649999998,Maharashtra
GYM PLANET,Gym,"Sms Arcade, 3rd floor, above SATISH MOTORS, near SEVEN HILLS FLY OVER, Aurangabad, Maharashtra 431001, India",https://www.google.co.kr/maps/place/GYM+PLANET/data=!4m5!3m4!1s0x3bdba29c120d78dd:0xf96aacc8bed901fe!8m2!3d19.8746779!4d75.3526501?authuser=0&hl=en&rclk=1,19.8746779,75.35265009999998,Maharashtra
Sheetal fitness zone,Fitness center,"RVRR+XWW, Mastgarh, Laxminarayanpura, Jalna, Maharashtra 431213, India",https://www.google.co.kr/maps/place/Sheetal+fitness+zone/data=!4m5!3m4!1s0x3bda5789ec1c43dd:0xa786feafd31d6b00!8m2!3d19.8424812!4d75.8923162?authuser=0&hl=en&rclk=1,19.8424812,75.8923162,Maharashtra
Thorat fitness works,Gym,"Ichalkaranji Sangli Road, Vrindavan Colony, Asara Nagar, Ichalkaranji, Maharashtra 416121, India",https://www.google.co.kr/maps/place/Thorat+fitness+works/data=!4m5!3m4!1s0x3bc11d86b48f4e0b:0x89a7fdaf1e79feb8!8m2!3d16.7047481!4d74.4778499?authuser=0&hl=en&rclk=1,16.7047481,74.47784990000002,Maharashtra
THE GOAL GYM INDIA,Gym,"Prashant Nagar, Pathardi Phata, Nashik, Maharashtra 422010, India",https://www.google.co.kr/maps/place/THE+GOAL+GYM+INDIA/data=!4m5!3m4!1s0x3bddeb6b5ef43245:0xc13860a29b8c8a72!8m2!3d19.9552548!4d73.7600472?authuser=0&hl=en&rclk=1,19.955254800000002,73.7600472,Maharashtra
World's Gym,Gym,"Sai Prasad, Telengpura, Indira Market Rd, behind Axis Bank, Wardha, Maharashtra 442001, India",https://www.google.co.kr/maps/place/World's+Gym/data=!4m5!3m4!1s0x3bd47f125e692899:0x6b63f99a932ba1c2!8m2!3d20.7398403!4d78.5986081?authuser=0&hl=en&rclk=1,20.7398403,78.59860809999998,Maharashtra
The Tribe India Fitness,Physical fitness program,"Soni House, 2nd Floor, CD Barfiwala Road, JVPD Scheme, Juhu, Mumbai, Maharashtra 400047, India",https://www.google.co.kr/maps/place/The+Tribe+India+Fitness/data=!4m5!3m4!1s0x3be7c9db4f52fe69:0x9e188c144fce4755!8m2!3d19.1162584!4d72.8348776?authuser=0&hl=en&rclk=1,19.116258399999996,72.8348776,Maharashtra
Hi-Tech Gym and Fitness center,Gym,"Jamkar Complex, Parbhani - Jintur Rd, Prabhavati Nagar, Parbhani, Maharashtra 431401, India",https://www.google.co.kr/maps/place/Hi-Tech+Gym+and+Fitness+center/data=!4m5!3m4!1s0x3bd01922def0560d:0xc5783f525106a052!8m2!3d19.2732542!4d76.7614468?authuser=0&hl=en&rclk=1,19.2732542,76.7614468,Maharashtra
Naigaonkar Fitness Zone,Gym,"Barshi-Osmanabad Rd, Tambari Vibhag, Osmanabad, Maharashtra 413501, India",https://www.google.co.kr/maps/place/Naigaonkar+Fitness+Zone/data=!4m5!3m4!1s0x3bc5a3d0419f857d:0x6066e0b84e51fa30!8m2!3d18.1861187!4d76.0292458?authuser=0&hl=en&rclk=1,18.1861187,76.0292458,Maharashtra
48 Fitness,Fitness center,"3rd Floor, Crystal Point Mall, Link Road, Andheri West, Mumbai, Maharashtra 400053, India",https://www.google.co.kr/maps/place/48+Fitness/data=!4m5!3m4!1s0x3be7b6219ec318db:0xf52c42f45d0dafd8!8m2!3d19.1308742!4d72.8309171?authuser=0&hl=en&rclk=1,19.1308742,72.8309171,Maharashtra
Black box fitness,Gym,"gala no 27, nav nandanvan industrial estate, off pk road,, mulund (west), near State Bank Of India, Mumbai, Maharashtra 400080, India",https://www.google.co.kr/maps/place/Black+box+fitness/data=!4m5!3m4!1s0x3be7b8585459b887:0x3d36cde568a2a5da!8m2!3d19.1691617!4d72.9432961?authuser=0&hl=en&rclk=1,19.1691617,72.94329609999998,Maharashtra
Indian gym,Gym,"Indian gym, Paloji Mohallah, Peth Map, Chiplun, Maharashtra 415605, India",https://www.google.co.kr/maps/place/Indian+gym/data=!4m5!3m4!1s0x3bc2087ef5eee325:0xf859a9ea8ef1fb0d!8m2!3d17.5384168!4d73.5092543?authuser=0&hl=en&rclk=1,17.5384168,73.5092543,Maharashtra
Vicky's Gym & Fitness Center,Gym,"2nd Floor SBI Bank, Vishnupuri, opp. SGGS College, Nanded, Maharashtra, India",https://www.google.co.kr/maps/place/Vicky's+Gym+%26+Fitness+Center/data=!4m5!3m4!1s0x3bce29f9ff09e5d7:0xdf9679c0980c2ba7!8m2!3d19.1130775!4d77.2921168?authuser=0&hl=en&rclk=1,19.1130775,77.29211679999997,Maharashtra
Skyhealth Fitness (India) Private Limited,Physical fitness program,"Sno 26 2nd Hingane Khurd, Near Ajinkya Nagar, Sinhagad Road, Hingane Khurd, Pune, Maharashtra 411038, India",https://www.google.co.kr/maps/place/Skyhealth+Fitness+(India)+Private+Limited/data=!4m5!3m4!1s0x3bc29558cd0c32df:0x58ee378410e597c8!8m2!3d18.4792128!4d73.831099?authuser=0&hl=en&rclk=1,18.4792128,73.831099,Maharashtra
India fit gym,Gym,"Near by sg traders / light office katewadi tel Baramati, dist, Katewadi, Maharashtra 413102, India",https://www.google.co.kr/maps/place/India+fit+gym/data=!4m5!3m4!1s0x3bc39f5679ce4d29:0x6c3e522dd4cbc1d8!8m2!3d18.125026!4d74.6547467?authuser=0&hl=en&rclk=1,18.125026000000002,74.6547467,Maharashtra
IBBFF,Gym,"V9G8+RPC, Sambhaji Nagar, N 1, Cidco, Aurangabad, Maharashtra 431006, India",https://www.google.co.kr/maps/place/IBBFF/data=!4m5!3m4!1s0x3bdba311d9bc103f:0x17ef44cb2384a259!8m2!3d19.8770703!4d75.3667808?authuser=0&hl=en&rclk=1,19.8770703,75.3667808,Maharashtra
Jerai Fitness Gym,Gym,"Balkrishna Bungalow, Gate no. 2, Behind D'mart, New Link Road, Kandarpada, Dahisar West, Kandarpada Rd, Kandarpada, Dahisar West, Mumbai, Maharashtra 400068, India",https://www.google.co.kr/maps/place/Jerai+Fitness+Gym/data=!4m5!3m4!1s0x3be7b102bc336533:0x6043c771e62dcd67!8m2!3d19.25708!4d72.8503205?authuser=0&hl=en&rclk=1,19.25708,72.8503205,Maharashtra
Matoshri Gym,Gym,"Rane Nagar Rd, Near Rajiv Nagar, Kishor Nagar, Nashik, Maharashtra 422009, India",https://www.google.co.kr/maps/place/Matoshri+Gym/data=!4m5!3m4!1s0x3bddeb39c7593e71:0xb5561e790988fdc3!8m2!3d19.9666089!4d73.775301?authuser=0&hl=en&rclk=1,19.966608899999997,73.775301,Maharashtra
FRIENDS GYM,Gymnastics center,"30/3, Kat kat Gate, Road, Hudco, Aurangabad, Maharashtra 431001, India",https://www.google.co.kr/maps/place/FRIENDS+GYM/data=!4m5!3m4!1s0x3bdba2a56dae63c5:0xef4103674b21c1af!8m2!3d19.894763!4d75.350847?authuser=0&hl=en&rclk=1,19.894763,75.350847,Maharashtra
The Body Factory Gym,Gym,"Beed - Solapur Rd, Mahatma Gandhi Nagar, Galib Nagar, Osmanabad, Maharashtra 413501, India",https://www.google.co.kr/maps/place/The+Body+Factory+Gym/data=!4m5!3m4!1s0x3bc5a113bbe33c35:0x7c99b5ef6cc21c08!8m2!3d18.2043768!4d76.0407889?authuser=0&hl=en&rclk=1,18.204376800000002,76.04078890000002,Maharashtra
Sky Fitness Gym By Aakash Pane,Gym,"Saraswati colony near girivihar gate, Korit Rd, Nandurbar, Maharashtra 425412, India",https://www.google.co.kr/maps/place/Sky+Fitness+Gym+By+Aakash+Pane/data=!4m5!3m4!1s0x3bdf09a64c513399:0x920675e70495f3d!8m2!3d21.3789131!4d74.2423056?authuser=0&hl=en&rclk=1,21.378913100000002,74.2423056,Maharashtra
Marvel Fitness Gym,Gym,"Old MIDC Rd, Vishal Nagar (East), Deep Jyoti Nagar, Latur, Maharashtra 413531, India",https://www.google.co.kr/maps/place/Marvel+Fitness+Gym/data=!4m5!3m4!1s0x3bcf8354ea76333b:0x67c626df7aa705c3!8m2!3d18.4088946!4d76.5623799?authuser=0&hl=en&rclk=1,18.408894600000004,76.56237990000002,Maharashtra
Beast House The Gym,Gym,"Lukhi Empire Building dahisar,Opp to Dahisar police station Near Bank Of India dahisar, Swami Vivekananda Marg, Dahisar East, Dahisar, Maharashtra 400068, India",https://www.google.co.kr/maps/place/Beast+House+The+Gym/data=!4m5!3m4!1s0x3be7b15dbc6f5e13:0x8d2eac0a5f35b164!8m2!3d19.2530726!4d72.8652267?authuser=0&hl=en&rclk=1,19.253072600000007,72.8652267,Maharashtra
AMF Gyms,Fitness center,"Near Pratap Nagar smashan Bhumi, behind peace point residency, Aurangabad, Maharashtra 431005, India",https://www.google.co.kr/maps/place/AMF+Gyms/data=!4m5!3m4!1s0x3bdb99264e6c284b:0x51efa697bfa4a92!8m2!3d19.8565299!4d75.3276679?authuser=0&hl=en&rclk=1,19.856529899999998,75.3276679,Maharashtra
kk gym,Gym,"Kacheri Rd, Sane Nagar, Amalner, Maharashtra 425401, India",https://www.google.co.kr/maps/place/kk+gym/data=!4m5!3m4!1s0x3bd92c2b20d75225:0xf93024e56b5bca01!8m2!3d21.0459461!4d75.0580333?authuser=0&hl=en&rclk=1,21.045946100000002,75.0580333,Maharashtra
G9 Fitness,Gym,"Old Ct Ln, near Narsinha mandir, Sinnar, Maharashtra 422103, India",https://www.google.co.kr/maps/place/G9+Fitness/data=!4m5!3m4!1s0x3bddbb0f22ea1763:0x5e83ab4a85af21bf!8m2!3d19.843779!4d73.9985959?authuser=0&hl=en&rclk=1,19.843779,73.9985959,Maharashtra
RESET Bandra,Gym,"KC Marg, Reclamation, Bandra West, Mumbai, Maharashtra 400050, India",https://www.google.co.kr/maps/place/RESET+Bandra/data=!4m5!3m4!1s0x3be7c93932f83281:0xcb2d43163dc65ff7!8m2!3d19.0515529!4d72.8327674?authuser=0&hl=en&rclk=1,19.051552899999997,72.83276740000002,Maharashtra
Total Fitness,Gym,"1st Floor, Plot No:-5, G No:, 11, Paithan Rd, opp. Shanti Nursing home, Kanchanwadi, Aurangabad, Maharashtra 431136, India",https://www.google.co.kr/maps/place/Total+Fitness/data=!4m5!3m4!1s0x3bdb9972bfb91f97:0x68340416d7a7e23f!8m2!3d19.832775!4d75.2902729?authuser=0&hl=en&rclk=1,19.832775,75.2902729,Maharashtra
Yuvraj Fitness,Gym,"Ajabnagar, Aurangabad, Maharashtra 431001, India",https://www.google.co.kr/maps/place/Yuvraj+Fitness/data=!4m5!3m4!1s0x3bdb9991568aa4f9:0xab275c3e5099bdd0!8m2!3d19.8762677!4d75.3307786?authuser=0&hl=en&rclk=1,19.8762677,75.3307786,Maharashtra
BODYPRO GYM NANDED,Fitness center,"Ganesh Nagar Rd, Yeshwant Nagar, Nagsen Nagar, Nanded, Maharashtra 431602, India",https://www.google.co.kr/maps/place/BODYPRO+GYM+NANDED/data=!4m5!3m4!1s0x3bd1d73f95c9585d:0x9b05cc0b04799181!8m2!3d19.1709818!4d77.2958859?authuser=0&hl=en&rclk=1,19.1709818,77.2958859,Maharashtra
FITNESS POINT Aerobics Center Bhatt Colony Hingoli,Gym,"Bhatt Colony, Siddharth Nagar, Hingoli, Maharashtra 431513, India",https://www.google.co.kr/maps/place/FITNESS+POINT+Aerobics+Center+Bhatt+Colony+Hingoli/data=!4m5!3m4!1s0x3bd05254c4281711:0x3c7b7c3e338a93d!8m2!3d19.7204083!4d77.144565?authuser=0&hl=en&rclk=1,19.720408300000006,77.144565,Maharashtra
Body Sculptor Juhu,Gym,"Aashiyana Apartment, N S Rd Number 13, Chand Society, JVPD Scheme, Juhu, Mumbai, Maharashtra 400049, India",https://www.google.co.kr/maps/place/Body+Sculptor+Juhu/data=!4m5!3m4!1s0x3be7c9e9dc2bffff:0xfe3244b2d484d46f!8m2!3d19.1106721!4d72.8275226?authuser=0&hl=en&rclk=1,19.110672100000002,72.8275226,Maharashtra
KYROS FITNESS,Gym,"Diwanji mangal karyale, Sawe Wadi, Latur, Maharashtra 413531, India",https://www.google.co.kr/maps/place/KYROS+FITNESS/data=!4m5!3m4!1s0x3bcf839d6b5aaf95:0x3eb029b4a95170a9!8m2!3d18.4022844!4d76.5729441?authuser=0&hl=en&rclk=1,18.4022844,76.5729441,Maharashtra
Shera Gym,Gym,"2RJ3+C6M, Renuka Mata Nagar, Bhusawal, Maharashtra 425201, India",https://www.google.co.kr/maps/place/Shera+Gym/data=!4m5!3m4!1s0x3bd9a676e20aa9d7:0x7ea509b7dcb8a5de!8m2!3d21.0310802!4d75.8030555?authuser=0&hl=en&rclk=1,21.031080199999998,75.8030555,Maharashtra
Ojhar Fitness Zone,Gym,"Ojhar Fitness Zone, Bhagwati Shopping Center, near R.K. Memorial Hospital, mig, Ojhar, Maharashtra, India",https://www.google.co.kr/maps/place/Ojhar+Fitness+Zone/data=!4m5!3m4!1s0x3bddc384d66cca4b:0xefcce8a763bdac41!8m2!3d20.0975015!4d73.924543?authuser=0&hl=en&rclk=1,20.0975015,73.924543,Maharashtra
Mozzam gym,Gym,"Gandhi Market, Sawe Wadi, Latur, Maharashtra 413531, India",https://www.google.co.kr/maps/place/Mozzam+gym/data=!4m5!3m4!1s0x3bcf83fe2cb98739:0xc165520b6e5d175b!8m2!3d18.4003567!4d76.5784745?authuser=0&hl=en&rclk=1,18.4003567,76.5784745,Maharashtra
Miracle fitness point,Gym,"Baliram Patil School Rd, Hudco, Ayodhya Nagar, N 9, Cidco, Aurangabad, Maharashtra 431003, India",https://www.google.co.kr/maps/place/Miracle+fitness+point/data=!4m5!3m4!1s0x3bdba33c88cb9c75:0x73c8f079f57bb46f!8m2!3d19.8963456!4d75.3588218?authuser=0&hl=en&rclk=1,19.8963456,75.3588218,Maharashtra
Fitness 5,Gym,"Fitness-5 C/o. "" Siddhi Vinayak Health Care 148/35, Laxmi Vijay Premises, New Link Rd, Laxmi Industrial Estate, Andheri (W, Mumbai, Maharashtra 400053, India",https://www.google.co.kr/maps/place/Fitness+5/data=!4m5!3m4!1s0x3be7b7afdc752001:0x7ea52bd9b9239b6c!8m2!3d19.1358955!4d72.827638?authuser=0&hl=en&rclk=1,19.1358955,72.82763800000002,Maharashtra
GYMPAC FITNESS SYSTEMS PRIVATE LIMITED - LIFEFITNESS INDIA(AUTHORISED PARTNER FOR LIFEFITNESS HAMMER STRENGTH GYM EQUIPMENT IN INDIA),Gym,"STAR Hub, Unit no 203 2nd Floor, Sahar Airport Rd, Andheri East, Mumbai, Maharashtra 400099, India",https://www.google.co.kr/maps/place/GYMPAC+FITNESS+SYSTEMS+PRIVATE+LIMITED+-+LIFEFITNESS+INDIA(AUTHORISED+PARTNER+FOR+LIFEFITNESS+HAMMER+STRENGTH+GYM+EQUIPMENT+IN+INDIA)/data=!4m5!3m4!1s0x3be7c84747e3272b:0x53e1a21e8a7369fd!8m2!3d19.1058919!4d72.8685755?authuser=0&hl=en&rclk=1,19.1058919,72.8685755,Maharashtra
Core Perfect Fitness,Gym,"A1, Kothari Compound, 5 Acers, Manpada, Thane West, Thane, Maharashtra 400610, India",https://www.google.co.kr/maps/place/Core+Perfect+Fitness/data=!4m5!3m4!1s0x3be7bb29a6d47f39:0xbcd2c6f2e69d3c4e!8m2!3d19.236611!4d72.9727907?authuser=0&hl=en&rclk=1,19.236611,72.9727907,Maharashtra
Manjri green fitness centre,Gym,"GX37+6H7, Hadapsar, Pune, Maharashtra 412307, India",https://www.google.co.kr/maps/place/Manjri+green+fitness+centre/data=!4m5!3m4!1s0x3bc2c2723f8bc35f:0xf5ac939b168c49d4!8m2!3d18.5030343!4d73.9639179?authuser=0&hl=en&rclk=1,18.5030343,73.9639179,Maharashtra
AB Fitness Zone,Gym,"8F4W+CPM, Manwath, Maharashtra 431505, India",https://www.google.co.kr/maps/place/AB+Fitness+Zone/data=!4m5!3m4!1s0x3bd009abffffffff:0x2789bd5607fb4bff!8m2!3d19.3060901!4d76.4967919?authuser=0&hl=en&rclk=1,19.306090100000002,76.4967919,Maharashtra
Vikram's House,Gym,"96P7+G3F, Dadegaon, Maharashtra 414502, India",https://www.google.co.kr/maps/place/Vikram's+House/data=!4m5!3m4!1s0x3bdb69ba5a9990fd:0x98f65403335d3e94!8m2!3d19.3863158!4d75.2126608?authuser=0&hl=en&rclk=1,19.3863158,75.2126608,Maharashtra
Indian Fitness,Gym,"Shanti Nagar Main Rd, Zoppal Pati, Shantinagar Colony, Nagpur, Maharashtra 440002, India",https://www.google.co.kr/maps/place/Indian+Fitness/data=!4m5!3m4!1s0x3bd4c737d29ab5b1:0x25e73e398dc9d493!8m2!3d21.1639951!4d79.1274542?authuser=0&hl=en&rclk=1,21.1639951,79.1274542,Maharashtra
Fitness Zone Gym For Weight Loss- Gym in Cidco Aurangabad,Gym,"134 suvidh app, 431003, N 3, Cidco, Aurangabad, Maharashtra 431009, India",https://www.google.co.kr/maps/place/Fitness+Zone+Gym+For+Weight+Loss-+Gym+in+Cidco+Aurangabad/data=!4m5!3m4!1s0x3bdba28dcbd7ad39:0x247f5ed49c460d6e!8m2!3d19.8709661!4d75.3599483?authuser=0&hl=en&rclk=1,19.870966100000004,75.3599483,Maharashtra
Focus Fitness,Gym,"behind post office, Borgaon, Manjidana Colony, Nagpur, Maharashtra 440013, India",https://www.google.co.kr/maps/place/Focus+Fitness/data=!4m5!3m4!1s0x3bd4c1a93a3cdcf3:0x9235fc88fced727!8m2!3d21.1798987!4d79.0549501?authuser=0&hl=en&rclk=1,21.1798987,79.0549501,Maharashtra
Body Sculptor,Gym,"202, Fortune Classic, 15th Road, Above Madhubhan Toyota, Khar (West), Mumbai, Maharashtra 400052, India",https://www.google.co.kr/maps/place/Body+Sculptor/data=!4m5!3m4!1s0x3be7c90c48a8f20b:0x11c68e1f1c75c707!8m2!3d19.072936!4d72.832107?authuser=0&hl=en&rclk=1,19.072936,72.832107,Maharashtra
Cult BKC,Fitness center,"Bandra Kurla Complex, G-1,, Ground Floor, North Avenue, Maker Maxity Bandra (East),, Mumbai, Maharashtra 400051, India",https://www.google.co.kr/maps/place/Cult+BKC/data=!4m5!3m4!1s0x3be7c920b7e86df5:0xf3daa767d5465164!8m2!3d19.054385!4d72.850132?authuser=0&hl=en&rclk=1,19.054385,72.85013199999999,Maharashtra
Why Not Fitness,Fitness center,"Laxmi Business Park, 228-233, 2nd Floor, Laxmi Industrial Estate, New Link Rd, Andheri West, Mumbai, Maharashtra 400053, India",https://www.google.co.kr/maps/place/Why+Not+Fitness/data=!4m5!3m4!1s0x3be7b7239697a9ab:0x458b3e584dc5c649!8m2!3d19.1362551!4d72.8307665?authuser=0&hl=en&rclk=1,19.1362551,72.83076650000002,Maharashtra
The Lift Factory Gym,Gym,"Pendse Nagar, Dombivli East, Dombivli, Maharashtra 421201, India",https://www.google.co.kr/maps/place/The+Lift+Factory+Gym/data=!4m5!3m4!1s0x3be79529a08c39ff:0xbc63c84ffb1beccc!8m2!3d19.2188759!4d73.0947621?authuser=0&hl=en&rclk=1,19.2188759,73.0947621,Maharashtra
Sharayu Fitness,Fitness center,"Tarangan complex, Tal Haveli, Tulapur, Maharashtra 412216, India",https://www.google.co.kr/maps/place/Sharayu+Fitness/data=!4m5!3m4!1s0x3bc2c54cc574f05f:0x2fd6db11c5b1d2fd!8m2!3d18.6690792!4d73.9949339?authuser=0&hl=en&rclk=1,18.6690792,73.9949339,Maharashtra
Gurukrupa Gym,Gym,"3QVQ+852, Ahmednagar, Maharashtra 414002, India",https://www.google.co.kr/maps/place/Gurukrupa+Gym/data=!4m5!3m4!1s0x3bdcaf8106b0385f:0xeae7ab8de74ebe76!8m2!3d19.0932505!4d74.7879049?authuser=0&hl=en&rclk=1,19.0932505,74.78790490000002,Maharashtra
Atharva's Fitness World,Gym,"Pavan medical lane, Rathi Nagar, near Isckon Temple, Maharashtra 444603, India",https://www.google.co.kr/maps/place/Atharva's+Fitness+World/data=!4m5!3m4!1s0x3bd6a3f0240f5445:0x61f55810bc0ed05b!8m2!3d20.9532317!4d77.7660791?authuser=0&hl=en&rclk=1,20.953231699999996,77.7660791,Maharashtra
Barbarian Power Gym,Gym,"opp. Delhi Gate Road, Aalamgir Colony, Collector Office Campus, Aurangabad, Maharashtra 431001, India",https://www.google.co.kr/maps/place/Barbarian+Power+Gym/data=!4m5!3m4!1s0x3bdb9806535e7611:0x16fb03c1ecb2e2fe!8m2!3d19.8972809!4d75.3380273?authuser=0&hl=en&rclk=1,19.8972809,75.3380273,Maharashtra
V FITNESS,Gym,"choupad Sonavane Vada, 633, South Kasba, Budhavar Peth, Solapur, Maharashtra 413007, India",https://www.google.co.kr/maps/place/V+FITNESS/data=!4m5!3m4!1s0x3bc5db435c6e4397:0x2ec9a02107b2960e!8m2!3d17.6775296!4d75.901932?authuser=0&hl=en&rclk=1,17.6775296,75.90193199999999,Maharashtra
MultiFit Kalyani Nagar,Gym,"Gold Adlabs Mariplex Mall, 4th Floor, Kalyani Nagar, Pune, Maharashtra 411014, India",https://www.google.co.kr/maps/place/MultiFit+Kalyani+Nagar/data=!4m5!3m4!1s0x3bc2c10dff51cd3f:0x56e2f234218b26cb!8m2!3d18.54557!4d73.9063292?authuser=0&hl=en&rclk=1,18.54557,73.9063292,Maharashtra
Malhar Fitness Gym,Gym,"JVVF+J2R, Alibag, Maharashtra 402201, India",https://www.google.co.kr/maps/place/Malhar+Fitness+Gym/data=!4m5!3m4!1s0x3be87a41a6958fbd:0xeac7eb9a44bb172!8m2!3d18.644122!4d72.8725091?authuser=0&hl=en&rclk=1,18.644122,72.87250909999999,Maharashtra
Fitness-Hub,Gym,"Papu Society, 724, room no-7, Press Bazar, Ulhasnagar, Maharashtra 421003, India",https://www.google.co.kr/maps/place/Fitness-Hub/data=!4m5!3m4!1s0x3be794132ea84fa7:0x47111b785bd1fbcf!8m2!3d19.227875!4d73.1670071?authuser=0&hl=en&rclk=1,19.227875,73.1670071,Maharashtra
Swaraj Fitness Center,Gym,"Kedgaon, Ahmednagar, Maharashtra 414005, India",https://www.google.co.kr/maps/place/Swaraj+Fitness+Center/data=!4m5!3m4!1s0x3bdcb0df83b834cf:0x820f44e020a3fe06!8m2!3d19.0673805!4d74.7117916?authuser=0&hl=en&rclk=1,19.0673805,74.7117916,Maharashtra
The Pilates and Altitude Training Studio,Pilates studio,"303/304 Business Plaza Gazdar Bandh Road, SB Patil Rd, Potohar Nagar, Santacruz West, Mumbai, Maharashtra 400054, India",https://www.google.co.kr/maps/place/The+Pilates+and+Altitude+Training+Studio/data=!4m5!3m4!1s0x3be7c90abdf99ce7:0x14f4c316fdbb4868!8m2!3d19.0794065!4d72.8294166?authuser=0&hl=en&rclk=1,19.0794065,72.8294166,Maharashtra
Vivek Fitness Center & Health Clinic,Gym,"Bhagyalakshmi Nagar, Parbhani, Maharashtra 431401, India",https://www.google.co.kr/maps/place/Vivek+Fitness+Center+%26+Health+Clinic/data=!4m5!3m4!1s0x3bd018482bfe1c81:0x46bf5b017f20d2a6!8m2!3d19.2515812!4d76.7888359?authuser=0&hl=en&rclk=1,19.2515812,76.78883590000002,Maharashtra
Rudram Fitness,Gym,"Gala no.2, ground floor, kazim manjil A prem nagar, no 7, Saki Vihar Rd, opposite L & T Gate, Tunga Village, Powai, Mumbai, Maharashtra 400072, India",https://www.google.co.kr/maps/place/Rudram+Fitness/data=!4m5!3m4!1s0x3be7c981eba3a69d:0x8833ec144d5eea4c!8m2!3d19.121104!4d72.8897911?authuser=0&hl=en&rclk=1,19.121104000000006,72.8897911,Maharashtra
Focus Fitness,Gym,"Shrikant, Unit TK-L & TK-KA, Shrikanth Hadkar Marg, behind Vishwavihar Restaurant, Cotton Green, Mumbai, Maharashtra 400033, India",https://www.google.co.kr/maps/place/Focus+Fitness/data=!4m5!3m4!1s0x3be7cefd87a679a5:0x3926654bcba5738d!8m2!3d18.988232!4d72.8444759?authuser=0&hl=en&rclk=1,18.988232,72.8444759,Maharashtra
Talwalkars Adalat Road,Gym,"3rd Floor, Pagariya Tower, Hotel Aurangabad Ashoka Compound, Adalat Road, Jalna Road, Aurangabad, Maharashtra 431001, India",https://www.google.co.kr/maps/place/Talwalkars+Adalat+Road/data=!4m5!3m4!1s0x3bdb9868c8ed4349:0x475d3b051c462cb5!8m2!3d19.8733205!4d75.3198899?authuser=0&hl=en&rclk=1,19.8733205,75.3198899,Maharashtra
Sk fitness,Gym,"Icon Plaza, Signal 9, Datta Mandir Rd, near Shivdham Mandir, Nashik Road, Nashik, Maharashtra 422214, India",https://www.google.co.kr/maps/place/Sk+fitness/data=!4m5!3m4!1s0x3bdd95fe6f4841ad:0x4fff34bec90c978a!8m2!3d19.955252!4d73.834373?authuser=0&hl=en&rclk=1,19.955251999999998,73.834373,Maharashtra
Aarya Fitness gym,Gym,"R8M2+P58, Kanchanwadi, Aurangabad, Maharashtra 431136, India",https://www.google.co.kr/maps/place/Aarya+Fitness+gym/data=!4m5!3m4!1s0x3bdb98e752c4211b:0x1a3413ab74260ad6!8m2!3d19.8342955!4d75.3004626?authuser=0&hl=en&rclk=1,19.8342955,75.30046259999997,Maharashtra
Raut Gym,Gym,"Gopikishan Nagar, Gyatri Nagar, Jalna, Maharashtra 431203, India",https://www.google.co.kr/maps/place/Raut+Gym/data=!4m5!3m4!1s0x3bda5750cc83a0b5:0x5ca8461aa4dc6647!8m2!3d19.8492855!4d75.8939114?authuser=0&hl=en&rclk=1,19.8492855,75.89391140000002,Maharashtra
Nitrro Bespoke Fitness,Gym,"Supreme Business Park, 10th Floor B-Wing, Hiranandani Gardens, Powai, Mumbai, Maharashtra 400076, India",https://www.google.co.kr/maps/place/Nitrro+Bespoke+Fitness/data=!4m5!3m4!1s0x3be7c73fe13d5c0b:0xa9d14159f7f0b59c!8m2!3d19.1115032!4d72.9088475?authuser=0&hl=en&rclk=1,19.1115032,72.9088475,Maharashtra
Vickys Fitness Factory,Gym,"Boisar Rd, Gothan Pura, Palghar, Maharashtra 401404, India",https://www.google.co.kr/maps/place/Vickys+Fitness+Factory/data=!4m5!3m4!1s0x3be71cfac7f091a1:0xae3a21a6ff0f6910!8m2!3d19.7077802!4d72.767314?authuser=0&hl=en&rclk=1,19.7077802,72.767314,Maharashtra
Avishkar Body Care & Gym,Gym,"RVWV+PV5, Rahman Ganj, Jalna, Maharashtra 431203, India",https://www.google.co.kr/maps/place/Avishkar+Body+Care+%26+Gym/data=!4m5!3m4!1s0x3bda5759f005ba77:0xac8bdc55572b6f84!8m2!3d19.8467601!4d75.8947483?authuser=0&hl=en&rclk=1,19.8467601,75.8947483,Maharashtra
Move with V,Fitness center,"Vision Galaxy, Above Ahmednagar Merchant Bank, Nashik - Pune Hwy, opposite Jai Hind HAll, Narayangaon, Maharashtra 410504, India",https://www.google.co.kr/maps/place/Move+with+V/data=!4m5!3m4!1s0x3bdd23130bd949c1:0x93a84c488c89c2f1!8m2!3d19.1479762!4d74.0312121?authuser=0&hl=en&rclk=1,19.1479762,74.03121209999998,Maharashtra
Evolution Fitness & Combat Sports Academy,Gym,"Bandra Physical Culture Association St Martin's Road, Bandra West, Mumbai, Maharashtra 400050, India",https://www.google.co.kr/maps/place/Evolution+Fitness+%26+Combat+Sports+Academy/data=!4m5!3m4!1s0x3be7c912f06d5951:0xbe7ddf2d72694342!8m2!3d19.0582805!4d72.835532?authuser=0&hl=en&rclk=1,19.0582805,72.835532,Maharashtra
Fit with Swapnali Jambe,Physical fitness program,"Professor chowk, Savedi, Ahmednagar, Maharashtra 414001, India",https://www.google.co.kr/maps/place/Fit+with+Swapnali+Jambe/data=!4m5!3m4!1s0x3bdcbb2631389cbd:0x796c4b883e79595c!8m2!3d19.1184577!4d74.7330597?authuser=0&hl=en&rclk=1,19.1184577,74.73305970000001,Maharashtra
Rain Fitness,Gym,"Plot no.18, rajani kamal park 1, opp. Anand aashram school, Palghar West, Palghar, Maharashtra 401404, India",https://www.google.co.kr/maps/place/Rain+Fitness/data=!4m5!3m4!1s0x3be71ddf1e393fd1:0x8804451920dcec4e!8m2!3d19.6916549!4d72.7711311?authuser=0&hl=en&rclk=1,19.6916549,72.7711311,Maharashtra
Power House Gym,Gym,"224,Kavijung nagar, Gulmohar Rd, Savedi, Ahmednagar, Maharashtra 414003, India",https://www.google.co.kr/maps/place/Power+House+Gym/data=!4m5!3m4!1s0x3bdcbb2f116407f5:0x6682d57e356e80ae!8m2!3d19.1195264!4d74.7492479?authuser=0&hl=en&rclk=1,19.119526399999998,74.7492479,Maharashtra
Run India Run Marathon and Fitness Training Center,Physical fitness program,"Orchard Residence Rd, Amrut Nagar, Ghatkopar West, Mumbai, Maharashtra 400086, India",https://www.google.co.kr/maps/place/Run+India+Run+Marathon+and+Fitness+Training+Center/data=!4m5!3m4!1s0x3be7c7c8a2fc516f:0x425600706f1c35f2!8m2!3d19.099828!4d72.9178285?authuser=0&hl=en&rclk=1,19.099828,72.9178285,Maharashtra
Health Gym,Gym,"B2, Katrap Rd, Belavali, Badlapur, Maharashtra 421503, India",https://www.google.co.kr/maps/place/Health+Gym/data=!4m5!3m4!1s0x3be792d6ef6c207d:0x11e4b73a64b7f403!8m2!3d19.1724867!4d73.2332876?authuser=0&hl=en&rclk=1,19.1724867,73.2332876,Maharashtra
Integrated fitness and Sports Institute - Nashik Branch,Physical fitness program,"Euphoria Fitness Club, Old Canal Link Road, Krishnaban Colony, near Govind Nagar, Nashik, Maharashtra 422005, India",https://www.google.co.kr/maps/place/Integrated+fitness+and+Sports+Institute+-+Nashik+Branch/data=!4m5!3m4!1s0x3bddeba13ba2fb07:0x693b8de6a4e11582!8m2!3d19.980746!4d73.7769336?authuser=0&hl=en&rclk=1,19.980746,73.77693359999998,Maharashtra
King Fitness Center,Fitness center,"Jaywanti Nagar, Ambajogai, Maharashtra 431517, India",https://www.google.co.kr/maps/place/King+Fitness+Center/data=!4m5!3m4!1s0x3bc55f18a280968d:0xb50f4cf1a8624328!8m2!3d18.7314503!4d76.3911137?authuser=0&hl=en&rclk=1,18.7314503,76.3911137,Maharashtra
True Fitness,Gym,"1st floor, Atul Blue Fortuna Tower, near Tanvi Supermarket, Marol, Andheri East, Mumbai, Maharashtra 400059, India",https://www.google.co.kr/maps/place/True+Fitness/data=!4m5!3m4!1s0x3be7c810ffe0c545:0x6c692b4685151025!8m2!3d19.1173981!4d72.8842873?authuser=0&hl=en&rclk=1,19.117398100000006,72.8842873,Maharashtra
"Zakir Hussain Gym, Bhusawal",Gym,"Millat Nagar, Bhusawal, Maharashtra 425201, India","https://www.google.co.kr/maps/place/Zakir+Hussain+Gym,+Bhusawal/data=!4m5!3m4!1s0x3bd9a6139e5c297f:0xb6c545543f68c74a!8m2!3d21.0419382!4d75.790702?authuser=0&hl=en&rclk=1",21.041938199999997,75.790702,Maharashtra
Evolution Gym – Men & Women Fitness,Gym,"Infront of Vani Nagar, Pipeline Road,, Ahmednagar, Maharashtra 414003, India",https://www.google.co.kr/maps/place/Evolution+Gym+%E2%80%93+Men+%26+Women+Fitness/data=!4m5!3m4!1s0x3bdcba89a6a6dd73:0xed1772533940caae!8m2!3d19.1290319!4d74.7362806?authuser=0&hl=en&rclk=1,19.129031899999998,74.7362806,Maharashtra
Run India Run Marathon and Fitness Training Center,Physical fitness program,"4R3F+GRF, Juhu Tara, Juhu, Mumbai, Maharashtra 400047, India",https://www.google.co.kr/maps/place/Run+India+Run+Marathon+and+Fitness+Training+Center/data=!4m5!3m4!1s0x3be7c9eb25e8662f:0xff9ec78780d100ec!8m2!3d19.1038007!4d72.8245403?authuser=0&hl=en&rclk=1,19.103800699999997,72.8245403,Maharashtra
Heartbeat Gym,Gym,"Canal Rd, Ashtvinayak Nagar, Taroda Kh., Maharashtra 431605, India",https://www.google.co.kr/maps/place/Heartbeat+Gym/data=!4m5!3m4!1s0x3bd1d69c1b7cd841:0xc4645dcd76f1e7d6!8m2!3d19.1883461!4d77.2913772?authuser=0&hl=en&rclk=1,19.1883461,77.2913772,Maharashtra
Keep Fit Gym,Fitness center,"Near Vittal Mandir Dasera Maidan Malegoan Road, Agrawal Nagar, Dhule, Maharashtra 424001, India",https://www.google.co.kr/maps/place/Keep+Fit+Gym/data=!4m5!3m4!1s0x3bdec5fc4f3e1493:0xe221a2b5c91607fb!8m2!3d20.8832146!4d74.7727603?authuser=0&hl=en&rclk=1,20.883214600000002,74.7727603,Maharashtra
Divekar Akhada (Adarsh Gym),Gym,"P299+86V, Jatharpeth, Akola, Maharashtra 444005, India",https://www.google.co.kr/maps/place/Divekar+Akhada+(Adarsh+Gym)/data=!4m5!3m4!1s0x3bd72e226f2dbd3f:0x83620eac4b383122!8m2!3d20.7183651!4d77.0180556?authuser=0&hl=en&rclk=1,20.7183651,77.0180556,Maharashtra
Talwalkars HiFi,Gym,"2nd Floor, Dr. Mhaske's Hospital Bldg,, Opp. Icici Bank, Shirdi-Manmad Road, Savedi, Ahmednagar, Maharashtra 414003, India",https://www.google.co.kr/maps/place/Talwalkars+HiFi/data=!4m5!3m4!1s0x3bdcbb02148bb4a1:0x7456513727ac743c!8m2!3d19.1214485!4d74.7275014?authuser=0&hl=en&rclk=1,19.1214485,74.72750140000002,Maharashtra
Super Gym,Gym,"Bus Stand Rd, near Sumit Medical, Selu, Maharashtra 431503, India",https://www.google.co.kr/maps/place/Super+Gym/data=!4m5!3m4!1s0x3bda9fb4c63754ff:0x688e4bb17e16951b!8m2!3d19.4506333!4d76.4336495?authuser=0&hl=en&rclk=1,19.4506333,76.4336495,Maharashtra
Krida Sankul Jogging Track,Gym,"krida sankul, Vishal Nagar (East), Deep Jyoti Nagar, Latur, Maharashtra 413531, India",https://www.google.co.kr/maps/place/Krida+Sankul+Jogging+Track/data=!4m5!3m4!1s0x3bcf83faaaaaaaab:0x7f1fe452bab846b2!8m2!3d18.4087934!4d76.5603828?authuser=0&hl=en&rclk=1,18.408793399999997,76.5603828,Maharashtra
The Jym (Fitness and Health Centre),Gym,"Ground Floor, Near Sai Baba Mandir, Close to the 12th Road Chapp, 12th Rd, Chembur, Mumbai, Maharashtra 400071, India",https://www.google.co.kr/maps/place/The+Jym+(Fitness+and+Health+Centre)/data=!4m5!3m4!1s0x3be7c61c0c228f91:0xee3905bb1fec9b56!8m2!3d19.0573397!4d72.9035756?authuser=0&hl=en&rclk=1,19.0573397,72.9035756,Maharashtra
Run India Run Marathon and Fitness Training Center,Physical fitness program,"2VC3+88V, Matunga, Mumbai, Maharashtra 400019, India",https://www.google.co.kr/maps/place/Run+India+Run+Marathon+and+Fitness+Training+Center/data=!4m5!3m4!1s0x3be7cf273e41f7a9:0xb46abf87dc4bedaf!8m2!3d19.0208662!4d72.8532984?authuser=0&hl=en&rclk=1,19.020866199999997,72.8532984,Maharashtra
Ganesh Mahale's GM Fitness Centre.,Gym,"Sawata Mandir Rd, Shrirampur, Maharashtra 413709, India",https://www.google.co.kr/maps/place/Ganesh+Mahale's+GM+Fitness+Centre./data=!4m5!3m4!1s0x3bdc8a4cb4b7b0b5:0xdbac1e0f37925607!8m2!3d19.6163724!4d74.656427?authuser=0&hl=en&rclk=1,19.6163724,74.65642700000002,Maharashtra
Okinawa Fitness,Gym,"987, Jawaharlal Nehru Rd, New Nana Peth, Ganesh Peth, Pune, Maharashtra 411002, India",https://www.google.co.kr/maps/place/Okinawa+Fitness/data=!4m5!3m4!1s0x3bc2c16c6b2cb939:0x3e226230b91da69d!8m2!3d18.5128628!4d73.8686286?authuser=0&hl=en&rclk=1,18.5128628,73.8686286,Maharashtra
Aurangabad,Fitness center,"Anupam, opp. to SB College, Aurangpura, Aurangabad, Maharashtra 431001, India",https://www.google.co.kr/maps/place/Aurangabad/data=!4m5!3m4!1s0x3bdb99113b6609d5:0xb29ce3755bd8e12!8m2!3d19.8781542!4d75.3200699?authuser=0&hl=en&rclk=1,19.878154199999997,75.32006990000002,Maharashtra
Galaxy Friends Gym,Gymnastics center,"7QF5+Q3M, Inayat Nagar, Prabhavati Nagar, Parbhani, Maharashtra 431401, India",https://www.google.co.kr/maps/place/Galaxy+Friends+Gym/data=!4m5!3m4!1s0x3bd017606cd033a5:0x513ba992f266e896!8m2!3d19.2744745!4d76.7576798?authuser=0&hl=en&rclk=1,19.2744745,76.75767979999998,Maharashtra
FOCUS THE FITNESS,Gym,"plot no-92, Sector 8A, CBD Belapur, Navi Mumbai, Maharashtra 400614, India",https://www.google.co.kr/maps/place/FOCUS+THE+FITNESS/data=!4m5!3m4!1s0x3be7c3fe279f53ef:0x810ee248b273fe8b!8m2!3d19.034999!4d73.0421275?authuser=0&hl=en&rclk=1,19.034999,73.0421275,Maharashtra
Ahmednagar Shotokan Karate Do Branch 4,Gym,"Katore Nagar, MIDC, Ahmednagar, Maharashtra 414111, India",https://www.google.co.kr/maps/place/Ahmednagar+Shotokan+Karate+Do+Branch+4/data=!4m5!3m4!1s0x3bdcba4722ff8643:0x4277e63a8636c81d!8m2!3d19.1417604!4d74.7126726?authuser=0&hl=en&rclk=1,19.1417604,74.71267259999998,Maharashtra
King bouncer Shabbir,Gym,"King bouncer, Ahmednagar - Aurangabad Rd, Mukundnagar, Ahmednagar, Maharashtra 414001, India",https://www.google.co.kr/maps/place/King+bouncer+Shabbir/data=!4m5!3m4!1s0x3bdcb1ada4913b27:0xac66692e37e63afb!8m2!3d19.1068772!4d74.7540065?authuser=0&hl=en&rclk=1,19.1068772,74.75400649999997,Maharashtra
Nitro Sport & Fitness Center,Gym,"Swantraveer Sawarkar Taran Taloa, Behind Kanhaiyya Nagar, Kopri, Thane East, opposite Kaya, Mumbai, Maharashtra 400603, India",https://www.google.co.kr/maps/place/Nitro+Sport+%26+Fitness+Center/data=!4m5!3m4!1s0x3be7b8dc659d631f:0x1a8fd4095c166032!8m2!3d19.17841!4d72.974662?authuser=0&hl=en&rclk=1,19.17841,72.974662,Maharashtra
Trimurti Gym,Gym,"Unnamed Road, Lokmanya Nagar, Ichalkaranji, Maharashtra 416121, India",https://www.google.co.kr/maps/place/Trimurti+Gym/data=!4m5!3m4!1s0x3bc11d25bdd54269:0x83a85f665784686e!8m2!3d16.7192262!4d74.4410081?authuser=0&hl=en&rclk=1,16.719226199999998,74.44100809999998,Maharashtra
THE BODYGARAGE GYM,Gym,"Pimpale Jagatap, Maharashtra 412216, India",https://www.google.co.kr/maps/place/THE+BODYGARAGE+GYM/data=!4m5!3m4!1s0x3bc2d1b2540ef699:0x7dfb12c252a6fb97!8m2!3d18.7083074!4d74.0721906?authuser=0&hl=en&rclk=1,18.7083074,74.0721906,Maharashtra
"ABS FITNESS - CAMP, NEHRU MEMORIAL HALL. GYM in CAMP PUNE. GYMS in Camp. FITNESS CENTRE NEAR CAMP. GYM NEAR CAMP.",Gym,"Atur Foundation House, 4, Dr Baba Saheb Ambedkar Rd, Above Nehru Memorial hall, Camp, Pune, Maharashtra 411001, India","https://www.google.co.kr/maps/place/ABS+FITNESS+-+CAMP,+NEHRU+MEMORIAL+HALL.+GYM+in+CAMP+PUNE.+GYMS+in+Camp.+FITNESS+CENTRE+NEAR+CAMP.+GYM+NEAR+CAMP./data=!4m5!3m4!1s0x3bc2c1c99f746687:0x55e09af415590d28!8m2!3d18.5197542!4d73.8758368?authuser=0&hl=en&rclk=1",18.519754199999998,73.8758368,Maharashtra
Gymkhana,Gym,"HFQC+QRM, Datta Nagar, Loni, Maharashtra 413713, India",https://www.google.co.kr/maps/place/Gymkhana/data=!4m5!3m4!1s0x3bdcf706ec37cd63:0x80869649e6ea0ae7!8m2!3d19.5894583!4d74.4720495?authuser=0&hl=en&rclk=1,19.5894583,74.4720495,Maharashtra
Hard Knocks Gym,Gymnasium Cz,"46VM+G77, Ambika Nagar, Lasalgaon, Maharashtra 422306, India",https://www.google.co.kr/maps/place/Hard+Knocks+Gym/data=!4m5!3m4!1s0x3bdc32dcf1452fdd:0xca7a15082320d763!8m2!3d20.1437865!4d74.2331684?authuser=0&hl=en&rclk=1,20.143786499999997,74.2331684,Maharashtra
Nitin Kamble,Fitness center,"19A, Patbandhare Nagar, Taroda Naka, Nanded, Maharashtra 431605, India",https://www.google.co.kr/maps/place/Nitin+Kamble/data=!4m5!3m4!1s0x3bd1d79bf288641f:0x46793b51fd8cf2ec!8m2!3d19.1864805!4d77.3028275?authuser=0&hl=en&rclk=1,19.1864805,77.3028275,Maharashtra
varad peshwe,Gym,"jalam road, Amrut Nagar, Khamgaon, Maharashtra 444312, India",https://www.google.co.kr/maps/place/varad+peshwe/data=!4m5!3m4!1s0x3bd750c3faf2e8bb:0x1f8a0c16acb07c16!8m2!3d20.7225625!4d76.566741?authuser=0&hl=en&rclk=1,20.7225625,76.56674100000002,Maharashtra
Ajay sonune,Gym,"Unnamed Road, Pimpalwadi, Maharashtra 431504, India",https://www.google.co.kr/maps/place/Ajay+sonune/data=!4m5!3m4!1s0x3bda7daeb2a47c5b:0xb291e6068ab7eff6!8m2!3d19.8544726!4d76.2960077?authuser=0&hl=en&rclk=1,19.8544726,76.2960077,Maharashtra
Maruti Steel India,Gym,"MIDC Ambad, Nashik, Maharashtra 422010, India",https://www.google.co.kr/maps/place/Maruti+Steel+India/data=!4m5!3m4!1s0x3bddeca5199111df:0xd03851f0c1f4fc42!8m2!3d19.9639604!4d73.7377959?authuser=0&hl=en&rclk=1,19.963960399999998,73.73779590000002,Maharashtra
BADMINTON CLASSES,Gym,"JMF6+6QV, Shrirampur, Maharashtra 413709, India",https://www.google.co.kr/maps/place/BADMINTON+CLASSES/data=!4m5!3m4!1s0x3bdc8a498ce76359:0x544e116f3779e357!8m2!3d19.6231175!4d74.6619074?authuser=0&hl=en&rclk=1,19.6231175,74.6619074,Maharashtra
Pehellwaan gym,Gym,"49/2, Chandan Nagar, Pune, Maharashtra 411014, India",https://www.google.co.kr/maps/place/Pehellwaan+gym/data=!4m5!3m4!1s0x3bc2c1fbc55a427d:0xb4ca71b1029fb0b7!8m2!3d18.5612378!4d73.932586?authuser=0&hl=en&rclk=1,18.5612378,73.932586,Maharashtra
"SBES Sports Complex, Badminton,Table Tennis",Gym,"SBES Area, Saraswatinagar, Aurangpura, Aurangabad, Maharashtra 431001, India","https://www.google.co.kr/maps/place/SBES+Sports+Complex,+Badminton,Table+Tennis/data=!4m5!3m4!1s0x3bdb986d212a5fa5:0xcf7ac9131330bfdd!8m2!3d19.881267!4d75.3268301?authuser=0&hl=en&rclk=1",19.881267,75.3268301,Maharashtra
Walking Plaza,Gym,"V896+XPH, Padampura, Aurangabad, Maharashtra 431002, India",https://www.google.co.kr/maps/place/Walking+Plaza/data=!4m5!3m4!1s0x3bdb99d4e445e62b:0x901d283c1ff8152f!8m2!3d19.8699325!4d75.3118526?authuser=0&hl=en&rclk=1,19.8699325,75.3118526,Maharashtra
TAJ IMC HERBAL INDIA,Gym,"Walli Chowk, Old- Town, Malkapur, Maharashtra, India",https://www.google.co.kr/maps/place/TAJ+IMC+HERBAL+INDIA/data=!4m5!3m4!1s0x3bd9e9eb06c831e3:0x5cb099f6067c7d54!8m2!3d20.8888307!4d76.1982617?authuser=0&hl=en&rclk=1,20.8888307,76.1982617,Maharashtra
"The Pilates Studio by Namrata Purohit, Aundh",Pilates studio,"S No 152/4, CTS No 352, Aundh Opposite Pandit Bheemsen Joshi Auditorium, near PMRDA Office, Bremen Chowk, Pune, Maharashtra 411067, India","https://www.google.co.kr/maps/place/The+Pilates+Studio+by+Namrata+Purohit,+Aundh/data=!4m5!3m4!1s0x3bc2bf5820c61f8b:0x46e4fbdca002181c!8m2!3d18.5636083!4d73.8123877?authuser=0&hl=en&rclk=1",18.563608300000002,73.8123877,Maharashtra
Viva Fitness,Gym,"286, Palm Beach Rd, Kopri Village, Kopripada, Sector 28, Vashi, Navi Mumbai, Maharashtra 400703, India",https://www.google.co.kr/maps/place/Viva+Fitness/data=!4m5!3m4!1s0x3be7c124f7b0939f:0xba61f1c23e99aea8!8m2!3d19.0887781!4d73.0089438?authuser=0&hl=en&rclk=1,19.088778100000006,73.0089438,Maharashtra
The Pilates Studio,Pilates studio,"Aston Building, Unit 306, 3rd Floor Sundervan Complex, Lokhandwala Road, Andheri Link Rd, Andheri (W, Mumbai, Maharashtra 400053, India",https://www.google.co.kr/maps/place/The+Pilates+Studio/data=!4m5!3m4!1s0x3be7b70a2d58a1db:0xd6730cda6304c940!8m2!3d19.1374023!4d72.8260224?authuser=0&hl=en&rclk=1,19.1374023,72.8260224,Maharashtra
The Pilates Studio by Namrata Purohit,Pilates studio,"Liberty Society, Phase II, E1, House No 2, Ground Floor, N Main Rd, next to Celio, Koregaon Park, Pune, Maharashtra 411001, India",https://www.google.co.kr/maps/place/The+Pilates+Studio+by+Namrata+Purohit/data=!4m5!3m4!1s0x3bc2c148e094e1d5:0x7df1cb74c3036f9c!8m2!3d18.5398553!4d73.8985554?authuser=0&hl=en&rclk=1,18.539855300000006,73.8985554,Maharashtra
Pruthvi Agri Biotech,Gym,"Dr Rajendra Prasad Rd, Bhumika, Mission Compound, Jalna, Maharashtra 431203, India",https://www.google.co.kr/maps/place/Pruthvi+Agri+Biotech/data=!4m5!3m4!1s0x3bda59e35d4c1df9:0x6ddb4ff9a959438a!8m2!3d19.846947!4d75.904972?authuser=0&hl=en&rclk=1,19.846947,75.904972,Maharashtra
Chaatak Nature Conservation Sociey,Gym,"2WMR+98X, Ordnance Factory Estate, Kahurkhede, Maharashtra 425308, India",https://www.google.co.kr/maps/place/Chaatak+Nature+Conservation+Sociey/data=!4m5!3m4!1s0x3bd9bafeaf2b7019:0x18117fb93f61fbca!8m2!3d21.0334778!4d75.9408495?authuser=0&hl=en&rclk=1,21.033477800000004,75.9408495,Maharashtra
The Pilates Studio,Pilates studio,"Dharam Palace, 702 Panchsheel Plaza, Behind, N S Patkar Marg, Gamdevi, Mumbai, Maharashtra 400007, India",https://www.google.co.kr/maps/place/The+Pilates+Studio/data=!4m5!3m4!1s0x3be7ce0e843fb1f7:0x89527e458f05453e!8m2!3d18.9575739!4d72.81232?authuser=0&hl=en&rclk=1,18.957573899999996,72.81232,Maharashtra
Aadhar Enterprises,Gym,"Aurangpura - Samarthnagar Rd, Sahjeevan Colony, Nutan Colony, Nirala Bazar, Aurangabad, Maharashtra 431001, India",https://www.google.co.kr/maps/place/Aadhar+Enterprises/data=!4m5!3m4!1s0x3bdb986b92a958f1:0x25af7a38d892eb41!8m2!3d19.8777113!4d75.3229783?authuser=0&hl=en&rclk=1,19.8777113,75.32297829999997,Maharashtra
Badi Masjid Aurangabad,Gym,"V8GV+F88, Kailash Nagar, Mondha, Aurangabad, Maharashtra 431001, India",https://www.google.co.kr/maps/place/Badi+Masjid+Aurangabad/data=!4m5!3m4!1s0x3bdba38d6253b52b:0x1c4c919f49e328ff!8m2!3d19.8761653!4d75.3433139?authuser=0&hl=en&rclk=1,19.8761653,75.34331390000001,Maharashtra
BRICK HOUSE,Gym,"GVPJ+VH3, Sangamvadi, Pune, Maharashtra 411001, India",https://www.google.co.kr/maps/place/BRICK+HOUSE/data=!4m5!3m4!1s0x3bc2c16f19ae92cf:0xff8336dec2f97ae7!8m2!3d18.5371362!4d73.8814299?authuser=0&hl=en&rclk=1,18.5371362,73.88142990000001,Maharashtra
Kathak Nritya Mandir,Gym,"Shreeniwas Moreshwar Colony, Akola, Maharashtra, India",https://www.google.co.kr/maps/place/Kathak+Nritya+Mandir/data=!4m5!3m4!1s0x3bd72f1a9c7c4e6f:0xe78d86beea0a8d88!8m2!3d20.7106977!4d77.0182634?authuser=0&hl=en&rclk=1,20.710697699999997,77.01826340000002,Maharashtra
Plus Fitness 24/7 Mumbai Central,Gym,"Nathani Heights A Wing, 105, Lamington Rd, Marzban Parsi Colony, Dalal Estate, Mumbai Central, Mumbai, Maharashtra 400008, India",https://www.google.co.kr/maps/place/Plus+Fitness+24%2F7+Mumbai+Central/data=!4m5!3m4!1s0x3be7cf13ef28e809:0x4f1b8debf9f62e61!8m2!3d18.9685986!4d72.8204096?authuser=0&hl=en&rclk=1,18.9685986,72.82040959999998,Maharashtra
