Company_Name,Category,Address,Url,Latitude,Longitude,State
Dr. S. Bagchi's Memorial Clinic,Medical clinic,"2V22+783, Hojai, Assam 782435, India",https://www.google.co.kr/maps/place/Dr.+S.+Bagchi's+Memorial+Clinic/data=!4m5!3m4!1s0x37456b5a658be2eb:0xb78a2c1fe4bcb880!8m2!3d26.0006345!4d92.8507986?authuser=0&hl=en&rclk=1,26.0006345,92.8507986,Assam
Apollo Clinic - Best Diagnostic Center in Guwahati,Diagnostic center,"Meena Bhawani, Kanchan Rd, South Sarania, Ulubari, Guwahati, Assam 781005, India",https://www.google.co.kr/maps/place/Apollo+Clinic+-+Best+Diagnostic+Center+in+Guwahati/data=!4m5!3m4!1s0x375a5979ce01fb41:0xe13107fb0d68e82b!8m2!3d26.1691242!4d91.7630102?authuser=0&hl=en&rclk=1,26.1691242,91.7630102,Assam
Apollo Clinic: Dispur,Medical clinic,"GS Rd, opp. Down Town Hospital, Dispur, Rukmini Gaon, Guwahati, Assam 781006, India",https://www.google.co.kr/maps/place/Apollo+Clinic:+Dispur/data=!4m5!3m4!1s0x375a59f4d4f8fa01:0xa0e9d1990396560e!8m2!3d26.1384344!4d91.7989519?authuser=0&hl=en&rclk=1,26.1384344,91.7989519,Assam
Assam Healthcare,Hospital,"Maya Ville, House, No. 97, Barthakur Mill Rd, Ulubari, Guwahati, Assam 781007, India",https://www.google.co.kr/maps/place/Assam+Healthcare/data=!4m5!3m4!1s0x375a59ac6425fc23:0xf1752346a56a5a!8m2!3d26.17185!4d91.7592834?authuser=0&hl=en&rclk=1,26.17185,91.7592834,Assam
Dr. Madhusudhan Deb Goswami's Clinic,Medical clinic,"Unnamed Road, E Amolapatty, Nagaon, Assam 782001, India",https://www.google.co.kr/maps/place/Dr.+Madhusudhan+Deb+Goswami's+Clinic/data=!4m5!3m4!1s0x3745272d6b0a6d93:0x3b5f8c547a30095a!8m2!3d26.3605345!4d92.6923112?authuser=0&hl=en&rclk=1,26.3605345,92.6923112,Assam
Krsnaa Diagnostics (MANGALDAI CIVIL HOSPITAL),Diagnostic center,"NH 52, Ward No-2, Mangaldoi, Assam 784125, India",https://www.google.co.kr/maps/place/Krsnaa+Diagnostics+(MANGALDAI+CIVIL+HOSPITAL)/data=!4m5!3m4!1s0x375b1da527c467af:0x34ce14d3d55eaf9b!8m2!3d26.4375327!4d92.0364538?authuser=0&hl=en&rclk=1,26.4375327,92.0364538,Assam
Chikitsa Clinic,Diagnostic center,"2, Assam Trunk Rd, near V2, Adabari, Guwahati, Assam 781014, India",https://www.google.co.kr/maps/place/Chikitsa+Clinic/data=!4m5!3m4!1s0x375a5b30fbf912fb:0xff417882b181ae78!8m2!3d26.1580372!4d91.6836954?authuser=0&hl=en&rclk=1,26.1580372,91.6836954,Assam
Apollo Clinic - Best Diagnostic Center,Diagnostic center,"Siddha Point, Sati Joymati Rd, opposite Marwari Hospital, Athgaon, Guwahati, Assam 781001, India",https://www.google.co.kr/maps/place/Apollo+Clinic+-+Best+Diagnostic+Center/data=!4m5!3m4!1s0x375a5bcca9212495:0x1b07387d8a44b7d4!8m2!3d26.1722238!4d91.7402751?authuser=0&hl=en&rclk=1,26.1722238,91.7402751,Assam
"PRARTHANA PHYSIOTHERAPY CLINIC, Babejia chariali Nagaon Assam",Physical therapy clinic,"Bebejia chariali, NH 37 Opposite United bank of India, babejia branch, near Prantu hardware, Assam 782142, India","https://www.google.co.kr/maps/place/PRARTHANA+PHYSIOTHERAPY+CLINIC,+Babejia+chariali+Nagaon+Assam/data=!4m5!3m4!1s0x3745255677661a61:0x647c2e2dbda1046f!8m2!3d26.3001553!4d92.6228352?authuser=0&hl=en&rclk=1",26.3001553,92.6228352,Assam
Physiotherapy and Rehabilitation Centre Nagaon,Physical therapy clinic,"Mercy Hospital, Haiborgaon, Nagaon, Assam 782002, India",https://www.google.co.kr/maps/place/Physiotherapy+and+Rehabilitation+Centre+Nagaon/data=!4m5!3m4!1s0x374526fdf53d273d:0x2ec6ad70fb8bce9c!8m2!3d26.34421!4d92.683072?authuser=0&hl=en&rclk=1,26.34421,92.683072,Assam
Medicity Guwahati,Medical clinic,"Hatigaon Main Road, Opposite, Shankar Path, Dispur, Guwahati, Assam 781006, India",https://www.google.co.kr/maps/place/Medicity+Guwahati/data=!4m5!3m4!1s0x375a593aa70fdcdf:0x6727ee5ea32621a9!8m2!3d26.1360554!4d91.7862237?authuser=0&hl=en&rclk=1,26.1360554,91.7862237,Assam
Dr.P.K Sarma,Medical clinic,"Itachali Post Office, R.K Road, Ramakrishna Rd, Nagaon, Assam 782001, India",https://www.google.co.kr/maps/place/Dr.P.K+Sarma/data=!4m5!3m4!1s0x3745272ecb633283:0x287b3089ef7994ec!8m2!3d26.3530513!4d92.6919314?authuser=0&hl=en&rclk=1,26.3530513,92.6919314,Assam
Khaklari Clinic,Medical clinic,"P4X3+MJ3, Udalguri, Assam 784509, India",https://www.google.co.kr/maps/place/Khaklari+Clinic/data=!4m5!3m4!1s0x375b14e259bbaae9:0xcfc3025a715f13f0!8m2!3d26.7491304!4d92.1040602?authuser=0&hl=en&rclk=1,26.7491304,92.1040602,Assam
Children's Clinic,Medical clinic,"Beltola Bazaar Rd, Beltola Tiniali, Guwahati, Assam 781028, India",https://www.google.co.kr/maps/place/Children's+Clinic/data=!4m5!3m4!1s0x375a5f2d683b3909:0xa4fb9154bf098bfd!8m2!3d26.1232117!4d91.8018754?authuser=0&hl=en&rclk=1,26.1232117,91.8018754,Assam
"Apollo Clinic , Tinsukia",Medical clinic,"Nilima Apartment, Rangagora Rd, opposite hotel jyoti, Tinsukia, Assam 786125, India","https://www.google.co.kr/maps/place/Apollo+Clinic+,+Tinsukia/data=!4m5!3m4!1s0x373f6a54d7e9be0d:0xb0d9a62a2c6ee1f9!8m2!3d27.4932967!4d95.3493439?authuser=0&hl=en&rclk=1",27.4932967,95.3493439,Assam
Dr Kamal Jain Clinic,Diabetologist,"Choudhury Complex, AK Azad Rd, Rehabari, Guwahati, Assam 781008, India",https://www.google.co.kr/maps/place/Dr+Kamal+Jain+Clinic/data=!4m5!3m4!1s0x375a5bd3144f0e01:0xf9b9e343898dacab!8m2!3d26.1711234!4d91.7478311?authuser=0&hl=en&rclk=1,26.1711234,91.7478311,Assam
Apollo Clinic,Medical clinic,"Assam Trunk Rd, near Eidgah, Graham Bazar, Dibrugarh, Assam 786001, India",https://www.google.co.kr/maps/place/Apollo+Clinic/data=!4m5!3m4!1s0x3740983f8eced689:0x820a19c1db242db7!8m2!3d27.4888386!4d94.9174392?authuser=0&hl=en&rclk=1,27.4888386,94.9174392,Assam
Arogyam Multi Speciality Health Clinic,Medical clinic,"Ground Floor, Manisha Avenue, GS Rd, Rukmini Gaon, Guwahati, Assam 781022, India",https://www.google.co.kr/maps/place/Arogyam+Multi+Speciality+Health+Clinic/data=!4m5!3m4!1s0x375a58d0055ff2f9:0x1d9874e3d62d703e!8m2!3d26.135899!4d91.801978?authuser=0&hl=en&rclk=1,26.135899,91.801978,Assam
LIFELINE PHYSIOTHERAPY CLINIC in Guwahati,Physical therapy clinic,"1st Floor, (By Lift) Aditya Square, GS Rd, near NEDFI House, Ganeshguri, Guwahati, Assam 781006, India",https://www.google.co.kr/maps/place/LIFELINE+PHYSIOTHERAPY+CLINIC+in+Guwahati/data=!4m5!3m4!1s0x375a59bfbbcfa587:0x5855890cc70b6c80!8m2!3d26.1461233!4d91.7901562?authuser=0&hl=en&rclk=1,26.1461233,91.7901562,Assam
Health Care Physiotherapy Clinic,Physical therapy clinic,"Ashram Rd, South Sarania, Ulubari, Guwahati, Assam 781007, India",https://www.google.co.kr/maps/place/Health+Care+Physiotherapy+Clinic/data=!4m5!3m4!1s0x375a5981998fe221:0x57a16f924a166393!8m2!3d26.1749267!4d91.7596659?authuser=0&hl=en&rclk=1,26.1749267,91.7596659,Assam
Apollo Hospitals and Clinic (GHY),Hospital,"Kanchan Rd, South Sarania, Lachit Nagar, Guwahati, Assam 781007, India",https://www.google.co.kr/maps/place/Apollo+Hospitals+and+Clinic+(GHY)/data=!4m5!3m4!1s0x375a596c3c824f37:0x591fe77230cf668b!8m2!3d26.1691983!4d91.7629948?authuser=0&hl=en&rclk=1,26.1691983,91.7629948,Assam
Saikia Clinic,Doctor,"MB Road, Kalaigaon Town, Assam 784525, India",https://www.google.co.kr/maps/place/Saikia+Clinic/data=!4m5!3m4!1s0x375b056a74a4a221:0xd35669e392bc3926!8m2!3d26.5745312!4d91.975801?authuser=0&hl=en&rclk=1,26.5745312,91.975801,Assam
SA'AD HOMEO CLINIC,Hospital,"Bhehuguri, Silpukhuri, Mikirbheta, Morigaon, Assam, India.PIN, 782123, India",https://www.google.co.kr/maps/place/SA'AD+HOMEO+CLINIC/data=!4m5!3m4!1s0x37452b451b0614e9:0xc664a568ba088945!8m2!3d26.3245549!4d92.462887?authuser=0&hl=en&rclk=1,26.3245549,92.462887,Assam
Mangaldoi Poly Clinic,Private hospital,"Near Mangaldai, Govt Higher Secondary school, PIN, Mangaldoi, Assam 784125, India",https://www.google.co.kr/maps/place/Mangaldoi+Poly+Clinic/data=!4m5!3m4!1s0x375b1da46675bed5:0xbd8a876f6c84add1!8m2!3d26.4355621!4d92.0342262?authuser=0&hl=en&rclk=1,26.4355621,92.0342262,Assam
Thakur Homoeo Clinic,Hospital,"4RQ5+Q65, Madartoli, Assam 782440, India",https://www.google.co.kr/maps/place/Thakur+Homoeo+Clinic/data=!4m5!3m4!1s0x3745165b4bf2471f:0x65806c13ff4a1599!8m2!3d26.1393935!4d92.8081116?authuser=0&hl=en&rclk=1,26.1393935,92.8081116,Assam
Sharma Homoeo Clinic,Private hospital,"3FQM+57H, Bhagawatipara, Assam 781122, India",https://www.google.co.kr/maps/place/Sharma+Homoeo+Clinic/data=!4m5!3m4!1s0x375a3f02164d7cc7:0x6c57d069546f0844!8m2!3d26.087928!4d91.483245?authuser=0&hl=en&rclk=1,26.087928,91.483245,Assam
Global Endosurgery Clinic & Diabetes Care Centre,Medical clinic,"Ex Police Line Rd, Mahabhairab, Tezpur, Assam 784001, India",https://www.google.co.kr/maps/place/Global+Endosurgery+Clinic+%26+Diabetes+Care+Centre/data=!4m5!3m4!1s0x3744e84d3a169ec5:0xa79d12838cd260ae!8m2!3d26.6269679!4d92.8062498?authuser=0&hl=en&rclk=1,26.6269679,92.8062498,Assam
Dr Ranjit Homeo Clinic,Hospital,"Lakhi Mandir Path, Nabheti, Morigaon, Assam 782105, India",https://www.google.co.kr/maps/place/Dr+Ranjit+Homeo+Clinic/data=!4m5!3m4!1s0x375ad1a3754b32bb:0xf275f1eec3e70cba!8m2!3d26.2484812!4d92.3310806?authuser=0&hl=en&rclk=1,26.2484812,92.3310806,Assam
Dr.Harendra nath Konwar,Doctor,"BM Rd, Christianpatty, Nagaon, Assam 782001, India",https://www.google.co.kr/maps/place/Dr.Harendra+nath+Konwar/data=!4m5!3m4!1s0x37452725d2fe0465:0xf75d7b5a74f2ee94!8m2!3d26.3535659!4d92.6860999?authuser=0&hl=en&rclk=1,26.3535659,92.6860999,Assam
East India Hematology Centre,Diagnostic center,"GS Rd, Near HUB, Bhangagarh, Guwahati, Assam 781003, India",https://www.google.co.kr/maps/place/East+India+Hematology+Centre/data=!4m5!3m4!1s0x375a5976cbd923ff:0xa2d1838847ee010a!8m2!3d26.1668437!4d91.7670738?authuser=0&hl=en&rclk=1,26.1668437,91.7670738,Assam
Samoguri Hospital,Hospital,"CVC3+6C7, Kuruabahi, Assam 782140, India",https://www.google.co.kr/maps/place/Samoguri+Hospital/data=!4m5!3m4!1s0x3744e1bf83bc7d8b:0x2e6c57cc3583de48!8m2!3d26.4205421!4d92.8535338?authuser=0&hl=en&rclk=1,26.4205421,92.8535338,Assam
Dr P.N UZIR -Best Medicine doctor in Guwahati,Doctor,"MEDICITY GUWAHATI,OPP, Sewali Path, Hatigaon, Guwahati, Assam 781038, India",https://www.google.co.kr/maps/place/Dr+P.N+UZIR+-Best+Medicine+doctor+in+Guwahati/data=!4m5!3m4!1s0x375a59ba183a307d:0x6f309e997435242b!8m2!3d26.1360595!4d91.7859062?authuser=0&hl=en&rclk=1,26.1360595,91.7859062,Assam
Naltoli Mini P.H.C. (নলতলি প্ৰাথমিক স্বাস্থ্য কেন্দ্ৰ),Government hospital,"HV2V+66H, Dhanekhowa, Assam 782143, India",https://www.google.co.kr/maps/place/Naltoli+Mini+P.H.C.+(%E0%A6%A8%E0%A6%B2%E0%A6%A4%E0%A6%B2%E0%A6%BF+%E0%A6%AA%E0%A7%8D%E0%A7%B0%E0%A6%BE%E0%A6%A5%E0%A6%AE%E0%A6%BF%E0%A6%95+%E0%A6%B8%E0%A7%8D%E0%A6%AC%E0%A6%BE%E0%A6%B8%E0%A7%8D%E0%A6%A5%E0%A7%8D%E0%A6%AF+%E0%A6%95%E0%A7%87%E0%A6%A8%E0%A7%8D%E0%A6%A6%E0%A7%8D%E0%A7%B0)/data=!4m5!3m4!1s0x3744e5a149267d67:0xf6a899ed556b0dcd!8m2!3d26.5505578!4d92.8931242?authuser=0&hl=en&rclk=1,26.5505578,92.8931242,Assam
Sarkar clinic,Doctor,"Satsangbihar road, Milan Nagar Road, North Lakhimpur, Assam 787001, India",https://www.google.co.kr/maps/place/Sarkar+clinic/data=!4m5!3m4!1s0x3741365ee6ae5d2f:0xe41a1d984187d386!8m2!3d27.2351938!4d94.1075498?authuser=0&hl=en&rclk=1,27.2351938,94.1075498,Assam
AROGYAM Ayurvedic Therapy Clinic,Physical therapy clinic,"Majgaon, Tezpur, Assam 784001, India",https://www.google.co.kr/maps/place/AROGYAM+Ayurvedic+Therapy+Clinic/data=!4m5!3m4!1s0x3744e9b1b60691cf:0x41b50073d184eed!8m2!3d26.6424179!4d92.7934017?authuser=0&hl=en&rclk=1,26.6424179,92.7934017,Assam
Homeo care clinic,Medical clinic,"NH 15, No.1 Tiulip Bagan, Assam 784110, India",https://www.google.co.kr/maps/place/Homeo+care+clinic/data=!4m5!3m4!1s0x375b35d20021e9c7:0x16ff064a36cc58db!8m2!3d26.7006783!4d92.4309202?authuser=0&hl=en&rclk=1,26.7006783,92.4309202,Assam
NEW DOCTORS CLINIC,Medical clinic,"Santipur Rd, near New Pharmacy, NT Road, Santipur, Rangia, Assam 781354, India",https://www.google.co.kr/maps/place/NEW+DOCTORS+CLINIC/data=!4m5!3m4!1s0x375bb336108a046f:0x4317218d2d001108!8m2!3d26.4393186!4d91.6210567?authuser=0&hl=en&rclk=1,26.4393186,91.6210567,Assam
Assam Healthcare & Diagnostic,Doctor,"Silphukuri, Guwahati, Assam 781003, India",https://www.google.co.kr/maps/place/Assam+Healthcare+%26+Diagnostic/data=!4m5!3m4!1s0x375a598ff27b1a5f:0x61bba30f535a0f19!8m2!3d26.1849827!4d91.7625795?authuser=0&hl=en&rclk=1,26.1849827,91.7625795,Assam
Apolo Hospital,Hospital,"Araltali, Assam 785672, India",https://www.google.co.kr/maps/place/Apolo+Hospital/data=!4m5!3m4!1s0x37473580c880faa1:0x147da65e75e8e726!8m2!3d27.0658883!4d94.6965316?authuser=0&hl=en&rclk=1,27.0658883,94.6965316,Assam
Physiotherapy clinic,Hospital,"F25H+HP8, Bapuji Nagar, Mangaldoi, Assam 784146, India",https://www.google.co.kr/maps/place/Physiotherapy+clinic/data=!4m5!3m4!1s0x375b1d71eda51fd9:0x8aa56da926481216!8m2!3d26.458914!4d92.0293322?authuser=0&hl=en&rclk=1,26.458914,92.0293322,Assam
Apollo Hospitals,Hospital,"Lotus Tower, International Hospitals, GS Rd, Christian Basti, Guwahati, Assam 781005, India",https://www.google.co.kr/maps/place/Apollo+Hospitals/data=!4m5!3m4!1s0x375a59d33f53f3bf:0xd15d18fec81f6c71!8m2!3d26.1540453!4d91.781269?authuser=0&hl=en&rclk=1,26.1540453,91.781269,Assam
Maa Champa X-ray Centre,Diagnostic center,"Poly Clinic Rd, Ward No.1, Mangaldoi, Assam 784125, India",https://www.google.co.kr/maps/place/Maa+Champa+X-ray+Centre/data=!4m5!3m4!1s0x375b1d6cdb00e925:0x29615229c78e5c9e!8m2!3d26.4356369!4d92.0346151?authuser=0&hl=en&rclk=1,26.4356369,92.0346151,Assam
My Clinic,Hospital,"Nayanpur Rd, GMC Ward Number 44, Ganeshguri, Guwahati, Assam 781006, India",https://www.google.co.kr/maps/place/My+Clinic/data=!4m5!3m4!1s0x375a59185ed6112b:0xb89304781193a86a!8m2!3d26.1502603!4d91.7854442?authuser=0&hl=en&rclk=1,26.1502603,91.7854442,Assam
Niramoy Clinic,General practitioner,"4Q8P+CVR, Bhetapara, Guwahati, Assam 781028, India",https://www.google.co.kr/maps/place/Niramoy+Clinic/data=!4m5!3m4!1s0x375a5ed1276873d9:0x1f9fa7005e51b9a7!8m2!3d26.1161085!4d91.7871371?authuser=0&hl=en&rclk=1,26.1161085,91.7871371,Assam
Doctor Clinic,Hospital,"Unnamed Road, Dwaraka Nagar, Bormotoria, Guwahati, Assam 781036, India",https://www.google.co.kr/maps/place/Doctor+Clinic/data=!4m5!3m4!1s0x375a59482a3f61ed:0xaceb95d66e192b17!8m2!3d26.1392933!4d91.8096673?authuser=0&hl=en&rclk=1,26.1392933,91.8096673,Assam
Sanjevani Hospital,General hospital,"Assam Trunk Rd, Maligaon, Guwahati, Assam 781011, India",https://www.google.co.kr/maps/place/Sanjevani+Hospital/data=!4m5!3m4!1s0x375a5b0f59b266d1:0x4e54b29a384d37d!8m2!3d26.1612019!4d91.7094117?authuser=0&hl=en&rclk=1,26.1612019,91.7094117,Assam
Tirupati Medical,Medical clinic,"Old AT Rd, Haibargaon, Nagaon, Assam 782002, India",https://www.google.co.kr/maps/place/Tirupati+Medical/data=!4m5!3m4!1s0x3745271f666f5ddb:0x80a0262f80505bce!8m2!3d26.3513826!4d92.6780033?authuser=0&hl=en&rclk=1,26.3513826,92.6780033,Assam
"DR N L BHAGAT (Best Nerve & joint pain and rheumatology specialist doctor at Hojai,Nagaon,Guwahati,Tezpur, Diphu)",Pain management physician,"NATUN BAZAR NEAR HOJAI FRU, Hojai, Assam 782435, India","https://www.google.co.kr/maps/place/DR+N+L+BHAGAT+(Best+Nerve+%26+joint+pain+and+rheumatology+specialist+doctor+at+Hojai,Nagaon,Guwahati,Tezpur,+Diphu)/data=!4m5!3m4!1s0x37456b995f307d35:0xfb5ad779baa70e6!8m2!3d26.00133!4d92.8490854?authuser=0&hl=en&rclk=1",26.00133,92.8490854,Assam
Aruna Memorial Hospital,Hospital,"Rajgarh Rd, SATSANG VIHAR, Bhangagarh, Guwahati, Assam 781005, India",https://www.google.co.kr/maps/place/Aruna+Memorial+Hospital/data=!4m5!3m4!1s0x375a5973f78d6627:0xd1a9fa527479c426!8m2!3d26.1661234!4d91.7689558?authuser=0&hl=en&rclk=1,26.1661234,91.7689558,Assam
Smaguri Hospital,Hospital,"CV92+WJH, Kuruabahi, Assam 782140, India",https://www.google.co.kr/maps/place/Smaguri+Hospital/data=!4m5!3m4!1s0x3744e18c1792fdf5:0x78af838ff3dc5338!8m2!3d26.4198193!4d92.8515944?authuser=0&hl=en&rclk=1,26.4198193,92.8515944,Assam
Homeo Clinic Tubukijarani,Hospital,"Unnamed Road, Pub Larimukh, Assam 782120, India",https://www.google.co.kr/maps/place/Homeo+Clinic+Tubukijarani/data=!4m5!3m4!1s0x3744e6f4ce2208f7:0xcd2d1843cb4f2924!8m2!3d26.5291445!4d92.8373624?authuser=0&hl=en&rclk=1,26.5291445,92.8373624,Assam
MEDICITY GUWAHATI ADITYA,Diagnostic center,"GS Rd, opp. Down Town Hospital, Rukmini Gaon, Guwahati, Assam 781006, India",https://www.google.co.kr/maps/place/MEDICITY+GUWAHATI+ADITYA/data=!4m5!3m4!1s0x375a5944cc73a23b:0x6c34104614df4a5a!8m2!3d26.1385888!4d91.7986443?authuser=0&hl=en&rclk=1,26.1385888,91.7986443,Assam
Hojai Civil Hospital,Hospital,"New Market, Hojai, Assam 782435, India",https://www.google.co.kr/maps/place/Hojai+Civil+Hospital/data=!4m5!3m4!1s0x37456b50093abe73:0xd363cf3688384a11!8m2!3d26.001679!4d92.8482139?authuser=0&hl=en&rclk=1,26.001679,92.8482139,Assam
Aditya Diagnostics and Hospital (Tinsukia),Hospital,"Rangagora Rd, Tinsukia, Assam 786125, India",https://www.google.co.kr/maps/place/Aditya+Diagnostics+and+Hospital+(Tinsukia)/data=!4m5!3m4!1s0x373f6b7594b7aedd:0x1c81ee2d55082610!8m2!3d27.5379943!4d95.325002?authuser=0&hl=en&rclk=1,27.5379943,95.325002,Assam
Panacea,Hospital,"Rajgarh Rd, Bhangagarh, Guwahati, Assam 781006, India",https://www.google.co.kr/maps/place/Panacea/data=!4m5!3m4!1s0x375a5973fd36b405:0x891a10e86093badf!8m2!3d26.1658231!4d91.7685321?authuser=0&hl=en&rclk=1,26.1658231,91.7685321,Assam
Doctor Home Visit Guwahati,Doctor,"Apollo Clinic, Ulubari, Guwahati, Assam 781007, India",https://www.google.co.kr/maps/place/Doctor+Home+Visit+Guwahati/data=!4m5!3m4!1s0x375a5932fc167587:0x17ad37ad66b534d!8m2!3d26.1691826!4d91.7629754?authuser=0&hl=en&rclk=1,26.1691826,91.7629754,Assam
Dispur Hospitals Private Limited,Private hospital,"Ganeshguri Flyover, GMC Ward Number 44, Swaraj Nagar, Ganeshguri, Guwahati, Assam 781006, India",https://www.google.co.kr/maps/place/Dispur+Hospitals+Private+Limited/data=!4m5!3m4!1s0x375a5918bbf15167:0x55cdfb20dff0d0bb!8m2!3d26.149691!4d91.7865839?authuser=0&hl=en&rclk=1,26.149691,91.7865839,Assam
Doctor Clinic,Pain control clinic,"Shivbari Rd, Bashdahar, Hailakandi, Assam 788151, India",https://www.google.co.kr/maps/place/Doctor+Clinic/data=!4m5!3m4!1s0x374e251096af9121:0x51d890d00b7c0f51!8m2!3d24.680342!4d92.5630733?authuser=0&hl=en&rclk=1,24.680342,92.5630733,Assam
"City Heart Clinic, Consulting Physician",Doctor,"MG Rd, Nagaon, Assam 782001, India","https://www.google.co.kr/maps/place/City+Heart+Clinic,+Consulting+Physician/data=!4m5!3m4!1s0x37452725dc6de781:0xeb9251680ce01207!8m2!3d26.3534773!4d92.6869377?authuser=0&hl=en&rclk=1",26.3534773,92.6869377,Assam
Dr. Nabanita Deka (Obstetrics & Gynaecology),Medical clinic,"CK Rd, Fancy Bazaar, Guwahati, Assam 781001, India",https://www.google.co.kr/maps/place/Dr.+Nabanita+Deka+(Obstetrics+%26+Gynaecology)/data=!4m5!3m4!1s0x375a5b8e5fe45769:0x844527e5523e7342!8m2!3d26.1847374!4d91.7438413?authuser=0&hl=en&rclk=1,26.1847374,91.7438413,Assam
Modertoli sub-centre,Hospital,"4RMF+2JX, Doboka Pather, Assam 782440, India",https://www.google.co.kr/maps/place/Modertoli+sub-centre/data=!4m5!3m4!1s0x374516f337c95ec3:0x9db9c88a5e5551b1!8m2!3d26.1326106!4d92.8241207?authuser=0&hl=en&rclk=1,26.1326106,92.8241207,Assam
M R Agarwal Hospital,Private hospital,"Digboi, Assam 786171, India",https://www.google.co.kr/maps/place/M+R+Agarwal+Hospital/data=!4m5!3m4!1s0x373f224f087e9c99:0xdf1d42783b3377e7!8m2!3d27.3993634!4d95.6170054?authuser=0&hl=en&rclk=1,27.3993634,95.6170054,Assam
Railway Health Unit,Hospital,"Station Colony Road, Hojai, Assam, India",https://www.google.co.kr/maps/place/Railway+Health+Unit/data=!4m5!3m4!1s0x37456b5a02bcb4cd:0xe06bc569bc58a24!8m2!3d26.0008988!4d92.8526845?authuser=0&hl=en&rclk=1,26.0008988,92.8526845,Assam
Patkijuli Christian Hospital,Hospital,"Kalajhar Rd, Hatiduba, Assam 781360, India",https://www.google.co.kr/maps/place/Patkijuli+Christian+Hospital/data=!4m5!3m4!1s0x375bc036e944d445:0x4bc197b63f01657d!8m2!3d26.7642412!4d91.4911443?authuser=0&hl=en&rclk=1,26.7642412,91.4911443,Assam
"Narayana Superspeciality Hospital, Guwahati",Hospital,"Civil Hospital Complex Greenland Restaurant Tularam Bafna, Amingaon, Guwahati, Assam 781031, India","https://www.google.co.kr/maps/place/Narayana+Superspeciality+Hospital,+Guwahati/data=!4m5!3m4!1s0x375a5ab28a679979:0xb0b8162cac1a1986!8m2!3d26.2077161!4d91.6776602?authuser=0&hl=en&rclk=1",26.2077161,91.6776602,Assam
Sanjivani Diagnostics & Hospital,Hospital,"Bordoloi Avenue, Dibrugarh, Assam 786005, India",https://www.google.co.kr/maps/place/Sanjivani+Diagnostics+%26+Hospital/data=!4m5!3m4!1s0x3740998c8d9e76cd:0x1f452691de17014!8m2!3d27.492345!4d94.9311619?authuser=0&hl=en&rclk=1,27.492345,94.9311619,Assam
Star Homeo Clinic Guwahati Natun Bazar,Doctor,"Bakarapara, Guwahati, Assam 781029, India",https://www.google.co.kr/maps/place/Star+Homeo+Clinic+Guwahati+Natun+Bazar/data=!4m5!3m4!1s0x375a5f2682984685:0x6b69553fb0381447!8m2!3d26.1093847!4d91.7976802?authuser=0&hl=en&rclk=1,26.1093847,91.7976802,Assam
Dr. Arif Khan,Occupational medical physician,"2V54+X73, Bishnu Pally, Hojai, Assam 782435, India",https://www.google.co.kr/maps/place/Dr.+Arif+Khan/data=!4m5!3m4!1s0x37456b55aee6d303:0x4e55a34e102ccc9b!8m2!3d26.009889!4d92.8556645?authuser=0&hl=en&rclk=1,26.009889,92.8556645,Assam
porharchuk pani gaon,Hospital,"7QP3+CGR, Nonoi Kumargaon, Assam 782102, India",https://www.google.co.kr/maps/place/porharchuk+pani+gaon/data=!4m5!3m4!1s0x3745223cbaa761e5:0xd0c1acdb4b15bae0!8m2!3d26.2861021!4d92.753768?authuser=0&hl=en&rclk=1,26.2861021,92.753768,Assam
Nemcare Hospital,Hospital,"GS Rd, GMC Ward Number 44, Ganeshguri, Guwahati, Assam 781005, India",https://www.google.co.kr/maps/place/Nemcare+Hospital/data=!4m5!3m4!1s0x375a591889280daf:0x5debda891044a62e!8m2!3d26.149491!4d91.7858011?authuser=0&hl=en&rclk=1,26.149491,91.7858011,Assam
Dr poddar clinic,Hospital,"Old AT Rd, Haibargaon, Nagaon, Assam 782002, India",https://www.google.co.kr/maps/place/Dr+poddar+clinic/data=!4m5!3m4!1s0x3745271f05e3ac45:0xe2b328bbbefbab7!8m2!3d26.3506164!4d92.6766041?authuser=0&hl=en&rclk=1,26.3506164,92.6766041,Assam
International Hospital,Hospital,"5Q3J+G9X, Ganeshguri, Guwahati, Assam 781006, India",https://www.google.co.kr/maps/place/International+Hospital/data=!4m5!3m4!1s0x375a59a5f67f9add:0xd630a40a2569360!8m2!3d26.1538691!4d91.7809697?authuser=0&hl=en&rclk=1,26.1538691,91.7809697,Assam
Red Cross Hospital,Hospital,"2, Milanpur Rd, Milanpur, West Jyotinagar, Bamunimaidan, Guwahati, Assam 781004, India",https://www.google.co.kr/maps/place/Red+Cross+Hospital/data=!4m5!3m4!1s0x375a59bb0d14d293:0x7785db3581d772c2!8m2!3d26.1863237!4d91.7796011?authuser=0&hl=en&rclk=1,26.1863237,91.7796011,Assam
Mercy Hospital,Hospital,"Mercy Rd, Nagaon, Assam 782002, India",https://www.google.co.kr/maps/place/Mercy+Hospital/data=!4m5!3m4!1s0x374527b6e3bf4afd:0xb73dc7e5ad6bec9b!8m2!3d26.3474093!4d92.6640136?authuser=0&hl=en&rclk=1,26.3474093,92.6640136,Assam
Chanoo Kheria Clinic,Doctor,"Court Rd, near Thakurbari Mandir, Golaghat, Assam 785621, India",https://www.google.co.kr/maps/place/Chanoo+Kheria+Clinic/data=!4m5!3m4!1s0x37468fe39f30f00b:0xfdec7645985c54fc!8m2!3d26.5167113!4d93.9712824?authuser=0&hl=en&rclk=1,26.5167113,93.9712824,Assam
নেমকেয়াৰ চুপাৰ স্পেচেলিটি হাস্পতাল,Hospital,"GMC Hospital Rd, Bhangagarh, Guwahati, Assam 781005, India",https://www.google.co.kr/maps/place/%E0%A6%A8%E0%A7%87%E0%A6%AE%E0%A6%95%E0%A7%87%E0%A7%9F%E0%A6%BE%E0%A7%B0+%E0%A6%9A%E0%A7%81%E0%A6%AA%E0%A6%BE%E0%A7%B0+%E0%A6%B8%E0%A7%8D%E0%A6%AA%E0%A7%87%E0%A6%9A%E0%A7%87%E0%A6%B2%E0%A6%BF%E0%A6%9F%E0%A6%BF+%E0%A6%B9%E0%A6%BE%E0%A6%B8%E0%A7%8D%E0%A6%AA%E0%A6%A4%E0%A6%BE%E0%A6%B2/data=!4m5!3m4!1s0x375a5973cfd6f78f:0x814e2535ffd54a1b!8m2!3d26.1640687!4d91.7689242?authuser=0&hl=en&rclk=1,26.1640687,91.7689242,Assam
Indira IVF Guwahati,Fertility clinic,"3rd Floor, Achyut & Choudury Complex, GS road, Lachit Nagar Main Rd, Ulubari, Guwahati, Assam 781007, India",https://www.google.co.kr/maps/place/Indira+IVF+Guwahati/data=!4m5!3m4!1s0x375a592b5f1a0be7:0x961735016e125d13!8m2!3d26.1712466!4d91.7612073?authuser=0&hl=en&rclk=1,26.1712466,91.7612073,Assam
Health Care Center,Hospital,"Uria Gaon, Nagaon, NH-37, AT Road, Nagaon, Nagaon, Assam 782003, India",https://www.google.co.kr/maps/place/Health+Care+Center/data=!4m5!3m4!1s0x374521acaee86e87:0x2c5b1d3190d938e1!8m2!3d26.345526!4d92.743537?authuser=0&hl=en&rclk=1,26.345526,92.743537,Assam
Bezera CHC,Hospital,"Baihata-Goreswar Rd, North Guwahati, Bezera, Assam 781121, India",https://www.google.co.kr/maps/place/Bezera+CHC/data=!4m5!3m4!1s0x375a5447c0624173:0x4c13dc6622fc5962!8m2!3d26.3391935!4d91.7819391?authuser=0&hl=en&rclk=1,26.3391935,91.7819391,Assam
Sree Sonhar Medicine Hospital,Hospital,"Chitraban, Nagaon, Assam 782001, India",https://www.google.co.kr/maps/place/Sree+Sonhar+Medicine+Hospital/data=!4m5!3m4!1s0x3745272c92255207:0x14dfce6b2ef59162!8m2!3d26.3539816!4d92.6966421?authuser=0&hl=en&rclk=1,26.3539816,92.6966421,Assam
Central Nursing Home,Hospital,"Bus Stop, Beltola Basistha Road Beltola, 3, Samannay Path, Beltola Tiniali, Basisthpur, Guwahati, Assam 781028, India",https://www.google.co.kr/maps/place/Central+Nursing+Home/data=!4m5!3m4!1s0x375a58d42d3774a5:0xb9437aeb11beb623!8m2!3d26.1301489!4d91.7952638?authuser=0&hl=en&rclk=1,26.1301489,91.7952638,Assam
New Assam Medical Hall,Medical Center,"2V22+8JQ, Hojai, Assam 782435, India",https://www.google.co.kr/maps/place/New+Assam+Medical+Hall/data=!4m5!3m4!1s0x37456b5a1282adb5:0xde4bf61f33967c9f!8m2!3d26.0008439!4d92.8515945?authuser=0&hl=en&rclk=1,26.0008439,92.8515945,Assam
gohai nursing home,Hospital,"PS Rd, Nagaon, Assam 782001, India",https://www.google.co.kr/maps/place/gohai+nursing+home/data=!4m5!3m4!1s0x3745272f91b3bfbf:0x4b826801810f18a9!8m2!3d26.3568418!4d92.6891704?authuser=0&hl=en&rclk=1,26.3568418,92.6891704,Assam
Nonoi Hospital,Hospital,"Nagaon, Assam 782101, India",https://www.google.co.kr/maps/place/Nonoi+Hospital/data=!4m5!3m4!1s0x3744e2bd0ccfcd07:0x3025bd406f7e9560!8m2!3d26.4040006!4d92.9188737?authuser=0&hl=en&rclk=1,26.4040006,92.9188737,Assam
Md.muksidul islam,Hospital,"Kawaimari, Assam 782140, India",https://www.google.co.kr/maps/place/Md.muksidul+islam/data=!4m5!3m4!1s0x3744e127aaaaaaab:0x67be9eb9b7c51f72!8m2!3d26.4713293!4d92.8203207?authuser=0&hl=en&rclk=1,26.4713293,92.8203207,Assam
Dispur Primary Health Center,Hospital,"Secretariat Rd, Dispur, Rukmini Gaon, Guwahati, Assam 781036, India",https://www.google.co.kr/maps/place/Dispur+Primary+Health+Center/data=!4m5!3m4!1s0x375a5927ac11057f:0x4a8920f09b18c3c5!8m2!3d26.1392147!4d91.7906588?authuser=0&hl=en&rclk=1,26.1392147,91.7906588,Assam
Panacea Diagnostic And Clinic,Doctor,"9M3Q+X43, Nagaon, Assam 782001, India",https://www.google.co.kr/maps/place/Panacea+Diagnostic+And+Clinic/data=!4m5!3m4!1s0x3745272591ef3765:0x599158289b42e55!8m2!3d26.3548896!4d92.6877813?authuser=0&hl=en&rclk=1,26.3548896,92.6877813,Assam
Chengeliajhar Hospital,Hospital,"CR8W+V68, Naopota, Assam 784145, India",https://www.google.co.kr/maps/place/Chengeliajhar+Hospital/data=!4m5!3m4!1s0x375b00199b1496c9:0xc95efee785df6e6f!8m2!3d26.4171654!4d91.8455653?authuser=0&hl=en&rclk=1,26.4171654,91.8455653,Assam
Makunda Christian Leprosy and General Hospital,General hospital,"Bazaricherra, Karimganj, Assam 788727, India",https://www.google.co.kr/maps/place/Makunda+Christian+Leprosy+and+General+Hospital/data=!4m5!3m4!1s0x3751e668f510e06b:0xf378e3fcdef6bcc3!8m2!3d24.4320197!4d92.3306894?authuser=0&hl=en&rclk=1,24.4320197,92.3306894,Assam
Aditya Hospital and Diagnostic Center,Hospital,"Assam Medical College Road, Bordoloi Avenue, Paltan Bazaar, Dibrugarh, Assam 786005, India",https://www.google.co.kr/maps/place/Aditya+Hospital+and+Diagnostic+Center/data=!4m5!3m4!1s0x3740985eb676f3ad:0xa5617a035638273a!8m2!3d27.491493!4d94.9314669?authuser=0&hl=en&rclk=1,27.491493,94.9314669,Assam
Sultan Hospital,Hospital,"Telahi - Morigaon Rd, Mikirgaon, Assam 782105, India",https://www.google.co.kr/maps/place/Sultan+Hospital/data=!4m5!3m4!1s0x375ad1b671e47671:0xaed416cbce1bbfca!8m2!3d26.2368589!4d92.3482557?authuser=0&hl=en&rclk=1,26.2368589,92.3482557,Assam
Apollo Hospital Information Center,Hospital,"GS Rd, opp. S B Deorah College, South Sarania, Ulubari, Guwahati, Assam 781005, India",https://www.google.co.kr/maps/place/Apollo+Hospital+Information+Center/data=!4m5!3m4!1s0x375a59c856be0d39:0x1cf649fe14da4a9d!8m2!3d26.1695956!4d91.7629815?authuser=0&hl=en&rclk=1,26.1695956,91.7629815,Assam
Seva Clinic,Doctor,"Fayez Ahmed Rd, Athgaon, Guwahati, Assam 781001, India",https://www.google.co.kr/maps/place/Seva+Clinic/data=!4m5!3m4!1s0x375a5bb531202979:0xac0b232fbc46b07!8m2!3d26.1735469!4d91.7360508?authuser=0&hl=en&rclk=1,26.1735469,91.7360508,Assam
Gurucharan Polyclinic Cum Nursing Home,Nursing home,"MD Shah Rd, Manipuri Rajbari, Paltan Bazaar, Guwahati, Assam 781008, India",https://www.google.co.kr/maps/place/Gurucharan+Polyclinic+Cum+Nursing+Home/data=!4m5!3m4!1s0x375a5a297e6eba13:0x2bdd6188ab2723da!8m2!3d26.1787455!4d91.7512856?authuser=0&hl=en&rclk=1,26.1787455,91.7512856,Assam
IOCL Hospital,Hospital,"9JVH+4QV, Digboi, Assam 786171, India",https://www.google.co.kr/maps/place/IOCL+Hospital/data=!4m5!3m4!1s0x373f22347ac13aff:0x8ea5ac3b6e0115d2!8m2!3d27.392869!4d95.629431?authuser=0&hl=en&rclk=1,27.392869,95.629431,Assam
Dr.Farida's Clinic.,Doctor,"Alitangoni - Dhagaon Rd, Alitangani, Assam 782122, India",https://www.google.co.kr/maps/place/Dr.Farida's+Clinic./data=!4m5!3m4!1s0x3744d79a820c0cf7:0x69de6fd00e0b19be!8m2!3d26.4289847!4d92.5972313?authuser=0&hl=en&rclk=1,26.4289847,92.5972313,Assam
Excelcare Hospitals,Hospital,"114, Assam Trunk Rd, Maligaon Gate No.4, Maligaon, Guwahati, Assam 781011, India",https://www.google.co.kr/maps/place/Excelcare+Hospitals/data=!4m5!3m4!1s0x375a5b0f94aa657f:0xba494e10c60767c9!8m2!3d26.1592638!4d91.6974772?authuser=0&hl=en&rclk=1,26.1592638,91.6974772,Assam
Bishal Medical,Doctor,"8MX9+FMP, Sandanpur, Nagaon, Assam 782002, India",https://www.google.co.kr/maps/place/Bishal+Medical/data=!4m5!3m4!1s0x3745270288197c57:0xebf7a21e03d08cae!8m2!3d26.3487177!4d92.669212?authuser=0&hl=en&rclk=1,26.3487177,92.669212,Assam
"District Hospital, Sonapur Kamrup Metro",Hospital,"NH 27, Amara N.C., Assam 782402, India","https://www.google.co.kr/maps/place/District+Hospital,+Sonapur+Kamrup+Metro/data=!4m5!3m4!1s0x375af21d6f0b974f:0x8b2a214c3b415da4!8m2!3d26.1216132!4d91.9767002?authuser=0&hl=en&rclk=1",26.1216132,91.9767002,Assam
Ambagan Hospital,Hospital,"GV93+5M6, Pub Larimukh, Assam 782120, India",https://www.google.co.kr/maps/place/Ambagan+Hospital/data=!4m5!3m4!1s0x3744e69cf5a05885:0x4657f1391ad1aeb6!8m2!3d26.5179212!4d92.8541326?authuser=0&hl=en&rclk=1,26.5179212,92.8541326,Assam
Top Medical,Medical group,"Railway Colony Rd, Railway Colony, Bamunimaidan, Guwahati, Assam 781022, India",https://www.google.co.kr/maps/place/Top+Medical/data=!4m5!3m4!1s0x375a593f9557c2fb:0x2e7fe3d0fe6e2471!8m2!3d26.1784599!4d91.7842055?authuser=0&hl=en&rclk=1,26.1784599,91.7842055,Assam
Jugijan Hospital,Hospital,"2RV2+75R, Jugijan, Assam 782429, India",https://www.google.co.kr/maps/place/Jugijan+Hospital/data=!4m5!3m4!1s0x3745151487f7197b:0x5b19d10e2012e467!8m2!3d26.0432414!4d92.8003781?authuser=0&hl=en&rclk=1,26.0432414,92.8003781,Assam
DABAKA 30 BED RURAL HOSPITAL,Government hospital,"College Rd, Doboka Town, Assam 782440, India",https://www.google.co.kr/maps/place/DABAKA+30+BED+RURAL+HOSPITAL/data=!4m5!3m4!1s0x374516acaf616e57:0x36691e0042f4437a!8m2!3d26.1141556!4d92.8570998?authuser=0&hl=en&rclk=1,26.1141556,92.8570998,Assam
Mission Hospital,Hospital,"P6Q2+CFV, Barbheta, Jorhat, Assam 785001, India",https://www.google.co.kr/maps/place/Mission+Hospital/data=!4m5!3m4!1s0x3746c28317a89a0b:0xf583abcdc799d283!8m2!3d26.7386151!4d94.2011584?authuser=0&hl=en&rclk=1,26.7386151,94.2011584,Assam
Life LineHospital,Private hospital,"ATC Mall, GNB Rd, opposite to, Tinsukia, Assam 786125, India",https://www.google.co.kr/maps/place/Life+LineHospital/data=!4m5!3m4!1s0x373f6afd6af0e389:0x3609ca87f2857eed!8m2!3d27.4926087!4d95.3609975?authuser=0&hl=en&rclk=1,27.4926087,95.3609975,Assam
M/S SUHANA MEDICAL,Medical Center,"College Rd, Doboka Town, Assam 782440, India",https://www.google.co.kr/maps/place/M%2FS+SUHANA+MEDICAL/data=!4m5!3m4!1s0x374516acac725099:0x4c66e8f215dfa088!8m2!3d26.1140428!4d92.8575071?authuser=0&hl=en&rclk=1,26.1140428,92.8575071,Assam
Sacred Home,Hospital,"96, Barthakur Mill Rd, South Sarania, Ulubari, Guwahati, Assam 781007, India",https://www.google.co.kr/maps/place/Sacred+Home/data=!4m5!3m4!1s0x375a597f52ddc3d3:0xba25ce4ba48a1a55!8m2!3d26.1719413!4d91.7587686?authuser=0&hl=en&rclk=1,26.1719413,91.7587686,Assam
Physiotherapy Clinic,Physical therapist,"Bylane-2, Basistha Pur, Hatigaon, Guwahati, Assam 781028, India",https://www.google.co.kr/maps/place/Physiotherapy+Clinic/data=!4m5!3m4!1s0x375a592ec333bc09:0x24b153e0fa456877!8m2!3d26.133029!4d91.786954?authuser=0&hl=en&rclk=1,26.133029,91.786954,Assam
Nagaon Nursing & Maternity Home,Hospital,"No 2 Mullapatty, Haibargaon, Nagaon, Assam 782002, India",https://www.google.co.kr/maps/place/Nagaon+Nursing+%26+Maternity+Home/data=!4m5!3m4!1s0x37452702c7459b35:0x90471555655ad79d!8m2!3d26.348989!4d92.6676835?authuser=0&hl=en&rclk=1,26.348989,92.6676835,Assam
B-J Hospital,Hospital,"Mission Chariali, Ketekibari, Tezpur, Assam 784001, India",https://www.google.co.kr/maps/place/B-J+Hospital/data=!4m5!3m4!1s0x3744c3dfbd684761:0x8c10f12423d1da1b!8m2!3d26.6594722!4d92.7713901?authuser=0&hl=en&rclk=1,26.6594722,92.7713901,Assam
Cherish hospital and diagnostic centre,Hospital,"Cherish hospital and diagnostic centre, Margherita, Assam 786181, India",https://www.google.co.kr/maps/place/Cherish+hospital+and+diagnostic+centre/data=!4m5!3m4!1s0x373f265c4d5f1879:0xd8cc664c299c94ce!8m2!3d27.2857711!4d95.6683001?authuser=0&hl=en&rclk=1,27.2857711,95.6683001,Assam
Chikitsa Health Centre,Medical Center,"old post office, By Lane Number 1, Ananda Nagar, India",https://www.google.co.kr/maps/place/Chikitsa+Health+Centre/data=!4m5!3m4!1s0x375a5912c8818c6b:0xfdb10d0a8eedce36!8m2!3d26.1588386!4d91.7739597?authuser=0&hl=en&rclk=1,26.1588386,91.7739597,Assam
Dr. S. Bagchi's Memorial Clinic,Hospital,"Thana Rd, Doboka Town, Assam 782440, India",https://www.google.co.kr/maps/place/Dr.+S.+Bagchi's+Memorial+Clinic/data=!4m5!3m4!1s0x3745115502a7ae75:0xae86303e97cea952!8m2!3d26.1106632!4d92.8596274?authuser=0&hl=en&rclk=1,26.1106632,92.8596274,Assam
Pratiksha,Hospital,"5R45+RXR, Milan Nagar, Borbari, Guwahati, Assam 781171, India",https://www.google.co.kr/maps/place/Pratiksha/data=!4m5!3m4!1s0x375a5946ee4b61df:0x3c6b06a0cb365a6c!8m2!3d26.1571231!4d91.8098954?authuser=0&hl=en&rclk=1,26.1571231,91.8098954,Assam
Dentaghat CHC,Hospital,"Dokmoka-Samelangso Rd., Assam 782481, India",https://www.google.co.kr/maps/place/Dentaghat+CHC/data=!4m5!3m4!1s0x3745a977af1ea641:0x67db87fed8726e95!8m2!3d26.2766083!4d93.1399209?authuser=0&hl=en&rclk=1,26.2766083,93.1399209,Assam
Bakola Dhlaibill,Hospital,"hospital, India",https://www.google.co.kr/maps/place/Bakola+Dhlaibill/data=!4m5!3m4!1s0x374511540b4603cb:0x3acd67234e226e27!8m2!3d26.1132903!4d92.8614907?authuser=0&hl=en&rclk=1,26.1132903,92.8614907,Assam
Meditech Diagnostics,Diagnostic center,"Doboka Main Rd, Doboka Town, Assam 782440, India",https://www.google.co.kr/maps/place/Meditech+Diagnostics/data=!4m5!3m4!1s0x37451181fea90413:0x9bd3b690f466541!8m2!3d26.1137033!4d92.8638597?authuser=0&hl=en&rclk=1,26.1137033,92.8638597,Assam
Mohkhuli Maternity & Child Health Hospital,Hospital,"Fakharuddin Ali Ahmed Rd, Haibargaon, Daccapatty, Nagaon, Assam 782001, India",https://www.google.co.kr/maps/place/Mohkhuli+Maternity+%26+Child+Health+Hospital/data=!4m5!3m4!1s0x374527400bccbd63:0xd87a2d63dbc409cd!8m2!3d26.3448681!4d92.6894976?authuser=0&hl=en&rclk=1,26.3448681,92.6894976,Assam
Pratiksha Hospitals,Hospital,"Mahapurush Madhabdev Path, Borbari, Guwahati, Assam 781036, India",https://www.google.co.kr/maps/place/Pratiksha+Hospitals/data=!4m5!3m4!1s0x375a58ed484ce947:0xddb45394ff390048!8m2!3d26.1584955!4d91.8118724?authuser=0&hl=en&rclk=1,26.1584955,91.8118724,Assam
"DD HEALTHCARE, MANGALDOI CENTRE",Diagnostic center,"Hospital Road, Near Polyclinic, Mangaldoi, Assam 784125, India","https://www.google.co.kr/maps/place/DD+HEALTHCARE,+MANGALDOI+CENTRE/data=!4m5!3m4!1s0x375b1da45becfacb:0x73bf194f95424c6a!8m2!3d26.436397!4d92.034291?authuser=0&hl=en&rclk=1",26.436397,92.034291,Assam
Dagaon Hospital,Hospital,"CJR7+FFJ, Da-Gaon, Assam 782124, India",https://www.google.co.kr/maps/place/Dagaon+Hospital/data=!4m5!3m4!1s0x3744d78222279a27:0x65c3c3111a197fd3!8m2!3d26.4412097!4d92.6136518?authuser=0&hl=en&rclk=1,26.4412097,92.6136518,Assam
Sukhada Hospital,Hospital,"JRP8+X4V, Dolabari, Tezpur, Assam 784027, India",https://www.google.co.kr/maps/place/Sukhada+Hospital/data=!4m5!3m4!1s0x3744e9a8f610218b:0x8b992ca92f5f1f00!8m2!3d26.6374962!4d92.8152935?authuser=0&hl=en&rclk=1,26.6374962,92.8152935,Assam
Mental Hospital,Hospital,"Ex Police Line Rd, Mahabhairab, Tezpur, Assam 784001, India",https://www.google.co.kr/maps/place/Mental+Hospital/data=!4m5!3m4!1s0x3744e8347f548597:0xa3c4ec007af7945!8m2!3d26.6299627!4d92.8108129?authuser=0&hl=en&rclk=1,26.6299627,92.8108129,Assam
Amluckhi Bagan Hospital,Hospital,"Borhola, Assam 782101, India",https://www.google.co.kr/maps/place/Amluckhi+Bagan+Hospital/data=!4m5!3m4!1s0x3744e326f0ae0271:0x7245d5449fe2ff05!8m2!3d26.4405444!4d92.9247531?authuser=0&hl=en&rclk=1,26.4405444,92.9247531,Assam
Kajiamati Hospital,Hospital,"M4PF+Q5G, Kaijamati, Kaizamati, Assam 784509, India",https://www.google.co.kr/maps/place/Kajiamati+Hospital/data=!4m5!3m4!1s0x375b15df7f62121b:0x5fdde5436b0eef08!8m2!3d26.6869489!4d92.1229393?authuser=0&hl=en&rclk=1,26.6869489,92.1229393,Assam
Old Daboka CHC,Hospital,"Doboka - Jamunamukh Rd, Doboka Town, Assam 782440, India",https://www.google.co.kr/maps/place/Old+Daboka+CHC/data=!4m5!3m4!1s0x374511565a93295d:0x5a4ec58f3d71d4a1!8m2!3d26.1099648!4d92.8644919?authuser=0&hl=en&rclk=1,26.1099648,92.8644919,Assam
HEALTH CARE DIAGNOSTIC CENTER,Diagnostic center,"Hospital Rd, Doboka Town, Assam 782440, India",https://www.google.co.kr/maps/place/HEALTH+CARE+DIAGNOSTIC+CENTER/data=!4m5!3m4!1s0x374511c5a0ed2379:0x5a0d0329f90da73b!8m2!3d26.1152684!4d92.8597346?authuser=0&hl=en&rclk=1,26.1152684,92.8597346,Assam
Owana Kumargaon Gereki Sub Centre,Hospital,"kumargaon, Gereki, Assam 782125, India",https://www.google.co.kr/maps/place/Owana+Kumargaon+Gereki+Sub+Centre/data=!4m5!3m4!1s0x37452077dc824415:0x10378114d9b52b3e!8m2!3d26.3925122!4d92.7496926?authuser=0&hl=en&rclk=1,26.3925122,92.7496926,Assam
Phulani Medical.,Hospital,"53CG+WPX, Phulani, Assam 782481, India",https://www.google.co.kr/maps/place/Phulani+Medical./data=!4m5!3m4!1s0x374508406c4a8e61:0x9df16806e85d97da!8m2!3d26.172352!4d93.076866?authuser=0&hl=en&rclk=1,26.172352,93.076866,Assam
Mohkhuli Maternity & Child Health Hospital,Hospital,"Laokhowa Rd, Mohkhuli Chariali, Assam 782141, India",https://www.google.co.kr/maps/place/Mohkhuli+Maternity+%26+Child+Health+Hospital/data=!4m5!3m4!1s0x3745218b51b46359:0xda4e88da2777e5b1!8m2!3d26.3672011!4d92.7144076?authuser=0&hl=en&rclk=1,26.3672011,92.7144076,Assam
Clinic,Hospital,"Assam Trunk Rd, Khowang Chah Co. 108 No Fs Gra, Assam 785675, India",https://www.google.co.kr/maps/place/Clinic/data=!4m5!3m4!1s0x3740afe76015835f:0xa402cfc0a65a2386!8m2!3d27.202285!4d94.904452?authuser=0&hl=en&rclk=1,27.202285,94.904452,Assam
Dr. I.B.De Chamber,Hospital,"9M4P+498, Nagaon, Assam 782001, India",https://www.google.co.kr/maps/place/Dr.+I.B.De+Chamber/data=!4m5!3m4!1s0x3745272452b385a9:0xdb4c9fb042895123!8m2!3d26.3552931!4d92.6859507?authuser=0&hl=en&rclk=1,26.3552931,92.6859507,Assam
Dr Neeraj Sharma Child Specialist,Doctor,"Hojai, Assam 782435, India",https://www.google.co.kr/maps/place/Dr+Neeraj+Sharma+Child+Specialist/data=!4m5!3m4!1s0x37456b2ff6da0385:0xfc3518cba59d25ae!8m2!3d26.0011197!4d92.8488231?authuser=0&hl=en&rclk=1,26.0011197,92.8488231,Assam
New Land HAAM HOSPITAL DR RESIDENCE,Hospital,"2V9C+8H5, Pub - Dhaniram Pather, Assam 782435, India",https://www.google.co.kr/maps/place/New+Land+HAAM+HOSPITAL+DR+RESIDENCE/data=!4m5!3m4!1s0x3745134c18136e65:0x387d9518ef35776e!8m2!3d26.0182575!4d92.8714824?authuser=0&hl=en&rclk=1,26.0182575,92.8714824,Assam
Health Care Diagnostic Centre Private Limited,Diagnostic center,"Commercial Complex, Ground Floor Prag Plaza, GS Rd, Near Big Bazar, Lachit Nagar, Guwahati, Assam 781005, India",https://www.google.co.kr/maps/place/Health+Care+Diagnostic+Centre+Private+Limited/data=!4m5!3m4!1s0x375a5976cb77305b:0x2d7d14aa48a4b36c!8m2!3d26.1666758!4d91.7670101?authuser=0&hl=en&rclk=1,26.1666758,91.7670101,Assam
"Air Passanger Screening Centre, Tikal(Salganga) Model Hospital",Hospital,"Tikal Road, Salganga, Assam 788031, India","https://www.google.co.kr/maps/place/Air+Passanger+Screening+Centre,+Tikal(Salganga)+Model+Hospital/data=!4m5!3m4!1s0x374fada05bfe5771:0x3d2fe5866099b547!8m2!3d24.9246453!4d92.9597501?authuser=0&hl=en&rclk=1",24.9246453,92.9597501,Assam
"MODEL HOSPITAL, LANGTING",Hospital,"Langting, Assam 788832, India","https://www.google.co.kr/maps/place/MODEL+HOSPITAL,+LANGTING/data=!4m5!3m4!1s0x374f78ea9b669b47:0x853efa12a55a3600!8m2!3d25.5118485!4d93.1195556?authuser=0&hl=en&rclk=1",25.5118485,93.1195556,Assam
Bongaigaon BPHC,Hospital,"TR Phukan Rd, Mayapuri, Bongaigaon, Assam 783380, India",https://www.google.co.kr/maps/place/Bongaigaon+BPHC/data=!4m5!3m4!1s0x3758ffbc7356117d:0xd795af994d5fac68!8m2!3d26.4760973!4d90.562354?authuser=0&hl=en&rclk=1,26.4760973,90.562354,Assam
Baptist Christian Hospital,Hospital,"Mission Chariali, Ketekibari, Tezpur, Assam 784001, India",https://www.google.co.kr/maps/place/Baptist+Christian+Hospital/data=!4m5!3m4!1s0x3744c20caf36fd9b:0x9bba5203c5b961c1!8m2!3d26.6526312!4d92.7726626?authuser=0&hl=en&rclk=1,26.6526312,92.7726626,Assam
Buragohain Than PHC,Hospital,"Kandoli Rd, Kasoi Guri, Assam 782144, India",https://www.google.co.kr/maps/place/Buragohain+Than+PHC/data=!4m5!3m4!1s0x374525002d11ebff:0x9737fc13266a3bd9!8m2!3d26.250413!4d92.65812?authuser=0&hl=en&rclk=1,26.250413,92.65812,Assam
"Dispensary, Nowgong Polytechnic",Hospital,"9P44+6W5, Panigaon, Nagaon, Assam 782001, India","https://www.google.co.kr/maps/place/Dispensary,+Nowgong+Polytechnic/data=!4m5!3m4!1s0x374520d08a11a7c7:0xc2e18e37eb82f787!8m2!3d26.3555055!4d92.7073453?authuser=0&hl=en&rclk=1",26.3555055,92.7073453,Assam
ESIC Model Hospital,Government hospital,"Pir Ajan Fakir Rd, Near Khanara Kendra Vidyalaya, Resham Nagar, Khanapara, Guwahati, Assam 781022, India",https://www.google.co.kr/maps/place/ESIC+Model+Hospital/data=!4m5!3m4!1s0x375a5f345884cb7b:0xa45df60086ce31c5!8m2!3d26.1218903!4d91.8082201?authuser=0&hl=en&rclk=1,26.1218903,91.8082201,Assam
Kampur Hospital,Hospital,"5M83+VFP, Kampur Town, Assam 782426, India",https://www.google.co.kr/maps/place/Kampur+Hospital/data=!4m5!3m4!1s0x37453afbf337d21f:0xd3fca28eb5197c21!8m2!3d26.1672236!4d92.6537068?authuser=0&hl=en&rclk=1,26.1672236,92.6537068,Assam
MEDICITY GUWAHATI,Hematologist,"MEDICITY GUWAHATI, Hatigaon Main Road, Near, Sewali Path, Dispur, Hatigaon, Guwahati, Assam 781038, India",https://www.google.co.kr/maps/place/MEDICITY+GUWAHATI/data=!4m5!3m4!1s0x375a592f7addc4e5:0xac4b2acdb2ca2995!8m2!3d26.136167!4d91.786072?authuser=0&hl=en&rclk=1,26.136167,91.786072,Assam
Bokajan PHC,Hospital,"NH129, Bokajan, Assam 782490, India",https://www.google.co.kr/maps/place/Bokajan+PHC/data=!4m5!3m4!1s0x3746756adffad365:0x55435cd46c014e95!8m2!3d26.0191704!4d93.7625867?authuser=0&hl=en&rclk=1,26.0191704,93.7625867,Assam
DR. HAQUE ENT CARE (DR. ZIAUL HAQUE),Otolaryngologist,"AJB Rd, Haibargaon, BHUYANPATTY, Nagaon, Assam 782002, India",https://www.google.co.kr/maps/place/DR.+HAQUE+ENT+CARE+(DR.+ZIAUL+HAQUE)/data=!4m5!3m4!1s0x374526e0cb00e527:0x5ef99dc4fbae9028!8m2!3d26.3415561!4d92.6770996?authuser=0&hl=en&rclk=1,26.3415561,92.6770996,Assam
HPC KAGAJ NAGAR HOSPITAL,Hospital,"46GP+CH7, Tegheria, Assam 782410, India",https://www.google.co.kr/maps/place/HPC+KAGAJ+NAGAR+HOSPITAL/data=!4m5!3m4!1s0x375ac41b98872309:0xca00447758d1a3c4!8m2!3d26.1260362!4d92.2364205?authuser=0&hl=en&rclk=1,26.1260362,92.2364205,Assam
DON BOSCO HOSPITAL,Hospital,"PF4C+35Q, Dhekiajuli, Assam 784110, India",https://www.google.co.kr/maps/place/DON+BOSCO+HOSPITAL/data=!4m5!3m4!1s0x3744cb3803aa41ab:0x4b71937599d7d8a3!8m2!3d26.7052226!4d92.4704741?authuser=0&hl=en&rclk=1,26.7052226,92.4704741,Assam
Saharan Iddgah,Doctor,"3WFP+PR5, Sabajpur, Assam 782445, India",https://www.google.co.kr/maps/place/Saharan+Iddgah/data=!4m5!3m4!1s0x374512762efe1b81:0x4bb0c74e61c1f806!8m2!3d26.07425!4d92.937122?authuser=0&hl=en&rclk=1,26.07425,92.937122,Assam
Civil Hospital,Government hospital,"Kalibari Rd, Lumding, Assam 782447, India",https://www.google.co.kr/maps/place/Civil+Hospital/data=!4m5!3m4!1s0x37458386e36fc215:0x74a9afd2047c20fc!8m2!3d25.7623791!4d93.1751863?authuser=0&hl=en&rclk=1,25.7623791,93.1751863,Assam
Morigaon Civil Hopital,Hospital,"7923+RRJ, Ward Number 7, Rajagaon, Assam 782105, India",https://www.google.co.kr/maps/place/Morigaon+Civil+Hopital/data=!4m5!3m4!1s0x375ad1baf3eb2b1d:0x517d6c721a370ca6!8m2!3d26.2520898!4d92.3545064?authuser=0&hl=en&rclk=1,26.2520898,92.3545064,Assam
Lifeline Medical,Medical Center,"Natun Bazar, Hospital Road, 782435n, Hojai, Assam, India",https://www.google.co.kr/maps/place/Lifeline+Medical/data=!4m5!3m4!1s0x37456b5aaa27a11d:0x113ab1390f3a1882!8m2!3d26.0015265!4d92.848043?authuser=0&hl=en&rclk=1,26.0015265,92.848043,Assam
Hojai District Civil Hospital,Hospital,"XWJF+WWG, Pam Gaon, Assam 782442, India",https://www.google.co.kr/maps/place/Hojai+District+Civil+Hospital/data=!4m5!3m4!1s0x37456d654a4b05f7:0x2111b429e6670465!8m2!3d25.9823012!4d92.924826?authuser=0&hl=en&rclk=1,25.9823012,92.924826,Assam
Angel Diagnostic Centre,Diagnostic center,"1st Floor, Sarat Bhawan, Beltola Basis Road, AG Bus Stop, Beltola Tiniali, Guwahati, Assam 781029, India",https://www.google.co.kr/maps/place/Angel+Diagnostic+Centre/data=!4m5!3m4!1s0x375a5f2ecc2b4cfb:0x8742e97efd58a71b!8m2!3d26.1168496!4d91.798001?authuser=0&hl=en&rclk=1,26.1168496,91.798001,Assam
Cancer Hospital,Hospital,"5Q58+X3C, Bhangagarh, Guwahati, Assam 781007, India",https://www.google.co.kr/maps/place/Cancer+Hospital/data=!4m5!3m4!1s0x375a596e21aac1ff:0x23f85a3aed117027!8m2!3d26.159925!4d91.7651447?authuser=0&hl=en&rclk=1,26.159925,91.7651447,Assam
DR MOHIBUL ISLAM,Surgeon,"ADITYA TOWER, MEDICITY GUWAHATI ADITYA, GS Rd, opp. Down Town Hospital, Guwahati, Assam 781006, India",https://www.google.co.kr/maps/place/DR+MOHIBUL+ISLAM/data=!4m5!3m4!1s0x375a5999fb6d30bb:0x7906383c8cbf454b!8m2!3d26.1386752!4d91.798445?authuser=0&hl=en&rclk=1,26.1386752,91.798445,Assam
Sacred Heart Palliative Care Centre,Private hospital,"NH37, Jorabat, Assam 781023, India",https://www.google.co.kr/maps/place/Sacred+Heart+Palliative+Care+Centre/data=!4m5!3m4!1s0x375af5c27dd36721:0x65c5882f44bee436!8m2!3d26.1105387!4d91.8509545?authuser=0&hl=en&rclk=1,26.1105387,91.8509545,Assam
Arogya Physiotherapy and Rehabilitation centre,Physical therapist,"M., BB Rd, Nagaon, Assam 782001, India",https://www.google.co.kr/maps/place/Arogya+Physiotherapy+and+Rehabilitation+centre/data=!4m5!3m4!1s0x3745272dd0cecdf9:0x7ea10b1dbf49b1c9!8m2!3d26.3567202!4d92.6937043?authuser=0&hl=en&rclk=1,26.3567202,92.6937043,Assam
Biswanath Chariali Civil Hospital,Hospital,"Biswanath Charali, Assam 784176, India",https://www.google.co.kr/maps/place/Biswanath+Chariali+Civil+Hospital/data=!4m5!3m4!1s0x37445e4f33e0d703:0xa8da56b0610f1f61!8m2!3d26.7322396!4d93.1462141?authuser=0&hl=en&rclk=1,26.7322396,93.1462141,Assam
IMS Hospital,Private hospital,"Shahid Sarani, Settlement Road, Assam 788710, India",https://www.google.co.kr/maps/place/IMS+Hospital/data=!4m5!3m4!1s0x3751d3a90b504bfb:0x8effd0b6eaeeed53!8m2!3d24.8712046!4d92.3599238?authuser=0&hl=en&rclk=1,24.8712046,92.3599238,Assam
Lakshya J Basumatary - Best Neurologist in Guwahati,Neurologist,"NH37, Pragjyotish Nagar, Maligaon, Guwahati, Assam 781033, India",https://www.google.co.kr/maps/place/Lakshya+J+Basumatary+-+Best+Neurologist+in+Guwahati/data=!4m5!3m4!1s0x375a5b80e2fc83cd:0xa01f263783236672!8m2!3d26.1525934!4d91.6847121?authuser=0&hl=en&rclk=1,26.1525934,91.6847121,Assam
GNRC Good Health Hospital,Hospital,"Bormotoria, Guwahati, Assam 781006, India",https://www.google.co.kr/maps/place/GNRC+Good+Health+Hospital/data=!4m5!3m4!1s0x375a59d4c3b926fd:0xf0c8ba037b7c7ca3!8m2!3d26.1406644!4d91.796802?authuser=0&hl=en&rclk=1,26.1406644,91.796802,Assam
Super Speciality Hospital Guwahati,Hospital,"5Q68+MF2, Birubari, Guwahati, Assam 781007, India",https://www.google.co.kr/maps/place/Super+Speciality+Hospital+Guwahati/data=!4m5!3m4!1s0x375a59d292f15947:0x50da85ad8bef67ca!8m2!3d26.161643!4d91.7661488?authuser=0&hl=en&rclk=1,26.161643,91.7661488,Assam
Assam Rifles Training Centre Hospital,Hospital,"Assam 782460, India",https://www.google.co.kr/maps/place/Assam+Rifles+Training+Centre+Hospital/data=!4m5!3m4!1s0x3745ecb05b207405:0xac91a119560e0688!8m2!3d25.8923409!4d93.4279111?authuser=0&hl=en&rclk=1,25.8923409,93.4279111,Assam
Medical,Medical Center,"P5HM+4M5, Khenger Gaon, Assam 782447, India",https://www.google.co.kr/maps/place/Medical/data=!4m5!3m4!1s0x3745851dfebfd865:0xcf8443fa578dd859!8m2!3d25.7277535!4d93.1842384?authuser=0&hl=en&rclk=1,25.7277535,93.1842384,Assam
Metropolis Healthcare Ltd,Diagnostic center,"4th Floor, Swogata Envission, GS Rd, near Hotel Lily, Khanapara, Guwahati, Assam 781022, India",https://www.google.co.kr/maps/place/Metropolis+Healthcare+Ltd/data=!4m5!3m4!1s0x375a5beb9de66515:0x3d8cfa5939297e08!8m2!3d26.128213!4d91.811785?authuser=0&hl=en&rclk=1,26.128213,91.811785,Assam
"JSB CIVIL Hospital, Kajalgaon.",Hospital,"NH 31C, Madhyam Kajalgaon, Assam 783385, India","https://www.google.co.kr/maps/place/JSB+CIVIL+Hospital,+Kajalgaon./data=!4m5!3m4!1s0x3758fbcd8479e881:0x8887553c81d3d4f5!8m2!3d26.525265!4d90.490662?authuser=0&hl=en&rclk=1",26.525265,90.490662,Assam
Apollo Personalised Health Chek Centre,Hospital department,"Shubham buildwell complex, RG Baruah Rd, Block-H, Guwahati, Assam 781005, India",https://www.google.co.kr/maps/place/Apollo+Personalised+Health+Chek+Centre/data=!4m5!3m4!1s0x375a59b3837f5ca1:0xbde59761384b8382!8m2!3d26.1610092!4d91.7806549?authuser=0&hl=en&rclk=1,26.1610092,91.7806549,Assam
Biolege Diagnostic,Diagnostic center,"Kedia Puram, near Morning Glory English High School, Hojai, Assam 782435, India",https://www.google.co.kr/maps/place/Biolege+Diagnostic/data=!4m5!3m4!1s0x37456d63f578feb1:0x3cc834462d579055!8m2!3d26.0052016!4d92.8586601?authuser=0&hl=en&rclk=1,26.0052016,92.8586601,Assam
Sausaria Nursing Home,Nursing home,"Haiborgaon, Haibargaon, Nagaon, Assam 782002, India",https://www.google.co.kr/maps/place/Sausaria+Nursing+Home/data=!4m5!3m4!1s0x37452702c0432173:0xcbc5ec68997e049d!8m2!3d26.3490389!4d92.6674441?authuser=0&hl=en&rclk=1,26.3490389,92.6674441,Assam
Nutrition Rehabilitation Centre,Rehabilitation center,"Khaigarh, Nagaon, NH-37, Nagaon, Nagaon, Assam 782103, India",https://www.google.co.kr/maps/place/Nutrition+Rehabilitation+Centre/data=!4m5!3m4!1s0x37452e78660bff6f:0xd86470863607daf8!8m2!3d26.2458452!4d92.5405411?authuser=0&hl=en&rclk=1,26.2458452,92.5405411,Assam
Indian Red Cross Society,Non-governmental organization,"RQGW+FF2, Tarapur, Silchar, Assam 788007, India",https://www.google.co.kr/maps/place/Indian+Red+Cross+Society/data=!4m5!3m4!1s0x374e4a60c2fa5647:0x36c6cf12dfb62937!8m2!3d24.8261382!4d92.7961499?authuser=0&hl=en&rclk=1,24.8261382,92.7961499,Assam
Directorate of AYUSH,Medical office,"Beltola Rd, Banphool Nagar, Basisthpur, Guwahati, Assam 781038, India",https://www.google.co.kr/maps/place/Directorate+of+AYUSH/data=!4m5!3m4!1s0x375a59280d509deb:0xe035d5208714bc5d!8m2!3d26.1359704!4d91.79166?authuser=0&hl=en&rclk=1,26.1359704,91.79166,Assam
