Company_Name,Category,Address,Url,Latitude,Longitude,Territory
S.R. Drugs House,Medical clinic,"Lekhi Village, Naharlagun, Arunachal Pradesh 791110",https://www.google.co.kr/maps/place/S.R.+Drugs+House/data=!4m5!3m4!1s0x3743ff2ae452cf11:0xb3919f5e23617431!8m2!3d27.1249797!4d93.7252563?authuser=0&hl=en&rclk=1,27.1249797,93.7252563,Arunachal Pradesh
Niba Hospital,Hospital,"Naharlagun Pappunalla, Itanagar, Arunachal Pradesh 791110",https://www.google.co.kr/maps/place/Niba+Hospital/data=!4m5!3m4!1s0x374400c9d84a2901:0xe6c4d2fec82e72da!8m2!3d27.0974077!4d93.67714?authuser=0&hl=en&rclk=1,27.0974077,93.67714,Arunachal Pradesh
Medical Health Centre,Hospital,"MV79+Q8M, Namsai, Arunachal Pradesh 792103, India",https://www.google.co.kr/maps/place/Medical+Health+Centre/data=!4m5!3m4!1s0x373efa59c089aee7:0xbf9e6503afc4847c!8m2!3d27.6644704!4d95.8683065?authuser=0&hl=en&rclk=1,27.6644704,95.8683065,Arunachal Pradesh
Heema Hospital,Hospital,"NH415, Cona County, Itanagar, Arunachal Pradesh 791111",https://www.google.co.kr/maps/place/Heema+Hospital/data=!4m5!3m4!1s0x3744072190a3f1d9:0x17fa1315030b82ee!8m2!3d27.1008661!4d93.6281061?authuser=0&hl=en&rclk=1,27.1008661,93.6281061,Arunachal Pradesh
Primary Health Centre Kharsang,Hospital,"Miao Road, Miao, Arunachal Pradesh 792122, India",https://www.google.co.kr/maps/place/Primary+Health+Centre+Kharsang/data=!4m5!3m4!1s0x373eebb84e5007a9:0x3f1230e9c258f1f7!8m2!3d27.4219851!4d96.0218073?authuser=0&hl=en&rclk=1,27.4219851,96.0218073,Arunachal Pradesh
Manmow Sub-Centre,Hospital,"National Highway 52, 6th Mile Camp, Arunachal Pradesh 792103, India",https://www.google.co.kr/maps/place/Manmow+Sub-Centre/data=!4m5!3m4!1s0x373efa75a6747b1f:0x5b49d0b9d15df0dd!8m2!3d27.6791826!4d95.8968285?authuser=0&hl=en&rclk=1,27.6791826,95.8968285,Arunachal Pradesh
Samaritan Hormin Hospital,Hospital,"A Sector, Papum Pare, NH-52A, Itanagar Rd, Naharlagun, Arunachal Pradesh 791110",https://www.google.co.kr/maps/place/Samaritan+Hormin+Hospital/data=!4m5!3m4!1s0x3744008eb6cd3455:0x59e709aa13d1ac21!8m2!3d27.1085492!4d93.6974067?authuser=0&hl=en&rclk=1,27.1085492,93.6974067,Arunachal Pradesh
Physiotherapy & Rehabilitation Clinic,Hospital,"PWM6+V47, Lathao, Arunachal Pradesh 792103, India",https://www.google.co.kr/maps/place/Physiotherapy+%26+Rehabilitation+Clinic/data=!4m5!3m4!1s0x373ef7f914979691:0xc590ed814ed06232!8m2!3d27.7346556!4d95.9102962?authuser=0&hl=en&rclk=1,27.7346556,95.9102962,Arunachal Pradesh
"Gyati Takka General Hospital, Ziro",Government hospital,"Hospital Road, Cona County, Ziro, Arunachal Pradesh 791120","https://www.google.co.kr/maps/place/Gyati+Takka+General+Hospital,+Ziro/data=!4m5!3m4!1s0x374160d47dc4c7ff:0xf080831d047caddf!8m2!3d27.5390107!4d93.8219742?authuser=0&hl=en&rclk=1",27.5390107,93.8219742,Arunachal Pradesh
Samaritan Hormin Hospital,Hospital,"NH415, A - Sector, Naharlagun, Arunachal Pradesh 791110",https://www.google.co.kr/maps/place/Samaritan+Hormin+Hospital/data=!4m5!3m4!1s0x37440112e9f11ae1:0xa8566f270d71412b!8m2!3d27.0263692!4d93.6239946?authuser=0&hl=en&rclk=1,27.0263692,93.6239946,Arunachal Pradesh
Zonal General hospital Tezu,Hospital,"W5H5+64Q, Tezu, Arunachal Pradesh 792001, India",https://www.google.co.kr/maps/place/Zonal+General+hospital+Tezu/data=!4m5!3m4!1s0x373e65d354b9f6df:0x9073a1b5328bb947!8m2!3d27.9280885!4d96.1578466?authuser=0&hl=en&rclk=1,27.9280885,96.1578466,Arunachal Pradesh
APNC,Medical clinic,"Nursing Council, C- Sector, Naharlagun, Arunachal Pradesh 791110",https://www.google.co.kr/maps/place/APNC/data=!4m5!3m4!1s0x3744009485555555:0xa3cc2fcfbf01de45!8m2!3d27.1040339!4d93.6870462?authuser=0&hl=en&rclk=1,27.1040339,93.6870462,Arunachal Pradesh
Tomo Riba Institute Of Health And Medical Sciences,Hospital,"National Highway 52A, Old Assembly Complex, Naharlagun, Arunachal Pradesh 791110",https://www.google.co.kr/maps/place/Tomo+Riba+Institute+Of+Health+And+Medical+Sciences/data=!4m5!3m4!1s0x37440092bd9b4271:0xff711dc44d5e5ef9!8m2!3d27.1038855!4d93.6910961?authuser=0&hl=en&rclk=1,27.1038855,93.6910961,Arunachal Pradesh
Ratan Clinic,Hospital,"R6W9+9VG, Ruksin, Arunachal Pradesh 787060, India",https://www.google.co.kr/maps/place/Ratan+Clinic/data=!4m5!3m4!1s0x373f82b6eedd6419:0x2e7b0e6a951a678e!8m2!3d27.8459469!4d95.2196877?authuser=0&hl=en&rclk=1,27.8459469,95.2196877,Arunachal Pradesh
Kruna Trust,Hospital,"792001, Arunachal Pradesh, India",https://www.google.co.kr/maps/place/Kruna+Trust/data=!4m5!3m4!1s0x373e644902d44a91:0xce180aa23552c650!8m2!3d27.9185759!4d96.1772115?authuser=0&hl=en&rclk=1,27.9185759,96.1772115,Arunachal Pradesh
Pulmocare Clinic,Hospital,"E Sector, Papum Pare, NH-52A, Itanagar Road, Naharlagun, Naharlagun, Arunachal Pradesh 791110",https://www.google.co.kr/maps/place/Pulmocare+Clinic/data=!4m5!3m4!1s0x37440092e9bbd2bd:0x4bffb8cff59af2dc!8m2!3d27.103312!4d93.691059?authuser=0&hl=en&rclk=1,27.103312,93.691059,Arunachal Pradesh
Ista Pulu Health Center,Hospital,"Roing, Arunachal Pradesh 792110, India",https://www.google.co.kr/maps/place/Ista+Pulu+Health+Center/data=!4m5!3m4!1s0x373e491979f8f823:0x5b0cb74d14e21d86!8m2!3d28.1362489!4d95.8398081?authuser=0&hl=en&rclk=1,28.1362489,95.8398081,Arunachal Pradesh
Dr Lal PathLabs,Diagnostic center,"NATIONAL HIGHWAY 52 A, MAIN ROAD, opp. TOMO RIBA GENERAL HOSPITAL, Naharlagun, Arunachal Pradesh 791110",https://www.google.co.kr/maps/place/Dr+Lal+PathLabs/data=!4m5!3m4!1s0x37440092c828395d:0x92d6fdaf0ca1e624!8m2!3d27.102304!4d93.691481?authuser=0&hl=en&rclk=1,27.102304,93.691481,Arunachal Pradesh
Primary Health Center Koronu,Hospital,"3W7G+6P3, Dibang Valley, Arunachal Pradesh 792110, India",https://www.google.co.kr/maps/place/Primary+Health+Center+Koronu/data=!4m5!3m4!1s0x373e45c45b7ed2d1:0x8d4c6858b2aca0ae!8m2!3d28.0630191!4d95.9267924?authuser=0&hl=en&rclk=1,28.0630191,95.9267924,Arunachal Pradesh
NERIST Health Unit,Hospital,"Doimukh Road, Cona County, Nirjuli, Arunachal Pradesh 791109",https://www.google.co.kr/maps/place/NERIST+Health+Unit/data=!4m5!3m4!1s0x3743fffbd8230ef7:0x53314464629955a2!8m2!3d27.1300068!4d93.7365586?authuser=0&hl=en&rclk=1,27.1300068,93.7365586,Arunachal Pradesh
"Govt Civil Hospital, Chongkham",Hospital,"R25R+Q34, Arunachal Pradesh 792102, India","https://www.google.co.kr/maps/place/Govt+Civil+Hospital,+Chongkham/data=!4m5!3m4!1s0x373e5f91408cef51:0x4bafe9d2744044a8!8m2!3d27.8093839!4d96.0402037?authuser=0&hl=en&rclk=1",27.8093839,96.0402037,Arunachal Pradesh
Ramakrishna Mission Hospital,Hospital,"P.O. R.K. Mission, Itanagar, Arunachal Pradesh 791113",https://www.google.co.kr/maps/place/Ramakrishna+Mission+Hospital/data=!4m5!3m4!1s0x374407b22d0f830f:0xc1127903b8c7048a!8m2!3d27.0856246!4d93.6090296?authuser=0&hl=en&rclk=1,27.0856246,93.6090296,Arunachal Pradesh
Emmanuel BTM Hospital,Hospital,"National Highway 52A Pappu Nallah, Naharlagun, Arunachal Pradesh 791110",https://www.google.co.kr/maps/place/Emmanuel+BTM+Hospital/data=!4m5!3m4!1s0x374400c3f0230039:0xcaeee58f8ce7ca0d!8m2!3d27.0952157!4d93.6780951?authuser=0&hl=en&rclk=1,27.0952157,93.6780951,Arunachal Pradesh
Asali Sub Centre,Hospital,"Vill - Asali, Dist, Roing, Arunachal Pradesh 792110, India",https://www.google.co.kr/maps/place/Asali+Sub+Centre/data=!4m5!3m4!1s0x373e4982feb235fb:0x1ff2ec14bf12d508!8m2!3d28.131878!4d95.8224337?authuser=0&hl=en&rclk=1,28.131878,95.8224337,Arunachal Pradesh
"District Hospital, Longding",Hospital,"Khonsa - Longding Rd, Longding H.Q., Arunachal Pradesh 792131, India","https://www.google.co.kr/maps/place/District+Hospital,+Longding/data=!4m5!3m4!1s0x3738b7f486e40275:0xd2b4a369acc0c565!8m2!3d26.8886516!4d95.3754487?authuser=0&hl=en&rclk=1",26.8886516,95.3754487,Arunachal Pradesh
Mahadevpur Government Hospital,Hospital,"JRP6+X3R, Mahadevpur, Arunachal Pradesh 792105, India",https://www.google.co.kr/maps/place/Mahadevpur+Government+Hospital/data=!4m5!3m4!1s0x373efca196849349:0xdf2c6839f0bafb3d!8m2!3d27.6374849!4d95.8101348?authuser=0&hl=en&rclk=1,27.6374849,95.8101348,Arunachal Pradesh
PHC BORDURIA,Hospital,"2FGC+XJG, Borduria, Arunachal Pradesh 792130, India",https://www.google.co.kr/maps/place/PHC+BORDURIA/data=!4m5!3m4!1s0x3738cbd269bcb577:0x9c1ac3b53a10e5d!8m2!3d27.0274409!4d95.4715817?authuser=0&hl=en&rclk=1,27.0274409,95.4715817,Arunachal Pradesh
District Hospital,Hospital,"Town Rd, Changlang, Arunachal Pradesh 792120, India",https://www.google.co.kr/maps/place/District+Hospital/data=!4m5!3m4!1s0x373ed5fa1814e77f:0x41b561a74e2b12b!8m2!3d27.1392588!4d95.7387578?authuser=0&hl=en&rclk=1,27.1392588,95.7387578,Arunachal Pradesh
"District Hospital, Bomdila",Hospital,"7C8C+632, Cona, Bomdila, Arunachal Pradesh 790001","https://www.google.co.kr/maps/place/District+Hospital,+Bomdila/data=!4m5!3m4!1s0x375cac61e8b18c43:0x392c3f438f1fe201!8m2!3d27.2655236!4d92.4201492?authuser=0&hl=en&rclk=1",27.2655236,92.4201492,Arunachal Pradesh
Uma Ayurvedic and Acupressure Clinic,Hospital,"0 point itanagar NH-52A, Main Road, opposite hotel movie, Itanagar, Arunachal Pradesh 791111",https://www.google.co.kr/maps/place/Uma+Ayurvedic+and+Acupressure+Clinic/data=!4m5!3m4!1s0x3744070d287d0d57:0xf060a993714e2d6a!8m2!3d27.1084834!4d93.6987608?authuser=0&hl=en&rclk=1,27.1084834,93.6987608,Arunachal Pradesh
District Hospital Yingkiong,Hospital,"J2RG+M49, Mêdog County, Yingkiong, Arunachal Pradesh 791002",https://www.google.co.kr/maps/place/District+Hospital+Yingkiong/data=!4m5!3m4!1s0x376aab0ee325b7e5:0xe67fea1f27ae04b8!8m2!3d28.6416618!4d95.0253493?authuser=0&hl=en&rclk=1,28.6416618,95.0253493,Arunachal Pradesh
DAMBUK PHC,Hospital,"7J87+VGM, Mêdog County, Dambuk, Arunachal Pradesh 792110",https://www.google.co.kr/maps/place/DAMBUK+PHC/data=!4m5!3m4!1s0x373fc92fe4384059:0x2910999660165927!8m2!3d28.2672179!4d95.6138098?authuser=0&hl=en&rclk=1,28.2672179,95.6138098,Arunachal Pradesh
Dr Lal PathLabs,Diagnostic center,"opp. BSNL Office, Bank Tiniali, Cona County, Itanagar, Arunachal Pradesh 791111",https://www.google.co.kr/maps/place/Dr+Lal+PathLabs/data=!4m5!3m4!1s0x374407b44275e53d:0x307af87d7f98ff6c!8m2!3d27.084368!4d93.605316?authuser=0&hl=en&rclk=1,27.084368,93.605316,Arunachal Pradesh
District Hospital,Hospital,"4RRR+H77, Roing, Arunachal Pradesh 792110, India",https://www.google.co.kr/maps/place/District+Hospital/data=!4m5!3m4!1s0x373e49bb5f7d95b9:0xc3f4cfb22e041454!8m2!3d28.1414026!4d95.8406634?authuser=0&hl=en&rclk=1,28.1414026,95.8406634,Arunachal Pradesh
TB Hospital,Hospital,"NH 52, Medog, Pasighat, Arunachal Pradesh 791102",https://www.google.co.kr/maps/place/TB+Hospital/data=!4m5!3m4!1s0x373f96c55f174d85:0xac7f7b04bf5aceae!8m2!3d28.0691403!4d95.3208268?authuser=0&hl=en&rclk=1,28.0691403,95.3208268,Arunachal Pradesh
sub Center Sitpani Miri,Hospital,"JQ9J+6RV, Dakhin Bishrampur, Assam 792105, India",https://www.google.co.kr/maps/place/sub+Center+Sitpani+Miri/data=!4m5!3m4!1s0x373efcd2a4c6f135:0xf063e3c1bf6f399!8m2!3d27.6181136!4d95.7820537?authuser=0&hl=en&rclk=1,27.6181136,95.7820537,Arunachal Pradesh
District TB Centre,Hospital,"District TB Centre,, Roing, Arunachal Pradesh, India",https://www.google.co.kr/maps/place/District+TB+Centre/data=!4m5!3m4!1s0x373e49bcabc066d7:0x2f3e4e41e49fc38d!8m2!3d28.1404453!4d95.8404203?authuser=0&hl=en&rclk=1,28.1404453,95.8404203,Arunachal Pradesh
District Hospital,Hospital,"Swami Camp, Dist, Anjaw, Hayuliang, Arunachal Pradesh",https://www.google.co.kr/maps/place/District+Hospital/data=!4m5!3m4!1s0x373ddd105fafe159:0x3c0675da2bf53639!8m2!3d28.082338!4d96.5085299?authuser=0&hl=en&rclk=1,28.082338,96.5085299,Arunachal Pradesh
Jonekareng Primary Health Centre,Hospital,"Q5J8+6PP, Dhemaji, Assam 787060, India",https://www.google.co.kr/maps/place/Jonekareng+Primary+Health+Centre/data=!4m5!3m4!1s0x373f791e3487413d:0x735f0513f0275ebd!8m2!3d27.7805925!4d95.1668265?authuser=0&hl=en&rclk=1,27.7805925,95.1668265,Arunachal Pradesh
"KBM Hospital, Injan",Hospital,"C2GX+PMM, Arunachal Pradesh 792122, India","https://www.google.co.kr/maps/place/KBM+Hospital,+Injan/data=!4m5!3m4!1s0x373eeaa253ad9527:0x8e9ecf0a08eade1d!8m2!3d27.426847!4d96.0491873?authuser=0&hl=en&rclk=1",27.426847,96.0491873,Arunachal Pradesh
"General Hospital, Aalo",Hospital,"5QCX+HGQ, Mêdog County, Aalo, Arunachal Pradesh 791001","https://www.google.co.kr/maps/place/General+Hospital,+Aalo/data=!4m5!3m4!1s0x37406b77a1ed98dd:0xf8d895c40de9170a!8m2!3d28.1714525!4d94.7988689?authuser=0&hl=en&rclk=1",28.1714525,94.7988689,Arunachal Pradesh
Civil Hospital,Hospital,"4RRR+J6X, Roing, Arunachal Pradesh 792110, India",https://www.google.co.kr/maps/place/Civil+Hospital/data=!4m5!3m4!1s0x373e49bc9ff5fc75:0x601715843bee35ce!8m2!3d28.1416175!4d95.8406201?authuser=0&hl=en&rclk=1,28.1416175,95.8406201,Arunachal Pradesh
District Hospital Tawang,Government hospital,"HVQ7+HXC, Cona, Tawang, Arunachal Pradesh 790104",https://www.google.co.kr/maps/place/District+Hospital+Tawang/data=!4m5!3m4!1s0x375cf5a94148124f:0x73a24884d6c28400!8m2!3d27.5889424!4d91.864897?authuser=0&hl=en&rclk=1,27.5889424,91.864897,Arunachal Pradesh
"Primary Health Center Riga, Siang District Arunachal Pradesh, India",Medical Center,"Primary Health Center, Mêdog County, Riga, Arunachal Pradesh 791102","https://www.google.co.kr/maps/place/Primary+Health+Center+Riga,+Siang+District+Arunachal+Pradesh,+India/data=!4m5!3m4!1s0x3740079a7279cdbf:0xa57c1ac281ab1e54!8m2!3d28.4116679!4d95.047276?authuser=0&hl=en&rclk=1",28.4116679,95.047276,Arunachal Pradesh
I.S Diagnostic Centre and Hospital,Hospital,"NH 52, Medog, Pasighat, Arunachal Pradesh 791102",https://www.google.co.kr/maps/place/I.S+Diagnostic+Centre+and+Hospital/data=!4m5!3m4!1s0x373f96c36ceafe3b:0xe6a9ca579c55fa43!8m2!3d28.0696353!4d95.327122?authuser=0&hl=en&rclk=1,28.0696353,95.327122,Arunachal Pradesh
PHC Kharsang,Hospital,"Miao Road, Jagun to Miao Rd, Arunachal Pradesh 792122, India",https://www.google.co.kr/maps/place/PHC+Kharsang/data=!4m5!3m4!1s0x373eea7f16f06dbf:0xd8cf1600308dc854!8m2!3d27.4217476!4d96.021806?authuser=0&hl=en&rclk=1,27.4217476,96.021806,Arunachal Pradesh
"District Hospital, Anini",Hospital,"QWW6+P5G, Zayu, Anini, Arunachal Pradesh 792101","https://www.google.co.kr/maps/place/District+Hospital,+Anini/data=!4m5!3m4!1s0x371590976d73f80d:0x3a65559f094167ff!8m2!3d28.7968086!4d95.9104519?authuser=0&hl=en&rclk=1",28.7968086,95.9104519,Arunachal Pradesh
District Hospital,Hospital,"X6J8+GXM, Cona, Daporijo, Arunachal Pradesh 791122",https://www.google.co.kr/maps/place/District+Hospital/data=!4m5!3m4!1s0x3741a594706f1a9f:0xdf51e782247c93a8!8m2!3d27.981328!4d94.2174304?authuser=0&hl=en&rclk=1,27.981328,94.2174304,Arunachal Pradesh
Government Hospital Roing,Government hospital,"4RRR+H5C, Roing, Arunachal Pradesh 792110, India",https://www.google.co.kr/maps/place/Government+Hospital+Roing/data=!4m5!3m4!1s0x373e49bca1756651:0xe8b366f6672f84ee!8m2!3d28.1414408!4d95.8404055?authuser=0&hl=en&rclk=1,28.1414408,95.8404055,Arunachal Pradesh
Bakin Pertin General Hospital,Hospital,"Mêdog County, Pasighat, Arunachal Pradesh 791102",https://www.google.co.kr/maps/place/Bakin+Pertin+General+Hospital/data=!4m5!3m4!1s0x373f96c46f084105:0xc1837b2520d011d5!8m2!3d28.0715448!4d95.3251129?authuser=0&hl=en&rclk=1,28.0715448,95.3251129,Arunachal Pradesh
Arogyaindia,Ayurvedic clinic,"C- Sector, Itanagar, Arunachal Pradesh 791111",https://www.google.co.kr/maps/place/Arogyaindia/data=!4m5!3m4!1s0x3744072f47e8511d:0x3857267a57bf05a2!8m2!3d27.1023356!4d93.6297372?authuser=0&hl=en&rclk=1,27.1023356,93.6297372,Arunachal Pradesh
District Hospital Seppa,Hospital,"923V+767, Cona County, Shannan, Arunachal Pradesh 790102",https://www.google.co.kr/maps/place/District+Hospital+Seppa/data=!4m5!3m4!1s0x3743771344ded497:0x80dfb92f9b0a65a6!8m2!3d27.3531695!4d93.0430493?authuser=0&hl=en&rclk=1,27.3531695,93.0430493,Arunachal Pradesh
St. Damiano Hospital,Hospital,"Bazaar,, Kharsang, Arunachal Pradesh, India",https://www.google.co.kr/maps/place/St.+Damiano+Hospital/data=!4m5!3m4!1s0x373eeaa25145feb7:0xbc98ddde3a38725f!8m2!3d27.4269743!4d96.0489979?authuser=0&hl=en&rclk=1,27.4269743,96.0489979,Arunachal Pradesh
"General Hospital, Kharsang",Hospital,"C2CC+RP8, Arunachal Pradesh 792122, India","https://www.google.co.kr/maps/place/General+Hospital,+Kharsang/data=!4m5!3m4!1s0x373eea7f19c37aa3:0x6af90ce40fe67dbe!8m2!3d27.4220327!4d96.0218352?authuser=0&hl=en&rclk=1",27.4220327,96.0218352,Arunachal Pradesh
NEEPCO Medical,Medical Center,"5Q43+WM7, Cona, Doimukh, Arunachal Pradesh 791112",https://www.google.co.kr/maps/place/NEEPCO+Medical/data=!4m5!3m4!1s0x3741556f8d3c0155:0xacfd5fef23e6bc3f!8m2!3d27.1572844!4d93.7541821?authuser=0&hl=en&rclk=1,27.1572844,93.7541821,Arunachal Pradesh
Pengeri MPHC,Hospital,"CQG6+G72, Digboi, Assam 786174, India",https://www.google.co.kr/maps/place/Pengeri+MPHC/data=!4m5!3m4!1s0x373edfd9e984a761:0x28d76077efc29f81!8m2!3d27.4262527!4d95.7606329?authuser=0&hl=en&rclk=1,27.4262527,95.7606329,Arunachal Pradesh
Chubam,Hospital,"W8VG+86J, Chanu, Arunachal Pradesh 792130, India",https://www.google.co.kr/maps/place/Chubam/data=!4m5!3m4!1s0x3738b6db51188d89:0x6c806553b0227b47!8m2!3d26.943338!4d95.325523?authuser=0&hl=en&rclk=1,26.943338,95.325523,Arunachal Pradesh
"Makum Tea, Hospital",Hospital,"7MG4+478, 112/109/Nla Grant.1 Makum Tea, Assam 786181, India","https://www.google.co.kr/maps/place/Makum+Tea,+Hospital/data=!4m5!3m4!1s0x373f2672726f97fd:0x6332145c3b69385f!8m2!3d27.2752774!4d95.6557032?authuser=0&hl=en&rclk=1",27.2752774,95.6557032,Arunachal Pradesh
Veternary Hospital,Veterans hospital,"7MV4+VWR, Makum Pathar No.1, Assam 786181, India",https://www.google.co.kr/maps/place/Veternary+Hospital/data=!4m5!3m4!1s0x373f26881c3b582d:0xb8c085cea38edbb4!8m2!3d27.2947395!4d95.6572542?authuser=0&hl=en&rclk=1,27.2947395,95.6572542,Arunachal Pradesh
Nigam Health Center,Hospital,"68F6+CVW, Nigam Gaon, Assam 786621, India",https://www.google.co.kr/maps/place/Nigam+Health+Center/data=!4m5!3m4!1s0x373f48d2e53217c1:0xdd5863d57392e4bb!8m2!3d27.2236074!4d95.3121934?authuser=0&hl=en&rclk=1,27.2236074,95.3121934,Arunachal Pradesh
UC Das Hospital,Private hospital,"7PM4+JWJ, Namdan Golai, Assam 786182, India",https://www.google.co.kr/maps/place/UC+Das+Hospital/data=!4m5!3m4!1s0x373f27a25bf7b563:0x68c72b87650f7fe1!8m2!3d27.2840966!4d95.7072741?authuser=0&hl=en&rclk=1,27.2840966,95.7072741,Arunachal Pradesh
Doctors Diagnostics Centre,Diagnostic center,"S. S. Mission Road (Jerang Pharmacy, Jarkong, Leprosy colony, road, Pasighat, Arunachal Pradesh 791102",https://www.google.co.kr/maps/place/Doctors+Diagnostics+Centre/data=!4m5!3m4!1s0x373f979dac15352f:0xcf477acea55d33fb!8m2!3d28.0585569!4d95.3342185?authuser=0&hl=en&rclk=1,28.0585569,95.3342185,Arunachal Pradesh
Bijoypur PHC,Hospital,"Q5G8+J29, Dhemaji, Assam 787060, India",https://www.google.co.kr/maps/place/Bijoypur+PHC/data=!4m5!3m4!1s0x373f793c8b886147:0x74c826be63d091af!8m2!3d27.7765497!4d95.1651032?authuser=0&hl=en&rclk=1,27.7765497,95.1651032,Arunachal Pradesh
Men-tsee-khang Tibetan Medical and Astro,Hospital,"TR Camp Road, Miao, Arunachal Pradesh 792122, India",https://www.google.co.kr/maps/place/Men-tsee-khang+Tibetan+Medical+and+Astro/data=!4m5!3m4!1s0x373e96ef8d262ebf:0xae3e5774272b3b7a!8m2!3d27.4727027!4d96.1840116?authuser=0&hl=en&rclk=1,27.4727027,96.1840116,Arunachal Pradesh
ASSA DIAGNOSTIC and NURSING HOME,Hospital,"TB Hospital, Pasighat",https://www.google.co.kr/maps/place/ASSA+DIAGNOSTIC+and+NURSING+HOME/data=!4m5!3m4!1s0x373f96c5350d9345:0xbebbfd743461defa!8m2!3d28.0680241!4d95.3221109?authuser=0&hl=en&rclk=1,28.0680241,95.3221109,Arunachal Pradesh
Namroop TE Hospital,Hospital,"58V8+7JF, Namrup Chah Bagicha, Assam 786623, India",https://www.google.co.kr/maps/place/Namroop+TE+Hospital/data=!4m5!3m4!1s0x373f49714f36bc73:0x207c677522966e5a!8m2!3d27.1931846!4d95.3165587?authuser=0&hl=en&rclk=1,27.1931846,95.3165587,Arunachal Pradesh
Prabin Nobin Homeo Care,Hospital,"vill-kachamari,p.o. pathslipahar,dist, Assam",https://www.google.co.kr/maps/place/Prabin+Nobin+Homeo+Care/data=!4m5!3m4!1s0x3746ac633a48cdf3:0x2312f951e28eaeda!8m2!3d27.0704418!4d93.8357601?authuser=0&hl=en&rclk=1,27.0704418,93.8357601,Arunachal Pradesh
Tara Memorial Hospital,Hospital,"NH415, 791109",https://www.google.co.kr/maps/place/Tara+Memorial+Hospital/data=!4m5!3m4!1s0x374155e23fe5c8b9:0x3feb1b6ea18e52c4!8m2!3d27.1282547!4d93.7454005?authuser=0&hl=en&rclk=1,27.1282547,93.7454005,Arunachal Pradesh
FRU Ruksin,Hospital,"R6WC+H3F, Ruksin, Arunachal Pradesh 787060, India",https://www.google.co.kr/maps/place/FRU+Ruksin/data=!4m5!3m4!1s0x373f82b68ccf0b7b:0xa47f9819592c45c2!8m2!3d27.846445!4d95.2201779?authuser=0&hl=en&rclk=1,27.846445,95.2201779,Arunachal Pradesh
Simaluguri SHC,Hospital,"XP9X+FC8, Lakhimpur, Simaluguri, Assam 784165, India",https://www.google.co.kr/maps/place/Simaluguri+SHC/data=!4m5!3m4!1s0x3746a826780bfad3:0xa87e49a3dac870cc!8m2!3d26.968651!4d93.74857?authuser=0&hl=en&rclk=1,26.968651,93.74857,Arunachal Pradesh
Nigam Village Hospital,Hospital,"P.O- NIGAM, Nigam Gaon, Namrup, Assam 786621, India",https://www.google.co.kr/maps/place/Nigam+Village+Hospital/data=!4m5!3m4!1s0x373f48d25776d57b:0x48f871fc6a9a667e!8m2!3d27.2236491!4d95.3130448?authuser=0&hl=en&rclk=1,27.2236491,95.3130448,Arunachal Pradesh
Harmoti Mini PHC,Hospital,"Harmutty, Harmuti, Assam",https://www.google.co.kr/maps/place/Harmoti+Mini+PHC/data=!4m5!3m4!1s0x3746acb6380f65b5:0x90926b326e80b707!8m2!3d27.1131112!4d93.8439275?authuser=0&hl=en&rclk=1,27.1131112,93.8439275,Arunachal Pradesh
CHC Miao,Hospital,"27°29'27.4""N 96°12'36.7""E, India",https://www.google.co.kr/maps/place/CHC+Miao/data=!4m5!3m4!1s0x373e973a31718f65:0xa35180643d9182e9!8m2!3d27.490931!4d96.210189?authuser=0&hl=en&rclk=1,27.490931,96.210189,Arunachal Pradesh
Karuna Trust Building,Doctor,"Arunachal Pradesh, near Power House, Itanagar, 791113",https://www.google.co.kr/maps/place/Karuna+Trust+Building/data=!4m5!3m4!1s0x374407caa8fd6051:0x772d50eabac804ec!8m2!3d27.081094!4d93.6013283?authuser=0&hl=en&rclk=1,27.081094,93.6013283,Arunachal Pradesh
Sapekhati Model Hospital,Hospital,"35GH+G5W, Bagh Moria Gaon, Assam 785692, India",https://www.google.co.kr/maps/place/Sapekhati+Model+Hospital/data=!4m5!3m4!1s0x3738add805f0c177:0xb60c85c0465d80a0!8m2!3d27.0763618!4d95.1779445?authuser=0&hl=en&rclk=1,27.0763618,95.1779445,Arunachal Pradesh
Jagun Mini PHC,Hospital,"NH 153, Katha Gaon, Assam 786188, India",https://www.google.co.kr/maps/place/Jagun+Mini+PHC/data=!4m5!3m4!1s0x373edd2a6614ab8b:0x7c87fb84d1611cb2!8m2!3d27.3794565!4d95.8954227?authuser=0&hl=en&rclk=1,27.3794565,95.8954227,Arunachal Pradesh
Unique Medicose And Diagnostic,Hospital,"SH 43, Bihpuria, Assam 784161, India",https://www.google.co.kr/maps/place/Unique+Medicose+And+Diagnostic/data=!4m5!3m4!1s0x3746b1e47a0aa651:0x9bef26e5e8abc511!8m2!3d27.0098547!4d93.9117584?authuser=0&hl=en&rclk=1,27.0098547,93.9117584,Arunachal Pradesh
POWAI HOSPITAL,Hospital,"9J3W+38R, Powai Forest Village, Assam 786171, India",https://www.google.co.kr/maps/place/POWAI+HOSPITAL/data=!4m5!3m4!1s0x373f2157e299f5ef:0x304036bb6cc6748!8m2!3d27.3527335!4d95.6457775?authuser=0&hl=en&rclk=1,27.3527335,95.6457775,Arunachal Pradesh
Jonai Civil Hospital,Hospital,"Assam 787060, India",https://www.google.co.kr/maps/place/Jonai+Civil+Hospital/data=!4m5!3m4!1s0x373f82a4a9213d5f:0x5cc6dffc67862bf!8m2!3d27.8376862!4d95.2113042?authuser=0&hl=en&rclk=1,27.8376862,95.2113042,Arunachal Pradesh
Vetenary Department,Veterans hospital,"C2GH+RHC, Oil India Housing Complex, Arunachal Pradesh 792122, India",https://www.google.co.kr/maps/place/Vetenary+Department/data=!4m5!3m4!1s0x373eeb589d69d459:0x17b9ec8a5c15b843!8m2!3d27.4270722!4d96.0288753?authuser=0&hl=en&rclk=1,27.4270722,96.0288753,Arunachal Pradesh
Tago Memorial Hospital,Hospital,"NH 52A, Cona, Nirjuli, 791109",https://www.google.co.kr/maps/place/Tago+Memorial+Hospital/data=!4m5!3m4!1s0x37415556a3c80a99:0xd393537a0541f50!8m2!3d27.1300625!4d93.747516?authuser=0&hl=en&rclk=1,27.1300625,93.747516,Arunachal Pradesh
Coal India Hospital,Hospital,"Makrani Line Rd, Ledo, Assam 786182, India",https://www.google.co.kr/maps/place/Coal+India+Hospital/data=!4m5!3m4!1s0x373ed976708bfa81:0x72aba74370cd5c25!8m2!3d27.2938156!4d95.7552695?authuser=0&hl=en&rclk=1,27.2938156,95.7552695,Arunachal Pradesh
M H Clinic (Dr.Arup Kumar Das),Doctor,"Old Rd, Missamari, Assam 784506, India",https://www.google.co.kr/maps/place/M+H+Clinic+(Dr.Arup+Kumar+Das)/data=!4m5!3m4!1s0x3744b7ab166226a9:0x8ecb514743cdd9ff!8m2!3d26.8165187!4d92.5806364?authuser=0&hl=en&rclk=1,26.8165187,92.5806364,Arunachal Pradesh
JEYPORE STATE HOSPITAL,Hospital,"796W+P7C, Joypur Chariali, Assam 786614, India",https://www.google.co.kr/maps/place/JEYPORE+STATE+HOSPITAL/data=!4m5!3m4!1s0x373f3800ee85436b:0xac48040eb5d9882b!8m2!3d27.2618118!4d95.3956292?authuser=0&hl=en&rclk=1,27.2618118,95.3956292,Arunachal Pradesh
Dr Saikia’s Clinic,Hospital,"Bus Stop, Sapekhati Charialli, Dhodar Ali Rd, Bagh Moria Gaon, Assam 785692, India",https://www.google.co.kr/maps/place/Dr+Saikia%E2%80%99s+Clinic/data=!4m5!3m4!1s0x373f535d978ef937:0x2c0720bbc162beed!8m2!3d27.07939!4d95.177792?authuser=0&hl=en&rclk=1,27.07939,95.177792,Arunachal Pradesh
Bihpuria Government Hospital,Hospital,"2W49+HF5, Bihpuria, Assam 784161, India",https://www.google.co.kr/maps/place/Bihpuria+Government+Hospital/data=!4m5!3m4!1s0x3746b1e8d951e53d:0xc14b52a9fa46a13!8m2!3d27.0063816!4d93.9187255?authuser=0&hl=en&rclk=1,27.0063816,93.9187255,Arunachal Pradesh
Beibengxiang Central Hospital,Hospital,"65VG+Q24, Mêdog County, Nyingchi, Tibet, China",https://www.google.co.kr/maps/place/Beibengxiang+Central+Hospital/data=!4m5!3m4!1s0x37152923374b6ab5:0xbeb9445705375fb6!8m2!3d29.2444!4d95.175076?authuser=0&hl=en&rclk=1,29.2444,95.175076,Arunachal Pradesh
District Tuberclosis Centre,Medical Center,"X6J8+GQ9, Cona, Daporijo, Arunachal Pradesh 791122",https://www.google.co.kr/maps/place/District+Tuberclosis+Centre/data=!4m5!3m4!1s0x3741a5946601d783:0x45bbc80a2d7e0998!8m2!3d27.9812806!4d94.2169851?authuser=0&hl=en&rclk=1,27.9812806,94.2169851,Arunachal Pradesh
kalyanee Medical,Medical Center,"Bihpuria - Borbali Rd, Bahgorah Deori, Rajbari Gaon, Assam 784161, India",https://www.google.co.kr/maps/place/kalyanee+Medical/data=!4m5!3m4!1s0x3746b1f77e2c916b:0x4468c523adfe8cbf!8m2!3d27.0220254!4d93.9164817?authuser=0&hl=en&rclk=1,27.0220254,93.9164817,Arunachal Pradesh
Rakshit Homoeo Clinic,Doctor,"MG Rd, Rangapara, Assam 784505, India",https://www.google.co.kr/maps/place/Rakshit+Homoeo+Clinic/data=!4m5!3m4!1s0x3744b9261036232f:0xc887318d99996912!8m2!3d26.8238521!4d92.6874018?authuser=0&hl=en&rclk=1,26.8238521,92.6874018,Arunachal Pradesh
Jokai Central Hospital,Hospital,"Assam Trunk Rd, Panitola Town, Assam 786183, India",https://www.google.co.kr/maps/place/Jokai+Central+Hospital/data=!4m5!3m4!1s0x373f68543b462f7f:0x735d6c2baab16cd6!8m2!3d27.4933019!4d95.2639157?authuser=0&hl=en&rclk=1,27.4933019,95.2639157,Arunachal Pradesh
Environmental studies,Internist,"Cona County, Hapoli, Arunachal Pradesh 791120",https://www.google.co.kr/maps/place/Environmental+studies/data=!4m5!3m4!1s0x37416129f8faf5dd:0xc3b02b69976bcf93!8m2!3d27.5439077!4d93.8160406?authuser=0&hl=en&rclk=1,27.5439077,93.8160406,Arunachal Pradesh
C.B.Hospital,Hospital,"Subachani Rd, Tinsukia, Assam 786125, India",https://www.google.co.kr/maps/place/C.B.Hospital/data=!4m5!3m4!1s0x373f6b03ea59148f:0xbe343ff2f71bd293!8m2!3d27.4981624!4d95.3584491?authuser=0&hl=en&rclk=1,27.4981624,95.3584491,Arunachal Pradesh
LPGB Civil Hospital,Hospital,"F9X5+CHM, Sector 1, Bordoloi Nagar, Tinsukia, Assam 786125, India",https://www.google.co.kr/maps/place/LPGB+Civil+Hospital/data=!4m5!3m4!1s0x373f6b03922cba1f:0x64ed12264ad935f1!8m2!3d27.4985813!4d95.358928?authuser=0&hl=en&rclk=1,27.4985813,95.358928,Arunachal Pradesh
Hollonghabi T.E. Hospital,Hospital,"FH2V+X2R, Bogapani T.E.27 Block No.4, Assam 786171, India",https://www.google.co.kr/maps/place/Hollonghabi+T.E.+Hospital/data=!4m5!3m4!1s0x373f186f77724213:0x3143489e18612afb!8m2!3d27.4524936!4d95.5925141?authuser=0&hl=en&rclk=1,27.4524936,95.5925141,Arunachal Pradesh
Biswanath Polyclinic,Doctor,"P5V4+72J, Biswanath Charali, Assam 784176, India",https://www.google.co.kr/maps/place/Biswanath+Polyclinic/data=!4m5!3m4!1s0x37445f1fd8aa7ec7:0xf664d54283965ea5!8m2!3d26.7432184!4d93.155006?authuser=0&hl=en&rclk=1,26.7432184,93.155006,Arunachal Pradesh
Peace Clinics,Hospital,"China, Tibet, Nyingchi, Mainling, 友谊路",https://www.google.co.kr/maps/place/Peace+Clinics/data=!4m5!3m4!1s0x376a4e357326518b:0x5372f7fe417e2f2b!8m2!3d29.214813!4d94.214067?authuser=0&hl=en&rclk=1,29.214813,94.214067,Arunachal Pradesh
Oil India Hospital,Hospital,"Oil India Limited, Duliajan, Assam 786602, India",https://www.google.co.kr/maps/place/Oil+India+Hospital/data=!4m5!3m4!1s0x373f414db5966991:0x7faf133a5d1f2ffd!8m2!3d27.3591908!4d95.3236481?authuser=0&hl=en&rclk=1,27.3591908,95.3236481,Arunachal Pradesh
Motuo People's Hospital,Hospital,"88GM+CR3, Mêdog County, Nyingchi, Tibet, China",https://www.google.co.kr/maps/place/Motuo+People's+Hospital/data=!4m5!3m4!1s0x3714df68e2f26a29:0x8bbe73d933e5e323!8m2!3d29.326019!4d95.334561?authuser=0&hl=en&rclk=1,29.326019,95.334561,Arunachal Pradesh
Tibet Medog Health Service Center,Hospital,"China, Tibet, Nyingchi, Mêdog County, 墨脱公路",https://www.google.co.kr/maps/place/Tibet+Medog+Health+Service+Center/data=!4m5!3m4!1s0x3714df69201a9aa3:0x31fe47042c9fdfed!8m2!3d29.326156!4d95.335126?authuser=0&hl=en&rclk=1,29.326156,95.335126,Arunachal Pradesh
Mainling Duoka Health Center,Hospital,"306 Provincial Rd, Mainling, Nyingchi, Tibet, China",https://www.google.co.kr/maps/place/Mainling+Duoka+Health+Center/data=!4m5!3m4!1s0x376a54eeb9487a7f:0x218668410817ae4d!8m2!3d29.317498!4d94.342136?authuser=0&hl=en&rclk=1,29.317498,94.342136,Arunachal Pradesh
BSNL Sanchar Bhawan,Telecommunications service provider,"National Highway 52A, Cona County, Itanagar, Arunachal Pradesh 791111",https://www.google.co.kr/maps/place/BSNL+Sanchar+Bhawan/data=!4m5!3m4!1s0x3744070cf7010c39:0x176c6961d7f849b5!8m2!3d27.1006822!4d93.6286672?authuser=0&hl=en&rclk=1,27.1006822,93.6286672,Arunachal Pradesh
M. A. Sultan Clinic,Doctor,"Dolabari, Gutlong Gaon, Assam 784027, India",https://www.google.co.kr/maps/place/M.+A.+Sultan+Clinic/data=!4m5!3m4!1s0x3744e99bd34d8dfb:0x951b41d44f7b13da!8m2!3d26.6575765!4d92.8103375?authuser=0&hl=en&rclk=1,26.6575765,92.8103375,Arunachal Pradesh
ESI Dispensary,Hospital,"F9RF+P33, Parbatia, Tinsukia, Assam 786125, India",https://www.google.co.kr/maps/place/ESI+Dispensary/data=!4m5!3m4!1s0x373f6ae00c9d0b53:0x8f112856fe5d60b1!8m2!3d27.4917667!4d95.3726853?authuser=0&hl=en&rclk=1,27.4917667,95.3726853,Arunachal Pradesh
Linzhizhen Health Center,Hospital,"China, Tibet, Nyingchi, Bayi District, 318国道",https://www.google.co.kr/maps/place/Linzhizhen+Health+Center/data=!4m5!3m4!1s0x376b0f29f0c25403:0x2b4e9964fe500a5b!8m2!3d29.573566!4d94.48552?authuser=0&hl=en&rclk=1,29.573566,94.48552,Arunachal Pradesh
