Company_Name,Category,Address,Url,latitude,longtitude
Apollo Clinic,Medical clinic,"Mann Complex, Anand Mahal Rd, Opposite Shree Ram Petrol Pump, Girinagar Society, Muktanand Nagar, Adajan, Surat, Gujarat 395009, India",https://www.google.co.kr/maps/place/Apollo+Clinic/data=!4m5!3m4!1s0x3be04dd34e1206c7:0xef71ae6d6aa24966!8m2!3d21.1959394!4d72.797561?authuser=0&hl=en&rclk=1,21.1959394,72.797561
"Pain Care Clinic - Back Pain, Neck Pain, Sciatica, Arthritis Treatment in Ahmedabad",Hospital,"Six roads, 6th Floor, Addor Ambition , Beside Vimal house, Saviour Hospital to Navrang School, near Lakhudi Circle, Ahmedabad, Gujarat 380014, India","https://www.google.co.kr/maps/place/Pain+Care+Clinic+-+Back+Pain,+Neck+Pain,+Sciatica,+Arthritis+Treatment+in+Ahmedabad/data=!4m5!3m4!1s0x395e84f70e819961:0x124c80425f6b9c7d!8m2!3d23.0463437!4d72.5583304?authuser=0&hl=en&rclk=1",23.0463437,72.5583304
Dr Deepak Chhatbar,Hospital,"First floor, Shyam Shikhar Complex, Cross Road, India Colony, Lal Bahadur Shastri Rd, Opp. Dinesh Chamber, Bapunagar, Ahmedabad, Gujarat 380024, India",https://www.google.co.kr/maps/place/Dr+Deepak+Chhatbar/data=!4m5!3m4!1s0x395e869121e83e4b:0x4aeaf8c8751f72cc!8m2!3d23.038952!4d72.630145?authuser=0&hl=en&rclk=1,23.038952,72.630145
"Shalby Hospital, Surat",Hospital,"Nr. Navyug College, Rander Rd, Adajan, Surat, Gujarat 395009, India","https://www.google.co.kr/maps/place/Shalby+Hospital,+Surat/data=!4m5!3m4!1s0x3be04c2bd38b220d:0xfd16cdc3f794f73b!8m2!3d21.2023112!4d72.8009972?authuser=0&hl=en&rclk=1",21.2023112,72.8009972
Zydus Hospitals,Hospital,"Zydus Hospitals Road, Nr. Sola Bridge, Sarkhej - Gandhinagar Hwy, Ahmedabad, Gujarat 380054, India",https://www.google.co.kr/maps/place/Zydus+Hospitals/data=!4m5!3m4!1s0x395e9b5e464673c1:0x4aa886904308b889!8m2!3d23.0585079!4d72.517465?authuser=0&hl=en&rclk=1,23.0585079,72.517465
Parsani clinic Danta Gujarat india,Medical clinic,"Danta, Gujarat 385120, India",https://www.google.co.kr/maps/place/Parsani+clinic+Danta+Gujarat+india/data=!4m5!3m4!1s0x395d1c29ffb42505:0x9bc0482898f45414!8m2!3d24.193029!4d72.7658676?authuser=0&hl=en&rclk=1,24.193029,72.7658676
Gujarat Kidney And Superspeciality Hospital Vadodara,Hospital,"New India Mill Compound Nr Jetalpur Bridge, Jetalpur Rd, Vadodara, Gujarat 390020, India",https://www.google.co.kr/maps/place/Gujarat+Kidney+And+Superspeciality+Hospital+Vadodara/data=!4m5!3m4!1s0x395fc8a5599b023d:0xea25bf1ff850e17a!8m2!3d22.3073146!4d73.1760006?authuser=0&hl=en&rclk=1,22.3073146,73.1760006
Wellspring IVF & Women's Hospital,Hospital,"440, 4th Floor, Titanium City Center Mall, 100 Ft, 100 Feet Anand Nagar Rd, near Sachin Tower, Anand Nagar, Satellite, Ahmedabad, Gujarat 380015, India",https://www.google.co.kr/maps/place/Wellspring+IVF+%26+Women's+Hospital/data=!4m5!3m4!1s0x395e84d50de8e19f:0x1e71b5ce1cc897dc!8m2!3d23.0126838!4d72.5227348?authuser=0&hl=en&rclk=1,23.0126838,72.5227348
Dr.Roopal Jani's TrichoTreat-Homeopathic Hair Care Clinic,Medical clinic,"ANUGRAH, 1st Floor, 41-SHANTINIKETAN SOCIETY NR KOTECHA CHOWK, University Road, opp. BANK OF INDIA, Rajkot, Gujarat 360007, India",https://www.google.co.kr/maps/place/Dr.Roopal+Jani's+TrichoTreat-Homeopathic+Hair+Care+Clinic/data=!4m5!3m4!1s0x3959cb3e93cb7b2f:0x9f14fdf512dd1e78!8m2!3d22.2902571!4d70.7772574?authuser=0&hl=en&rclk=1,22.2902571,70.7772574
Apollo Clinic,Medical clinic,"GF-II, Baleshwar Square, Opp Isckon Temple, Near casela towers Off S G Highway, Ahmedabad, Gujarat 380015, India",https://www.google.co.kr/maps/place/Apollo+Clinic/data=!4m5!3m4!1s0x395e9b39a9daf811:0xc336bd9eed99a5df!8m2!3d23.0289014!4d72.5088134?authuser=0&hl=en&rclk=1,23.0289014,72.5088134
Talha Clinic,Medical clinic,"XGV9+JH8, Quresh Nagar Society, Juhapura, Ahmedabad, Gujarat 380051, India",https://www.google.co.kr/maps/place/Talha+Clinic/data=!4m5!3m4!1s0x395e9bdc2254cca5:0x86c8d70923f94866!8m2!3d22.9940496!4d72.5189673?authuser=0&hl=en&rclk=1,22.9940496,72.5189673
Akanksha Hospital - Best IVF Hospital |Best Infertility Hospital |Best Surrogacy Hospital | Awarded Best IVF and Surrogacy Hospital In India| Best IVF Centre India,Fertility clinic,"Lambhvel Road, Opp.Guruvilla Bungalows, Lambhvel, Anand, Gujarat 387310, India",https://www.google.co.kr/maps/place/Akanksha+Hospital+-+Best+IVF+Hospital+%7CBest+Infertility+Hospital+%7CBest+Surrogacy+Hospital+%7C+Awarded+Best+IVF+and+Surrogacy+Hospital+In+India%7C+Best+IVF+Centre+India/data=!4m5!3m4!1s0x395e4f2da6ff2101:0xb715ed3901342b57!8m2!3d22.5828266!4d72.9425773?authuser=0&hl=en&rclk=1,22.5828266,72.9425773
Clinic,Medical clinic,"GJ SH 5, Khandivav, Gujarat 389390, India",https://www.google.co.kr/maps/place/Clinic/data=!4m5!3m4!1s0x39606fe7619362d3:0x56a60fa3c00ef1ef!8m2!3d22.2956532!4d73.7247902?authuser=0&hl=en&rclk=1,22.2956532,73.7247902
"Navkar Surgical Hospital - Best Laparoscopy Hernia Hospital, Gastro, General Surgery, Fistula Center, Advance Laparoscopy, Gastro Intestinal",Hospital,"3/A, near State Bank of India, Vikramnagar Society, Usmanpura, Ahmedabad, Gujarat 380013, India","https://www.google.co.kr/maps/place/Navkar+Surgical+Hospital+-+Best+Laparoscopy+Hernia+Hospital,+Gastro,+General+Surgery,+Fistula+Center,+Advance+Laparoscopy,+Gastro+Intestinal/data=!4m5!3m4!1s0x395e8463d32f5a07:0x99ceea6a79fd329e!8m2!3d23.0488235!4d72.5666032?authuser=0&hl=en&rclk=1",23.0488235,72.5666032
Sunflower Hospital,Hospital,"132 Feet Ring Rd, near Manav Mandir, Memnagar, Ahmedabad, Gujarat 380052, India",https://www.google.co.kr/maps/place/Sunflower+Hospital/data=!4m5!3m4!1s0x395e84bce6598cbf:0x5c40d9222a5f38f4!8m2!3d23.0459091!4d72.5413197?authuser=0&hl=en&rclk=1,23.0459091,72.5413197
shivam clinic,Medical clinic,"4-nijanand shopping complex, opp. mama saheb temple, bapasitaram chowk, raiya road, Rajkot, Gujarat 360005, India",https://www.google.co.kr/maps/place/shivam+clinic/data=!4m5!3m4!1s0x3959c97f0b6f7e39:0x5e78fc8601e71579!8m2!3d22.299015!4d70.74451?authuser=0&hl=en&rclk=1,22.299015,70.74451
SOHAM CLINIC,Medical clinic,"AAVKAR HERITATE, SATELITE CHAWK, OPP SATELITE SCHOOL, MORBI ROAD, Rajkot, Gujarat 360003, India",https://www.google.co.kr/maps/place/SOHAM+CLINIC/data=!4m5!3m4!1s0x3959b6031ff57481:0xe6266704b43f250d!8m2!3d22.330341!4d70.81986?authuser=0&hl=en&rclk=1,22.330341,70.81986
Clinic,Medical clinic,"Nr. Vivekanand hall Chudasamaplot mainroad, Rajkot, Gujarat 360005, India",https://www.google.co.kr/maps/place/Clinic/data=!4m5!3m4!1s0x3959c98a8873a345:0x727c875604492825!8m2!3d22.2905409!4d70.7934208?authuser=0&hl=en&rclk=1,22.2905409,70.7934208
Dr Vanzara Clinic,Hospital,"GJ SH 113, Vagadiya, Gujarat 363510, India",https://www.google.co.kr/maps/place/Dr+Vanzara+Clinic/data=!4m5!3m4!1s0x39590c9f771b9f77:0x3f8e12ece4c8e2ff!8m2!3d22.613395!4d71.2906349?authuser=0&hl=en&rclk=1,22.613395,71.2906349
Pain clinic in ahmedabad | Gujarat | India,Doctor,"Sarkhej - Gandhinagar Hwy, Prahlad Nagar, Ahmedabad, Gujarat 380015, India",https://www.google.co.kr/maps/place/Pain+clinic+in+ahmedabad+%7C+Gujarat+%7C+India/data=!4m5!3m4!1s0x395e9b275591ec0d:0xf9289eed055d6322!8m2!3d23.0087273!4d72.502985?authuser=0&hl=en&rclk=1,23.0087273,72.502985
Apollo Clinic Vadodara,Medical clinic,"1, opposite SBI Bank, Cosmic Enclave Society, Raghuvir Nagar, Anandvan Society, New Sama, Vadodara, Gujarat 390008, India",https://www.google.co.kr/maps/place/Apollo+Clinic+Vadodara/data=!4m5!3m4!1s0x395fcf25625b4f9f:0x922c30bfea47ef2f!8m2!3d22.3367479!4d73.1941173?authuser=0&hl=en&rclk=1,22.3367479,73.1941173
Dr.Nayna Patel Consultant Paediatrician And Neonatologist,Doctor,"SHALBY HOSPITAL, Navyug Society, Sangana Society, Adajan, Surat, Gujarat 395009, India",https://www.google.co.kr/maps/place/Dr.Nayna+Patel+Consultant+Paediatrician+And+Neonatologist/data=!4m5!3m4!1s0x3be04d3807fba9fd:0x5d6cd0449ee87e70!8m2!3d21.2026041!4d72.8008643?authuser=0&hl=en&rclk=1,21.2026041,72.8008643
"Welcare Hospital - Joint, Knee, Hip Replacement, Spine & Orthopaedic Surgery in India",Specialized hospital,"Vadsar Rd, Near Mercedes showroom, Atladara, Vadodara, Gujarat 390012, India","https://www.google.co.kr/maps/place/Welcare+Hospital+-+Joint,+Knee,+Hip+Replacement,+Spine+%26+Orthopaedic+Surgery+in+India/data=!4m5!3m4!1s0x395fc8a4b177b5f1:0xf84cb0632449ae46!8m2!3d22.2755595!4d73.1614369?authuser=0&hl=en&rclk=1",22.2755595,73.1614369
KOKILABEN AMBANI HOSPITAL OPD,Medical clinic,"Mangla Main Rd, Manhar Plot, Bhakti Nagar, Rajkot, Gujarat 360002, India",https://www.google.co.kr/maps/place/KOKILABEN+AMBANI+HOSPITAL+OPD/data=!4m5!3m4!1s0x3959ca104ebfdd6b:0x5ba68680fe9d768!8m2!3d22.2887613!4d70.7981512?authuser=0&hl=en&rclk=1,22.2887613,70.7981512
Zydus hospital family clinic,Medical clinic,"31/A,Shreekunj Shopping Centre,Prabhat Chowk, Ghatlodiya, Ahmedabad, Gujarat 380061, India",https://www.google.co.kr/maps/place/Zydus+hospital+family+clinic/data=!4m5!3m4!1s0x395e83ef52f88ea3:0x65a25c5ede28a3d0!8m2!3d23.0681034!4d72.5444811?authuser=0&hl=en&rclk=1,23.0681034,72.5444811
Healthcare Gujarat,Medical clinic,"614/33, Vikram Mills Chali, Saraspur Gate, Rakhial Rd, Saraspur, Ahmedabad, Gujarat, India",https://www.google.co.kr/maps/place/Healthcare+Gujarat/data=!4m5!3m4!1s0x395e867df78aacbf:0x5be22b6f38f4de16!8m2!3d23.0220141!4d72.6217713?authuser=0&hl=en&rclk=1,23.0220141,72.6217713
Anjali Ayurvedic Clinic,Medical clinic,"2, Main Road, Near, Vavdi Rd, Mahendra Para, Morbi, Gujarat 363641, India",https://www.google.co.kr/maps/place/Anjali+Ayurvedic+Clinic/data=!4m5!3m4!1s0x39598cdb34b9790d:0x867cba1d454ccae1!8m2!3d22.8210221!4d70.828047?authuser=0&hl=en&rclk=1,22.8210221,70.828047
Nidhi Multispeciality Hospital,Hospital,"Shree Kunj Building Stadium Commerce College Road, Commerce Six Rd, Nr Azad Sweets, Navrangpura, Ahmedabad, Gujarat 380009, India",https://www.google.co.kr/maps/place/Nidhi+Multispeciality+Hospital/data=!4m5!3m4!1s0x395e848c996426c3:0x915350ab1da7fe78!8m2!3d23.0400995!4d72.5614033?authuser=0&hl=en&rclk=1,23.0400995,72.5614033
Swasthya Diabetes Care,Hospital,"Opp. Jaymangal BRTS Bus Stop, 132 Feet Ring Road, Naranpura, Ahmedabad, Gujarat 380013, India",https://www.google.co.kr/maps/place/Swasthya+Diabetes+Care/data=!4m5!3m4!1s0x395e849e797e53e7:0x3dc129384c4becfe!8m2!3d23.0577603!4d72.5497069?authuser=0&hl=en&rclk=1,23.0577603,72.5497069
Saiyed clinic,Medical clinic,"JC5Q+VH8, Kauka, Gujarat 382265, India",https://www.google.co.kr/maps/place/Saiyed+clinic/data=!4m5!3m4!1s0x395eef47f4f0aaa5:0xdfc0b2d2cd028ce5!8m2!3d22.6096611!4d72.4389677?authuser=0&hl=en&rclk=1,22.6096611,72.4389677
Dr Kuldeep Unadkat,Medical clinic,"Prabhavan Clinic, Behind Love Temple, Rural Housing Board Main Road, Kalawad Road, Rajkot, Gujarat 360005, India",https://www.google.co.kr/maps/place/Dr+Kuldeep+Unadkat/data=!4m5!3m4!1s0x3959cbc92831e88b:0x7398e392590c01c7!8m2!3d22.2796786!4d70.755553?authuser=0&hl=en&rclk=1,22.2796786,70.755553
"Shalby Hospital, Vapi",Hospital,"Near Chandralok Building Chanod, Silvasa Rd, Vapi, Gujarat 396195, India","https://www.google.co.kr/maps/place/Shalby+Hospital,+Vapi/data=!4m5!3m4!1s0x3be0ce6971c092a7:0xb8e68c4332a745d2!8m2!3d20.3537209!4d72.929081?authuser=0&hl=en&rclk=1",20.3537209,72.929081
Zydus Hospitals Anand,Hospital,"Anand-Lambhvel Road, Zydus Rd, Anand, Gujarat 388001, India",https://www.google.co.kr/maps/place/Zydus+Hospitals+Anand/data=!4m5!3m4!1s0x395e4e89d4fe9357:0xc0d8489832ca9d92!8m2!3d22.5667006!4d72.9458474?authuser=0&hl=en&rclk=1,22.5667006,72.9458474
ANSH GASTRO CLINIC અંશ ગેસ્ટ્રો ક્લિનિક,Medical clinic,"Abhilasha Business Cetre, Above Axis Bank, Near, 9, India, Sardar Patel Statue Cir, Navjivan Post, Navrangpura, Ahmedabad, Gujarat 380013, India",https://www.google.co.kr/maps/place/ANSH+GASTRO+CLINIC+%E0%AA%85%E0%AA%82%E0%AA%B6+%E0%AA%97%E0%AB%87%E0%AA%B8%E0%AB%8D%E0%AA%9F%E0%AB%8D%E0%AA%B0%E0%AB%8B+%E0%AA%95%E0%AB%8D%E0%AA%B2%E0%AA%BF%E0%AA%A8%E0%AA%BF%E0%AA%95/data=!4m5!3m4!1s0x395e85fa3392bdef:0x7095465747a5fd80!8m2!3d23.0465148!4d72.5616251?authuser=0&hl=en&rclk=1,23.0465148,72.5616251
Pushya Hospital,Orthopedic clinic,"32, Sardar Patel Nagar, Opp. ABC-1, near Wagh Bakri Tea Lounge, Navrangpura, Ahmedabad, Gujarat 380009, India",https://www.google.co.kr/maps/place/Pushya+Hospital/data=!4m5!3m4!1s0x395e85dc1d3d3aa1:0x757879a4c249020e!8m2!3d23.0332248!4d72.556018?authuser=0&hl=en&rclk=1,23.0332248,72.556018
"Dr. Deepak Chhatbar (New Address: ENT Specialist K D Hospital, Vaishnodevi Circle, S G Highway)",Hospital,"Shalby Hospital, Naroda, Near 108 Center, Off. Naroda Dehgam Road,, Haridarshan Cross Road, New Naroda, Ahmedabad, Gujarat 382330, India","https://www.google.co.kr/maps/place/Dr.+Deepak+Chhatbar+(New+Address:+ENT+Specialist+K+D+Hospital,+Vaishnodevi+Circle,+S+G+Highway)/data=!4m5!3m4!1s0x395e872df20d1f73:0x7bf34b6c15601aff!8m2!3d23.069424!4d72.673542?authuser=0&hl=en&rclk=1",23.069424,72.673542
SIDS Hospital & Research Centre,Hospital,"Vijay Nagar Gate 3, Ring Rd, opp. Gandhi College, Majura Gate, Surat, Gujarat 395001, India",https://www.google.co.kr/maps/place/SIDS+Hospital+%26+Research+Centre/data=!4m5!3m4!1s0x3be04e6e0e0e1a63:0xc0aa0cdfbcda9d63!8m2!3d21.1815013!4d72.8174047?authuser=0&hl=en&rclk=1,21.1815013,72.8174047
Dr Rita H Shingala Clinic,Medical clinic,"1st Floor, Noble House, Opposite B O B, Digvijay Plot, Digvijay Plot, near S T Depot, Digvijay Plot, Jamnagar, Gujarat 361005, India",https://www.google.co.kr/maps/place/Dr+Rita+H+Shingala+Clinic/data=!4m5!3m4!1s0x39576ac7e5555555:0x7691f9936c17081a!8m2!3d22.4660775!4d70.0599643?authuser=0&hl=en&rclk=1,22.4660775,70.0599643
Shivam Clinic & Laboratory,Medical clinic,"Shop No. 7-8, Tirupati Complex, Opp. Kasturi Residency, Ambika Township, Rajkot, Gujarat 360005, India",https://www.google.co.kr/maps/place/Shivam+Clinic+%26+Laboratory/data=!4m5!3m4!1s0x3959ca53850755d3:0xc910d8bd4ba2d85f!8m2!3d22.259423!4d70.767979?authuser=0&hl=en&rclk=1,22.259423,70.767979
Global IVF Center & Gynec Hospital,Fertility clinic,"Shivalay, Nana Mava Rd, Near Rajnagar Chowk, Panchvati Nagar, Kotecha Nagar, Rajkot, Gujarat 360007, India",https://www.google.co.kr/maps/place/Global+IVF+Center+%26+Gynec+Hospital/data=!4m5!3m4!1s0x3959ca3f200a8143:0xaf481bb17c3653b7!8m2!3d22.2808965!4d70.7838094?authuser=0&hl=en&rclk=1,22.2808965,70.7838094
Sejal Clinic,Medical clinic,"1st floor ,south wing, marketing yard, GJ SH 101, Amrut Nagar, Kodinar, Gujarat 362720, India",https://www.google.co.kr/maps/place/Sejal+Clinic/data=!4m5!3m4!1s0x3be2d93c150f1c5d:0xd1fb8d3fd1447b10!8m2!3d20.796976!4d70.697646?authuser=0&hl=en&rclk=1,20.796976,70.697646
Virani Clinic,Medical clinic,"1, Dhebar Rd, Lohanagar, Bhakti Nagar, Rajkot, Gujarat 360002, India",https://www.google.co.kr/maps/place/Virani+Clinic/data=!4m5!3m4!1s0x3959ca72ebffffff:0x74a6f4a240f524c1!8m2!3d22.2786851!4d70.8002512?authuser=0&hl=en&rclk=1,22.2786851,70.8002512
Gujarat Child Care Hospital,Children's hospital,"203-204, Jyoti Complex, Above Canara Bank, Shyamal Cross Roads, Satellite, beside Parekhs Hospital, Ahmedabad, Gujarat 380015, India",https://www.google.co.kr/maps/place/Gujarat+Child+Care+Hospital/data=!4m5!3m4!1s0x395e84d7b9588027:0x4f419d1dd87900c3!8m2!3d23.013531!4d72.5303267?authuser=0&hl=en&rclk=1,23.013531,72.5303267
Dr brijesh j patel,Medical clinic,"Balaji Hall, 403,Radheshyam Complex 150 feet Near, part 1, Dharam Nagar, Mavdi, Rajkot, Gujarat 360004, India",https://www.google.co.kr/maps/place/Dr+brijesh+j+patel/data=!4m5!3m4!1s0x3959cba5adb8f4a5:0x61725e8a0e898dae!8m2!3d22.2689685!4d70.7812408?authuser=0&hl=en&rclk=1,22.2689685,70.7812408
Bajrang Clinic,Hospital,"Lakhanka, Gujarat 363520, India",https://www.google.co.kr/maps/place/Bajrang+Clinic/data=!4m5!3m4!1s0x395900f155555555:0x68e1a6ec6f4b472!8m2!3d22.3137699!4d71.2220832?authuser=0&hl=en&rclk=1,22.3137699,71.2220832
"AASTHA HOSPITAL BAPUNAGAR-Best Lady Gynecologist Of Ahmedabad - Dr. Parulben Shah,Laparoscopy, Infertility-Iui-Ivf Center, Sonography, Delivery",Obstetrician-gynecologist,"Doctor House, India Colony, Main Road, Bapunagar, Tolnaka, India Colony, Ahmedabad, Gujarat 382350, India","https://www.google.co.kr/maps/place/AASTHA+HOSPITAL+BAPUNAGAR-Best+Lady+Gynecologist+Of+Ahmedabad+-+Dr.+Parulben+Shah,Laparoscopy,+Infertility-Iui-Ivf+Center,+Sonography,+Delivery/data=!4m5!3m4!1s0x395e8693249cfbf5:0x77f2d8b4ca78e29e!8m2!3d23.0387646!4d72.6324284?authuser=0&hl=en&rclk=1",23.0387646,72.6324284
MRUGA CLINIC,Occupational medical physician,"Vatva Rd, Ghodasar, Ahmedabad, Gujarat 380050, India",https://www.google.co.kr/maps/place/MRUGA+CLINIC/data=!4m5!3m4!1s0x395e876c8c0cbfc5:0x6ae849e086fef97!8m2!3d22.9778436!4d72.6204503?authuser=0&hl=en&rclk=1,22.9778436,72.6204503
N.m Virani Wockhardt Hospital Rajkot,General hospital,"Kalawad Road Near St. Mary's High School, Rajkot, Gujarat 360007, India",https://www.google.co.kr/maps/place/N.m+Virani+Wockhardt+Hospital+Rajkot/data=!4m5!3m4!1s0x3959ca2462dea45b:0xf077f763eb7b65b0!8m2!3d22.2882455!4d70.7742188?authuser=0&hl=en&rclk=1,22.2882455,70.7742188
CIMS Hospital,Hospital,"Science City Rd, Science City, Panchamrut Bunglows II, Sola, Ahmedabad, Gujarat 380060, India",https://www.google.co.kr/maps/place/CIMS+Hospital/data=!4m5!3m4!1s0x395e9cb250f37723:0x27de8effab4879ed!8m2!3d23.0701125!4d72.5174376?authuser=0&hl=en&rclk=1,23.0701125,72.5174376
Family Planning Association Of India,Family planning center,"Sangeeta, Dhebar Rd, Near Gurukul, Udhyog Nagar Colony, Bhakti Nagar, Rajkot, Gujarat 360002, India",https://www.google.co.kr/maps/place/Family+Planning+Association+Of+India/data=!4m5!3m4!1s0x3959ca72a77110bd:0x4136f1dfbc73b598!8m2!3d22.279056!4d70.800164?authuser=0&hl=en&rclk=1,22.279056,70.800164
Krishna Clinic & Maternity Hospital,Medical clinic,"Kathlal Bajar Rd, Kathlal, Gujarat 387630, India",https://www.google.co.kr/maps/place/Krishna+Clinic+%26+Maternity+Hospital/data=!4m5!3m4!1s0x395e6961a9f56ab5:0x8a8042854bcbb800!8m2!3d22.8984072!4d72.9904309?authuser=0&hl=en&rclk=1,22.8984072,72.9904309
V Cure Medical Clinic,Hospital,"near, ashwamegh elegance 2, Ambawadi Cir, Ambawadi, Ahmedabad, Gujarat 380006, India",https://www.google.co.kr/maps/place/V+Cure+Medical+Clinic/data=!4m5!3m4!1s0x395e857f267583f9:0x774e89ed124725a8!8m2!3d23.0205918!4d72.5542997?authuser=0&hl=en&rclk=1,23.0205918,72.5542997
Muljibhai Patel Urological Hospital,Urology clinic,"Dr V V, DP Desai Rd, Yogiraj Society, Nadiad, Gujarat 387001, India",https://www.google.co.kr/maps/place/Muljibhai+Patel+Urological+Hospital/data=!4m5!3m4!1s0x395e5b1e520ee86b:0xf6679a666c20d963!8m2!3d22.6833518!4d72.8723101?authuser=0&hl=en&rclk=1,22.6833518,72.8723101
Shani Children Hospital & Dental Clinic,Children's hospital,"Dhanvantary Complex-2, 1st Floor, B/h. Ayurvedic College, Sumul Dairy Rd, Patel Nagar, Surat, Gujarat 395003, India",https://www.google.co.kr/maps/place/Shani+Children+Hospital+%26+Dental+Clinic/data=!4m5!3m4!1s0x3be04efa09a36f63:0x5ee8e9e39e456c6e!8m2!3d21.2075471!4d72.83986?authuser=0&hl=en&rclk=1,21.2075471,72.83986
Indira IVF Vadodara,Fertility clinic,"3rd Floor, Shop No 302, Golden Icon Bird Circle, Race Course Rd, Vadodara, Gujarat 390020, India",https://www.google.co.kr/maps/place/Indira+IVF+Vadodara/data=!4m5!3m4!1s0x395fc942fe932e9f:0x22363df4f5bd19d9!8m2!3d22.3077943!4d73.1659953?authuser=0&hl=en&rclk=1,22.3077943,73.1659953
Parmar X-ray And Sonography clinic,Hospital,"Besides hdfc bank, Manekpara, Amreli, Gujarat 365601, India",https://www.google.co.kr/maps/place/Parmar+X-ray+And+Sonography+clinic/data=!4m5!3m4!1s0x395880c11cc0734b:0x8beefe96c78b4025!8m2!3d21.6008691!4d71.2193106?authuser=0&hl=en&rclk=1,21.6008691,71.2193106
"Dr Amit Jhala - Best Spine Surgery Surgeon, Spine Specialist Doctor",Surgeon,"203-204, Chirayu Complex, Narayan Nagar Rd, Paldi, Ahmedabad, Gujarat 380007, India","https://www.google.co.kr/maps/place/Dr+Amit+Jhala+-+Best+Spine+Surgery+Surgeon,+Spine+Specialist+Doctor/data=!4m5!3m4!1s0x395e85018900bec7:0x623f7ddc967f2018!8m2!3d23.0070009!4d72.5657357?authuser=0&hl=en&rclk=1",23.0070009,72.5657357
Sterling Hospital,Private hospital,"Sterling Hospital Road near Maharaja Agrasen Vidhyalaya, Memnagar, Ahmedabad, Gujarat 380052, India",https://www.google.co.kr/maps/place/Sterling+Hospital/data=!4m5!3m4!1s0x395e84afbc804959:0x1bd6f237ba587f77!8m2!3d23.048672!4d72.5311702?authuser=0&hl=en&rclk=1,23.048672,72.5311702
Nidhi Hospital,Hospital,"1st floor, Shalimar Complex, Above Anandnagar Post Office, Freniben Desai Marg, Paldi, near Mahalakshmi Cross Roads, Ahmedabad, Gujarat 380007, India",https://www.google.co.kr/maps/place/Nidhi+Hospital/data=!4m5!3m4!1s0x395e85014321a0cb:0x2a9f25f06ea4018c!8m2!3d23.0104295!4d72.5624521?authuser=0&hl=en&rclk=1,23.0104295,72.5624521
"Narayana Multispeciality Hospital, Ahmedabad",Private hospital,"Police Station, Nr. Chakudiya Mahadev, Cross Rd, opp. Rakhial, Rakhial, Ahmedabad, Gujarat 380023, India","https://www.google.co.kr/maps/place/Narayana+Multispeciality+Hospital,+Ahmedabad/data=!4m5!3m4!1s0x395e86876b675049:0x333a7f0f520404a7!8m2!3d23.0226551!4d72.6236515?authuser=0&hl=en&rclk=1",23.0226551,72.6236515
Sanidhya homoeopathic clinic,Hospital,"Udhyog Nagar Rd, 23 jintan, complex, 80 Feet Rd, Udhyog Nagar, Surendranagar, Gujarat 363002, India",https://www.google.co.kr/maps/place/Sanidhya+homoeopathic+clinic/data=!4m5!3m4!1s0x395941e08351c639:0x732121eb5cf0caa8!8m2!3d22.7336832!4d71.6409158?authuser=0&hl=en&rclk=1,22.7336832,71.6409158
Smruti Clinic,Hospital,"C5FX+R33, Chotila, Jodhpur Village, Ahmedabad, Gujarat 363520, India",https://www.google.co.kr/maps/place/Smruti+Clinic/data=!4m5!3m4!1s0x395907f40e4636a9:0x16257b5230f17192!8m2!3d22.424505!4d71.1976846?authuser=0&hl=en&rclk=1,22.424505,71.1976846
"Bodyline Hospital – Urologist, Uro Stone Specialist, 24*7 Emergency, Multispecialty Hospital Near Me",Hospital,"Dev Status, Opp Annapurna Hall, Besides, New Vikas Gruh Rd, Paldi, Ahmedabad, Gujarat 380007, India","https://www.google.co.kr/maps/place/Bodyline+Hospital+%E2%80%93+Urologist,+Uro+Stone+Specialist,+24*7+Emergency,+Multispecialty+Hospital+Near+Me/data=!4m5!3m4!1s0x395e84fd57661201:0xec8b781551d73822!8m2!3d23.0100288!4d72.5545516?authuser=0&hl=en&rclk=1",23.0100288,72.5545516
Clinic,Hospital,"Unnamed Road, Vankar Vas, Kankot, Rajkot, Gujarat 360004, India",https://www.google.co.kr/maps/place/Clinic/data=!4m5!3m4!1s0x3959cb73b8387f0b:0x842835cbd5bc4d3b!8m2!3d22.2415311!4d70.7362974?authuser=0&hl=en&rclk=1,22.2415311,70.7362974
HCG Hospitals,Hospital,"Mithakhali Six Rd, kalyan Society, Maharashtra Society, Ellisbridge, Ahmedabad, Gujarat 380006, India",https://www.google.co.kr/maps/place/HCG+Hospitals/data=!4m5!3m4!1s0x395e84f773bc0859:0x227151ad64cb173a!8m2!3d23.0287828!4d72.56429?authuser=0&hl=en&rclk=1,23.0287828,72.56429
"Dr. Shefali Desai, Breast Care Clinic, Samved Hospital",Hospital,"Nr. Stadium Circle, Girivar Society, Navrangpura, Ahmedabad, Gujarat 380009, India","https://www.google.co.kr/maps/place/Dr.+Shefali+Desai,+Breast+Care+Clinic,+Samved+Hospital/data=!4m5!3m4!1s0x395e848d05894bb7:0xa1338dc300f1dd8e!8m2!3d23.0403187!4d72.5582117?authuser=0&hl=en&rclk=1",23.0403187,72.5582117
Saviour Hospital,Private hospital,"Sardar Patel Stadium Rd, Near Bharat Petrol Pump, Chaitanya Nagar, Navrangpura, Ahmedabad, Gujarat 380014, India",https://www.google.co.kr/maps/place/Saviour+Hospital/data=!4m5!3m4!1s0x395e848eb92e312d:0x3aae614f99d235ed!8m2!3d23.0451422!4d72.5607897?authuser=0&hl=en&rclk=1,23.0451422,72.5607897
"Care Hospitals, Surat",Heart hospital,"Surat-Dumas Rd, Athwagate, Surat, Gujarat 395001, India","https://www.google.co.kr/maps/place/Care+Hospitals,+Surat/data=!4m5!3m4!1s0x3be04e774c58e857:0x569383683e37c4c3!8m2!3d21.1851527!4d72.8103741?authuser=0&hl=en&rclk=1",21.1851527,72.8103741
Arham physiotherapy,Medical clinic,"114,nakshatra,5.sadhuvasvani road,opp.raj palace, Rajkot, Gujarat 360005, India",https://www.google.co.kr/maps/place/Arham+physiotherapy/data=!4m5!3m4!1s0x3959cbd6757201d5:0xe5541fdc0bb7fd3!8m2!3d22.2948181!4d70.7582479?authuser=0&hl=en&rclk=1,22.2948181,70.7582479
Metro Hospital & Research Institute,Private hospital,"Sama - Harni Rd, beside Kendriya Vidhyalaya, Shivam Park Society, BSNL Colony, Karelibagh, Vadodara, Gujarat 390022, India",https://www.google.co.kr/maps/place/Metro+Hospital+%26+Research+Institute/data=!4m5!3m4!1s0x395fcf175006a677:0xaabb997fda3f3640!8m2!3d22.3350951!4d73.2088735?authuser=0&hl=en&rclk=1,22.3350951,73.2088735
Kaizen Hospital,Hospital,"Helmet Circle, 132 Feet Ring Rd, Memnagar, Ahmedabad, Gujarat 380052, India",https://www.google.co.kr/maps/place/Kaizen+Hospital/data=!4m5!3m4!1s0x395e84bd5a21e4cd:0x4f416178d87b5ae0!8m2!3d23.0467458!4d72.5439125?authuser=0&hl=en&rclk=1,23.0467458,72.5439125
Maniratna Hospital,Hospital,"Surendranagar, NH-8A, Surendra Nagar Road, Surendar Nagar, Surendar Nagar, Gujarat 363520, India",https://www.google.co.kr/maps/place/Maniratna+Hospital/data=!4m5!3m4!1s0x395907f3459ed281:0x7bede351c3936775!8m2!3d22.420702!4d71.199272?authuser=0&hl=en&rclk=1,22.420702,71.199272
Indira Ivf,Hospital,"Haveli Rd, Vadhavan, Surendranagar, Gujarat 363002, India",https://www.google.co.kr/maps/place/Indira+Ivf/data=!4m5!3m4!1s0x3959411cf1abc60f:0xaab9036b4a45dc9!8m2!3d22.727974!4d71.634046?authuser=0&hl=en&rclk=1,22.727974,71.634046
Naturopathy clinic,Medical clinic,"11, Somnath Prabhashankar Dave Marg, Dungarshinagar, Motinagar, Paldi, Ahmedabad, Gujarat 380007, India",https://www.google.co.kr/maps/place/Naturopathy+clinic/data=!4m5!3m4!1s0x395e85d28eb8cb6d:0x897b104066aed45b!8m2!3d23.0057891!4d72.5592902?authuser=0&hl=en&rclk=1,23.0057891,72.5592902
Nirmal Hospital Pvt Ltd,Private hospital,"Nirmal Hospital, Sagrampura, Surat, Gujarat 395002, India",https://www.google.co.kr/maps/place/Nirmal+Hospital+Pvt+Ltd/data=!4m5!3m4!1s0x3be04e69b0000001:0x889ddaa12034e9ed!8m2!3d21.1812543!4d72.8246493?authuser=0&hl=en&rclk=1,21.1812543,72.8246493
"Dr.Krunal Gohil,MS DNB Vascular and Endovascular Surgeon, Prime vascular care hospital, Ahmedabad, Gujarat, India",Vascular surgeon,"Copper Leaf building, Bhuyang Dev, Thaltej, Ahmedabad, Gujarat 380060, India","https://www.google.co.kr/maps/place/Dr.Krunal+Gohil,MS+DNB+Vascular+and+Endovascular+Surgeon,+Prime+vascular+care+hospital,+Ahmedabad,+Gujarat,+India/data=!4m5!3m4!1s0x395e9d52ccb0843d:0xf77c66016540488b!8m2!3d23.0583152!4d72.5379008?authuser=0&hl=en&rclk=1",23.0583152,72.5379008
Dr.Arjun Gajera,Medical clinic,"Guruashish Complex,Nr. Bedipara Chora, Bhavnagar Road, Rajkot, Gujarat 360003, India",https://www.google.co.kr/maps/place/Dr.Arjun+Gajera/data=!4m5!3m4!1s0x3959b5f97245ad27:0x63332b66cc44b52b!8m2!3d22.304524!4d70.811641?authuser=0&hl=en&rclk=1,22.304524,70.811641
Dev Dental Clinic,Hospital,"Raiya Rd, Shivpara, Tirupati Nagar, Rajkot, Gujarat 360007, India",https://www.google.co.kr/maps/place/Dev+Dental+Clinic/data=!4m5!3m4!1s0x3959c9f10cbdc2b5:0x75b426ec976c441!8m2!3d22.300618!4d70.7742255?authuser=0&hl=en&rclk=1,22.300618,70.7742255
Manan Hospital,Hospital,"25, New Jagnath Rd, near Astron Chowk, Janata Society, Sardarnagar, Rajkot, Gujarat 360001, India",https://www.google.co.kr/maps/place/Manan+Hospital/data=!4m5!3m4!1s0x3959ca22a3f8dc2f:0x1cb318ba9034b4d7!8m2!3d22.2933439!4d70.788152?authuser=0&hl=en&rclk=1,22.2933439,70.788152
WINGS IVF Women's Hospital,Fertility clinic,"17, Sunrise Park Road Sunrise Park Himalaya Mall, to, Vastrapur Lake Road, Bodakdev, Ahmedabad, Gujarat 380054, India",https://www.google.co.kr/maps/place/WINGS+IVF+Women's+Hospital/data=!4m5!3m4!1s0x395e9cb1d6441583:0xa290d9171ba1441!8m2!3d23.0436132!4d72.5288912?authuser=0&hl=en&rclk=1,23.0436132,72.5288912
Mangalam Hospital (Orthopaedic Hospital Rajkot),Hospital,"10/11, Mangla Main Rd, Manhar Plot, Bhakti Nagar, Rajkot, Gujarat 360002, India",https://www.google.co.kr/maps/place/Mangalam+Hospital+(Orthopaedic+Hospital+Rajkot)/data=!4m5!3m4!1s0x3959ca1121f460db:0x9ad0c837fffced0c!8m2!3d22.287488!4d70.795368?authuser=0&hl=en&rclk=1,22.287488,70.795368
Vihar Hospital,Hospital,"Dr Cook Rd, Nandanvan Society, Popati Nagar, Anand, Gujarat 388001, India",https://www.google.co.kr/maps/place/Vihar+Hospital/data=!4m5!3m4!1s0x395e4e9fb6dd0dbd:0x8b5ceaa1aef19fb5!8m2!3d22.5546096!4d72.9673642?authuser=0&hl=en&rclk=1,22.5546096,72.9673642
Uma Diabetes Center,Hospital,"Savsar Plot, Sardar Nagar, Morbi, Gujarat 363641, India",https://www.google.co.kr/maps/place/Uma+Diabetes+Center/data=!4m5!3m4!1s0x39598cd9555cf09d:0x750381bec40eff0b!8m2!3d22.8155365!4d70.829755?authuser=0&hl=en&rclk=1,22.8155365,70.829755
Bhailal Amin General Hospital,Hospital,"Bhailal Amin Marg, Road, Gorwa, Vadodara, Gujarat 390003, India",https://www.google.co.kr/maps/place/Bhailal+Amin+General+Hospital/data=!4m5!3m4!1s0x395fc8c3aa3a4ef1:0xf623ea5a765fc68b!8m2!3d22.3250448!4d73.1631132?authuser=0&hl=en&rclk=1,22.3250448,73.1631132
Sterling Hospital Rajkot,Private hospital,"Police Station, Plot No.251, 150 Feet Ring Rd, Opp, Gandhigram, Rajkot, Gujarat 360007, India",https://www.google.co.kr/maps/place/Sterling+Hospital+Rajkot/data=!4m5!3m4!1s0x3959c983ae49a5d9:0x6ec42199c0552471!8m2!3d22.306737!4d70.767542?authuser=0&hl=en&rclk=1,22.306737,70.767542
Clinic,Doctor,"Thavar, Gujarat 385310, India",https://www.google.co.kr/maps/place/Clinic/data=!4m5!3m4!1s0x395cab3025a00f9b:0x78bfb3076b5418dd!8m2!3d24.5424134!4d72.0084215?authuser=0&hl=en&rclk=1,24.5424134,72.0084215
"Dr Srujal Shah - Vascular Surgeon in Ahmedabad, India",Vascular surgeon,"9, Goddan Park Rd, Sardar Colony, 380013shram road, opposite starottel hotel, near vadaj, Ahmedabad, Gujarat 380013, India","https://www.google.co.kr/maps/place/Dr+Srujal+Shah+-+Vascular+Surgeon+in+Ahmedabad,+India/data=!4m5!3m4!1s0x395e84cfb4bbd52b:0xe3ac883a22ff0dce!8m2!3d23.053019!4d72.570897?authuser=0&hl=en&rclk=1",23.053019,72.570897
Sitaram Hospital,Hospital,"near Bus Station, Babra, Gujarat 365421, India",https://www.google.co.kr/maps/place/Sitaram+Hospital/data=!4m5!3m4!1s0x39588de381b448ab:0x62499c204385c55d!8m2!3d21.8453485!4d71.3082078?authuser=0&hl=en&rclk=1,21.8453485,71.3082078
Dr Vishnu sharma,Hospital,"401-402, SANTORINI SQUARE, lane, bazzar cross road, behind Abhishree Complex, opposite to star bazzar, star, Satellite, Ahmedabad, Gujarat 380015, India",https://www.google.co.kr/maps/place/Dr+Vishnu+sharma/data=!4m5!3m4!1s0x395e8496ab94f221:0x9db4e7955180cae2!8m2!3d23.0249886!4d72.5232456?authuser=0&hl=en&rclk=1,23.0249886,72.5232456
Zydus hospital,Hospital,"F2WR+HQC, Becharaji, Gujarat 384210, India",https://www.google.co.kr/maps/place/Zydus+hospital/data=!4m5!3m4!1s0x395c75a1bda7b481:0x6c09ec0f492cc2b3!8m2!3d23.4964309!4d72.0419029?authuser=0&hl=en&rclk=1,23.4964309,72.0419029
Indovasc Hospital,Hospital,"8, Lokmanya Tilak Nagar, Ashram Rd, opp. Starottel Hotel, Old Wadaj, Ahmedabad, Gujarat 380013, India",https://www.google.co.kr/maps/place/Indovasc+Hospital/data=!4m5!3m4!1s0x395e84cfb4b9ff19:0xa728954aa6c7a68!8m2!3d23.0530001!4d72.571084?authuser=0&hl=en&rclk=1,23.0530001,72.571084
Alka MultiSpecialty Hospital and IVF Centre,Hospital,"Alka Multi Specialty Hospital, Near KhariKui, At: Kheralu Dt Mehsana, North, Kheralu, Gujarat 384325, India",https://www.google.co.kr/maps/place/Alka+MultiSpecialty+Hospital+and+IVF+Centre/data=!4m5!3m4!1s0x395c55fb567bba31:0x976ccf5e925460c0!8m2!3d23.8857385!4d72.6214467?authuser=0&hl=en&rclk=1,23.8857385,72.6214467
Sterling Hospital Vadodara,Private hospital,"Circle West, Race Course Road Opposite Inox Cinema, Hari Nagar, Vadodara, Gujarat 390007, India",https://www.google.co.kr/maps/place/Sterling+Hospital+Vadodara/data=!4m5!3m4!1s0x395fc8bb855e740f:0x700707839db9fe19!8m2!3d22.3127258!4d73.1588197?authuser=0&hl=en&rclk=1,22.3127258,73.1588197
Companio Wellness Center (Reeva Health Care),Physical therapy clinic,"Reeva Health Care (Companio), New Ashram Rd, opp. parul Bagicha, Rajkot, Gujarat 360003, India",https://www.google.co.kr/maps/place/Companio+Wellness+Center+(Reeva+Health+Care)/data=!4m5!3m4!1s0x3959b5fd72736159:0xda39aeeec3d081ad!8m2!3d22.3053869!4d70.8194509?authuser=0&hl=en&rclk=1,22.3053869,70.8194509
"Solitaire clinic -Joint, Knee Replacement Surgery |Arthroscopy |Fracture| Best Orthopedic Hospital",Orthopedic clinic,"Polaris Building, 201, Second, Stadium Circle, opp. Vipul Dudhiya, Navrangpura, Ahmedabad, Gujarat 380009, India","https://www.google.co.kr/maps/place/Solitaire+clinic+-Joint,+Knee+Replacement+Surgery+%7CArthroscopy+%7CFracture%7C+Best+Orthopedic+Hospital/data=!4m5!3m4!1s0x395e84f496836aeb:0xf8c6d3ac7021e179!8m2!3d23.0396266!4d72.5623284?authuser=0&hl=en&rclk=1",23.0396266,72.5623284
"Department of Neurosurgery @ Dhiraj Hospital & SBKS Medical College, Waghodia Dr Bhagwati Salgotra, Dr Prashant Singh, Dr Keval Sansiya",Doctor,"Near, Dr. Vikram Sarabhai Road, Genda Cir, Vadiwadi, Vadodara, Gujarat 390007, India","https://www.google.co.kr/maps/place/Department+of+Neurosurgery+@+Dhiraj+Hospital+%26+SBKS+Medical+College,+Waghodia+Dr+Bhagwati+Salgotra,+Dr+Prashant+Singh,+Dr+Keval+Sansiya/data=!4m5!3m4!1s0x395fc8acd8cf46b9:0x7910d5c71768340b!8m2!3d22.3173303!4d73.1668804?authuser=0&hl=en&rclk=1",22.3173303,73.1668804
"Dr. Deepak Chhatbar (New Address: ENT Specialist K D Hospital, Vaishnodevi Circle, S G Highway)",Otolaryngologist,"Akshar Hospital, 2nd Floor, Sahaj Risidency Complex,, Karnavati Cross, Narayan Chok,, Opp. Karnavati Mega Mall, Takshashila School Road,, Vastral, above Vishva Electronics, Ahmedabad, Gujarat 382418, India","https://www.google.co.kr/maps/place/Dr.+Deepak+Chhatbar+(New+Address:+ENT+Specialist+K+D+Hospital,+Vaishnodevi+Circle,+S+G+Highway)/data=!4m5!3m4!1s0x395e864b12c75a97:0x728775f578856e54!8m2!3d23.00764!4d72.660306?authuser=0&hl=en&rclk=1",23.00764,72.660306
"Dr. Vanecha Clinic, Skin Clinic",Hospital,"PJFR+4P7, Ambedkarnagar, Surendranagar, Gujarat 363002, India","https://www.google.co.kr/maps/place/Dr.+Vanecha+Clinic,+Skin+Clinic/data=!4m5!3m4!1s0x395940e05cb30cb1:0x22e8f4c31efeb07b!8m2!3d22.7227965!4d71.6418122?authuser=0&hl=en&rclk=1",22.7227965,71.6418122
Yashfeen Group Of Hospital,Private hospital,"Opp. Morarji Desai Market, At & Post Viraval, Navsari, Gujarat 396445, India",https://www.google.co.kr/maps/place/Yashfeen+Group+Of+Hospital/data=!4m5!3m4!1s0x3be0f7c6a3410899:0x9646c92bc93308cc!8m2!3d20.9614828!4d72.9294947?authuser=0&hl=en&rclk=1,20.9614828,72.9294947
Apollo Hospitals Enterprise Ltd,General hospital,"HX67+MF8, Ganesh Chokdi, Sardar Ganj, Anand, Gujarat 388001, India",https://www.google.co.kr/maps/place/Apollo+Hospitals+Enterprise+Ltd/data=!4m5!3m4!1s0x395e4e9a29c16ebd:0xe23a75b7b72f9267!8m2!3d22.5616624!4d72.9636995?authuser=0&hl=en&rclk=1,22.5616624,72.9636995
Alvura Cosmetic Clinic & Hospital - Cosmetic Surgeon in Ahmedabad,Hospital,"FF-1, Maple Trade Centre, Sun N Step Club Road, Surdhara Cir, Thaltej, Ahmedabad, Gujarat 380054, India",https://www.google.co.kr/maps/place/Alvura+Cosmetic+Clinic+%26+Hospital+-+Cosmetic+Surgeon+in+Ahmedabad/data=!4m5!3m4!1s0x395e85be2e4e8fb9:0x692039f17603ef4!8m2!3d23.0573139!4d72.5287216?authuser=0&hl=en&rclk=1,23.0573139,72.5287216
Maganlal Kapadia Hospital,Government hospital,"C5FX+9QG, Shashtri Nagar, Chotila, Gujarat 363520, India",https://www.google.co.kr/maps/place/Maganlal+Kapadia+Hospital/data=!4m5!3m4!1s0x395907f399f3301f:0xfb5196e096701ea7!8m2!3d22.4234277!4d71.199467?authuser=0&hl=en&rclk=1,22.4234277,71.199467
"Dr. Deepak Chhatbar (New Address: ENT Specialist K D Hospital, Vaishnodevi Circle, S G Highway)",Otolaryngologist,"Pagrav Multispeciality Hospital & ICU, 512/1, Near G6 Circle, Opp. SBI Bank,, Sector 23,, Gujarat 382023, India","https://www.google.co.kr/maps/place/Dr.+Deepak+Chhatbar+(New+Address:+ENT+Specialist+K+D+Hospital,+Vaishnodevi+Circle,+S+G+Highway)/data=!4m5!3m4!1s0x395c2b9aaad29859:0xed7cb9c5561bdeb0!8m2!3d23.243928!4d72.651171?authuser=0&hl=en&rclk=1",23.243928,72.651171
The Spine Clinic,Orthopedic surgeon,"601 Dream Icon 32, opp. ABC-1, Sardar Patel Nagar, Ellisbridge, Ahmedabad, Gujarat 380006, India",https://www.google.co.kr/maps/place/The+Spine+Clinic/data=!4m5!3m4!1s0x395e8179f0de3df9:0x11d14ea60eb1ade2!8m2!3d23.0328349!4d72.5571478?authuser=0&hl=en&rclk=1,23.0328349,72.5571478
"Dr. Deepak Chhatbar (ENT Specialist, K D Hospital)",Otolaryngologist,"K D Hospital, SGVP Circle, Sarkhej - Gandhinagar Highway, Sardar Patel Ring Rd, S.G.V. P. Circle, Ahmedabad, Gujarat 382421, India","https://www.google.co.kr/maps/place/Dr.+Deepak+Chhatbar+(ENT+Specialist,+K+D+Hospital)/data=!4m5!3m4!1s0x395e83ad8ecc151d:0xceb5d20447e7e662!8m2!3d23.1356964!4d72.5417384?authuser=0&hl=en&rclk=1",23.1356964,72.5417384
Ashta Clinic & Hospital + Leboretry,Hospital,"Oppo distric rdc bank, Kamlapur, Gujarat 363520, India",https://www.google.co.kr/maps/place/Ashta+Clinic+%26+Hospital+%2B+Leboretry/data=!4m5!3m4!1s0x3958f8a166bd5e29:0xfa23b89883e89ff7!8m2!3d22.1476557!4d71.1997711?authuser=0&hl=en&rclk=1,22.1476557,71.1997711
GUJARAT HEALTH CARE,Hospital,"51/2, Majapur Rd, H Colony, Ambawadi, Ahmedabad, Gujarat 380015, India",https://www.google.co.kr/maps/place/GUJARAT+HEALTH+CARE/data=!4m5!3m4!1s0x395e851b28669e07:0xbe642f94a478112e!8m2!3d23.0240694!4d72.5440981?authuser=0&hl=en&rclk=1,23.0240694,72.5440981
Hospital,Hospital,"9629+987, Mokasar, Gujarat 363520, India",https://www.google.co.kr/maps/place/Hospital/data=!4m5!3m4!1s0x395900caf74c01c5:0x9f267deb5af83bc9!8m2!3d22.3509013!4d71.2183018?authuser=0&hl=en&rclk=1,22.3509013,71.2183018
Goenka Hospital,Hospital,"Pethapur Mahudi Road Near GGS , Piplaj, Gandhinagar- 382610 Gujarat, India., Gandhinagar - Vijapur Rd, Pimplaj, Gujarat 382610, India",https://www.google.co.kr/maps/place/Goenka+Hospital/data=!4m5!3m4!1s0x395c2d1453c8f507:0xc3ed0ef5f3611394!8m2!3d23.3259125!4d72.6831516?authuser=0&hl=en&rclk=1,23.3259125,72.6831516
Genesis Multispeciality Hospital,Hospital,"Chandan Park Main Road, Raiya Rd, Nr. Paradise hall, Indian Park, Rajkot, Gujarat 360007, India",https://www.google.co.kr/maps/place/Genesis+Multispeciality+Hospital/data=!4m5!3m4!1s0x3959c97c4ef47b7f:0xbb877ba8e18f6e34!8m2!3d22.3002892!4d70.7624406?authuser=0&hl=en&rclk=1,22.3002892,70.7624406
Sharda Clinic & Hospital,Hospital,"Asarwa, Ahmedabad, Gujarat 380016, India",https://www.google.co.kr/maps/place/Sharda+Clinic+%26+Hospital/data=!4m5!3m4!1s0x395e86a83fffffff:0x976733bc83f010c!8m2!3d23.0442721!4d72.6049837?authuser=0&hl=en&rclk=1,23.0442721,72.6049837
Physiobeats Physiotherapy & Acupuncture Clinic,Physical therapy clinic,"Anmol Complex, 316-317, Sadhu Vaswani Road, Opp: Raj Palace, Rajkot, Gujarat 360005, India",https://www.google.co.kr/maps/place/Physiobeats+Physiotherapy+%26+Acupuncture+Clinic/data=!4m5!3m4!1s0x3959cb91df11d851:0xe9532cd63433b2dc!8m2!3d22.2950353!4d70.7587717?authuser=0&hl=en&rclk=1,22.2950353,70.7587717
Kidz care hospital,Hospital,"First floor ABVAA AVENUE, behind marvel square, Sun Pharma Rd, Tandalja, Vadodara, Gujarat 390012, India",https://www.google.co.kr/maps/place/Kidz+care+hospital/data=!4m5!3m4!1s0x395fc786f4ca26f1:0x2e68ab408ff6a7e!8m2!3d22.2810497!4d73.1515344?authuser=0&hl=en&rclk=1,22.2810497,73.1515344
Apollo Hospital ( Information Centre ),Hospital,"Kensvilla, Radhakrishna Twp, Mehsana, Gujarat 384205, India",https://www.google.co.kr/maps/place/Apollo+Hospital+(+Information+Centre+)/data=!4m5!3m4!1s0x395c43b6fa23aaa1:0xec378653a21d0d48!8m2!3d23.6200777!4d72.3867193?authuser=0&hl=en&rclk=1,23.6200777,72.3867193
Devmaniratna Hospital,Hospital,"C5CX+8M9, Chotila, Gujarat 363520, India",https://www.google.co.kr/maps/place/Devmaniratna+Hospital/data=!4m5!3m4!1s0x395907f344fb4ff3:0xaf1483a244000cdf!8m2!3d22.4207811!4d71.1992256?authuser=0&hl=en&rclk=1,22.4207811,71.1992256
Tristar Hospital,Hospital,"Nanpura New Rd, opp. T & TV High School, Kharwawad, Athwa Gate, Surat, Gujarat 395001, India",https://www.google.co.kr/maps/place/Tristar+Hospital/data=!4m5!3m4!1s0x3be04e7a7161e71d:0xc55f5abba844eac4!8m2!3d21.1865466!4d72.8118988?authuser=0&hl=en&rclk=1,21.1865466,72.8118988
Ashish Hospital,Hospital,"Opp. Mr. Puff, Besides Shreenath Medical, Nizampura Main Rd., Vadodara, Gujarat 390002, India",https://www.google.co.kr/maps/place/Ashish+Hospital/data=!4m5!3m4!1s0x395fcf3255555555:0xb049015d49bd7cca!8m2!3d22.332065!4d73.180618?authuser=0&hl=en&rclk=1,22.332065,73.180618
Indira IVF Ahmedabad,Fertility clinic,"4th Floor, ABC - 2, St Xavier's College Corner, चिमनलाल गिरधरलाल मार्ग, Off, SV Desai Marg, Navrangpura, Ahmedabad, Gujarat 380009, India",https://www.google.co.kr/maps/place/Indira+IVF+Ahmedabad/data=!4m5!3m4!1s0x395e84edeb0516b7:0x36f5a898fe865006!8m2!3d23.0330338!4d72.5547197?authuser=0&hl=en&rclk=1,23.0330338,72.5547197
shree Ram Hospital. Health Centre,Hospital,"Jasdan - Vinchhiya Rd, Lilapur, Gujarat 360050, India",https://www.google.co.kr/maps/place/shree+Ram+Hospital.+Health+Centre/data=!4m5!3m4!1s0x3958f9f2fadc26db:0xda21324c4e8a79d9!8m2!3d22.106124!4d71.277931?authuser=0&hl=en&rclk=1,22.106124,71.277931
"Primelife Physiotherapy Centre, Rajkot, Dr. Ashish Busa",Physical therapy clinic,"Primelife, Shree Ram Chowk, 40 Feet Main Rd, near Navchetan school, Shrdhdha Park, Rajkot, Gujarat 360002, India","https://www.google.co.kr/maps/place/Primelife+Physiotherapy+Centre,+Rajkot,+Dr.+Ashish+Busa/data=!4m5!3m4!1s0x3959cb46125dd999:0xf79150292ae0623!8m2!3d22.2577349!4d70.8065538?authuser=0&hl=en&rclk=1",22.2577349,70.8065538
Ansh Clinic,Gastroenterologist,"Hirabhai Tower, A-1, Near, Jaisinghbhai Park Divine Buds School, Natvarlal Raval Marg, Uttamnagar, Maninagar, Ahmedabad, Gujarat 380008, India",https://www.google.co.kr/maps/place/Ansh+Clinic/data=!4m5!3m4!1s0x395e848ac8a7faf3:0xaab096aaa3598032!8m2!3d22.9911667!4d72.6020049?authuser=0&hl=en&rclk=1,22.9911667,72.6020049
RHYTHM HOSPITAL ( DR. BHAVESH VIRADIA),Doctor,"Near Jivandhara Hospital, Paliyad Rd, opp. S T BUS DEPO, Botad, Gujarat 364710, India",https://www.google.co.kr/maps/place/RHYTHM+HOSPITAL+(+DR.+BHAVESH+VIRADIA)/data=!4m5!3m4!1s0x3958dd8e2d41953b:0x47feaf9448d44ce8!8m2!3d22.1745889!4d71.6586211?authuser=0&hl=en&rclk=1,22.1745889,71.6586211
Ashapura clinic,Medical clinic,"1, SIDC Rd, Veraval, Gujarat 360024, India",https://www.google.co.kr/maps/place/Ashapura+clinic/data=!4m5!3m4!1s0x3958356f1477cbd7:0x933df0751de92783!8m2!3d22.156815!4d70.7989707?authuser=0&hl=en&rclk=1,22.156815,70.7989707
Netradeep Eye Hospital Pvt Ltd - Dr Sapovadia,Hospital,"150 feet ring road, Near Ayodhya Chowk, beside The One World, Rajkot, Gujarat 360006, India",https://www.google.co.kr/maps/place/Netradeep+Eye+Hospital+Pvt+Ltd+-+Dr+Sapovadia/data=!4m5!3m4!1s0x3959ca057f5b07d7:0xdafe130e18e2d4ec!8m2!3d22.3209682!4d70.7673182?authuser=0&hl=en&rclk=1,22.3209682,70.7673182
Satyam Clinic,Medical clinic,"Pipaliya Hall Main Road, Beside BSNL Telephone Exchange, Parmeshwar Society, Atika Industrial Area, Bhakti Nagar, Rajkot, Gujarat 360002, India",https://www.google.co.kr/maps/place/Satyam+Clinic/data=!4m5!3m4!1s0x13ff4735d713eeef:0x2507f98778ca59e6!8m2!3d22.264594!4d70.8050669?authuser=0&hl=en&rclk=1,22.264594,70.8050669
Gayatri Clinic & Nursing Home,Medical clinic,"7Q5M+GPV, Deep Jyot Park, Opp. Balaji Park, Beside Parth Vidhyalaya, Jasraj Nagar, Mavdi, Rajkot, Gujarat 360004, India",https://www.google.co.kr/maps/place/Gayatri+Clinic+%26+Nursing+Home/data=!4m5!3m4!1s0x3959ca5eef0ac5bf:0x9c549cb7bf009384!8m2!3d22.2588689!4d70.7843034?authuser=0&hl=en&rclk=1,22.2588689,70.7843034
Apollo Hospital International Limited,Hospital,"Plot No, 1A, Gandhinagar - Ahmedabad Rd, GIDC Bhat, GIDC estate, Ahmedabad, Gujarat 382428, India",https://www.google.co.kr/maps/place/Apollo+Hospital+International+Limited/data=!4m5!3m4!1s0x395e84f505555555:0x883a088bbb845a53!8m2!3d23.1095502!4d72.6263885?authuser=0&hl=en&rclk=1,23.1095502,72.6263885
HCG Cancer Centre OPD Tower,Hospital,"Sola, Ahmedabad, Gujarat, India",https://www.google.co.kr/maps/place/HCG+Cancer+Centre+OPD+Tower/data=!4m5!3m4!1s0x395e834d0f661ef5:0xa9d469f4ab61717e!8m2!3d23.0706434!4d72.5229485?authuser=0&hl=en&rclk=1,23.0706434,72.5229485
"Dr Saurabh Goyal - Senior Orthopedic & Joint Replacement Surgeon , Knee Replacement Surgery Expert",Orthopedic surgeon,"201, Polaris Near Vodafone house, Stadium circle, above Yamaha Showroom, Navrangpura, Ahmedabad, Gujarat 380009, India","https://www.google.co.kr/maps/place/Dr+Saurabh+Goyal+-+Senior+Orthopedic+%26+Joint+Replacement+Surgeon+,+Knee+Replacement+Surgery+Expert/data=!4m5!3m4!1s0x395e84f52914bfd3:0x2c1e7300e111bbee!8m2!3d23.039586!4d72.5622734?authuser=0&hl=en&rclk=1",23.039586,72.5622734
hospitals,Hospital department,"No. 110, Mahakant Building, Ashram Rd, opp. VS Hospital, Pritam Nagar, Paldi, Ahmedabad, Gujarat 380006, India",https://www.google.co.kr/maps/place/hospitals/data=!4m5!3m4!1s0x395e8523f583bc81:0x937dc8d89a2f642c!8m2!3d23.0202497!4d72.5694525?authuser=0&hl=en&rclk=1,23.0202497,72.5694525
Spandan Multispeciality Hospital,Hospital,"Municipal Corporation, Sindhwai Mata Road Beside Ward Office No: 4, Manjalpur, Vadodara, Gujarat 390011, India",https://www.google.co.kr/maps/place/Spandan+Multispeciality+Hospital/data=!4m5!3m4!1s0x395fc8af92669c35:0x24bd71539c783c1b!8m2!3d22.2773279!4d73.2031338?authuser=0&hl=en&rclk=1,22.2773279,73.2031338
Spandan Children Hospital,Hospital,"2nd Floor, Suvarnabhoomi Complex, Opp- Speedwell Party Plot, Ambika Township Main Road, Nana Mava, Rajkot, Gujarat 360005, India",https://www.google.co.kr/maps/place/Spandan+Children+Hospital/data=!4m5!3m4!1s0x3959cbff90f6ea3f:0xa53cad03c1aa71f7!8m2!3d22.2652458!4d70.7623681?authuser=0&hl=en&rclk=1,22.2652458,70.7623681
Varun Surgical Hospital,Hospital,"Vadipara, Surendranagar, Gujarat 363002, India",https://www.google.co.kr/maps/place/Varun+Surgical+Hospital/data=!4m5!3m4!1s0x395941672ee3f073:0xa7c7193a405dcdf9!8m2!3d22.7285374!4d71.6351526?authuser=0&hl=en&rclk=1,22.7285374,71.6351526
Satani Dental Clinic & Implant Center,Hospital,"Samat Rd, Aanand Nagar, Jasdan, Gujarat 360050, India",https://www.google.co.kr/maps/place/Satani+Dental+Clinic+%26+Implant+Center/data=!4m5!3m4!1s0x3958f7d20a0acce7:0xa148c511353bf929!8m2!3d22.0354278!4d71.204254?authuser=0&hl=en&rclk=1,22.0354278,71.204254
Swasthya Retina Care,Hospital,"Bus Stop, 132 Feet Ring Rd, opp. Jaymangal BRTS, AEC Char Rasta, Naranpura, Ahmedabad, Gujarat 380013, India",https://www.google.co.kr/maps/place/Swasthya+Retina+Care/data=!4m5!3m4!1s0x395e85a059d0afc3:0xd500485929d57329!8m2!3d23.0577418!4d72.5497036?authuser=0&hl=en&rclk=1,23.0577418,72.5497036
Chirayu Hospital - -Joint Replacement Ahmedabad |Orthopedic Surgeon |Spine Hospital|Trauma Center,Hospital,"203-204, Chirayu Complex, Narayan Nagar Rd, Paldi, Ahmedabad, Gujarat 380007, India",https://www.google.co.kr/maps/place/Chirayu+Hospital+-+-Joint+Replacement+Ahmedabad+%7COrthopedic+Surgeon+%7CSpine+Hospital%7CTrauma+Center/data=!4m5!3m4!1s0x395e8507a6e58a9b:0x1a6551bce3f8b703!8m2!3d23.007!4d72.565742?authuser=0&hl=en&rclk=1,23.007,72.565742
Eye Q Super Speciality Eye Hospital,Specialized hospital,"Lal Bungalow s.n.s house no 3 near, Meghdoot Society, Athwalines, Athwa, Surat, Gujarat 395007, India",https://www.google.co.kr/maps/place/Eye+Q+Super+Speciality+Eye+Hospital/data=!4m5!3m4!1s0x3be04ddc218ac21f:0x77e778095ce6ba05!8m2!3d21.1776287!4d72.7980085?authuser=0&hl=en&rclk=1,21.1776287,72.7980085
Dr K S Purohit - Senior Gastro Surgeon Ahmedabad,Gastroenterologist,"Subhadra Hospital, Opposite Kocharab Ashram, Paldi, Ahmedabad, Gujarat 380007, India",https://www.google.co.kr/maps/place/Dr+K+S+Purohit+-+Senior+Gastro+Surgeon+Ahmedabad/data=!4m5!3m4!1s0x395e84ffef484539:0xc57bfe9a6ffb271e!8m2!3d23.016876!4d72.566751?authuser=0&hl=en&rclk=1,23.016876,72.566751
Hospital Jasdan,Hospital,"26P4+4JQ, Hirpara, Jasdan, Gujarat 360050, India",https://www.google.co.kr/maps/place/Hospital+Jasdan/data=!4m5!3m4!1s0x3958f788ce203555:0x9af3cbf81d07a54e!8m2!3d22.0353264!4d71.2066066?authuser=0&hl=en&rclk=1,22.0353264,71.2066066
"Dr Mohil Patel | Best Laparoscopic Surgeon in Ahmedabad, Gujarat, India",Obstetrician-gynecologist,"425, Avani Icon Haridarshan Cross Road, opp. Shalby Hospital, Nava Naroda, Ahmedabad, Gujarat 382330, India","https://www.google.co.kr/maps/place/Dr+Mohil+Patel+%7C+Best+Laparoscopic+Surgeon+in+Ahmedabad,+Gujarat,+India/data=!4m5!3m4!1s0x395e87a5a31fd5a9:0xc4183a0e8a5f68d8!8m2!3d23.0701394!4d72.6720524?authuser=0&hl=en&rclk=1",23.0701394,72.6720524
Welcare Hospital,Private hospital,"301-302-303, 4th Floor Raj Point Opposite Vidyakunj Hindi Vidyalaya Mini Virpur Road, Palanpur Jakatnaka, Surat, Gujarat 395009, India",https://www.google.co.kr/maps/place/Welcare+Hospital/data=!4m5!3m4!1s0x3be04c46f6ae99c3:0xcd08193c21170ee9!8m2!3d21.208965!4d72.780433?authuser=0&hl=en&rclk=1,21.208965,72.780433
Indira Ivf Hospital,Hospital,"THE ADDRESS, Opp. Silver Heights, Karan Park, Rajkot, Gujarat 360001, India",https://www.google.co.kr/maps/place/Indira+Ivf+Hospital/data=!4m5!3m4!1s0x3959cbaa371a0aaf:0xbbbbab53241664c!8m2!3d22.2767641!4d70.7792151?authuser=0&hl=en&rclk=1,22.2767641,70.7792151
Lilaba Hospital,Hospital,"R8X3+XHW, Babra, Gujarat 365421, India",https://www.google.co.kr/maps/place/Lilaba+Hospital/data=!4m5!3m4!1s0x39588c65c8f14cfd:0x81307e04afcead50!8m2!3d21.849984!4d71.303963?authuser=0&hl=en&rclk=1,21.849984,71.303963
HCG Hospitals - Bhavnagar,Hospital,"1139 Sir Patini Road, Meghani Cir, Krishna Nagar, Bhavnagar, Gujarat 364001, India",https://www.google.co.kr/maps/place/HCG+Hospitals+-+Bhavnagar/data=!4m5!3m4!1s0x395f5a64a8abc297:0x7aabc76259ebd31b!8m2!3d21.7662206!4d72.15413?authuser=0&hl=en&rclk=1,21.7662206,72.15413
Gujarat Hospital,Hospital,"Ambica Hotel, Shakariba Party Plot, C.T.M Road, Gujarat 380026, India",https://www.google.co.kr/maps/place/Gujarat+Hospital/data=!4m5!3m4!1s0x395e866a782f01df:0xb94b6a30582535d5!8m2!3d23.0045249!4d72.6386199?authuser=0&hl=en&rclk=1,23.0045249,72.6386199
Desai Shefali Janak,Doctor,"Samved Hospital Stadium Road, Navrangpura, Navrangpura, near Ishita Apartment, Ahmedabad, Gujarat 380009, India",https://www.google.co.kr/maps/place/Desai+Shefali+Janak/data=!4m5!3m4!1s0x395e848d0c34f757:0x590edeaf033e07c7!8m2!3d23.0402653!4d72.557745?authuser=0&hl=en&rclk=1,23.0402653,72.557745
Zydus Hospital,Hospital,"C-602, Sterling Hospital Rd, L.K Society, Nilmani Society, Memnagar, Ahmedabad, Gujarat 380052, India",https://www.google.co.kr/maps/place/Zydus+Hospital/data=!4m5!3m4!1s0x395e84afa6d3433d:0xc017f8581e5fadf0!8m2!3d23.0490168!4d72.5304605?authuser=0&hl=en&rclk=1,23.0490168,72.5304605
Gastroplus,Gastroenterologist,"407-408, Devraj Mall, Opp Haveli, Nr, Thakkarbapa Nagar Cross Road, India Colony Rd, Bapunagar, Ahmedabad, Gujarat 382350, India",https://www.google.co.kr/maps/place/Gastroplus/data=!4m5!3m4!1s0x395e874d0d945ecd:0xb41c6c580b8359a5!8m2!3d23.0392801!4d72.6391464?authuser=0&hl=en&rclk=1,23.0392801,72.6391464
"Civil Hospital Campus, Ahmedabad",General hospital,"D Block Asarwa, Haripura, Office of the Medical Superintendent Civil Hospital, Asarwa, Ahmedabad, Gujarat 380016, India","https://www.google.co.kr/maps/place/Civil+Hospital+Campus,+Ahmedabad/data=!4m5!3m4!1s0x395e841a8fb6688b:0x74c28945e5a91979!8m2!3d23.0515024!4d72.6052235?authuser=0&hl=en&rclk=1",23.0515024,72.6052235
Manglam hospital,Hospital,"Khimoi krupa hotel NH 8 A, Chotila, Gujarat 363520, India",https://www.google.co.kr/maps/place/Manglam+hospital/data=!4m5!3m4!1s0x395907fb1432fdc1:0x5375c382fdc3c707!8m2!3d22.4303894!4d71.206768?authuser=0&hl=en&rclk=1,22.4303894,71.206768
Samudayik Kendra and Hospital,Hospital,"Sayla, Surendranagar, NH-8A, Ahmedabad Road, Surendar Nagar, Surendar Nagar, Gujarat 363430, India",https://www.google.co.kr/maps/place/Samudayik+Kendra+and+Hospital/data=!4m5!3m4!1s0x395916ceaf26e083:0x993cff581f61b685!8m2!3d22.5393!4d71.4838?authuser=0&hl=en&rclk=1,22.5393,71.4838
Sterling Ram Krishna Speciality Hospital,Hospital,"Plot Health Centre, Ward 10-B “C”, Nr. YMCA, opp. Iffco Colony, Gandhidham, Gujarat 370201, India",https://www.google.co.kr/maps/place/Sterling+Ram+Krishna+Speciality+Hospital/data=!4m5!3m4!1s0x3950b9961bc8a88b:0xcfe4c5d7c9b4e255!8m2!3d23.069198!4d70.12218?authuser=0&hl=en&rclk=1,23.069198,70.12218
Vaishvee Pediatric Physiotherapy Clinic,Hospital,"8Q28+FX2, Kidwai Nagar Society, Rajkot, Gujarat 360005, India",https://www.google.co.kr/maps/place/Vaishvee+Pediatric+Physiotherapy+Clinic/data=!4m5!3m4!1s0x3959c98057d5ca8f:0x72e67eb85c34f59f!8m2!3d22.301144!4d70.7673861?authuser=0&hl=en&rclk=1,22.301144,70.7673861
પ્રાથમિક આરોગ્ય કેન્દ્ર પીપરાળી (અશોક બાંભણીયા),Hospital,"98Q7+56J, Piparali, Gujarat 363440, India",https://www.google.co.kr/maps/place/%E0%AA%AA%E0%AB%8D%E0%AA%B0%E0%AA%BE%E0%AA%A5%E0%AA%AE%E0%AA%BF%E0%AA%95+%E0%AA%86%E0%AA%B0%E0%AB%8B%E0%AA%97%E0%AB%8D%E0%AA%AF+%E0%AA%95%E0%AB%87%E0%AA%A8%E0%AB%8D%E0%AA%A6%E0%AB%8D%E0%AA%B0+%E0%AA%AA%E0%AB%80%E0%AA%AA%E0%AA%B0%E0%AA%BE%E0%AA%B3%E0%AB%80+(%E0%AA%85%E0%AA%B6%E0%AB%8B%E0%AA%95+%E0%AA%AC%E0%AA%BE%E0%AA%82%E0%AA%AD%E0%AA%A3%E0%AB%80%E0%AA%AF%E0%AA%BE)/data=!4m5!3m4!1s0x39590440214bfe11:0x8ba489d6e01995bb!8m2!3d22.3879509!4d71.3130102?authuser=0&hl=en&rclk=1,22.3879509,71.3130102
Dr Niraj Vasavada,Hospital,"Vasavada Spine Clinic , shalby hospitals, opp. karnavati club, Ahmedabad, Gujarat 380015, India",https://www.google.co.kr/maps/place/Dr+Niraj+Vasavada/data=!4m5!3m4!1s0x395e9b24593d64cd:0xffdae6d125d2a0d6!8m2!3d23.0193104!4d72.5067129?authuser=0&hl=en&rclk=1,23.0193104,72.5067129
Health care clinic X-ray and hospital,Hospital,"Kevadia, Gujarat 393151, India",https://www.google.co.kr/maps/place/Health+care+clinic+X-ray+and+hospital/data=!4m5!3m4!1s0x39601c8124e12dfb:0x34b97a48879d6862!8m2!3d21.8847412!4d73.6970877?authuser=0&hl=en&rclk=1,21.8847412,73.6970877
CIMS,Gastroenterologist,"Cims Hospital, Ahmedabad, Gujarat 380060, India",https://www.google.co.kr/maps/place/CIMS/data=!4m5!3m4!1s0x395e9cb2533ea735:0xab977267345a7f58!8m2!3d23.0699847!4d72.5172875?authuser=0&hl=en&rclk=1,23.0699847,72.5172875
Abhinav Hospital,Hospital,"A/6 abhinav hospital, B/h s t depot, Padra, Gujarat 391440, India",https://www.google.co.kr/maps/place/Abhinav+Hospital/data=!4m5!3m4!1s0x395fb87f02ada46d:0x7b5f4388530d797c!8m2!3d22.2457969!4d73.084673?authuser=0&hl=en&rclk=1,22.2457969,73.084673
Dr Charmy's Homoeopathic Clinic,Doctor,"204 - Kuber Kashtbhanjan, 150 Feet Ring Rd, near Giriraj Hospital, Rajkot, Gujarat 360005, India",https://www.google.co.kr/maps/place/Dr+Charmy's+Homoeopathic+Clinic/data=!4m5!3m4!1s0x3959cb30abeb4e41:0x7f010ad4bbffea90!8m2!3d22.2901051!4d70.7709785?authuser=0&hl=en&rclk=1,22.2901051,70.7709785
Spandan PCOS PCOD Clinic,Medical clinic,"Spandan Multi Speciality Hospital Opposite Wockhardt Hospital B/h Sadguru Tower, Nalanda Society, Rajkot, Gujarat 360005, India",https://www.google.co.kr/maps/place/Spandan+PCOS+PCOD+Clinic/data=!4m5!3m4!1s0x3959cb2672a51659:0x9839ae9d38ae4c5f!8m2!3d22.2875575!4d70.7750537?authuser=0&hl=en&rclk=1,22.2875575,70.7750537
Civil Hospital,Hospital,"26P4+6MP, Hirpara, Jasdan, Gujarat 360050, India",https://www.google.co.kr/maps/place/Civil+Hospital/data=!4m5!3m4!1s0x3958f7cdc9b1b8c7:0xc3fed17437caab5a!8m2!3d22.0355773!4d71.2067059?authuser=0&hl=en&rclk=1,22.0355773,71.2067059
Adventist Wockhardt Heart Hospital- Surat,Heart hospital,"R K Desai Marg Opposite Chowpatty, Athwalines, Athwa Gate, Surat, Gujarat 395001, India",https://www.google.co.kr/maps/place/Adventist+Wockhardt+Heart+Hospital-+Surat/data=!4m5!3m4!1s0x3be04e77150edfdb:0xdb2efc1fe1ed253d!8m2!3d21.184029!4d72.809061?authuser=0&hl=en&rclk=1,21.184029,72.809061
Cardiac Department - CIMS Hospital,Hospital,"Science City Rd, Science City, Panchamrut Bunglows II, Sola, Ahmedabad, Gujarat 380060, India",https://www.google.co.kr/maps/place/Cardiac+Department+-+CIMS+Hospital/data=!4m5!3m4!1s0x395e9cb25c9a7bf7:0x1bd4cb5880a420ad!8m2!3d23.0701933!4d72.5171741?authuser=0&hl=en&rclk=1,23.0701933,72.5171741
City Dental Hospital,Hospital,"8R3C+RRR, Prajapati Nagar, Patel Nagar, Arya Nagar, Rajkot, Gujarat 360003, India",https://www.google.co.kr/maps/place/City+Dental+Hospital/data=!4m5!3m4!1s0x3959b57a12be6221:0x2ddfcf68967a1e78!8m2!3d22.3046217!4d70.8220067?authuser=0&hl=en&rclk=1,22.3046217,70.8220067
Sanjivani Super Speciality Hospitals,Doctor,"Near, 1, Uday Park Society, Sunrise Park Road, Vastrapur, Ahmedabad, Gujarat 380015, India",https://www.google.co.kr/maps/place/Sanjivani+Super+Speciality+Hospitals/data=!4m5!3m4!1s0x395e84b7cb29c877:0xc7133af047ed5589!8m2!3d23.040212!4d72.528213?authuser=0&hl=en&rclk=1,23.040212,72.528213
Dr. Mitul Patel hospital,Hospital,"Unnamed Road, Bhatiya Society, Wankaner, Gujarat 363621, India",https://www.google.co.kr/maps/place/Dr.+Mitul+Patel+hospital/data=!4m5!3m4!1s0x395997b604541831:0xb09125ef1e4fa729!8m2!3d22.6091625!4d70.9546165?authuser=0&hl=en&rclk=1,22.6091625,70.9546165
Zydus hospital,Hospital,"2GGM+R36, Bimanagar, Ambawadi, Ahmedabad, Gujarat 380015, India",https://www.google.co.kr/maps/place/Zydus+hospital/data=!4m5!3m4!1s0x395e850a5d0f8d8b:0xe3de13e12614d74!8m2!3d23.0270379!4d72.5326422?authuser=0&hl=en&rclk=1,23.0270379,72.5326422
Apollo Hospitals Gandhinagar,Hospital,"75H3+J64, Pramukh Swami nagar, Tandalja, Vadodara, Gujarat 390012, India",https://www.google.co.kr/maps/place/Apollo+Hospitals+Gandhinagar/data=!4m5!3m4!1s0x395fc78202c63875:0xa574df39a1ad4993!8m2!3d22.2790221!4d73.1530891?authuser=0&hl=en&rclk=1,22.2790221,73.1530891
India Helth Partners,Hospital,"Sahakar Nagar Main Rd, Shri Choji Chandan Nagar, Rajkot, Gujarat 360007, India",https://www.google.co.kr/maps/place/India+Helth+Partners/data=!4m5!3m4!1s0x3959cb793b3247d5:0x2031b9124866b100!8m2!3d22.2960086!4d70.7814544?authuser=0&hl=en&rclk=1,22.2960086,70.7814544
Apollo Hospital,Hospital,"Pancholi House, Prabhat Chowk, 61, Ghatlodiya, Chanakyapuri, Ahmedabad, Gujarat 380061, India",https://www.google.co.kr/maps/place/Apollo+Hospital/data=!4m5!3m4!1s0x395e830c99ce7ca5:0xed3240fa58144f99!8m2!3d23.0686329!4d72.5434773?authuser=0&hl=en&rclk=1,23.0686329,72.5434773
Arthritis care clinic,Rheumatologist,"Gujarat Superspeciality Clinic, Aeon Complex, Above Shiv Sagar Restaurant,, Opp N, Ahmedabad, Gujarat 380009, India",https://www.google.co.kr/maps/place/Arthritis+care+clinic/data=!4m5!3m4!1s0x395e85d879c50bfb:0x841aa2aaba088f71!8m2!3d23.044824!4d72.548024?authuser=0&hl=en&rclk=1,23.044824,72.548024
Amrutaa Hospital,Hospital,"2/23, Vaniyawadi Main Rd, Gayatri Nagar, Vaniyawadi, Bhakti Nagar, Rajkot, Gujarat 360002, India",https://www.google.co.kr/maps/place/Amrutaa+Hospital/data=!4m5!3m4!1s0x3959ca73989d45dd:0x1ddb2d613c4fad2d!8m2!3d22.2771687!4d70.8045667?authuser=0&hl=en&rclk=1,22.2771687,70.8045667
Maruti Multispeciality Hospital,Hospital,"Near Dholakiya School, Upasana Park Society, Street- 3, Nana Mava, Rajkot, Gujarat 360004, India",https://www.google.co.kr/maps/place/Maruti+Multispeciality+Hospital/data=!4m5!3m4!1s0x3959cb8d4c489fa5:0x45d36e1b215c0f67!8m2!3d22.2708497!4d70.7744559?authuser=0&hl=en&rclk=1,22.2708497,70.7744559
Shapar Hospital CHC,Hospital,"5Q5G+5W4, Shapar, Gujarat 360024, India",https://www.google.co.kr/maps/place/Shapar+Hospital+CHC/data=!4m5!3m4!1s0x395835a611bfa225:0xf36093627f5744f!8m2!3d22.1578869!4d70.777329?authuser=0&hl=en&rclk=1,22.1578869,70.777329
Paresh Bhatt,Doctor,"1st Floor, Satyam Complex, Opposite Mani Nagar Railway Station, Mani Nagar, Mani Nagar, Ahmedabad, Gujarat 380008, India",https://www.google.co.kr/maps/place/Paresh+Bhatt/data=!4m5!3m4!1s0x395e85de2fca228f:0xa819afd5497bc08b!8m2!3d22.9982859!4d72.6104378?authuser=0&hl=en&rclk=1,22.9982859,72.6104378
Adani Hospitals Mundra,Private hospital,"A2/1 Samundra township old port road, near adani hospital, Gujarat 370421, India",https://www.google.co.kr/maps/place/Adani+Hospitals+Mundra/data=!4m5!3m4!1s0x14075d5452527157:0x82332f1dea9f40ad!8m2!3d22.8068224!4d69.7139223?authuser=0&hl=en&rclk=1,22.8068224,69.7139223
Esic hospital,Hospital,"Shop 2 to 4, JAY UTTAM COMPLEX, NR SITA HOSPITAL BESIDES SUB JAIL, Ring Rd, Surat, Gujarat 395002, India",https://www.google.co.kr/maps/place/Esic+hospital/data=!4m5!3m4!1s0x3be04f9388b350bb:0x22219f65d3e484b4!8m2!3d21.1804937!4d72.8269214?authuser=0&hl=en&rclk=1,21.1804937,72.8269214
WINGS IVF SPECIALTY HOSPITAL,Hospital,"Nanavati Chowk, 150 Feet Ring Road, Rajkot, Rajkot, Gujarat 360007, India",https://www.google.co.kr/maps/place/WINGS+IVF+SPECIALTY+HOSPITAL/data=!4m5!3m4!1s0x3959c983dcc5e46f:0x12fda003d89b04f2!8m2!3d22.305212!4d70.768454?authuser=0&hl=en&rclk=1,22.305212,70.768454
MARUTI MULTISPECIALITY HOSPITAL,Hospital,"Padmi Society, Mavdi, Rajkot, Gujarat 360004, India",https://www.google.co.kr/maps/place/MARUTI+MULTISPECIALITY+HOSPITAL/data=!4m5!3m4!1s0x3959cb614f4d10f1:0x9dd1e2fd0bcd93a4!8m2!3d22.2704644!4d70.7745284?authuser=0&hl=en&rclk=1,22.2704644,70.7745284
HCG Hospitals,Hospital,"Nr. Astha Avenue, HCG Hospital Road, Ayodhya Chowk, Off, 150 Feet Ring Rd, Rajkot, Gujarat 360006, India",https://www.google.co.kr/maps/place/HCG+Hospitals/data=!4m5!3m4!1s0x3959c96a6168f28d:0x7d5bb35dff684c02!8m2!3d22.319635!4d70.7736302?authuser=0&hl=en&rclk=1,22.319635,70.7736302
Apex 5D Sonography & Imaging Center,Diagnostic center,"1st floor, Apex Sonography & Imaging Center, Pratap road above janata mobile, opp. Bandhu samaj hospital, Wankaner, Gujarat 363621, India",https://www.google.co.kr/maps/place/Apex+5D+Sonography+%26+Imaging+Center/data=!4m5!3m4!1s0x395997c817c253a5:0x8004e59bd065c4c7!8m2!3d22.61015!4d70.9443429?authuser=0&hl=en&rclk=1,22.61015,70.9443429
Sarvajanik Hospital,Hospital,"SH 64, opposite ONGC Workshop, Happy Nagar, Ankleshwar, Gujarat 393001, India",https://www.google.co.kr/maps/place/Sarvajanik+Hospital/data=!4m5!3m4!1s0x3be023fdfcdbe44f:0x8c32433c9171d03a!8m2!3d21.6322481!4d72.9994109?authuser=0&hl=en&rclk=1,21.6322481,72.9994109
Het Imaging (Dr Pushkar Dabhi),Medical diagnostic imaging center,"Opp. Panchmukhi Hanumanji Temple, Jalaram Society, Atkot Ring Rd, Jasdan, Gujarat 360050, India",https://www.google.co.kr/maps/place/Het+Imaging+(Dr+Pushkar+Dabhi)/data=!4m5!3m4!1s0x3958f7861dcb7033:0x47bf5e06e1e5baa2!8m2!3d22.0323221!4d71.1991652?authuser=0&hl=en&rclk=1,22.0323221,71.1991652
Rasool Khanji Janana Hospital,Hospital,"Kasturba Rd, Naval Nagar, Sadar, Rajkot, Gujarat 360001, India",https://www.google.co.kr/maps/place/Rasool+Khanji+Janana+Hospital/data=!4m5!3m4!1s0x3959ca1278f4820b:0x33f0b4566116b33!8m2!3d22.303378!4d70.8006879?authuser=0&hl=en&rclk=1,22.303378,70.8006879
Krishna Hospital,Urologist,"1st Floor, Sidharth Complex, University Road, opp. State Bank of India, Jala Ram Nagar, Rajkot, Gujarat 360007, India",https://www.google.co.kr/maps/place/Krishna+Hospital/data=!4m5!3m4!1s0x3959ca2fc96eead9:0xee4f01103bb2d492!8m2!3d22.2893829!4d70.7737789?authuser=0&hl=en&rclk=1,22.2893829,70.7737789
Dr Maru Mahesh Pranlal,Hospital,"Moti Tanki, Sadar, Moti Tanki, below Maruti Courier, Rajkot, Gujarat 360001, India",https://www.google.co.kr/maps/place/Dr+Maru+Mahesh+Pranlal/data=!4m5!3m4!1s0x3959ca1c55555555:0xba870564a6289e91!8m2!3d22.2996286!4d70.7971296?authuser=0&hl=en&rclk=1,22.2996286,70.7971296
KD Hospital,Hospital,"Sardar Patel Ring Rd, Ahmedabad, Gujarat 382421, India",https://www.google.co.kr/maps/place/KD+Hospital/data=!4m5!3m4!1s0x395e8390ebc97b4f:0x4e01d19f2121e25c!8m2!3d23.135653!4d72.5419608?authuser=0&hl=en&rclk=1,23.135653,72.5419608
Shiv hospital,Hospital,"Shiv Hospital Rd, Padmi Society, Mavdi, Rajkot, Gujarat 360004, India",https://www.google.co.kr/maps/place/Shiv+hospital/data=!4m5!3m4!1s0x3959cbfbc58d3587:0x37d633e196ea2e12!8m2!3d22.2712434!4d70.7794491?authuser=0&hl=en&rclk=1,22.2712434,70.7794491
Health Checkup in Ahmedabad,Hospital,"2HRP+5MM, Bhadreshwar Society, Kazipur Dariyapur, Ahmedabad, Gujarat 380004, India",https://www.google.co.kr/maps/place/Health+Checkup+in+Ahmedabad/data=!4m5!3m4!1s0x395e8441e6007027:0xf04dbd04c778d398!8m2!3d23.0404726!4d72.5866592?authuser=0&hl=en&rclk=1,23.0404726,72.5866592
Bone and joint clinic,Orthopedic surgeon,"N 1003, Iscon Platinum, Sardar Patel Ring Rd, Ahmedabad, Gujarat 380058, India",https://www.google.co.kr/maps/place/Bone+and+joint+clinic/data=!4m5!3m4!1s0x395e9b078d7f91cd:0x86511a5fae47a4a!8m2!3d23.028887!4d72.4770291?authuser=0&hl=en&rclk=1,23.028887,72.4770291
GREENLIFE HOSPITAL piles fissure fistula,Proctologist,"26 New Jagnath Plot, Jagnath Plot, Rajkot, Gujarat 360001, India",https://www.google.co.kr/maps/place/GREENLIFE+HOSPITAL+piles+fissure+fistula/data=!4m5!3m4!1s0x3959ca18a208316d:0xc6e5710204990518!8m2!3d22.2953963!4d70.7879819?authuser=0&hl=en&rclk=1,22.2953963,70.7879819
GLOBAL AYURVEDA,Hospital,"Rajkot - Bhavnagar Highway,Gadhka Patiyu, Tramba (Kasturbadham, Gadhaka Rd, Rajkot, Gujarat 360020, India",https://www.google.co.kr/maps/place/GLOBAL+AYURVEDA/data=!4m5!3m4!1s0x3959b4a2cce7124f:0x9a5f6ec61d9c9d8a!8m2!3d22.241398!4d70.8976158?authuser=0&hl=en&rclk=1,22.241398,70.8976158
Bhavna Hospital,Private hospital,"Valasana Road, Idar, Gujarat 383430, India",https://www.google.co.kr/maps/place/Bhavna+Hospital/data=!4m5!3m4!1s0x395da3f73c047e51:0x6fa1ebd7eeafc9b3!8m2!3d23.8348871!4d72.9980481?authuser=0&hl=en&rclk=1,23.8348871,72.9980481
Government Hospital Recidency,Hospital,"RMVX+CJV, Virpur, Gujarat 360380, India",https://www.google.co.kr/maps/place/Government+Hospital+Recidency/data=!4m5!3m4!1s0x39583df1f7ce6e73:0x75e14a8e2ede37b2!8m2!3d21.8436177!4d70.6990583?authuser=0&hl=en&rclk=1,21.8436177,70.6990583
Government Hospital,Government hospital,"Hadmtala Road, GJ SH 322, Kolithad, Gujarat 360311, India",https://www.google.co.kr/maps/place/Government+Hospital/data=!4m5!3m4!1s0x39583063fdc7a8fd:0x5de177311f01c76d!8m2!3d22.0287467!4d70.6637961?authuser=0&hl=en&rclk=1,22.0287467,70.6637961
Dr. Sunil N. Mody,Otolaryngologist,"Modi Hospital, Dr. Radhakrishnan Road, Moti Tanki Chowk, Rajkot, Gujarat 360001, India",https://www.google.co.kr/maps/place/Dr.+Sunil+N.+Mody/data=!4m5!3m4!1s0x3959ca1278f4820b:0x55a549e4a4615304!8m2!3d22.2955029!4d70.796034?authuser=0&hl=en&rclk=1,22.2955029,70.796034
Manav Prasuti Gruh,Maternity hospital,"New York Darshan Complex, Bopal Rd, above SBI, Bopal, Ahmedabad, Gujarat 380058, India",https://www.google.co.kr/maps/place/Manav+Prasuti+Gruh/data=!4m5!3m4!1s0x395e9b9e8d1005c7:0xa25e3683270ab3ad!8m2!3d23.0323666!4d72.4695918?authuser=0&hl=en&rclk=1,23.0323666,72.4695918
Dr Surendra P Patel (Bhadra clinic - Hospital),Doctor,"Branch 1-2, Meghalay Flats, Sardar Patel Colony, Navrangpura, Navrangpura, Ahmedabad, Gujarat 380001, India",https://www.google.co.kr/maps/place/Dr+Surendra+P+Patel+(Bhadra+clinic+-+Hospital)/data=!4m5!3m4!1s0x395e84f53fffffff:0xbbca10899a4617a8!8m2!3d23.0472945!4d72.558694?authuser=0&hl=en&rclk=1,23.0472945,72.558694
Sat Kaival Hospital Pvt Ltd Unit Akanksha Hospital And Research Institute,Hospital,"HX2H+JGV, Rajodpura, Anand, Gujarat 388001, India",https://www.google.co.kr/maps/place/Sat+Kaival+Hospital+Pvt+Ltd+Unit+Akanksha+Hospital+And+Research+Institute/data=!4m5!3m4!1s0x395e4c1d0136ffb1:0xfb0351f61fcb3a74!8m2!3d22.551621!4d72.9788?authuser=0&hl=en&rclk=1,22.551621,72.9788
Janseva Hospital,Hospital,"7738+GQ3, Chhasiya, Gujarat 363520, India",https://www.google.co.kr/maps/place/Janseva+Hospital/data=!4m5!3m4!1s0x3958fe170666b4bd:0x2bd7447602ee1620!8m2!3d22.253766!4d71.2669299?authuser=0&hl=en&rclk=1,22.253766,71.2669299
Dr. Bhatt Eye Clinic & Retina Center,Hospital,"Street Number 11, Jankalyan Society, Sardarnagar, Rajkot, Gujarat 360001, India",https://www.google.co.kr/maps/place/Dr.+Bhatt+Eye+Clinic+%26+Retina+Center/data=!4m5!3m4!1s0x3959ca226203b5a3:0x39b4bd8ddc670fea!8m2!3d22.2925703!4d70.7871362?authuser=0&hl=en&rclk=1,22.2925703,70.7871362
Saradhara Orthopaedic Hospital,Orthopedic surgeon,"doctor house, Atkot Rd, Jasdan, Gujarat 360050, India",https://www.google.co.kr/maps/place/Saradhara+Orthopaedic+Hospital/data=!4m5!3m4!1s0x3958f7d2f7cd53a3:0x3f167ac3d21cf02a!8m2!3d22.0334388!4d71.2022189?authuser=0&hl=en&rclk=1,22.0334388,71.2022189
Synergy Superspeciality Hospital,Hospital,"Synergy Circle, Nr Gokulmathura Apartment,Ayodhya Chowk BRTS Stand, 150 Feet Ring Rd, Rajkot, Gujarat 360005, India",https://www.google.co.kr/maps/place/Synergy+Superspeciality+Hospital/data=!4m5!3m4!1s0x3959c99f606cc7ad:0x8352964fcfd8fc8a!8m2!3d22.3217685!4d70.7688524?authuser=0&hl=en&rclk=1,22.3217685,70.7688524
Zydus hospital,Hospital,"3G88+M8M, Panchamrut Bunglows II, Thaltej, Ahmedabad, Gujarat 380059, India",https://www.google.co.kr/maps/place/Zydus+hospital/data=!4m5!3m4!1s0x395e9db40c3932e9:0xe413aeb3b7c3e6ec!8m2!3d23.0667011!4d72.5157875?authuser=0&hl=en&rclk=1,23.0667011,72.5157875
Wokard Hospital,Hospital,"Hospital Chowk, Sadar, Rajkot, Gujarat 360001, India",https://www.google.co.kr/maps/place/Wokard+Hospital/data=!4m5!3m4!1s0x3959c9f86fcba8cb:0x5dc2eae4bea53985!8m2!3d22.3038945!4d70.8021599?authuser=0&hl=en&rclk=1,22.3038945,70.8021599
Shyam Multispeciality Hospital,Hospital,"Kailash Complex B, Kailash Bagh, 2nd Floor, Vachhera Vada Rd, Gondal, Gujarat 360311, India",https://www.google.co.kr/maps/place/Shyam+Multispeciality+Hospital/data=!4m5!3m4!1s0x39583897a5bccc19:0xad210ac18329bdb7!8m2!3d21.9617533!4d70.7979815?authuser=0&hl=en&rclk=1,21.9617533,70.7979815
Dhirubhai Famhoush Dharai,Doctor,"57RG+W69, Dharaie, Gujarat 363520, India",https://www.google.co.kr/maps/place/Dhirubhai+Famhoush+Dharai/data=!4m5!3m4!1s0x3958fea4cb5eb9f1:0x3ae3f9565bb0c746!8m2!3d22.1922802!4d71.2756149?authuser=0&hl=en&rclk=1,22.1922802,71.2756149
Jay Sidhdhanath Hospital & Prasuti gruh,Hospital,"Mahila Mandal Rd, near Haveli Chowk, Kharama, Bharvad Vado, Botad, Gujarat 364710, India",https://www.google.co.kr/maps/place/Jay+Sidhdhanath+Hospital+%26+Prasuti+gruh/data=!4m5!3m4!1s0x3958dc81bfa70dab:0xeb34898abf206d76!8m2!3d22.1725361!4d71.6657375?authuser=0&hl=en&rclk=1,22.1725361,71.6657375
Vimlaba Hospital,Hospital,"Sajjannagar Rd, Malan, Mansa, Gujarat 382845, India",https://www.google.co.kr/maps/place/Vimlaba+Hospital/data=!4m5!3m4!1s0x395c339afe0424f5:0x6ac36f3585069581!8m2!3d23.4263421!4d72.6535213?authuser=0&hl=en&rclk=1,23.4263421,72.6535213
Aurved Hospital,Hospital,"6WV2+4QX, Rajkot, Gujarat 360020, India",https://www.google.co.kr/maps/place/Aurved+Hospital/data=!4m5!3m4!1s0x3959b4a16f9e86f7:0xd44ecdcf9ee6ac24!8m2!3d22.2428625!4d70.9019936?authuser=0&hl=en&rclk=1,22.2428625,70.9019936
Harmony Superspeciality Hospital,Private hospital,"25/33 New Jagnath Main Road, near Sanjeevani Lab, Jagnath Plot, Rajkot, Gujarat 360001, India",https://www.google.co.kr/maps/place/Harmony+Superspeciality+Hospital/data=!4m5!3m4!1s0x3959ca18a6dc681f:0x1ab685d240f095c2!8m2!3d22.2946126!4d70.7884999?authuser=0&hl=en&rclk=1,22.2946126,70.7884999
Sarvajanik Hospital,Hospital,"C5FX+RM2, Chotila, Gujarat 363520, India",https://www.google.co.kr/maps/place/Sarvajanik+Hospital/data=!4m5!3m4!1s0x395907f3ede64675:0xfe5342c346db9bd!8m2!3d22.4245121!4d71.1991417?authuser=0&hl=en&rclk=1,22.4245121,71.1991417
Sarthak Hospital and ICU,Hospital,"Ambition+, 3rd floor, Rajnagar Chowk, Nana Mava Main Rd, besides flowrence hospital, Rajkot, Gujarat 360004, India",https://www.google.co.kr/maps/place/Sarthak+Hospital+and+ICU/data=!4m5!3m4!1s0x3959cb10d5426057:0xdc788706b7fbed2d!8m2!3d22.2801607!4d70.7839462?authuser=0&hl=en&rclk=1,22.2801607,70.7839462
PEARL DENTAL CLINIC,Hospital,"1st floor, pearl women's hospital, 150 feet ringroad opp. tapovan school and aastha residency, Gujarat 360004, India",https://www.google.co.kr/maps/place/PEARL+DENTAL+CLINIC/data=!4m5!3m4!1s0x3959ca8ac2b826a3:0x78aaa311ead7dfa2!8m2!3d22.2534719!4d70.7895621?authuser=0&hl=en&rclk=1,22.2534719,70.7895621
Department of Microbiology Care Institute of Medical sciences,Hospital department,"Third floor ( East building), Opp shukan mall, Science City Rd, Ahmedabad, Gujarat 380060, India",https://www.google.co.kr/maps/place/Department+of+Microbiology+Care+Institute+of+Medical+sciences/data=!4m5!3m4!1s0x395e9cb25796e5b7:0x9a0f741760788b2c!8m2!3d23.0701287!4d72.5174001?authuser=0&hl=en&rclk=1,23.0701287,72.5174001
Shashwat general & maternity hospital,Hospital,"Ambedkar Nagar Main Road 2nd Floor, Above Fanuc India, near Royal Enfield Service Center, Rajkot, Gujarat 360005, India",https://www.google.co.kr/maps/place/Shashwat+general+%26+maternity+hospital/data=!4m5!3m4!1s0x3959cba138cb864f:0xbba33277428d6a43!8m2!3d22.2731565!4d70.7579128?authuser=0&hl=en&rclk=1,22.2731565,70.7579128
Nirmal Superspeciality Hospital,Hospital,"VIP Road, Vesu, Surat, Gujarat 395007, India",https://www.google.co.kr/maps/place/Nirmal+Superspeciality+Hospital/data=!4m5!3m4!1s0x3be0520ceb16aa1d:0x104a8a4f3f69d26d!8m2!3d21.1406296!4d72.7810157?authuser=0&hl=en&rclk=1,21.1406296,72.7810157
Arham Eye Care - Best Eye Hospital in Rajkot | Eye Specialist in Rajot | Eye Surgeon in Rajkot | Eye Doctor in Rajkot | Cornea Specialist in Rajkot,Hospital,"Panchvati Main Road, Near HDFC Bank/Maruti Driving School, Near Laxminagar Chowk, Rajkot, Gujarat 360001, India",https://www.google.co.kr/maps/place/Arham+Eye+Care+-+Best+Eye+Hospital+in+Rajkot+%7C+Eye+Specialist+in+Rajot+%7C+Eye+Surgeon+in+Rajkot+%7C+Eye+Doctor+in+Rajkot+%7C+Cornea+Specialist+in+Rajkot/data=!4m5!3m4!1s0x3959ca6b2f44a86d:0x2dec50e714c66ec!8m2!3d22.2827602!4d70.7878228?authuser=0&hl=en&rclk=1,22.2827602,70.7878228
AIIMS RAJKOT (KHANDHERI),Hospital,"Unnamed Road, Gujarat 360006, India",https://www.google.co.kr/maps/place/AIIMS+RAJKOT+(KHANDHERI)/data=!4m5!3m4!1s0x3959c9f878ea9493:0x83269f7a0561a119!8m2!3d22.3679175!4d70.7467282?authuser=0&hl=en&rclk=1,22.3679175,70.7467282
Dr Jignesh rupareliya,Hospital,"Chitaliya Kuva Rd, Bajarang Nagar, Jasdan, Gujarat 360050, India",https://www.google.co.kr/maps/place/Dr+Jignesh+rupareliya/data=!4m5!3m4!1s0x3958f735f5b74b2d:0x529d27abc42d62aa!8m2!3d22.037963!4d71.203984?authuser=0&hl=en&rclk=1,22.037963,71.203984
Om Hospital,Hospital,"Bhavnagar Highway, Sardhar, near Bus Station, Rajkot, Gujarat 360025, India",https://www.google.co.kr/maps/place/Om+Hospital/data=!4m5!3m4!1s0x39584e08f17aaaab:0x19ccc2d368ce0c97!8m2!3d22.139307!4d70.988541?authuser=0&hl=en&rclk=1,22.139307,70.988541
Manoj Vithalani,Doctor,"301, Chirayu, Near Vishvakunj Cross Road, Narayan Nagar Road, P, Narayan Nagar Road, Ahmedabad, Gujarat 380007, India",https://www.google.co.kr/maps/place/Manoj+Vithalani/data=!4m5!3m4!1s0x395e8511eaeeeab5:0x3e953de53946ce6f!8m2!3d23.0069877!4d72.5656816?authuser=0&hl=en&rclk=1,23.0069877,72.5656816
Old Cancer Hospital,Hospital,"3, Raiya Rd, Janta Society, Race Course, Sadar, Rajkot, Gujarat 360001, India",https://www.google.co.kr/maps/place/Old+Cancer+Hospital/data=!4m5!3m4!1s0x3959ca21b361e0af:0x4b85bf38e2e0b5b9!8m2!3d22.298204!4d70.7863504?authuser=0&hl=en&rclk=1,22.298204,70.7863504
Railway Hospital,Hospital,"Jamnagar Rd, Doctors Quarters, Gayakwadi, Kothi Compound, Rajkot, Gujarat 360001, India",https://www.google.co.kr/maps/place/Railway+Hospital/data=!4m5!3m4!1s0x3959c9f768476515:0x9ec466fbe8c371a3!8m2!3d22.3069506!4d70.7992666?authuser=0&hl=en&rclk=1,22.3069506,70.7992666
Yashfeen Hospital,Hospital department,"XW6H+HQH, Mahavir Society, Navsari, Gujarat 396445, India",https://www.google.co.kr/maps/place/Yashfeen+Hospital/data=!4m5!3m4!1s0x3be0f7c6a77eba3b:0xe1e2a5ad2bd64d9b!8m2!3d20.961428!4d72.9294837?authuser=0&hl=en&rclk=1,20.961428,72.9294837
"CARE Children's Hospital.wankaner ,Gujarat.",Children's hospital,"Near, Prataproad road, Bandhusamaj, Wankaner, Gujarat 363621, India","https://www.google.co.kr/maps/place/CARE+Children's+Hospital.wankaner+,Gujarat./data=!4m5!3m4!1s0x395997dfaa2ba7f1:0x9e893b7bd2694d03!8m2!3d22.6098812!4d70.9456983?authuser=0&hl=en&rclk=1",22.6098812,70.9456983
Animal Hospital,Hospital,"26W5+4PV, Vajsurpara, Jasdan, Gujarat 360050, India",https://www.google.co.kr/maps/place/Animal+Hospital/data=!4m5!3m4!1s0x3958f7c5ce619081:0xa145cd3205f54080!8m2!3d22.0453533!4d71.2092828?authuser=0&hl=en&rclk=1,22.0453533,71.2092828
Sanjivani Hospital,Hospital,"15, Sunrise Park Road, Sunrise Park, Vastrapur, Ahmedabad, Gujarat 380052, India",https://www.google.co.kr/maps/place/Sanjivani+Hospital/data=!4m5!3m4!1s0x395e84b1a8e4a059:0x8e24c029de199a7a!8m2!3d23.043503!4d72.528778?authuser=0&hl=en&rclk=1,23.043503,72.528778
"Omkar Clinic,Khambhala",Doctor,"8MQG+74C, Khambhala, Gujarat 360110, India","https://www.google.co.kr/maps/place/Omkar+Clinic,Khambhala/data=!4m5!3m4!1s0x3959cf03e296854d:0x46b33b418656eca3!8m2!3d22.3381753!4d70.6752805?authuser=0&hl=en&rclk=1",22.3381753,70.6752805
Pramukh Dental Clinic - Chotila,Hospital,"near S R Mart Mall, Chotila, Gujarat 363520, India",https://www.google.co.kr/maps/place/Pramukh+Dental+Clinic+-+Chotila/data=!4m5!3m4!1s0x395907db52b3063d:0x1e298ec5c76c046a!8m2!3d22.4236261!4d71.1932765?authuser=0&hl=en&rclk=1,22.4236261,71.1932765
Dr Thakkar Nita H,Doctor,"Raiya Rd, Madhav Vatika, Sojitra Nagar, Gulab Nagar, Rajkot, Gujarat 360001, India",https://www.google.co.kr/maps/place/Dr+Thakkar+Nita+H/data=!4m5!3m4!1s0x3959ca27f44eb8bd:0x408ebba7b2d5eebe!8m2!3d22.298452!4d70.7784972?authuser=0&hl=en&rclk=1,22.298452,70.7784972
Mantal Hospital,Hospital,"M627+Q83, Ahmedabad, Gujarat 382240, India",https://www.google.co.kr/maps/place/Mantal+Hospital/data=!4m5!3m4!1s0x395ec41f8d3caaff:0x71cd7e2e09d8e94e!8m2!3d22.6518911!4d72.2133064?authuser=0&hl=en&rclk=1,22.6518911,72.2133064
Dr Satani Children Hospital,Hospital,"Municipal Society, opp. Milan Cinema, Surendranagar, Gujarat 363001, India",https://www.google.co.kr/maps/place/Dr+Satani+Children+Hospital/data=!4m5!3m4!1s0x395941b6806685bf:0x5f32e313644e682e!8m2!3d22.7236188!4d71.640973?authuser=0&hl=en&rclk=1,22.7236188,71.640973
Kidney Hospital,Hospital,"ne dehlu, near asarva mill Amarsingh Chaudhary Bridge opp. Braham Chahri, Asarwa, Ahmedabad, Gujarat 380016, India",https://www.google.co.kr/maps/place/Kidney+Hospital/data=!4m5!3m4!1s0x395e843d6f7cd1a5:0x9c7ce45f08b74a96!8m2!3d23.0407253!4d72.6002453?authuser=0&hl=en&rclk=1,23.0407253,72.6002453
Contacare Eye Hospital,Hospital,"Near White House, Opp Sharda Hospital, Majura Gate, Surat, Gujarat 395001, India",https://www.google.co.kr/maps/place/Contacare+Eye+Hospital/data=!4m5!3m4!1s0x3be04f653598c721:0x3611b9a3738e422!8m2!3d21.183808!4d72.8189441?authuser=0&hl=en&rclk=1,21.183808,72.8189441
Vrundavan Hospital,Hospital,"Bhamriya Plot, Near Bus Station, Sardhar, Gujarat 360025, India",https://www.google.co.kr/maps/place/Vrundavan+Hospital/data=!4m5!3m4!1s0x39584e08eeecec0d:0x894ba7e2733cfbb6!8m2!3d22.1387413!4d70.9883876?authuser=0&hl=en&rclk=1,22.1387413,70.9883876
Patel Hospital & Troma Centre,Hospital,"5MC6+VH5, Ramnagar, Botad, Gujarat 364710, India",https://www.google.co.kr/maps/place/Patel+Hospital+%26+Troma+Centre/data=!4m5!3m4!1s0x3958dc8134bec06f:0xf14cee68b37f6847!8m2!3d22.172127!4d71.6614779?authuser=0&hl=en&rclk=1,22.172127,71.6614779
fabsspec8 - Physical Rehabilitation & Elite Physical Fitness,Physical therapy clinic,"near, 36\101, Ashish flat ,Muncipal karmchari socity, Kishan Para, Rajkot, Gujarat 360001, India",https://www.google.co.kr/maps/place/fabsspec8+-+Physical+Rehabilitation+%26+Elite+Physical+Fitness/data=!4m5!3m4!1s0x3959cbf2c5f0742f:0x10df53b4ffd26bcf!8m2!3d22.29755!4d70.7859801?authuser=0&hl=en&rclk=1,22.29755,70.7859801
Spandan Multi Speciality Hospital,Hospital,"Opposite Wockhardt Hospital, B/h. Sadguru Tower, Nalanda Society, Rajkot, Gujarat 360005, India",https://www.google.co.kr/maps/place/Spandan+Multi+Speciality+Hospital/data=!4m5!3m4!1s0x3959ca301772e685:0x88466f3aaabc5d01!8m2!3d22.287551!4d70.775053?authuser=0&hl=en&rclk=1,22.287551,70.775053
Dr. Kapuriya Mayur,Nephrologist,"University Road, near University Main Gate, Rajkot, Gujarat 360005, India",https://www.google.co.kr/maps/place/Dr.+Kapuriya+Mayur/data=!4m5!3m4!1s0x3959cbd07573a0fb:0x8850e31d0a274238!8m2!3d22.287034!4d70.752889?authuser=0&hl=en&rclk=1,22.287034,70.752889
Modi Hospital,Hospital,"Gymkhana Road, Near, Moti Tanki Chowk, Gavliwad, Rajkot, Gujarat 360001, India",https://www.google.co.kr/maps/place/Modi+Hospital/data=!4m5!3m4!1s0x3959ca1b9411b4ef:0xa1a2dabf504ab82!8m2!3d22.2955015!4d70.7959561?authuser=0&hl=en&rclk=1,22.2955015,70.7959561
Atithi Hospital,Hospital,"Rajkot Ranchod Nagar Society, pedak road, mandir vali sheri, near shardamani high school, Near Balak Hanuman, Rajkot, Gujarat 360003, India",https://www.google.co.kr/maps/place/Atithi+Hospital/data=!4m5!3m4!1s0x3959b60754478d77:0xc281ff079ba99902!8m2!3d22.3058928!4d70.8180329?authuser=0&hl=en&rclk=1,22.3058928,70.8180329
PHC HOSPITAL SARDHAR,Hospital,"GJ SH 25, Sardhar, Gujarat 360025, India",https://www.google.co.kr/maps/place/PHC+HOSPITAL+SARDHAR/data=!4m5!3m4!1s0x39584e0a817b45ab:0x93c1f1fc08d7f05c!8m2!3d22.141489!4d70.9811487?authuser=0&hl=en&rclk=1,22.141489,70.9811487
Janana Hospital,Government hospital,"Lohana Para, Rajkot, Gujarat 360001, India",https://www.google.co.kr/maps/place/Janana+Hospital/data=!4m5!3m4!1s0x3959c9f877a11461:0xabb22e24d9d51c38!8m2!3d22.3032742!4d70.8022234?authuser=0&hl=en&rclk=1,22.3032742,70.8022234
"Civil hospital, rajula",Hospital,"Rajula Citi Tower, Tower Road, Beside, Towe, Rajula, Gujarat 365560, India","https://www.google.co.kr/maps/place/Civil+hospital,+rajula/data=!4m5!3m4!1s0x3be245bac304a929:0x72e958745900fd1e!8m2!3d21.0360441!4d71.4430817?authuser=0&hl=en&rclk=1",21.0360441,71.4430817
Datoj Hospital,Hospital,"20, Main Road, New Jagnath, New Jagnath, Rajkot, Gujarat 360001, India",https://www.google.co.kr/maps/place/Datoj+Hospital/data=!4m5!3m4!1s0x3959ca1898a860a3:0x4aafa9df5b7e5506!8m2!3d22.2943765!4d70.7878332?authuser=0&hl=en&rclk=1,22.2943765,70.7878332
Dr Sanjay L Rajput,Gastroenterologist,"3rd Floor, Akash Complex, Station Road, Maninagar, opposite Gopal Tower, Ahmedabad, Gujarat 380008, India",https://www.google.co.kr/maps/place/Dr+Sanjay+L+Rajput/data=!4m5!3m4!1s0x395e85c2ffffffff:0xad76489c690228eb!8m2!3d22.9911524!4d72.6019746?authuser=0&hl=en&rclk=1,22.9911524,72.6019746
Sitaram Hospital,Private hospital,"RG38+69F, gaytrinagar, Dhasa, Gujarat 364730, India",https://www.google.co.kr/maps/place/Sitaram+Hospital/data=!4m5!3m4!1s0x3958979e9222c853:0x2783a858a47d75aa!8m2!3d21.8030534!4d71.5159183?authuser=0&hl=en&rclk=1,21.8030534,71.5159183
Dr. Kaushal Patel - Arthroscopy and Sports Medicine,Orthopedic surgeon,"Shiv Orthopaedic Superspeciality Hospital, Mahapuja dham chowk, 150 Feet Ring Rd, beside balaji hall, Rajkot, Gujarat 360005, India",https://www.google.co.kr/maps/place/Dr.+Kaushal+Patel+-+Arthroscopy+and+Sports+Medicine/data=!4m5!3m4!1s0x3959cb565f7b7197:0xaed48ed6a30aaf1a!8m2!3d22.2713997!4d70.7795896?authuser=0&hl=en&rclk=1,22.2713997,70.7795896
Saraswati Hospital,Hospital,"GJ SH 129, Dhanera, Gujarat 385310, India",https://www.google.co.kr/maps/place/Saraswati+Hospital/data=!4m5!3m4!1s0x395cab9185b2caeb:0x207b9ac0ac3070c0!8m2!3d24.4998098!4d72.0324642?authuser=0&hl=en&rclk=1,24.4998098,72.0324642
Plexus Cardiac Care,Hospital,"2nd Floor,Shri Jalaram Gurukul Sarvjanaik Hospital Street, No 1, Panchavati Society Main Road, Sirvar Park, Kotecha Nagar, Rajkot, Gujarat 360007, India",https://www.google.co.kr/maps/place/Plexus+Cardiac+Care/data=!4m5!3m4!1s0x3959ca3c89fc75b5:0xeffc77cd9f3dd294!8m2!3d22.2865253!4d70.7833484?authuser=0&hl=en&rclk=1,22.2865253,70.7833484
OM HOSPITAL,Hospital,"22°08'21.6""N 70°59'18.4""E, India",https://www.google.co.kr/maps/place/OM+HOSPITAL/data=!4m5!3m4!1s0x39584e08f15374f9:0xd9c9ddc5939060ee!8m2!3d22.1385907!4d70.9880415?authuser=0&hl=en&rclk=1,22.1385907,70.9880415
Kamdar Spine Centre,Orthopedic surgeon,"Parevadi Chowk, Bedipara Bedipara, Rajkot, Gujarat 360003, India",https://www.google.co.kr/maps/place/Kamdar+Spine+Centre/data=!4m5!3m4!1s0x3959ca1278f4820b:0xfcd12fbd01a18e60!8m2!3d22.3067721!4d70.8104916?authuser=0&hl=en&rclk=1,22.3067721,70.8104916
Hospital for Joint Surgery (Dr. Nirbhay Shah),Hospital,"Swasthya Sadan, Kailashwadi Circle, Junction Plot, Rajkot, Gujarat 360001, India",https://www.google.co.kr/maps/place/Hospital+for+Joint+Surgery+(Dr.+Nirbhay+Shah)/data=!4m5!3m4!1s0x3959c9f86fcbaed1:0x631b05fc3be30f99!8m2!3d22.3091721!4d70.7987835?authuser=0&hl=en&rclk=1,22.3091721,70.7987835
Dr. Darshan Bhatt,Otolaryngologist,"Vertigo Center, Genesis hospital , Raiya road, near raiya chowkadi, bapa sitaram chowk, toward raiya gam, Paradise Hall Rd, Rajkot, Gujarat 360007, India",https://www.google.co.kr/maps/place/Dr.+Darshan+Bhatt/data=!4m5!3m4!1s0x3959ca1c0d8b6df5:0x5e69e1abd04c1320!8m2!3d22.3003113!4d70.7625368?authuser=0&hl=en&rclk=1,22.3003113,70.7625368
Hospital Lift Manufacturers in India | Hospital Lift Manufacturers in Gujarat | Hospital Lift Manufacturers in Vadodara,Elevator manufacturer,"422/4/D, GIDC Industrial Estate, Makarpura, Vadodara, Gujarat 390010, India",https://www.google.co.kr/maps/place/Hospital+Lift+Manufacturers+in+India+%7C+Hospital+Lift+Manufacturers+in+Gujarat+%7C+Hospital+Lift+Manufacturers+in+Vadodara/data=!4m5!3m4!1s0x395fc57fbee72fad:0xe7806ec7a5ea9f!8m2!3d22.2646552!4d73.1916402?authuser=0&hl=en&rclk=1,22.2646552,73.1916402
Shree RamKrishna Ashrama Blind Foundation For India,Hospital department,"Orbit Plaza, Chelbhai Dave Road, Dr Yagnik Rd, Vidya Nagar, Rajkot, Gujarat 360002, India",https://www.google.co.kr/maps/place/Shree+RamKrishna+Ashrama+Blind+Foundation+For+India/data=!4m5!3m4!1s0x3959cbf54e4b74e9:0x6fd99a5396a55a7c!8m2!3d22.289509!4d70.7959323?authuser=0&hl=en&rclk=1,22.289509,70.7959323
Zydus Medical College And Hospital,College,"Muvaalia, Rabdal, Gujarat 389151, India",https://www.google.co.kr/maps/place/Zydus+Medical+College+And+Hospital/data=!4m5!3m4!1s0x39611d6471766a6d:0xa577ccc23b758dce!8m2!3d22.8096818!4d74.2256579?authuser=0&hl=en&rclk=1,22.8096818,74.2256579
ZYDUS MEDICAL COLLEGE AND HOSPITAL,College,"Opp.Naheru Baug, Railway Station Road, behind Bhagini Samaj, Dahod, Gujarat 389151, India",https://www.google.co.kr/maps/place/ZYDUS+MEDICAL+COLLEGE+AND+HOSPITAL/data=!4m5!3m4!1s0x39611cfec619b6b1:0x4a9bde34ed4fba1b!8m2!3d22.8239711!4d74.2699786?authuser=0&hl=en&rclk=1,22.8239711,74.2699786
Dr Vijay Maheshwari,Ophthalmologist,"main road, near Gandhi museum, Panchnath Plot, Sadar, Rajkot, Gujarat 360001, India",https://www.google.co.kr/maps/place/Dr+Vijay+Maheshwari/data=!4m5!3m4!1s0x3959cb1f703a748d:0x662082a7e6bf360f!8m2!3d22.2976391!4d70.8012981?authuser=0&hl=en&rclk=1,22.2976391,70.8012981
Fortis Hospital,Hospital,"HPV8+27J, Mount Abu, Rajasthan 307501, India",https://www.google.co.kr/maps/place/Fortis+Hospital/data=!4m5!3m4!1s0x395d2a7c00000001:0x3f30f231c6eebae5!8m2!3d24.5925909!4d72.7156274?authuser=0&hl=en&rclk=1,24.5925909,72.7156274
Health India TPA Services Pvt.Ltd - Surat Branch,Insurance agency,"Titanium Square, 506,507,508, Hazira - Adajan Rd, Guru Ram Pavan Bhumi, Adajan Gam, Adajan, Surat, Gujarat 395009, India",https://www.google.co.kr/maps/place/Health+India+TPA+Services+Pvt.Ltd+-+Surat+Branch/data=!4m5!3m4!1s0x3be04e6a2fed4c9f:0x66869e3fdc780f1e!8m2!3d21.1898608!4d72.7955698?authuser=0&hl=en&rclk=1,21.1898608,72.7955698
Carl Zeiss India (Bangalore) Pvt.Ltd,Hospital equipment and supplies,"Shop No.138 Jasal Commercial Complex,150 Feet Ring Road, Nanavati Cir, opp. Sterling Hospital, Rajkot, Gujarat 360007, India",https://www.google.co.kr/maps/place/Carl+Zeiss+India+(Bangalore)+Pvt.Ltd/data=!4m5!3m4!1s0x3959c983c10b2f5f:0xbffb6916db357ae9!8m2!3d22.305853!4d70.7686928?authuser=0&hl=en&rclk=1,22.305853,70.7686928
"Ayurvedic College and Hospital, RK University",College,"Bhavnagar, Highway, Tramba, Gujarat 360020, India","https://www.google.co.kr/maps/place/Ayurvedic+College+and+Hospital,+RK+University/data=!4m5!3m4!1s0x3959b5c8920dee0b:0x9ab43ea294290a7d!8m2!3d22.242444!4d70.90111?authuser=0&hl=en&rclk=1",22.242444,70.90111
Fortis,Consultant,"1 2 Gf, Navkar Complex, Dhebar Road, near Syndicate Bank, Rajkot, Gujarat 360001, India",https://www.google.co.kr/maps/place/Fortis/data=!4m5!3m4!1s0x3959ca72767baa9b:0x810e4ba78b56d64e!8m2!3d22.2966169!4d70.8028622?authuser=0&hl=en&rclk=1,22.2966169,70.8028622
ZerOnes,Software company,"ZerOnes, 4th Floor , Near Anjanaben Sojitra Clinic, Kalavad Rd, opp. SatyaSai Heart hospital, Rajkot, Gujarat 360005, India",https://www.google.co.kr/maps/place/ZerOnes/data=!4m5!3m4!1s0x3959cbd2b6b17acd:0xb80933a240c260ad!8m2!3d22.278595!4d70.770121?authuser=0&hl=en&rclk=1,22.278595,70.770121
Apollo Hospital International Limited Blood Bank,Blood donation center,"GIDC Bhat, Bhat, Ahmedabad, Gujarat 382424, India",https://www.google.co.kr/maps/place/Apollo+Hospital+International+Limited+Blood+Bank/data=!4m5!3m4!1s0x395e8179f1f7d58b:0x9bb5bf67160dc482!8m2!3d23.109635!4d72.625835?authuser=0&hl=en&rclk=1,23.109635,72.625835
"SHREE TIRUPATI COURIERSERVICES C/O.DHARTI ENTER.,UNDER SHREE RAM HOSPITAL,VERAVAL MAIN ROAD .VERAVAL SHAPAR 360024",Courier service,"Veraval Main Rd, Veraval, Gujarat 360024, India","https://www.google.co.kr/maps/place/SHREE+TIRUPATI+COURIERSERVICES+C%2FO.DHARTI+ENTER.,UNDER+SHREE+RAM+HOSPITAL,VERAVAL+MAIN+ROAD+.VERAVAL+SHAPAR+360024/data=!4m5!3m4!1s0x395835a7505daeef:0xbeadaa1ff07ed828!8m2!3d22.1554339!4d70.8048205?authuser=0&hl=en&rclk=1",22.1554339,70.8048205
Hotel Surbhi,,"Hotel Surbhi, Gondal Rd, opposite H. J. Doshi Hospital, Rajkot, Gujarat 360001, India",https://www.google.co.kr/maps/place/Hotel+Surbhi/data=!4m5!3m4!1s0x3959cb1d5afba8af:0xb14ac163705423dc!8m2!3d22.2646377!4d70.7965864?authuser=0&hl=en&rclk=1,22.2646377,70.7965864
Amplifon India Pvt Ltd,Hearing aid store,"Chaudhary High School Chowk, Pandyas ENT hospital, Dr Rajendra Prasad Rd, Rajkot, Gujarat 360001, India",https://www.google.co.kr/maps/place/Amplifon+India+Pvt+Ltd/data=!4m5!3m4!1s0x3959ca1b5e490e9d:0x9507373843eefd5a!8m2!3d22.2967553!4d70.7987227?authuser=0&hl=en&rclk=1,22.2967553,70.7987227
Osana Spa,Spa,"Maruti park Chowk, sathya Sai hospital road, nr. R.M.C. office, Rajkot, Gujarat 360005, India",https://www.google.co.kr/maps/place/Osana+Spa/data=!4m5!3m4!1s0x3959cbc000000023:0xb1c4d1e107053f86!8m2!3d22.272696!4d70.740636?authuser=0&hl=en&rclk=1,22.272696,70.740636
"INKISM Tattoo , Piercing and Permanent Makeup microblading (Female / Lady Artist)",Tattoo and piercing shop,"Shop No. 15, Divyaprakash Building, Opposite Feadral Bankank, Kalavad Rd, beside State Bank Of India, Rajkot, Gujarat 360005, India","https://www.google.co.kr/maps/place/INKISM+Tattoo+,+Piercing+and+Permanent+Makeup+microblading+(Female+%2F+Lady+Artist)/data=!4m5!3m4!1s0x3959ca2f975358e1:0xeb2cda261755545f!8m2!3d22.2848986!4d70.7702301?authuser=0&hl=en&rclk=1",22.2848986,70.7702301
"Wockhardt Hospital, Nashik",Hospital,"Wani House, Mumbai - Agra National Hwy, Wadala Naka, Nashik, Maharashtra 422001, India","https://www.google.co.kr/maps/place/Wockhardt+Hospital,+Nashik/data=!4m5!3m4!1s0x3bddeb036d423f9f:0x5e9b17cbe10809ab!8m2!3d19.9915858!4d73.7904216?authuser=0&hl=en&rclk=1",19.9915858,73.7904216
"Mobil India - Mobil Bike Care, Shree Auto Service",Oil change service,"150 Ft. Ring Road, Giriraj Hospital Rd, opposite Shradha Hospital, Street, Rajkot, Gujarat 360005, India","https://www.google.co.kr/maps/place/Mobil+India+-+Mobil+Bike+Care,+Shree+Auto+Service/data=!4m5!3m4!1s0x3959cb3ecff2bd25:0xd8f457b4bad7a34d!8m2!3d22.290198!4d70.770693?authuser=0&hl=en&rclk=1",22.290198,70.770693
Panchmukhi Air & Train Ambulance Services Pvt Ltd,Ambulance service,"Anandpur, Gujarat 363520, India",https://www.google.co.kr/maps/place/Panchmukhi+Air+%26+Train+Ambulance+Services+Pvt+Ltd/data=!4m5!3m4!1s0x39585513005460b1:0x2a2df9fa9ac11ace!8m2!3d22.2240782!4d71.1657556?authuser=0&hl=en&rclk=1,22.2240782,71.1657556
Aim Medequip,Medical equipment manufacturer,"10,""Nashib"", Samrat Ind. Area, b/h kiwi pump,, Gondal Road, near ST workshop, Rajkot, Gujarat 360004, India",https://www.google.co.kr/maps/place/Aim+Medequip/data=!4m5!3m4!1s0x3959ca62f18087eb:0x2e43f41c88fc4c1b!8m2!3d22.258588!4d70.797699?authuser=0&hl=en&rclk=1,22.258588,70.797699
"Flowcet | Faucet, C.P. fittings Manufacturer in Rajkot, Gujarat India",Bathroom supply store,"Plot G/1871/2, Kishan Gate Rd, behind Shree Ram Hospital, GIDC, No.3, Metoda, 360021, India","https://www.google.co.kr/maps/place/Flowcet+%7C+Faucet,+C.P.+fittings+Manufacturer+in+Rajkot,+Gujarat+India/data=!4m5!3m4!1s0x3959cce5b28416e5:0xe563d9a60b62bf6c!8m2!3d22.226931!4d70.6778241?authuser=0&hl=en&rclk=1",22.226931,70.6778241
Mobil India - Mobil Bike Care,Oil change service,"Siddharth, Jalaram 2, University Road, opp. Suvidha Hospital, Rajkot, Gujarat 360005, India",https://www.google.co.kr/maps/place/Mobil+India+-+Mobil+Bike+Care/data=!4m5!3m4!1s0x3959cbce21086351:0xbfae00d8dc6f5969!8m2!3d22.2876452!4d70.7622956?authuser=0&hl=en&rclk=1,22.2876452,70.7622956
Rajkot D H College Sub Post Office,Post office,"D H College, Dr Yagnik Rd, Rajkot, Gujarat 360001, India",https://www.google.co.kr/maps/place/Rajkot+D+H+College+Sub+Post+Office/data=!4m5!3m4!1s0x3959ca19e69f43c5:0x4767e15c54ce82b3!8m2!3d22.2909698!4d70.7929924?authuser=0&hl=en&rclk=1,22.2909698,70.7929924
Kalyan Jewellers,Jewelry store,"The Plantina, Dr Yagnik Rd, Opp. Jagnath Temple, Rama Krishan Nagar, Rajkot, Gujarat 360002, India",https://www.google.co.kr/maps/place/Kalyan+Jewellers/data=!4m5!3m4!1s0x3959ca1754d41b9d:0x2784673d8bcb5af4!8m2!3d22.2904251!4d70.7941309?authuser=0&hl=en&rclk=1,22.2904251,70.7941309
DILIP PARMAR LIC OF INDIA gurukrupainsurance,Life insurance agency,"150 RING ROAD N/R.Sterling hospital, Rajkot, Gujarat 360007, India",https://www.google.co.kr/maps/place/DILIP+PARMAR+LIC+OF+INDIA+gurukrupainsurance/data=!4m5!3m4!1s0x3959c99c4a201993:0xd90c212a0b219d0!8m2!3d22.314531!4d70.767764?authuser=0&hl=en&rclk=1,22.314531,70.767764
India Teether Toys,Baby store,"Vaibhav Appt. Block number 11 Street Number 2, Dr Yagnik Rd, Ram Krishna Nagar, Rajkot, Gujarat 360002, India",https://www.google.co.kr/maps/place/India+Teether+Toys/data=!4m5!3m4!1s0x3959ca17557a8313:0x587dd53ac2bec882!8m2!3d22.2897014!4d70.7937497?authuser=0&hl=en&rclk=1,22.2897014,70.7937497
Levi's Exclusive Store-Rajkot,Clothing store,"Keshav Building, Dr Yagnik Rd, Opp Dhanrajni Complex, Jagnath Plot, Rajkot, Gujarat 360001, India",https://www.google.co.kr/maps/place/Levi's+Exclusive+Store-Rajkot/data=!4m5!3m4!1s0x3959ca18e1d65b11:0xff848994dd204843!8m2!3d22.2944458!4d70.7911945?authuser=0&hl=en&rclk=1,22.2944458,70.7911945
Fortis hospital,Hospital,"MQP4+G72, Vajulsar, Palghar, Maharashtra 401404, India",https://www.google.co.kr/maps/place/Fortis+hospital/data=!4m5!3m4!1s0x3be71d53558ae6bb:0x1f3b16e3728e6f9e!8m2!3d19.6862662!4d72.7556347?authuser=0&hl=en&rclk=1,19.6862662,72.7556347
INTERGRATED ENTERPRISES INDIA PVT. LTD.,Stock broker,"130/131,1st Floor, Star Chambers, Harihar Chowk, Dr Rajendra Prasad Rd, Harihar Chowk, Panchnath Plot, Sadar, Rajkot, Gujarat 360001, India",https://www.google.co.kr/maps/place/INTERGRATED+ENTERPRISES+INDIA+PVT.+LTD./data=!4m5!3m4!1s0x3959ca1b5f8b2cd9:0xcadde1e50e8864c7!8m2!3d22.2986349!4d70.7991069?authuser=0&hl=en&rclk=1,22.2986349,70.7991069
Van Heusen - Yagnik Road,Clothing store,"Shop No 1,2 & 3, Amirut Apartment Opp Rajdoot Hotel, Dr Yagnik Rd, Rajkot, Gujarat 360001, India",https://www.google.co.kr/maps/place/Van+Heusen+-+Yagnik+Road/data=!4m5!3m4!1s0x3959ca1eda29554f:0xd9b2caef4c1b5cc!8m2!3d22.296936!4d70.791161?authuser=0&hl=en&rclk=1,22.296936,70.791161
"consulting of NOC of airport railway,NHAI in all over india, architectural & interior designer & PMC",Interior designer,"street no.8/9 corner,nr.Abhishek hospital infinity restaurant street, jalaram -02, University Road, Rajkot, Gujarat 360005, India","https://www.google.co.kr/maps/place/consulting+of+NOC+of+airport+railway,NHAI+in+all+over+india,+architectural+%26+interior+designer+%26+PMC/data=!4m5!3m4!1s0x3959cb2568656e99:0x1361f2e50849aad8!8m2!3d22.2794337!4d70.7516195?authuser=0&hl=en&rclk=1",22.2794337,70.7516195
