Company_Name,Category,Address,Url,Latitude,Longitude,State
Hope Clinic,Medical clinic,"Pine Mount Ridge, Opp Pine Mount School, Barik, Opp Pine Mount School, Barik, Shillong, Meghalaya 793001, India",https://www.google.co.kr/maps/place/Hope+Clinic/data=!4m5!3m4!1s0x37507e9b3551d11b:0x6756445f7a147ef!8m2!3d25.563535!4d91.8806506?authuser=0&hl=en&rclk=1,25.563535,91.8806506,Meghalaya
Sandavella Doctor Clinic,Medical clinic,"Malki Point, East Khasi Hills, Shillong, Meghalaya 793001, India",https://www.google.co.kr/maps/place/Sandavella+Doctor+Clinic/data=!4m5!3m4!1s0x37507e9983be9e5b:0x2c1ceb9db6f596db!8m2!3d25.5651643!4d91.8859057?authuser=0&hl=en&rclk=1,25.5651643,91.8859057,Meghalaya
Child Care Clinic,Medical clinic,"HV8Q+6RR, Malki, Shillong, Meghalaya 793001, India",https://www.google.co.kr/maps/place/Child+Care+Clinic/data=!4m5!3m4!1s0x37507e986f50d575:0x55117abc16042ea6!8m2!3d25.5656207!4d91.8895016?authuser=0&hl=en&rclk=1,25.5656207,91.8895016,Meghalaya
Rapha Clinic,Medical clinic,"HWM5+4V7, Nongmynsong, Shillong, Meghalaya 793006, India",https://www.google.co.kr/maps/place/Rapha+Clinic/data=!4m5!3m4!1s0x37507ecb2c10a64d:0xe10d531ed231f51e!8m2!3d25.5827887!4d91.9096573?authuser=0&hl=en&rclk=1,25.5827887,91.9096573,Meghalaya
Memorial Clinic,Medical clinic,"near Umshyrpi College, harisava, Laban, Shillong, Meghalaya 793004, India",https://www.google.co.kr/maps/place/Memorial+Clinic/data=!4m5!3m4!1s0x37507e85748546e7:0x2080f412599f4575!8m2!3d25.5666702!4d91.8783734?authuser=0&hl=en&rclk=1,25.5666702,91.8783734,Meghalaya
Dr. Phanbuh's Clinic,Orthopedic clinic,"National Highway 44, Lachumiere, Shillong, Meghalaya 793001, India",https://www.google.co.kr/maps/place/Dr.+Phanbuh's+Clinic/data=!4m5!3m4!1s0x37507e9a3d0d7671:0xee34c766a75984e9!8m2!3d25.5666675!4d91.8848057?authuser=0&hl=en&rclk=1,25.5666675,91.8848057,Meghalaya
Physio Care Clinic,Physical therapy clinic,"Laitumkhrah Main Road, Laitumkhrah, Shillong, Meghalaya 793003, India",https://www.google.co.kr/maps/place/Physio+Care+Clinic/data=!4m5!3m4!1s0x37507ea55110469d:0x594ee63200213043!8m2!3d25.5671837!4d91.8997412?authuser=0&hl=en&rclk=1,25.5671837,91.8997412,Meghalaya
Nazareth Hospital,General hospital,"Arbuthnot Rd, near Police Point, Nongkynrih, Laitumkhrah, Shillong, Meghalaya 793003, India",https://www.google.co.kr/maps/place/Nazareth+Hospital/data=!4m5!3m4!1s0x37507eba5269ca75:0xeba93ef78cda465d!8m2!3d25.571382!4d91.8979556?authuser=0&hl=en&rclk=1,25.571382,91.8979556,Meghalaya
Dr Lakiang Clinic,Medical clinic,"HV8Q+3VQ, Malki, Shillong, Meghalaya 793001, India",https://www.google.co.kr/maps/place/Dr+Lakiang+Clinic/data=!4m5!3m4!1s0x37507e986359415d:0x1ae8b86008a66017!8m2!3d25.5652055!4d91.8897245?authuser=0&hl=en&rclk=1,25.5652055,91.8897245,Meghalaya
Nath Homeo Clinic,Medical clinic,"jhalupara,, Shillong, Meghalaya 793002, India",https://www.google.co.kr/maps/place/Nath+Homeo+Clinic/data=!4m5!3m4!1s0x37507e61e0c0794d:0x932b9f9be29897a2!8m2!3d25.5753771!4d91.8706317?authuser=0&hl=en&rclk=1,25.5753771,91.8706317,Meghalaya
Brightwell Clinic And Diagnostic Centre,Diagnostic center,"Lachumiere, Near Lady Hydari Park, Barik, Shillong, Meghalaya 793001, India",https://www.google.co.kr/maps/place/Brightwell+Clinic+And+Diagnostic+Centre/data=!4m5!3m4!1s0x37507e9ae4ffc0a3:0x3b09694732deb9bd!8m2!3d25.5654985!4d91.8823075?authuser=0&hl=en&rclk=1,25.5654985,91.8823075,Meghalaya
Kamber Medical Center,Diagnostic center,"Keating Rd, Secretariat Hills, Shillong, Meghalaya 793001, India",https://www.google.co.kr/maps/place/Kamber+Medical+Center/data=!4m5!3m4!1s0x37507e910712782b:0x895353fbc57a542e!8m2!3d25.5713918!4d91.8831979?authuser=0&hl=en&rclk=1,25.5713918,91.8831979,Meghalaya
Dr. Blah Clinic,Medical clinic,"Unnamed Road, Mawlai Mawdatbaki, Shillong, Meghalaya 793008, India",https://www.google.co.kr/maps/place/Dr.+Blah+Clinic/data=!4m5!3m4!1s0x37507f88cf9f31c3:0x7fd11c326eda339d!8m2!3d25.5945363!4d91.8889953?authuser=0&hl=en&rclk=1,25.5945363,91.8889953,Meghalaya
"Downtown Diagnotic Centre, Shillong",Medical clinic,"HVCX+WP4, Nongkynrih, Laitumkhrah, Shillong, Meghalaya 793003, India","https://www.google.co.kr/maps/place/Downtown+Diagnotic+Centre,+Shillong/data=!4m5!3m4!1s0x37507f13101129fd:0x1cbec843f75b4cae!8m2!3d25.5722599!4d91.8993181?authuser=0&hl=en&rclk=1",25.5722599,91.8993181,Meghalaya
Health Centre (NEHU),Medical clinic,"Mawlai, Umshing Mawkynroh, Shillong, Meghalaya 793022, India",https://www.google.co.kr/maps/place/Health+Centre+(NEHU)/data=!4m5!3m4!1s0x37507f2fdd7067b1:0x94c78acd9ee39047!8m2!3d25.6144176!4d91.9014184?authuser=0&hl=en&rclk=1,25.6144176,91.9014184,Meghalaya
M.M. Health Care. Dr M Malakar MD,Medical clinic,"Laitumkhrah Main Rd, Laitumkhrah, Shillong, Meghalaya 793003, India",https://www.google.co.kr/maps/place/M.M.+Health+Care.+Dr+M+Malakar+MD/data=!4m5!3m4!1s0x37507ebb18e4203f:0xcad54f51df319b30!8m2!3d25.5693514!4d91.8973121?authuser=0&hl=en&rclk=1,25.5693514,91.8973121,Meghalaya
Dr. Basaiawmoit Clinic,Medical clinic,"Jaiaw, Shillong, Meghalaya 793002, India",https://www.google.co.kr/maps/place/Dr.+Basaiawmoit+Clinic/data=!4m5!3m4!1s0x37507ef44189bb67:0xfa31d5e88736c1fb!8m2!3d25.5839242!4d91.8744205?authuser=0&hl=en&rclk=1,25.5839242,91.8744205,Meghalaya
Medicus,Medical clinic,"Howell Rd, Near Shiv Mandir, Laban, Shillong, Meghalaya 793004, India",https://www.google.co.kr/maps/place/Medicus/data=!4m5!3m4!1s0x37507e844b5a143b:0x2cb54a4d50c4b719!8m2!3d25.5649629!4d91.8772448?authuser=0&hl=en&rclk=1,25.5649629,91.8772448,Meghalaya
Mawlai Nongkwar Urban Health Centre,Medical clinic,"GS Rd, Mawlai Nongkwar, Shillong, Meghalaya 793017, India",https://www.google.co.kr/maps/place/Mawlai+Nongkwar+Urban+Health+Centre/data=!4m5!3m4!1s0x37507ef869225269:0x3e535b8ae7650b8a!8m2!3d25.5937734!4d91.8719099?authuser=0&hl=en&rclk=1,25.5937734,91.8719099,Meghalaya
Clinic Dr R.H Pariat,Medical clinic,"Unnamed Road, Malki, Shillong, Meghalaya 793001, India",https://www.google.co.kr/maps/place/Clinic+Dr+R.H+Pariat/data=!4m5!3m4!1s0x37507facb7babe69:0x244a912066d97259!8m2!3d25.5653936!4d91.8895443?authuser=0&hl=en&rclk=1,25.5653936,91.8895443,Meghalaya
Elite Physiotherapy Clinic,Physical therapy clinic,"Laitumkhrah Main Rd, Nongkynrih, Laitumkhrah, Shillong, Meghalaya 793003, India",https://www.google.co.kr/maps/place/Elite+Physiotherapy+Clinic/data=!4m5!3m4!1s0x37507ebabe54902b:0x45b30e8261f02fb1!8m2!3d25.5688801!4d91.8988987?authuser=0&hl=en&rclk=1,25.5688801,91.8988987,Meghalaya
BM HEALTHCARE,Doctor,"Fire Brigade, Jowai Rd, Nongthymmai, Shillong, Meghalaya 793007, India",https://www.google.co.kr/maps/place/BM+HEALTHCARE/data=!4m5!3m4!1s0x37507fdc816571f7:0x387686f1ff314ba7!8m2!3d25.5656368!4d91.8996772?authuser=0&hl=en&rclk=1,25.5656368,91.8996772,Meghalaya
D M Clinic And Diagnostic Centre,Medical clinic,"Road, near Community Hall, Umsohsun, Police Bazar, Shillong, Meghalaya 793001, India",https://www.google.co.kr/maps/place/D+M+Clinic+And+Diagnostic+Centre/data=!4m5!3m4!1s0x37507e8d6b92aeb3:0x6377f1a80915efe3!8m2!3d25.5779785!4d91.8796307?authuser=0&hl=en&rclk=1,25.5779785,91.8796307,Meghalaya
Doctors Clinic,Medical clinic,"Kamrup Metropolitan, NH-40, Guwahati Shillong Road, Byrnihat, Byrnihat, Meghalaya 793101, India",https://www.google.co.kr/maps/place/Doctors+Clinic/data=!4m5!3m4!1s0x375af5272ec27027:0x2a3f0e6323da7d91!8m2!3d26.0466114!4d91.8687784?authuser=0&hl=en&rclk=1,26.0466114,91.8687784,Meghalaya
Healing Grace Clinic,Medical clinic,"HVPG+HRJ, Jaiaw, Shillong, Meghalaya 793002, India",https://www.google.co.kr/maps/place/Healing+Grace+Clinic/data=!4m5!3m4!1s0x37507ef167e19a45:0x968dea966555a862!8m2!3d25.5864629!4d91.8770229?authuser=0&hl=en&rclk=1,25.5864629,91.8770229,Meghalaya
"O & G Clinic, Dr Shailinia Syiem",Medical clinic,"Unnamed Road, Mawlai Mawdatbaki, Shillong, Meghalaya 793017, India","https://www.google.co.kr/maps/place/O+%26+G+Clinic,+Dr+Shailinia+Syiem/data=!4m5!3m4!1s0x37507efaea3178b5:0x365f599f97fd83ed!8m2!3d25.5934661!4d91.8792766?authuser=0&hl=en&rclk=1",25.5934661,91.8792766,Meghalaya
Healthcare Clinic,Doctor,"HVMF+JQH, Jaiaw, Shillong, Meghalaya 793002, India",https://www.google.co.kr/maps/place/Healthcare+Clinic/data=!4m5!3m4!1s0x37507ef441ce5f1d:0xdc0c78030fb0b2c4!8m2!3d25.5840703!4d91.8744748?authuser=0&hl=en&rclk=1,25.5840703,91.8744748,Meghalaya
Khliehriat CHC,Medical clinic,"9959+W7X, KhliehriƒÅt, Meghalaya 793200, India",https://www.google.co.kr/maps/place/Khliehriat+CHC/data=!4m5!3m4!1s0x37501b5220d629fd:0x1e1b27cac04beab2!8m2!3d25.3598562!4d92.3682353?authuser=0&hl=en&rclk=1,25.3598562,92.3682353,Meghalaya
Woodland Hospital,General hospital,"Dhankheti, Malki, Shillong, Meghalaya 793003, India",https://www.google.co.kr/maps/place/Woodland+Hospital/data=!4m5!3m4!1s0x37507e986d90fc4d:0xfe2d6844b18b0384!8m2!3d25.5662852!4d91.8898463?authuser=0&hl=en&rclk=1,25.5662852,91.8898463,Meghalaya
Supercare Hospital,General hospital,"Near Transport Office Law-U-Sib Road & Holy Child Road Near Meghalaya Transport Commissioner Office, Sawlad, Demthring, Shillong, Meghalaya 793021, India",https://www.google.co.kr/maps/place/Supercare+Hospital/data=!4m5!3m4!1s0x37507954709f871d:0x599b39213acda98e!8m2!3d25.5609771!4d91.9113066?authuser=0&hl=en&rclk=1,25.5609771,91.9113066,Meghalaya
Hygieia health care,Medical clinic,"Nongkynrih, Laitumkhrah, Shillong, Meghalaya 793003, India",https://www.google.co.kr/maps/place/Hygieia+health+care/data=!4m5!3m4!1s0x37507f7d8def486d:0x2a830aedfcac88d8!8m2!3d25.5707736!4d91.8970989?authuser=0&hl=en&rclk=1,25.5707736,91.8970989,Meghalaya
Ramakrishna Mission Charitable Dispensary,Government hospital,"Near Police Station, Laitumkhrah Main Road, Shillong, Meghalaya 793003, India",https://www.google.co.kr/maps/place/Ramakrishna+Mission+Charitable+Dispensary/data=!4m5!3m4!1s0x37507ea554d1ce6d:0xc126127f11b5a4a8!8m2!3d25.5677145!4d91.9000091?authuser=0&hl=en&rclk=1,25.5677145,91.9000091,Meghalaya
JODA EL CLINIC,Medical group,"ladthadlaboh, opposite ladthadlaboh club, Jowai, Meghalaya 793150, India",https://www.google.co.kr/maps/place/JODA+EL+CLINIC/data=!4m5!3m4!1s0x375013d0cdef388b:0x3ee14f5840568e4!8m2!3d25.4503735!4d92.1987756?authuser=0&hl=en&rclk=1,25.4503735,92.1987756,Meghalaya
Dr. B. R. Medhi (Private Clinic),Doctor,"Unnamed Road, Nongrimbah, Shillong, Meghalaya 793014, India",https://www.google.co.kr/maps/place/Dr.+B.+R.+Medhi+(Private+Clinic)/data=!4m5!3m4!1s0x37507fe94a3a4ad5:0x1548d2c21157f69d!8m2!3d25.5653178!4d91.9008992?authuser=0&hl=en&rclk=1,25.5653178,91.9008992,Meghalaya
Healing Touch & Ferticare Clinic,Medical clinic,"Lama Villa, opp. Community hall, Garikhana, Shillong, Meghalaya 793002, India",https://www.google.co.kr/maps/place/Healing+Touch+%26+Ferticare+Clinic/data=!4m5!3m4!1s0x37507e60ffffffff:0xbfdb1033c864f632!8m2!3d25.5769639!4d91.868421?authuser=0&hl=en&rclk=1,25.5769639,91.868421,Meghalaya
physiocare clinic,Doctor,"HWM5+5Q6, Nongmynsong, Shillong, Meghalaya 793006, India",https://www.google.co.kr/maps/place/physiocare+clinic/data=!4m5!3m4!1s0x37507ecb2f0a5e05:0x5104b1ba228be537!8m2!3d25.5829051!4d91.9094002?authuser=0&hl=en&rclk=1,25.5829051,91.9094002,Meghalaya
Na Rympei Clinic,Doctor,"HJ6M+PXP, Mairang, Meghalaya 793120, India",https://www.google.co.kr/maps/place/Na+Rympei+Clinic/data=!4m5!3m4!1s0x37509c7faae2acdf:0x677fadb91cee3e44!8m2!3d25.5618482!4d91.6349378?authuser=0&hl=en&rclk=1,25.5618482,91.6349378,Meghalaya
Dr Mawlong's Clinic,Medical clinic,"JVCJ+6MX, Mawlai-Maw√Øong, Meghalaya 793022, India",https://www.google.co.kr/maps/place/Dr+Mawlong's+Clinic/data=!4m5!3m4!1s0x37507fe30f560379:0xf1a8326bd87c8455!8m2!3d25.620611!4d91.8817359?authuser=0&hl=en&rclk=1,25.620611,91.8817359,Meghalaya
Nongpoh Civil Hospital,Hospital,"GS Rd, Nongpoh, Meghalaya 793102, India",https://www.google.co.kr/maps/place/Nongpoh+Civil+Hospital/data=!4m5!3m4!1s0x375a890c956e8dc3:0x89ae90f48da22a19!8m2!3d25.9095178!4d91.8768597?authuser=0&hl=en&rclk=1,25.9095178,91.8768597,Meghalaya
Dr.A.K.Kynjing clinic,Doctor,"Nongrimbah, Shillong, Meghalaya 793014, India",https://www.google.co.kr/maps/place/Dr.A.K.Kynjing+clinic/data=!4m5!3m4!1s0x37507f0e7e732af5:0x52ed7d920379c1e7!8m2!3d25.5610189!4d91.9067448?authuser=0&hl=en&rclk=1,25.5610189,91.9067448,Meghalaya
Dr. Bernard T. Lyngdoh's Nuro & Spine Clinic,Neurologist,"HW55+44C, Demthring, Shillong, Meghalaya 793014, India",https://www.google.co.kr/maps/place/Dr.+Bernard+T.+Lyngdoh's+Nuro+%26+Spine+Clinic/data=!4m5!3m4!1s0x37507f2068220f0f:0x2e2de1ca7100d197!8m2!3d25.5578034!4d91.9077523?authuser=0&hl=en&rclk=1,25.5578034,91.9077523,Meghalaya
Dr. Lyngdoh Clinic,Doctor,"9J66+RR7, Weiloi, Meghalaya 793121, India",https://www.google.co.kr/maps/place/Dr.+Lyngdoh+Clinic/data=!4m5!3m4!1s0x375093e967fcad13:0x61c381236fb2b5a7!8m2!3d25.3620369!4d91.6120525?authuser=0&hl=en&rclk=1,25.3620369,91.6120525,Meghalaya
Health Care Centre,Medical clinic,"National Highway 40, Sawmer, Meghalaya 793005, India",https://www.google.co.kr/maps/place/Health+Care+Centre/data=!4m5!3m4!1s0x37507e73770f1963:0x9eb1eb1cdbe94f7f!8m2!3d25.5632232!4d91.8536049?authuser=0&hl=en&rclk=1,25.5632232,91.8536049,Meghalaya
Magreeta Medico,Medical clinic,"HVWP+C42, Mawlai Mawdatbaki, Shillong, Meghalaya 793017, India",https://www.google.co.kr/maps/place/Magreeta+Medico/data=!4m5!3m4!1s0x37507ee41f5dbea3:0xd4dc55b6f5cdba97!8m2!3d25.596014!4d91.8852711?authuser=0&hl=en&rclk=1,25.596014,91.8852711,Meghalaya
Florence Clinic,Doctor,"Winola Lane, Salaroh, Jowai, Meghalaya 793150, India",https://www.google.co.kr/maps/place/Florence+Clinic/data=!4m5!3m4!1s0x375012726fbbca67:0x4c65736a65d58ce6!8m2!3d25.4459637!4d92.2008152?authuser=0&hl=en&rclk=1,25.4459637,92.2008152,Meghalaya
Mind And Wellness Clinic,Medical clinic,"1st floor, Marketview complex, near SBI Laitumkhrah Branch, Shillong, Meghalaya 793003, India",https://www.google.co.kr/maps/place/Mind+And+Wellness+Clinic/data=!4m5!3m4!1s0x37507eba55555555:0x27b8f95509c81584!8m2!3d25.5706702!4d91.8977131?authuser=0&hl=en&rclk=1,25.5706702,91.8977131,Meghalaya
Mawkyrat CHC,Medical clinic,"87G2+C55, Ngunraw, Meghalaya 793114, India",https://www.google.co.kr/maps/place/Mawkyrat+CHC/data=!4m5!3m4!1s0x3750b4ffffba4a87:0xac16ffec8a4ac764!8m2!3d25.3260134!4d91.2504963?authuser=0&hl=en&rclk=1,25.3260134,91.2504963,Meghalaya
Arisa's Clinic,Doctor,"Unnamed Road, Lachumiere, Shillong, Meghalaya 793001, India",https://www.google.co.kr/maps/place/Arisa's+Clinic/data=!4m5!3m4!1s0x37507f6eb380b7bb:0xb00bf235bb5575b7!8m2!3d25.5679565!4d91.8848023?authuser=0&hl=en&rclk=1,25.5679565,91.8848023,Meghalaya
Umyiap Health Sub Centre,Medical clinic,"G85J+X52, Meghalaya 793119, India",https://www.google.co.kr/maps/place/Umyiap+Health+Sub+Centre/data=!4m5!3m4!1s0x3750afab9bfa61ad:0xcbfec56160e96fee!8m2!3d25.5098784!4d91.330381?authuser=0&hl=en&rclk=1,25.5098784,91.330381,Meghalaya
CHGS Wellness Centre 2,Hospital,"HVCP+VPF, Secretariat Hills, Shillong, Meghalaya 793001, India",https://www.google.co.kr/maps/place/CHGS+Wellness+Centre+2/data=!4m5!3m4!1s0x37507f8c43d67b79:0xfe2d511aa8b02295!8m2!3d25.5721819!4d91.8867915?authuser=0&hl=en&rclk=1,25.5721819,91.8867915,Meghalaya
Physiotherapy Clinic,Physical therapy clinic,"Lower Lachumiere, Baaik Point, Shillong, Meghalaya 793001, India",https://www.google.co.kr/maps/place/Physiotherapy+Clinic/data=!4m5!3m4!1s0x37507e9a6ddf984b:0x8eb2caeb5c683a78!8m2!3d25.5670458!4d91.8839842?authuser=0&hl=en&rclk=1,25.5670458,91.8839842,Meghalaya
Mawphlang CHC,Hospital,"FQ33+8Q3, MawphlƒÅng, Synrang Kaban, Meghalaya 793121, India",https://www.google.co.kr/maps/place/Mawphlang+CHC/data=!4m5!3m4!1s0x375088ad30197e19:0xf825c12cf0f8f3e9!8m2!3d25.45327!4d91.754433?authuser=0&hl=en&rclk=1,25.45327,91.754433,Meghalaya
Laban State Dispensary,Medical clinic,"Laban, Shillong, Meghalaya 793004, India",https://www.google.co.kr/maps/place/Laban+State+Dispensary/data=!4m5!3m4!1s0x37507e843591838b:0x3f397065019066bd!8m2!3d25.5647868!4d91.8769244?authuser=0&hl=en&rclk=1,25.5647868,91.8769244,Meghalaya
Wann's Physiocare Physiotherapy Clinic,Physical therapy clinic,"Riatsohkhlur, Nongkseh Rd, Upper Shillong, Shillong, Meghalaya 793005, India",https://www.google.co.kr/maps/place/Wann's+Physiocare+Physiotherapy+Clinic/data=!4m5!3m4!1s0x37507f4ee8032e83:0x21790bc47a6e708f!8m2!3d25.568249!4d91.8584638?authuser=0&hl=en&rclk=1,25.568249,91.8584638,Meghalaya
Dr. Paul Clinic,Medical clinic,"G688+22M, Tura, Meghalaya 794001, India",https://www.google.co.kr/maps/place/Dr.+Paul+Clinic/data=!4m5!3m4!1s0x3757f19cacbb77f9:0x223984e1fe676b70!8m2!3d25.5150846!4d90.2150347?authuser=0&hl=en&rclk=1,25.5150846,90.2150347,Meghalaya
Ganesh Das Hospital,Hospital,"Polo hills, Lawmali Rd, Golf Links, Shillong, Meghalaya 793001, India",https://www.google.co.kr/maps/place/Ganesh+Das+Hospital/data=!4m5!3m4!1s0x37507eec1351104d:0x9073fa1b4ad27a48!8m2!3d25.5837298!4d91.8844084?authuser=0&hl=en&rclk=1,25.5837298,91.8844084,Meghalaya
Dr B Lyngdoh Clinic,Hospital,"NH6, Nongrimbah, Shillong, Meghalaya 793014, India",https://www.google.co.kr/maps/place/Dr+B+Lyngdoh+Clinic/data=!4m5!3m4!1s0x37507eac0461797f:0xdea746809b3bcfff!8m2!3d25.5622345!4d91.9054034?authuser=0&hl=en&rclk=1,25.5622345,91.9054034,Meghalaya
MedCare Obs & Gynae Speciality Clinic,Obstetrician-gynecologist,"123, Laitumkhrah Point Towards New Colony, Nongkynrih, Laitumkhrah, Shillong, Meghalaya 793003, India",https://www.google.co.kr/maps/place/MedCare+Obs+%26+Gynae+Speciality+Clinic/data=!4m5!3m4!1s0x37507ebbc8bc2c9d:0x53d649fa0d0b0fb5!8m2!3d25.5724465!4d91.8971586?authuser=0&hl=en&rclk=1,25.5724465,91.8971586,Meghalaya
Jordan Poly clinic,Hospital,"NH6, Lad Rymbai, Meghalaya 793160, India",https://www.google.co.kr/maps/place/Jordan+Poly+clinic/data=!4m5!3m4!1s0x37501bec3dcd8533:0xfebbf08335fe74ea!8m2!3d25.3682048!4d92.3355446?authuser=0&hl=en&rclk=1,25.3682048,92.3355446,Meghalaya
Doctor's Clinic,Doctor,"7PMF+Q29, Pdengshnong, Cherrapunji, Meghalaya 793108, India",https://www.google.co.kr/maps/place/Doctor's+Clinic/data=!4m5!3m4!1s0x37508cd067881c4d:0xc027aff8e5f7d4d6!8m2!3d25.2844029!4d91.7226109?authuser=0&hl=en&rclk=1,25.2844029,91.7226109,Meghalaya
Dr Chulet Home Clinic,Medical clinic,"F9H3+759, Shangpung, Meghalaya 793150, India",https://www.google.co.kr/maps/place/Dr+Chulet+Home+Clinic/data=!4m5!3m4!1s0x375004c2a02174bf:0x6fceb478e36019d1!8m2!3d25.4781688!4d92.3529712?authuser=0&hl=en&rclk=1,25.4781688,92.3529712,Meghalaya
Directorate of Health Services,General hospital,"Health Complex, Red Hill Rd, Laitumkhrah, Shillong, Meghalaya 793003, India",https://www.google.co.kr/maps/place/Directorate+of+Health+Services/data=!4m5!3m4!1s0x37507eec44843553:0x9862791cf34eb312!8m2!3d25.5831176!4d91.8834776?authuser=0&hl=en&rclk=1,25.5831176,91.8834776,Meghalaya
THE ENT CLINIC,Otolaryngology clinic,"Bareh Building, First Floor, Dhankheti, Road, Malki, Shillong, Meghalaya 703001, India",https://www.google.co.kr/maps/place/THE+ENT+CLINIC/data=!4m5!3m4!1s0x37507f84ebbfcab9:0xcc7640dbf899a5d3!8m2!3d25.5660532!4d91.8877129?authuser=0&hl=en&rclk=1,25.5660532,91.8877129,Meghalaya
Homoeopathy Hospital,Government hospital,"HWWX+927, Mawdiangdiang, Meghalaya 793018, India",https://www.google.co.kr/maps/place/Homoeopathy+Hospital/data=!4m5!3m4!1s0x3750790739e262c9:0xfb369166f5ab4f04!8m2!3d25.5959088!4d91.9475412?authuser=0&hl=en&rclk=1,25.5959088,91.9475412,Meghalaya
Dr. H. Gordon Roberts Hospital,Hospital,"Jaiaw, Shillong, Meghalaya 793002, India",https://www.google.co.kr/maps/place/Dr.+H.+Gordon+Roberts+Hospital/data=!4m5!3m4!1s0x37507ef4102a218b:0x835074c08232690!8m2!3d25.5848335!4d91.8752718?authuser=0&hl=en&rclk=1,25.5848335,91.8752718,Meghalaya
R P Chest Hospital Compound,Hospital,"HVG8+Q9C, Garikhana, Shillong, Meghalaya 793002, India",https://www.google.co.kr/maps/place/R+P+Chest+Hospital+Compound/data=!4m5!3m4!1s0x37507e66d56ea999:0x163fa41fa6bcb594!8m2!3d25.5769273!4d91.8658841?authuser=0&hl=en&rclk=1,25.5769273,91.8658841,Meghalaya
Dr E.S Lakiang Homoeopathy Clinic,Doctor,"Nongkseh, Shillong, Meghalaya 793002, India",https://www.google.co.kr/maps/place/Dr+E.S+Lakiang+Homoeopathy+Clinic/data=!4m5!3m4!1s0x37507f53e4171e53:0xfe7f198aebaf96fb!8m2!3d25.570772!4d91.8549335?authuser=0&hl=en&rclk=1,25.570772,91.8549335,Meghalaya
T.B. Hospital,Hospital,"K.A. Road, Lower Wadanang, DBC Road, Tura, Meghalaya, India",https://www.google.co.kr/maps/place/T.B.+Hospital/data=!4m5!3m4!1s0x3757f178054f8231:0x7d00cd9974ea2128!8m2!3d25.5213091!4d90.2159451?authuser=0&hl=en&rclk=1,25.5213091,90.2159451,Meghalaya
Healventure Clinic,Medical clinic,"Tura - Garobadha Rd, Araimile, Tura, Meghalaya 794101, India",https://www.google.co.kr/maps/place/Healventure+Clinic/data=!4m5!3m4!1s0x3757f122188eb10b:0xce87af6f0717c56c!8m2!3d25.5101419!4d90.1954186?authuser=0&hl=en&rclk=1,25.5101419,90.1954186,Meghalaya
kyrdem p.h.c,Hospital,"Mawlasnai-Nartiang Road, Meghalaya 793103, India",https://www.google.co.kr/maps/place/kyrdem+p.h.c/data=!4m5!3m4!1s0x375a9fc5798098a3:0x41ac8d6a838b474b!8m2!3d25.6938137!4d92.0721104?authuser=0&hl=en&rclk=1,25.6938137,92.0721104,Meghalaya
Manda Clinic,Genealogist,"HW82+49C, Nongrimbah, Shillong, Meghalaya 793014, India",https://www.google.co.kr/maps/place/Manda+Clinic/data=!4m5!3m4!1s0x37507eafc7390447:0x4495d87eb1285cb7!8m2!3d25.5653011!4d91.9008933?authuser=0&hl=en&rclk=1,25.5653011,91.9008933,Meghalaya
Rev. GH Robert Clinic,Doctor,"Mission Compnd. Mawphla, Meghalaya 793121, India",https://www.google.co.kr/maps/place/Rev.+GH+Robert+Clinic/data=!4m5!3m4!1s0x375088ac7ac17501:0xcdcb73a260c02643!8m2!3d25.456316!4d91.7568332?authuser=0&hl=en&rclk=1,25.456316,91.7568332,Meghalaya
Civil Hospital Shillong,Hospital,"HVFV+755, Laitumkhrah, Shillong, Meghalaya 793003, India",https://www.google.co.kr/maps/place/Civil+Hospital+Shillong/data=!4m5!3m4!1s0x37507febfe66d515:0x8a76aaaef075d429!8m2!3d25.5731355!4d91.8929979?authuser=0&hl=en&rclk=1,25.5731355,91.8929979,Meghalaya
The Childrens' Hospital,Children's hospital,"Near St John White Hall School, Pohkseh, Shillong, Meghalaya 793014, India",https://www.google.co.kr/maps/place/The+Childrens'+Hospital/data=!4m5!3m4!1s0x37507952ea848dd9:0x2d30adafd45eecb5!8m2!3d25.5658307!4d91.9111941?authuser=0&hl=en&rclk=1,25.5658307,91.9111941,Meghalaya
Makarios Medical Center/ Dr M. Syiem,Hospital,"Mairang-Shillong Rd, Mairang, Meghalaya 793120, India",https://www.google.co.kr/maps/place/Makarios+Medical+Center%2F+Dr+M.+Syiem/data=!4m5!3m4!1s0x37509c81976a93d7:0x4440a3a21307b1d7!8m2!3d25.5609992!4d91.6418955?authuser=0&hl=en&rclk=1,25.5609992,91.6418955,Meghalaya
Misson Hospital,Hospital,"Upper Chandmari Rd, AB Mission Compound, Tura, Meghalaya 794001, India",https://www.google.co.kr/maps/place/Misson+Hospital/data=!4m5!3m4!1s0x3757f181752cd0a7:0xab2bb396223d08cb!8m2!3d25.5185016!4d90.2187626?authuser=0&hl=en&rclk=1,25.5185016,90.2187626,Meghalaya
Neigrihms Hospital,Hospital,"MDR32, Nongmynsong, Shillong, Meghalaya 793019, India",https://www.google.co.kr/maps/place/Neigrihms+Hospital/data=!4m5!3m4!1s0x375079b725f753fd:0xe55b6a140bdbebc3!8m2!3d25.5880057!4d91.9135255?authuser=0&hl=en&rclk=1,25.5880057,91.9135255,Meghalaya
Dr. Kharbhih Clinic,Doctor,"Weiloi, Meghalaya 793121, India",https://www.google.co.kr/maps/place/Dr.+Kharbhih+Clinic/data=!4m5!3m4!1s0x375093c9368b080b:0x6a9a5bdec56c2c3a!8m2!3d25.3623123!4d91.6137836?authuser=0&hl=en&rclk=1,25.3623123,91.6137836,Meghalaya
"Bethany Hospital, Shillong",Private hospital,"Nongrim hills, Shillong, Meghalaya, India","https://www.google.co.kr/maps/place/Bethany+Hospital,+Shillong/data=!4m5!3m4!1s0x37507eaf94a95f0f:0x34676a1af4509000!8m2!3d25.5661639!4d91.9010857?authuser=0&hl=en&rclk=1",25.5661639,91.9010857,Meghalaya
HEALING TOUCH CLINIC,Doctor,"opp. LAMA VILLA COMMUNITY HALL (LAMA VILLA, Lower Mawprem, Garikhana, Shillong, Meghalaya 2, India",https://www.google.co.kr/maps/place/HEALING+TOUCH+CLINIC/data=!4m5!3m4!1s0x37507f63c95df405:0xc84c5194586d1f95!8m2!3d25.5799088!4d91.8728601?authuser=0&hl=en&rclk=1,25.5799088,91.8728601,Meghalaya
Stay Fit Clinic,Hospital,"Mission Road, Mairang, Meghalaya 793120, India",https://www.google.co.kr/maps/place/Stay+Fit+Clinic/data=!4m5!3m4!1s0x37509c822a1b6cb9:0xb81c1ed3bb398523!8m2!3d25.5615654!4d91.642114?authuser=0&hl=en&rclk=1,25.5615654,91.642114,Meghalaya
Nongstoi√± Civil Hospital,Hospital,"H64H+GF5, NH44E, Nongstoin, Meghalaya 793119, India",https://www.google.co.kr/maps/place/Nongstoi%C3%B1+Civil+Hospital/data=!4m5!3m4!1s0x3750aca22def53d3:0x862fe772b0d3e5ea!8m2!3d25.5565005!4d91.2291079?authuser=0&hl=en&rclk=1,25.5565005,91.2291079,Meghalaya
Bethany Hospital,Hospital,"NSCA Mini Stadium, NH 40, Nongpoh, Meghalaya 793102, India",https://www.google.co.kr/maps/place/Bethany+Hospital/data=!4m5!3m4!1s0x375a890f42555555:0xe212deeb08cf9f88!8m2!3d25.9002117!4d91.8779453?authuser=0&hl=en&rclk=1,25.9002117,91.8779453,Meghalaya
Bethany Hospital,Medical Center,"2VV8+GVW, Byrnihat, Meghalaya 793101, India",https://www.google.co.kr/maps/place/Bethany+Hospital/data=!4m5!3m4!1s0x375af52660a0cec1:0x2859023ff4605844!8m2!3d26.0438611!4d91.8671947?authuser=0&hl=en&rclk=1,26.0438611,91.8671947,Meghalaya
ICAR Hospital,Hospital,"MWH5+HQ9, Sumer Village, Meghalaya 793122, India",https://www.google.co.kr/maps/place/ICAR+Hospital/data=!4m5!3m4!1s0x375a8158cc52282d:0xe3d3bd6ab60605b3!8m2!3d25.6789098!4d91.9094985?authuser=0&hl=en&rclk=1,25.6789098,91.9094985,Meghalaya
TB Hospital,Hospital,"Nongstoin, Tb hospital, India",https://www.google.co.kr/maps/place/TB+Hospital/data=!4m5!3m4!1s0x3750adc9479a6e3b:0xf8a3e2bb715be6cf!8m2!3d25.5078894!4d91.2739437?authuser=0&hl=en&rclk=1,25.5078894,91.2739437,Meghalaya
"TB HOSPITAL,SHILLONG",Hospital,"TB Hospital, Shillong, Meghalaya 793012, India","https://www.google.co.kr/maps/place/TB+HOSPITAL,SHILLONG/data=!4m5!3m4!1s0x375079cd05875a71:0xdbad4b77be10c4e9!8m2!3d25.608079!4d91.9425242?authuser=0&hl=en&rclk=1",25.608079,91.9425242,Meghalaya
CGHS Dispensary,Hospital,"793003, Nongkynrih, Laitumkhrah, Shillong, Meghalaya 793003, India",https://www.google.co.kr/maps/place/CGHS+Dispensary/data=!4m5!3m4!1s0x37507ebb85ac56fb:0xdfeed1f917506813!8m2!3d25.5712634!4d91.8957022?authuser=0&hl=en&rclk=1,25.5712634,91.8957022,Meghalaya
Jiban Ram Goenka Hospital,Hospital,"HVGC+3HP, Upper Mawprem, Garikhana, Shillong, Meghalaya 793002, India",https://www.google.co.kr/maps/place/Jiban+Ram+Goenka+Hospital/data=!4m5!3m4!1s0x37507e8a0c0acf7d:0xfd0ea2dcefafc868!8m2!3d25.575221!4d91.8714449?authuser=0&hl=en&rclk=1,25.575221,91.8714449,Meghalaya
Civil Hospital Shillong,General hospital,"Laban, Lachumiere, Shillong, Meghalaya 793001, India",https://www.google.co.kr/maps/place/Civil+Hospital+Shillong/data=!4m5!3m4!1s0x37507e9aaa349c19:0xc17fab4baaf2b2c4!8m2!3d25.5677394!4d91.8810813?authuser=0&hl=en&rclk=1,25.5677394,91.8810813,Meghalaya
Lady Kerr Welfare Centre,Maternity hospital,"Red Cross, Laban, Shillong, Meghalaya 793004, India",https://www.google.co.kr/maps/place/Lady+Kerr+Welfare+Centre/data=!4m5!3m4!1s0x37507e856a0271ff:0xbe27a6c6b653d9af!8m2!3d25.5668335!4d91.8793782?authuser=0&hl=en&rclk=1,25.5668335,91.8793782,Meghalaya
THE ENT CLINIC,Doctor,"HV8Q+C3H, Dhankheti, Malki, Shillong, Meghalaya 793001, India",https://www.google.co.kr/maps/place/THE+ENT+CLINIC/data=!4m5!3m4!1s0x37507fa4df9f73b9:0xbd3120e836dd2b78!8m2!3d25.5660741!4d91.8877374?authuser=0&hl=en&rclk=1,25.5660741,91.8877374,Meghalaya
Herab's Clinic,Doctor,"KNB Rd, Jowai, Meghalaya 793150, India",https://www.google.co.kr/maps/place/Herab's+Clinic/data=!4m5!3m4!1s0x375013ed92baea41:0xd7d0921eeb94486f!8m2!3d25.4402588!4d92.198194?authuser=0&hl=en&rclk=1,25.4402588,92.198194,Meghalaya
District Maternity & Child Hospital,Hospital,"G679+VXF, Tura, Meghalaya 794001, India",https://www.google.co.kr/maps/place/District+Maternity+%26+Child+Hospital/data=!4m5!3m4!1s0x3757f18154ebf301:0x820408dddb29d563!8m2!3d25.5146759!4d90.2199126?authuser=0&hl=en&rclk=1,25.5146759,90.2199126,Meghalaya
Tura Christian Hospital,Private hospital,"G699+9F8, AB Mission Compound, Tura, Meghalaya 794001, India",https://www.google.co.kr/maps/place/Tura+Christian+Hospital/data=!4m5!3m4!1s0x3757f18239b712e9:0x7955162224976c4!8m2!3d25.5184068!4d90.2186912?authuser=0&hl=en&rclk=1,25.5184068,90.2186912,Meghalaya
NEIGRIHMS Emergency Unit,General hospital,"Mawdiangdiang, Shillong, Meghalaya 793018, India",https://www.google.co.kr/maps/place/NEIGRIHMS+Emergency+Unit/data=!4m5!3m4!1s0x37507905672a29d9:0xaa563613e831f91a!8m2!3d25.591218!4d91.9406104?authuser=0&hl=en&rclk=1,25.591218,91.9406104,Meghalaya
Wahkaji PHC,Hospital,"9767+437, Mawkhlaitngap, Meghalaya 793114, India",https://www.google.co.kr/maps/place/Wahkaji+PHC/data=!4m5!3m4!1s0x3750b46e33437931:0x9cd5df72b9485d9d!8m2!3d25.3602819!4d91.2626864?authuser=0&hl=en&rclk=1,25.3602819,91.2626864,Meghalaya
Nongspung PHC,Hospital,"FJ45+G9V, Meghalaya 793121, India",https://www.google.co.kr/maps/place/Nongspung+PHC/data=!4m5!3m4!1s0x375090a585e1a613:0x5edd3860ed36284c!8m2!3d25.4563697!4d91.6084091?authuser=0&hl=en&rclk=1,25.4563697,91.6084091,Meghalaya
Holy Cross Hospital,Hospital,"MVCP+C28, Meghalaya 793122, India",https://www.google.co.kr/maps/place/Holy+Cross+Hospital/data=!4m5!3m4!1s0x375a81c6d131ec41:0x5ac2c76a61b51449!8m2!3d25.671037!4d91.88509?authuser=0&hl=en&rclk=1,25.671037,91.88509,Meghalaya
Rambrai PHC,Hospital,"J8XG+GM4, Rambrai, Meghalaya 793119, India",https://www.google.co.kr/maps/place/Rambrai+PHC/data=!4m5!3m4!1s0x3750a9d33b215107:0xba76faa3b434aa50!8m2!3d25.6487577!4d91.326688?authuser=0&hl=en&rclk=1,25.6487577,91.326688,Meghalaya
St Joseph Dispensary,Hospital,"G7GC+G2G, Nongstoin, Meghalaya 793119, India",https://www.google.co.kr/maps/place/St+Joseph+Dispensary/data=!4m5!3m4!1s0x3750ac37e8c07753:0x432212736abcdda4!8m2!3d25.5263073!4d91.2700779?authuser=0&hl=en&rclk=1,25.5263073,91.2700779,Meghalaya
Dr Lal Pathlabs Shillong Meghalaya,Diagnostic center,"C/o Economic Medicall Hall, Police Bazar, Shillong, Meghalaya 793001, India",https://www.google.co.kr/maps/place/Dr+Lal+Pathlabs+Shillong+Meghalaya/data=!4m5!3m4!1s0x37507f1ab3deec3d:0xbfa6220ff43c6744!8m2!3d25.5766346!4d91.8813627?authuser=0&hl=en&rclk=1,25.5766346,91.8813627,Meghalaya
Woodland WK Hospital,Hospital,"NH6, Jowai, Meghalaya 793150, India",https://www.google.co.kr/maps/place/Woodland+WK+Hospital/data=!4m5!3m4!1s0x37500f0c58a08c4f:0x255c3422a1cfff1!8m2!3d25.4691882!4d92.2394078?authuser=0&hl=en&rclk=1,25.4691882,92.2394078,Meghalaya
Homoeo Health Care Clinic,Doctor,"G53Q+JP9, Matchakol, Tura, Meghalaya 794101, India",https://www.google.co.kr/maps/place/Homoeo+Health+Care+Clinic/data=!4m5!3m4!1s0x3757f118ca949e2b:0xff90b737de42071f!8m2!3d25.5040301!4d90.1893656?authuser=0&hl=en&rclk=1,25.5040301,90.1893656,Meghalaya
Shallang PHC,Government hospital,"GVH5+H2J, Shallang, Meghalaya 793119, India",https://www.google.co.kr/maps/place/Shallang+PHC/data=!4m5!3m4!1s0x375767316e0989cf:0x32f29a6efb8f7027!8m2!3d25.5289736!4d90.8575069?authuser=0&hl=en&rclk=1,25.5289736,90.8575069,Meghalaya
Nongrum Ayurvedic Clinic,Doctor,"HJ6R+H2J, Mairang, Meghalaya 793120, India",https://www.google.co.kr/maps/place/Nongrum+Ayurvedic+Clinic/data=!4m5!3m4!1s0x37509c81ae942ad3:0x94a91e568acbdab3!8m2!3d25.5614562!4d91.6400032?authuser=0&hl=en&rclk=1,25.5614562,91.6400032,Meghalaya
The ENT Clinic,Otolaryngologist,"MERUSA BUILDING, Iawmusiang, Jowai, Meghalaya 793150, India",https://www.google.co.kr/maps/place/The+ENT+Clinic/data=!4m5!3m4!1s0x375013575305f33d:0x5d0988cf35793631!8m2!3d25.4416136!4d92.1965134?authuser=0&hl=en&rclk=1,25.4416136,92.1965134,Meghalaya
Umdohlun SHC,Medical clinic,"Phlangdiloin Road, Meghalaya 793119, India",https://www.google.co.kr/maps/place/Umdohlun+SHC/data=!4m5!3m4!1s0x3750b39d4bb1a0b3:0x67712c10145e18f8!8m2!3d25.3817067!4d91.2710596?authuser=0&hl=en&rclk=1,25.3817067,91.2710596,Meghalaya
Tirot Singh Memorial Hospital,Hospital,"Circuit House Rd, Mairang, Meghalaya 793120, India",https://www.google.co.kr/maps/place/Tirot+Singh+Memorial+Hospital/data=!4m5!3m4!1s0x37509b814626b763:0xdc3da4278b746641!8m2!3d25.5542041!4d91.6328169?authuser=0&hl=en&rclk=1,25.5542041,91.6328169,Meghalaya
Homoeo Health Care,Medical clinic,"9F84+JPR, Mishon Katholik, Mawkyrwat, Meghalaya 793114, India",https://www.google.co.kr/maps/place/Homoeo+Health+Care/data=!4m5!3m4!1s0x3750bf5a2b1e4e7f:0x4395f5082ad633c7!8m2!3d25.3666083!4d91.456758?authuser=0&hl=en&rclk=1,25.3666083,91.456758,Meghalaya
Sai Homeo Clinic,Doctor,"4 mile, Shillong Bypass Rd, Pyllun, Meghalaya 793103, India",https://www.google.co.kr/maps/place/Sai+Homeo+Clinic/data=!4m5!3m4!1s0x375a8350c0ce6489:0x29cd4ac7b594d430!8m2!3d25.6940793!4d91.927903?authuser=0&hl=en&rclk=1,25.6940793,91.927903,Meghalaya
Siju Phc Hospital,Hospital,"9M34+CP9, Siju, Meghalaya 794114, India",https://www.google.co.kr/maps/place/Siju+Phc+Hospital/data=!4m5!3m4!1s0x375775b4d4535991:0x16514f1b76b5da22!8m2!3d25.3535368!4d90.6568585?authuser=0&hl=en&rclk=1,25.3535368,90.6568585,Meghalaya
Ampati Civil Hospital,Hospital,"FWVV+M74, Betasing, Meghalaya 794115, India",https://www.google.co.kr/maps/place/Ampati+Civil+Hospital/data=!4m5!3m4!1s0x39fd574033409827:0x1c9e8b4e1c9d6d5e!8m2!3d25.49415!4d89.9432013?authuser=0&hl=en&rclk=1,25.49415,89.9432013,Meghalaya
DOCTOR KHAINMI'S CLINIC,Doctor,"F78V+9G4, PhraMer, Meghalaya 793150, India",https://www.google.co.kr/maps/place/DOCTOR+KHAINMI'S+CLINIC/data=!4m5!3m4!1s0x37500ffa95555555:0xe59952e4c3024d16!8m2!3d25.4658867!4d92.2938229?authuser=0&hl=en&rclk=1,25.4658867,92.2938229,Meghalaya
Military Hospital,Hospital,"NH 44, √èewduh, Bara Bazar, Shillong, Meghalaya 793001, India",https://www.google.co.kr/maps/place/Military+Hospital/data=!4m5!3m4!1s0x37507e89a94a1997:0x651275d3e2b104cd!8m2!3d25.570798!4d91.8726986?authuser=0&hl=en&rclk=1,25.570798,91.8726986,Meghalaya
Civil Hospital,Hospital,"G673+VFH, Tura, Meghalaya 794101, India",https://www.google.co.kr/maps/place/Civil+Hospital/data=!4m5!3m4!1s0x3757f1a18760f859:0x50e42af5be056ae7!8m2!3d25.5146849!4d90.2037406?authuser=0&hl=en&rclk=1,25.5146849,90.2037406,Meghalaya
CGHS Shillong Head Office.,Hospital,"Central Govt. Health Services Office of Additional Director Nongrim Hills, near Nagaland House, 793003, India",https://www.google.co.kr/maps/place/CGHS+Shillong+Head+Office./data=!4m5!3m4!1s0x37507eafd480c573:0x7b9ff398c39df3b1!8m2!3d25.5673403!4d91.9024379?authuser=0&hl=en&rclk=1,25.5673403,91.9024379,Meghalaya
ST.JOSEPH'S HOSPITAL,Hospital,"G7C4+G5F, Tiehsaw, Nongstoin, Meghalaya 793119, India",https://www.google.co.kr/maps/place/ST.JOSEPH'S+HOSPITAL/data=!4m5!3m4!1s0x3750ad7a75b2d5f7:0x5961193ba3d7aaad!8m2!3d25.5213094!4d91.2554112?authuser=0&hl=en&rclk=1,25.5213094,91.2554112,Meghalaya
Mendipathar Civil Hospital,Hospital,"Mendi - Damra Rd, Salpara, Mendipathar, Meghalaya 794112, India",https://www.google.co.kr/maps/place/Mendipathar+Civil+Hospital/data=!4m5!3m4!1s0x3759cc43459d5385:0x69c379bb754fcff4!8m2!3d25.916712!4d90.6494808?authuser=0&hl=en&rclk=1,25.916712,90.6494808,Meghalaya
"Laitnong, mistolin wanniand",Doctor,"Laitnong - Shngimawlei√± Rd, Laitnong, Meghalaya 793120, India","https://www.google.co.kr/maps/place/Laitnong,+mistolin+wanniand/data=!4m5!3m4!1s0x3750bc516237fa53:0x3e4603dcdfe534d9!8m2!3d25.4107195!4d91.4771964?authuser=0&hl=en&rclk=1",25.4107195,91.4771964,Meghalaya
Nongstoin MCH Hospital,Government hospital,"G799+WMM, Upper New-Nongstoin, Nongstoin, Meghalaya 793119, India",https://www.google.co.kr/maps/place/Nongstoin+MCH+Hospital/data=!4m5!3m4!1s0x3750ad0c14ea4c4b:0xe9bd727ed27ba197!8m2!3d25.5198429!4d91.2691858?authuser=0&hl=en&rclk=1,25.5198429,91.2691858,Meghalaya
Civil Hospital Mairang,Hospital,"HJ3M+J6W, Mairang, Meghalaya 793120, India",https://www.google.co.kr/maps/place/Civil+Hospital+Mairang/data=!4m5!3m4!1s0x37509b8145bb93cd:0xd40a9f0886e313f5!8m2!3d25.5541153!4d91.6330653?authuser=0&hl=en&rclk=1,25.5541153,91.6330653,Meghalaya
New Dimension Clinic,Ayurvedic clinic,"Khimusniang Rd, Jowai, Meghalaya 793150, India",https://www.google.co.kr/maps/place/New+Dimension+Clinic/data=!4m5!3m4!1s0x375013c9e4451feb:0x6bbcf121ff105f18!8m2!3d25.4336983!4d92.1929375?authuser=0&hl=en&rclk=1,25.4336983,92.1929375,Meghalaya
Myriaw phc,Hospital,"H76Q+XJQ, Meghalaya 793119, India",https://www.google.co.kr/maps/place/Myriaw+phc/data=!4m5!3m4!1s0x3750aeaaaaaaaaab:0x3f6798f28df694f7!8m2!3d25.5624625!4d91.2891036?authuser=0&hl=en&rclk=1,25.5624625,91.2891036,Meghalaya
Health Clinic (‡¶∏‡ßç‡¶¨‡¶æ‡¶∏‡ßç‡¶•‡ßç‡¶Ø ‡¶ï‡ßá‡¶®‡ßç‡¶¶‡ßç‡¶∞),Hospital,"5C23+V3V, Bangladesh",https://www.google.co.kr/maps/place/Health+Clinic+(%E0%A6%B8%E0%A7%8D%E0%A6%AC%E0%A6%BE%E0%A6%B8%E0%A7%8D%E0%A6%A5%E0%A7%8D%E0%A6%AF+%E0%A6%95%E0%A7%87%E0%A6%A8%E0%A7%8D%E0%A6%A6%E0%A7%8D%E0%A6%B0)/data=!4m5!3m4!1s0x3750c5f360113f79:0x7d9243d8d72af034!8m2!3d25.1522468!4d91.4026791?authuser=0&hl=en&rclk=1,25.1522468,91.4026791,Meghalaya
"Health Care Poly Clinic, Sunamganj",Medical clinic,"3C75+XXW, Sunamganj, Bangladesh","https://www.google.co.kr/maps/place/Health+Care+Poly+Clinic,+Sunamganj/data=!4m5!3m4!1s0x3750db21f5141b51:0xf63586812eab9fe5!8m2!3d25.064985!4d91.4099679?authuser=0&hl=en&rclk=1",25.064985,91.4099679,Meghalaya
Mohanam SN Ayurvedic Centre,Medical Center,"Nongrimbah, Shillong, Meghalaya 793014, India",https://www.google.co.kr/maps/place/Mohanam+SN+Ayurvedic+Centre/data=!4m5!3m4!1s0x37507f84e0e15d9f:0xc1d34ea3ac4b761f!8m2!3d25.5671243!4d91.9027576?authuser=0&hl=en&rclk=1,25.5671243,91.9027576,Meghalaya
Holy Cross Catholic Hospital,Hospital,"Holy Cross Road, Mairang, Meghalaya 793120, India",https://www.google.co.kr/maps/place/Holy+Cross+Catholic+Hospital/data=!4m5!3m4!1s0x37509dc006559d2b:0xc28085f4f781bb1d!8m2!3d25.5604003!4d91.6307573?authuser=0&hl=en&rclk=1,25.5604003,91.6307573,Meghalaya
10 Bedded Integrated Ayush Hospital,Hospital,"P25C+5J8, Bhoirymbong, Meghalaya 793103, India",https://www.google.co.kr/maps/place/10+Bedded+Integrated+Ayush+Hospital/data=!4m5!3m4!1s0x375a9d251755a28d:0x1b5755d4caebe78c!8m2!3d25.70791!4d92.0215712?authuser=0&hl=en&rclk=1,25.70791,92.0215712,Meghalaya
Myriaw PHC,Hospital,"HFVW+8G7, Meghalaya 793120, India",https://www.google.co.kr/maps/place/Myriaw+PHC/data=!4m5!3m4!1s0x3750a1ba2c665baf:0x5ba7abcc2472175c!8m2!3d25.5932807!4d91.4962965?authuser=0&hl=en&rclk=1,25.5932807,91.4962965,Meghalaya
Holistic Care Ayurvedic Clinic,Ayurvedic clinic,"Lumshngain, Rynjah, Shillong, Meghalaya 793006, India",https://www.google.co.kr/maps/place/Holistic+Care+Ayurvedic+Clinic/data=!4m5!3m4!1s0x37507f7a813bb029:0xf16f82b7fdc4f148!8m2!3d25.5716536!4d91.9106404?authuser=0&hl=en&rclk=1,25.5716536,91.9106404,Meghalaya
ICDS Centre 1,Child health care centre,"G6PX+5MP, Siejlieh, Nongstoin, Meghalaya 793119, India",https://www.google.co.kr/maps/place/ICDS+Centre+1/data=!4m5!3m4!1s0x3750acf5a32fb0b9:0x42f8ddc9a9fbef91!8m2!3d25.5354615!4d91.2492157?authuser=0&hl=en&rclk=1,25.5354615,91.2492157,Meghalaya
"Civil Hospital, Mawkyrwat",Hospital,"9F85+634, Mawkyrwat, Meghalaya 793114, India","https://www.google.co.kr/maps/place/Civil+Hospital,+Mawkyrwat/data=!4m5!3m4!1s0x3750bea6a98a3fcd:0x402498165944980e!8m2!3d25.3655116!4d91.4577176?authuser=0&hl=en&rclk=1",25.3655116,91.4577176,Meghalaya
St. Joseph,Hospital,"G7GC+6CV, Nongstoin, Meghalaya 793119, India",https://www.google.co.kr/maps/place/St.+Joseph/data=!4m5!3m4!1s0x3750ad19c47d13ab:0x2376cc057cc98730!8m2!3d25.5256148!4d91.2710526?authuser=0&hl=en&rclk=1,25.5256148,91.2710526,Meghalaya
Krsnaa Diagnostics (Rangthong PHC),Diagnostic center,"89RM+F57, Meghalaya 793114, India",https://www.google.co.kr/maps/place/Krsnaa+Diagnostics+(Rangthong+PHC)/data=!4m5!3m4!1s0x3750b9c6de504a35:0x245173f627380384!8m2!3d25.3411528!4d91.3829231?authuser=0&hl=en&rclk=1,25.3411528,91.3829231,Meghalaya
District TB Centre,Hospital,"G75F+5GM, Shnong Nongstoi√±, Nongstoin, Meghalaya 793119, India",https://www.google.co.kr/maps/place/District+TB+Centre/data=!4m5!3m4!1s0x3750adc94770450f:0xd6855d63f7d24dce!8m2!3d25.5079678!4d91.2737958?authuser=0&hl=en&rclk=1,25.5079678,91.2737958,Meghalaya
"Health Care Poli Clinic & Diagnostic center,",Private hospital,"3C75+XXW, Sunamganj, Bangladesh","https://www.google.co.kr/maps/place/Health+Care+Poli+Clinic+%26+Diagnostic+center,/data=!4m5!3m4!1s0x3750dbcd85965ab7:0xc902fdfd7c8ba659!8m2!3d25.0649862!4d91.4099387?authuser=0&hl=en&rclk=1",25.0649862,91.4099387,Meghalaya
"Department of Lab Sciences, Military Hospital",Hospital department,"HVHV+C8V, Police Bazar, Shillong, Meghalaya 793001, India","https://www.google.co.kr/maps/place/Department+of+Lab+Sciences,+Military+Hospital/data=!4m5!3m4!1s0x37507ebf710a0651:0xb5d9f2c87d589012!8m2!3d25.5786088!4d91.8932868?authuser=0&hl=en&rclk=1",25.5786088,91.8932868,Meghalaya
