Company_Name,Category,Address,Url,Latitude,Longitude,Territory
Punjab Clinic,Medical clinic,"Gurdwara Rd, near Shiv Shakti Mandir, Janta Nagar, Ludhiana, Punjab 141003, India",https://www.google.co.kr/maps/place/Punjab+Clinic/data=!4m5!3m4!1s0x391a82f049a6d025:0x13e03d3dc0ac3863!8m2!3d30.878479!4d75.863395?authuser=0&hl=en&rclk=1,30.878479,75.863395,Punjab
Health Care Clinic,Medical clinic,"428, Benjamin Rd, Near CMC Chowk, Naulakha Garden Colony, Ludhiana, Punjab 141008, India",https://www.google.co.kr/maps/place/Health+Care+Clinic/data=!4m5!3m4!1s0x391a830d728ff973:0xc1f7ee9981714239!8m2!3d30.9124385!4d75.8637006?authuser=0&hl=en&rclk=1,30.9124385,75.8637006,Punjab
Punjab Clinic,Medical clinic,"Majat To Dharakh Rd, Majat, Punjab 140307, India",https://www.google.co.kr/maps/place/Punjab+Clinic/data=!4m5!3m4!1s0x390fe5e73e4287eb:0x9d90f404d2dd84a0!8m2!3d30.6752201!4d76.5885788?authuser=0&hl=en&rclk=1,30.6752201,76.5885788,Punjab
Punjab Rheumatology And Immunology Clinic,Medical clinic,"96 B, Ferozepur Rd, Rajguru Nagar, Ludhiana, Punjab 141012, India",https://www.google.co.kr/maps/place/Punjab+Rheumatology+And+Immunology+Clinic/data=!4m5!3m4!1s0x391a817519f7d2ed:0x5bc25e3a6594b3e8!8m2!3d30.8855628!4d75.785473?authuser=0&hl=en&rclk=1,30.8855628,75.785473,Punjab
Clinic,Medical clinic,"Unnamed Road, Dhamana, Punjab 140119, India",https://www.google.co.kr/maps/place/Clinic/data=!4m5!3m4!1s0x39054d874f614a69:0x32c93ed34886933d!8m2!3d31.0980437!4d76.5090573?authuser=0&hl=en&rclk=1,31.0980437,76.5090573,Punjab
Dr Morya's Health Clinic,Medical clinic,"WW2G+74J, Pratap Colony, Guru Teg Bahadur Nagar, Ludhiana, Punjab 141015, India",https://www.google.co.kr/maps/place/Dr+Morya's+Health+Clinic/data=!4m5!3m4!1s0x391a9d5735c0ac89:0x5612854d6d60f55a!8m2!3d30.9007115!4d75.9252524?authuser=0&hl=en&rclk=1,30.9007115,75.9252524,Punjab
Rana Hospital,Hospital,"Rana Hospital Square, 688-F, F-Block SBS Nagar, F Block, Shaheed Bhagat Singh Nagar, Ludhiana, Punjab 141013, India",https://www.google.co.kr/maps/place/Rana+Hospital/data=!4m5!3m4!1s0x391a8228ab852adb:0x3c1ce1d64b995874!8m2!3d30.875497!4d75.812655?authuser=0&hl=en&rclk=1,30.875497,75.812655,Punjab
Global Rheumatology & Women Health Clinic,Women's health clinic,"Hoshiarpur Rd, Kot Kishan Chand Chowk, Laxmi Pura, Jalandhar, Punjab 144004, India",https://www.google.co.kr/maps/place/Global+Rheumatology+%26+Women+Health+Clinic/data=!4m5!3m4!1s0x391a5a65b3e88fb3:0x3d0f62289322db3d!8m2!3d31.3391765!4d75.5832865?authuser=0&hl=en&rclk=1,31.3391765,75.5832865,Punjab
Health care clinic,Medical clinic,"Unnamed Road, Kitna, Punjab 144531, India",https://www.google.co.kr/maps/place/Health+care+clinic/data=!4m5!3m4!1s0x391aebb04cfd61c9:0x1ac2a59390d9e307!8m2!3d31.25166!4d76.0748006?authuser=0&hl=en&rclk=1,31.25166,76.0748006,Punjab
Ludhiana Laparoscopic and Surgical clinic,Hospital,"508-L, Model Town Rd, near Post Office, Pritm Nagar, Model Town, Ludhiana, Punjab 141002, India",https://www.google.co.kr/maps/place/Ludhiana+Laparoscopic+and+Surgical+clinic/data=!4m5!3m4!1s0x391a8252c38b8df5:0x3da1b67be1da6f35!8m2!3d30.8889229!4d75.843724?authuser=0&hl=en&rclk=1,30.8889229,75.843724,Punjab
Ivy Superspeciality Hospital,Hospital,"Hoshiarpur - Chandigarh Rd, Ram Colony, Hoshiarpur, Punjab 146001, India",https://www.google.co.kr/maps/place/Ivy+Superspeciality+Hospital/data=!4m5!3m4!1s0x391ae37414533595:0x21023fd2ee09bcd3!8m2!3d31.4994122!4d75.9495049?authuser=0&hl=en&rclk=1,31.4994122,75.9495049,Punjab
Paramjit Clinic,Medical clinic,"circular road, Lohian Khas, Punjab 144629, India",https://www.google.co.kr/maps/place/Paramjit+Clinic/data=!4m5!3m4!1s0x391a3d4dacb03ad7:0xe2a9cf09d7cc6f12!8m2!3d31.1627825!4d75.2077646?authuser=0&hl=en&rclk=1,31.1627825,75.2077646,Punjab
Capitol Hospital - Best Multi Super Speciality Hospital in Jalandhar,Private hospital,"NH-44, Jalandhar - Pathankot Road Near Reru, Chowk, Jalandhar, Punjab 144012, India",https://www.google.co.kr/maps/place/Capitol+Hospital+-+Best+Multi+Super+Speciality+Hospital+in+Jalandhar/data=!4m5!3m4!1s0x391a50986fc696f5:0xcff7858ec75e5967!8m2!3d31.364616!4d75.5966529?authuser=0&hl=en&rclk=1,31.364616,75.5966529,Punjab
PUNJAB CLINIC,Doctor,"Tajpur bet opp Gurdwara, Punjab 141013, India",https://www.google.co.kr/maps/place/PUNJAB+CLINIC/data=!4m5!3m4!1s0x391a9d8e36fb63cb:0xb983d3e5164de667!8m2!3d30.924025!4d75.9469035?authuser=0&hl=en&rclk=1,30.924025,75.9469035,Punjab
Nawal Medical Clinic,Medical clinic,"7M66+754, Kukar Pind, Punjab 144024, India",https://www.google.co.kr/maps/place/Nawal+Medical+Clinic/data=!4m5!3m4!1s0x391a5eda3ddfbc05:0x5d310613b4637346!8m2!3d31.2606413!4d75.6604546?authuser=0&hl=en&rclk=1,31.2606413,75.6604546,Punjab
Noor Hospital,Medical clinic,"Bus Stand Road, near Andhra Bank, Morinda, Punjab 140101, India",https://www.google.co.kr/maps/place/Noor+Hospital/data=!4m5!3m4!1s0x390ffdb261ec7465:0x3de0946ea99dba81!8m2!3d30.7931779!4d76.4996911?authuser=0&hl=en&rclk=1,30.7931779,76.4996911,Punjab
Ankur Kids Hospital - Best Child Specialist in Jalandhar I Best Pediatrician in Jalandhar I Children Hospital in Jalandhar I Child Doctor in Jalandhar,Children's hospital,"663, Guru Teg Bahadur Naggar, near Shri Guru Ravidass Chowk, Jalandhar, Punjab 144003, India",https://www.google.co.kr/maps/place/Ankur+Kids+Hospital+-+Best+Child+Specialist+in+Jalandhar+I+Best+Pediatrician+in+Jalandhar+I+Children+Hospital+in+Jalandhar+I+Child+Doctor+in+Jalandhar/data=!4m5!3m4!1s0x391a5b02057213ed:0x4024c5a5b831fdf0!8m2!3d31.3070652!4d75.5676348?authuser=0&hl=en&rclk=1,31.3070652,75.5676348,Punjab
Rana clinic,Medical clinic,"648W+5H9, Garhshankar, Punjab 144527, India",https://www.google.co.kr/maps/place/Rana+clinic/data=!4m5!3m4!1s0x391abf6d2aa1af5d:0x840d53b66a0cb6a2!8m2!3d31.2154119!4d76.1464763?authuser=0&hl=en&rclk=1,31.2154119,76.1464763,Punjab
RG Stone And Super Speciality Hospital,Hospital,"510-L, Model Town Rd, Pritm Nagar, Model Town, Ludhiana, Punjab 141002, India",https://www.google.co.kr/maps/place/RG+Stone+And+Super+Speciality+Hospital/data=!4m5!3m4!1s0x391a8252b979a537:0x5294c33f16ef6830!8m2!3d30.8889481!4d75.8429126?authuser=0&hl=en&rclk=1,30.8889481,75.8429126,Punjab
Virk Hospital,Fertility clinic,"662, near, Shri Guru Ravidass Chowk, Guru Teg Bahadur Nagar, Green, Model Town, Jalandhar, Punjab 144003, India",https://www.google.co.kr/maps/place/Virk+Hospital/data=!4m5!3m4!1s0x391a5b0205f159a7:0x23bdc3ed202ed40d!8m2!3d31.3072384!4d75.5675062?authuser=0&hl=en&rclk=1,31.3072384,75.5675062,Punjab
Manas Hospital,Hospital,"Aarti Chowk, near Hotel Onn Yes Bank Turn, near Neurociti, Gobind Nagar, Ludhiana, Punjab 141001, India",https://www.google.co.kr/maps/place/Manas+Hospital/data=!4m5!3m4!1s0x391a81163733c1cf:0xe0eec405be1b6342!8m2!3d30.9016196!4d75.8214151?authuser=0&hl=en&rclk=1,30.9016196,75.8214151,Punjab
IC Clinic,Medical clinic,"69, Government College Rd, Sant Nagar, Maya Nagar, Ludhiana, Punjab 141001, India",https://www.google.co.kr/maps/place/IC+Clinic/data=!4m5!3m4!1s0x391a83bfc21ab47b:0xab34813470fb3b4d!8m2!3d30.9100154!4d75.8316527?authuser=0&hl=en&rclk=1,30.9100154,75.8316527,Punjab
Health Care Clinic,Medical clinic,"7JCM+57W, B.A.S.Nagar, Khusropur, Jalandhar, Punjab 144024, India",https://www.google.co.kr/maps/place/Health+Care+Clinic/data=!4m5!3m4!1s0x391a595f9fdbfa0f:0xe64f2b5c1392c4de!8m2!3d31.2704826!4d75.6331933?authuser=0&hl=en&rclk=1,31.2704826,75.6331933,Punjab
Kunwar Clinic,Medical clinic,"Jalandhar Rd, Golden Avenue Colony, Adarsh Colony, Nakodar, Punjab 144040, India",https://www.google.co.kr/maps/place/Kunwar+Clinic/data=!4m5!3m4!1s0x391a684caa077213:0x1190a9774f040e42!8m2!3d31.1352733!4d75.4814765?authuser=0&hl=en&rclk=1,31.1352733,75.4814765,Punjab
Orthonova Hospital,Orthopedic surgeon,"Near Nari Niketan, Jalandhar - Nakodar Rd, Model Town, Jalandhar, Punjab 144001, India",https://www.google.co.kr/maps/place/Orthonova+Hospital/data=!4m5!3m4!1s0x391a5a594d22b88d:0x25de7b84da947fd!8m2!3d31.313301!4d75.5691228?authuser=0&hl=en&rclk=1,31.313301,75.5691228,Punjab
Dhawan Clinic,Medical clinic,"Sodal Rd, Shiv Nagar, Industrial Area, Jalandhar, Punjab 144008, India",https://www.google.co.kr/maps/place/Dhawan+Clinic/data=!4m5!3m4!1s0x391a5a6317d08b95:0xa5c7d50b33feb294!8m2!3d31.340908!4d75.578026?authuser=0&hl=en&rclk=1,31.340908,75.578026,Punjab
DR. CHAWLA'S PRIVATE CLINIC,Medical clinic,"TAGORE NAGAR, Civil Lines, Ludhiana, Punjab 141001, India",https://www.google.co.kr/maps/place/DR.+CHAWLA'S+PRIVATE+CLINIC/data=!4m5!3m4!1s0x391a836c6b504041:0xdb1aa31d8c66bb49!8m2!3d30.9129659!4d75.8270845?authuser=0&hl=en&rclk=1,30.9129659,75.8270845,Punjab
RATTAN MULTISPECIALITY HOSPITAL & DIAGNOSTIC CENTRE,Hospital,"STREET NO 2, NEAR SHINGAR CINEMA, SAMRALA ROAD Harcharan Nagar, Harcharan Nagar, Ludhiana, Punjab 141008, India",https://www.google.co.kr/maps/place/RATTAN+MULTISPECIALITY+HOSPITAL+%26+DIAGNOSTIC+CENTRE/data=!4m5!3m4!1s0x391a831515555555:0xa63238abad6cc127!8m2!3d30.9132987!4d75.8739911?authuser=0&hl=en&rclk=1,30.9132987,75.8739911,Punjab
Bawaseer Clinic,Medical clinic,"Lakshmi Narayan Mandir, Dayal Nagar, Model House, Jalandhar, Punjab 144003, India",https://www.google.co.kr/maps/place/Bawaseer+Clinic/data=!4m5!3m4!1s0x391a5ae300e2925b:0xf5518e7f5436045e!8m2!3d31.304762!4d75.555327?authuser=0&hl=en&rclk=1,31.304762,75.555327,Punjab
Ghai Hospital,Obstetrician-gynecologist,"Shri Guru Ravidass Chowk, GTB Nagar, Jalandhar, Punjab 144003, India",https://www.google.co.kr/maps/place/Ghai+Hospital/data=!4m5!3m4!1s0x391a5afdf5f7da87:0xfb445eaf30218fb0!8m2!3d31.30753!4d75.56728?authuser=0&hl=en&rclk=1,31.30753,75.56728,Punjab
Best IVF Centre In Ludhiana Punjab - Dr Sumita Sofat Hospital Obstetricians & Gynecologists,Hospital,"9, Government College Rd, near Rose Garden, Rose Enclave, Civil Lines, Ludhiana, Punjab 141001, India",https://www.google.co.kr/maps/place/Best+IVF+Centre+In+Ludhiana+Punjab+-+Dr+Sumita+Sofat+Hospital+Obstetricians+%26+Gynecologists/data=!4m5!3m4!1s0x391a8382de7f23b1:0x3455c5daf7a02fd!8m2!3d30.9082315!4d75.8275693?authuser=0&hl=en&rclk=1,30.9082315,75.8275693,Punjab
Katodia Children Hospital,Medical clinic,"Civil Hospital Road, Nangal Colony, Sadar, Mansa, Punjab 151505, India",https://www.google.co.kr/maps/place/Katodia+Children+Hospital/data=!4m5!3m4!1s0x39111934e3951b8f:0x29b19471b0f4d8c5!8m2!3d29.9823913!4d75.4078556?authuser=0&hl=en&rclk=1,29.9823913,75.4078556,Punjab
Gurleen Clinic,Medical clinic,"College Road, Sidhwan Khurd, Punjab 142024, India",https://www.google.co.kr/maps/place/Gurleen+Clinic/data=!4m5!3m4!1s0x391a786b580d946f:0x9096fa1b56a96f99!8m2!3d30.8290492!4d75.5517628?authuser=0&hl=en&rclk=1,30.8290492,75.5517628,Punjab
Genesis Fertility & Surgical Center - Best IVF & Infertility /Fibroids/ Uterus doctor in Jalandhar,Fertility physician,"607 L, Mall Road, Model Town, Jalandhar, Punjab 144003, India",https://www.google.co.kr/maps/place/Genesis+Fertility+%26+Surgical+Center+-+Best+IVF+%26+Infertility+%2FFibroids%2F+Uterus+doctor+in+Jalandhar/data=!4m5!3m4!1s0x391a5a55123c4bbd:0xa99da3846480c14b!8m2!3d31.306858!4d75.571292?authuser=0&hl=en&rclk=1,31.306858,75.571292,Punjab
Kidney Hospital & lifeline medical institutes,Hospital,"63 & 64, Cool Road, Waryam Nagar, Jyoti Nagar, Jalandhar, Punjab 144003, India",https://www.google.co.kr/maps/place/Kidney+Hospital+%26+lifeline+medical+institutes/data=!4m5!3m4!1s0x391a5a594d22b88d:0x83a68e5845960382!8m2!3d31.3044275!4d75.587515?authuser=0&hl=en&rclk=1,31.3044275,75.587515,Punjab
Holy Basil Mediclinic,Doctor,"#139-141, Prime City, Kharar - Landran Rd, opposite Ambika Devi Mandir, Sahibzada Ajit Singh Nagar, Punjab 140301, India",https://www.google.co.kr/maps/place/Holy+Basil+Mediclinic/data=!4m5!3m4!1s0x390fefa401e22f29:0x4ebeb41e9d2103cf!8m2!3d30.7407225!4d76.6456649?authuser=0&hl=en&rclk=1,30.7407225,76.6456649,Punjab
"Indus International Hospital, Derabassi",Private hospital,"Near Jawaharpur, Chandigarh - Ambala Road, National Highway No.22, Derabassi, MOHALI, Punjab 140507, India","https://www.google.co.kr/maps/place/Indus+International+Hospital,+Derabassi/data=!4m5!3m4!1s0x390fbf882d84d15d:0xbffbcec835386739!8m2!3d30.5566349!4d76.8268035?authuser=0&hl=en&rclk=1",30.5566349,76.8268035,Punjab
Manas clinic,Hospital,"1103/3d/1 Tagore Nagar, near Hero Heart Center, Block B, Udham Singh Nagar, Civil Lines, Ludhiana, Punjab 141001, India",https://www.google.co.kr/maps/place/Manas+clinic/data=!4m5!3m4!1s0x391a83e9f821d907:0x8d1d419ff6e5b9c5!8m2!3d30.9107161!4d75.8241115?authuser=0&hl=en&rclk=1,30.9107161,75.8241115,Punjab
Doctor Clinic,Medical clinic,"Unnamed Road, Ammi Wala, Punjab 142042, India",https://www.google.co.kr/maps/place/Doctor+Clinic/data=!4m5!3m4!1s0x391a13b80524215b:0xd30517ef383a4827!8m2!3d30.9999001!4d75.2571835?authuser=0&hl=en&rclk=1,30.9999001,75.2571835,Punjab
"Amcare Hospital - Hospitals in Zirakpur, Hospital in Chandigarh",Private hospital,"VIP Road, Adjacent to Amcare Plaza, Zirakpur, Punjab 140603, India","https://www.google.co.kr/maps/place/Amcare+Hospital+-+Hospitals+in+Zirakpur,+Hospital+in+Chandigarh/data=!4m5!3m4!1s0x390feb2f2c19ce85:0xca1eb6bb70732918!8m2!3d30.6392108!4d76.817176?authuser=0&hl=en&rclk=1",30.6392108,76.817176,Punjab
khosa clinic,Medical clinic,"Phase 2, Lassuri, Punjab 144702, India",https://www.google.co.kr/maps/place/khosa+clinic/data=!4m5!3m4!1s0x391a15b659f468f9:0xc14d7ffaf77a2176!8m2!3d31.102123!4d75.273809?authuser=0&hl=en&rclk=1,31.102123,75.273809,Punjab
Lajwanti Hospital,General hospital,"Cool Road, near All India Radio, Jawahar Nagar, Jalandhar, Punjab 144002, India",https://www.google.co.kr/maps/place/Lajwanti+Hospital/data=!4m5!3m4!1s0x391a5a594d22b88d:0xd7ed7dbc16a13cf7!8m2!3d31.3157012!4d75.5865806?authuser=0&hl=en&rclk=1,31.3157012,75.5865806,Punjab
India Kidney Hospital & Dialysis Centre,Hospital,"7, Link Road, Near Guru Amar Dass Chowk, Lajpat Nagar, Jalandhar, Punjab 144001, India",https://www.google.co.kr/maps/place/India+Kidney+Hospital+%26+Dialysis+Centre/data=!4m5!3m4!1s0x391a5a594d22b88d:0x42447bf688ed7899!8m2!3d31.3133106!4d75.5771257?authuser=0&hl=en&rclk=1,31.3133106,75.5771257,Punjab
Dr BP Singh Best Cosmetic Surgeon,Hospital,"261, Mota Singh Nagar, Jalandhar, Punjab 144001, India",https://www.google.co.kr/maps/place/Dr+BP+Singh+Best+Cosmetic+Surgeon/data=!4m5!3m4!1s0x391a5a594d22b88d:0xd7c017732991ccb8!8m2!3d31.311344!4d75.588104?authuser=0&hl=en&rclk=1,31.311344,75.588104,Punjab
Sant Jaswant Singh Hospital,Women's health clinic,"77, Main Road Dakoha, Near Baba Buddha ji Gurdwara, Jalandhar Cantt, Jalandhar, Punjab 144005, India",https://www.google.co.kr/maps/place/Sant+Jaswant+Singh+Hospital/data=!4m5!3m4!1s0x391a59722ea06993:0x38030d0b63d1fba6!8m2!3d31.306916!4d75.638713?authuser=0&hl=en&rclk=1,31.306916,75.638713,Punjab
Chawla Nursing Home,Fertility clinic,"9, Link Road, Lajpat Nagar, Jalandhar, Punjab 144001, India",https://www.google.co.kr/maps/place/Chawla+Nursing+Home/data=!4m5!3m4!1s0x391a5a5625555555:0xf1181ec0aeef0b3f!8m2!3d31.3136953!4d75.5763258?authuser=0&hl=en&rclk=1,31.3136953,75.5763258,Punjab
HS Clinic,Medical clinic,"8HMV+9J7, Amrik Nagar, Qaji Mandi, Jalandhar, Punjab 144001, India",https://www.google.co.kr/maps/place/HS+Clinic/data=!4m5!3m4!1s0x391a5b6322324c0b:0x32625535821804fc!8m2!3d31.3334088!4d75.5940344?authuser=0&hl=en&rclk=1,31.3334088,75.5940344,Punjab
Indo UK Clinic,Medical diagnostic imaging center,"SCO 14 Main Market, Main Gate, opposite BVM School, Kitchlu Nagar, Ludhiana, Punjab 141001, India",https://www.google.co.kr/maps/place/Indo+UK+Clinic/data=!4m5!3m4!1s0x391a83483a653063:0xedbea4a585516a35!8m2!3d30.9156843!4d75.8144849?authuser=0&hl=en&rclk=1,30.9156843,75.8144849,Punjab
Deep clinic,Medical clinic,"Unnamed Road, Isharwal, Punjab 144620, India",https://www.google.co.kr/maps/place/Deep+clinic/data=!4m5!3m4!1s0x391a39bbec9c0aef:0x942dd488607a8085!8m2!3d31.2706488!4d75.2736413?authuser=0&hl=en&rclk=1,31.2706488,75.2736413,Punjab
Patel Multi Super Speciality Hospital || Robotic Surgery Centre,Hospital,"Civil Lines, Jalandhar, Punjab 144001, India",https://www.google.co.kr/maps/place/Patel+Multi+Super+Speciality+Hospital+%7C%7C+Robotic+Surgery+Centre/data=!4m5!3m4!1s0x391a5a594d22b88d:0xb6b4c2cc466b0d20!8m2!3d31.3237267!4d75.5781578?authuser=0&hl=en&rclk=1,31.3237267,75.5781578,Punjab
New Life Hospital.,Hospital,"Grand Trunk Rd, Near Street No. 1, Near Bhogal Tractor And Motor Garage, Issa Nagar, Suranussi, Jalandhar, Punjab 144027, India",https://www.google.co.kr/maps/place/New+Life+Hospital./data=!4m5!3m4!1s0x391a503c616cf2c1:0xcd6a77100dcb51f1!8m2!3d31.37631!4d75.5424709?authuser=0&hl=en&rclk=1,31.37631,75.5424709,Punjab
Nova IVF Fertility - IVF center in Jalandhar,Fertility clinic,"1A, JD Tower, New Jawahar Nagar, Cool Road, Jalandhar, Punjab 144003, India",https://www.google.co.kr/maps/place/Nova+IVF+Fertility+-+IVF+center+in+Jalandhar/data=!4m5!3m4!1s0x391a5b1bff5b7157:0x3b1d15cac0d475a7!8m2!3d31.315382!4d75.585884?authuser=0&hl=en&rclk=1,31.315382,75.585884,Punjab
Punjab clinic,Doctor,"Vill Tajpur bet, Dhanansu Rd, Bhukhri Kalan, Punjab, India",https://www.google.co.kr/maps/place/Punjab+clinic/data=!4m5!3m4!1s0x391a9d287cb82b4b:0x52ff3e3e38e4e5a!8m2!3d30.9244358!4d75.9658188?authuser=0&hl=en&rclk=1,30.9244358,75.9658188,Punjab
Punjab clinic,Hospital,"Vill Tajpur bet opp gurdwara near govt pharimary school, Ludhiana, 141014, India",https://www.google.co.kr/maps/place/Punjab+clinic/data=!4m5!3m4!1s0x391a8353cd861719:0x11bbbea35f6df6ff!8m2!3d30.8757919!4d75.8930631?authuser=0&hl=en&rclk=1,30.8757919,75.8930631,Punjab
VIRK CLINIC,Hospital,"8MVF+425, Patara, Punjab 144101, India",https://www.google.co.kr/maps/place/VIRK+CLINIC/data=!4m5!3m4!1s0x391a5835e5028ad7:0x5d3d46a88c9a1098!8m2!3d31.3427557!4d75.6726225?authuser=0&hl=en&rclk=1,31.3427557,75.6726225,Punjab
Janta Clinic,Medical clinic,"Nagra Rd, Transformer Chowk, New Sheetal Nagar, Maqsudan, Jalandhar, Punjab 144008, India",https://www.google.co.kr/maps/place/Janta+Clinic/data=!4m5!3m4!1s0x391a50732c9db1b3:0x18bcdf3ceb976fd2!8m2!3d31.358484!4d75.5510819?authuser=0&hl=en&rclk=1,31.358484,75.5510819,Punjab
Nav clinic,Children Policlinic,"A-90, Khurla Kingra, Jalandhar, Punjab 144003, India",https://www.google.co.kr/maps/place/Nav+clinic/data=!4m5!3m4!1s0x391a5b52fc243a8b:0xc4644d20bec0b954!8m2!3d31.287457!4d75.559251?authuser=0&hl=en&rclk=1,31.287457,75.559251,Punjab
K. H. Hospital,Hospital,"PWJR+P62, Nag, Punjab 143601, India",https://www.google.co.kr/maps/place/K.+H.+Hospital/data=!4m5!3m4!1s0x3919618c6f12864f:0x334a5b0014432de!8m2!3d31.7317596!4d74.9405035?authuser=0&hl=en&rclk=1,31.7317596,74.9405035,Punjab
Sacred Heart Hospital,Private hospital,"Grand Trunk Rd, near Petrol Pump, Maqsudan, Jalandhar, Punjab 144008, India",https://www.google.co.kr/maps/place/Sacred+Heart+Hospital/data=!4m5!3m4!1s0x391a506d347b807d:0x2b8639042570135a!8m2!3d31.3634739!4d75.5510621?authuser=0&hl=en&rclk=1,31.3634739,75.5510621,Punjab
Ganger Clinic (Dr Palu),Medical clinic,"4F7H+8M9, Rishi Nagar, Nakodar, Punjab 144040, India",https://www.google.co.kr/maps/place/Ganger+Clinic+(Dr+Palu)/data=!4m5!3m4!1s0x391a69575c7f08cb:0x94634b435b1aa099!8m2!3d31.113287!4d75.4792479?authuser=0&hl=en&rclk=1,31.113287,75.4792479,Punjab
Dr A K Bhatia,Doctor,"Shop No. 2, Main Road, Near Street No. 5, Kabir Nagar, Jalandhar, Punjab 144004, India",https://www.google.co.kr/maps/place/Dr+A+K+Bhatia/data=!4m5!3m4!1s0x391a5a9c76b9ee4d:0xac8dc4f2005fa597!8m2!3d31.346025!4d75.558673?authuser=0&hl=en&rclk=1,31.346025,75.558673,Punjab
Jagdish Clinic,Medical clinic,"Shop No. 54, Ladhewali Rd, Near Naveen Chicken, Punjab Avenue, Gulmarg Avenue, Jalandhar, Punjab 144007, India",https://www.google.co.kr/maps/place/Jagdish+Clinic/data=!4m5!3m4!1s0x391a598629797569:0x8a670cf2fe2e1dbf!8m2!3d31.3250293!4d75.6241157?authuser=0&hl=en&rclk=1,31.3250293,75.6241157,Punjab
Dr S S Gill,Orthopedic clinic,"99JV+34Q, Professor Colony, Kapurthala, Punjab 144602, India",https://www.google.co.kr/maps/place/Dr+S+S+Gill/data=!4m5!3m4!1s0x391a49e6447517ad:0xb40bca2edbe15e2f!8m2!3d31.3802156!4d75.3928719?authuser=0&hl=en&rclk=1,31.3802156,75.3928719,Punjab
Apex Hospital,Neurologist,"520-521, Mahavir Marg, New Jawahar Nagar, Jawahar Nagar, Jalandhar, Punjab 144001, India",https://www.google.co.kr/maps/place/Apex+Hospital/data=!4m5!3m4!1s0x391a5a56c84bfcf1:0x4f4feec7e57cad4d!8m2!3d31.3160922!4d75.579469?authuser=0&hl=en&rclk=1,31.3160922,75.579469,Punjab
Armaan Multispeciality Hospital,Gynecologist,"188, Adarsh Nagar, Jalandhar, Punjab 144002, India",https://www.google.co.kr/maps/place/Armaan+Multispeciality+Hospital/data=!4m5!3m4!1s0x391a5af2c48eec6f:0x27c49225725aad4!8m2!3d31.3286674!4d75.5647517?authuser=0&hl=en&rclk=1,31.3286674,75.5647517,Punjab
Apollo Clinic- Best Orthopaedic and Joint Replacement in Chandigarh,Hospital,"SCO 10-11 NEAR GOPAL SWEETS, Madhya Marg, Sector 8C, Chandigarh, 160009, India",https://www.google.co.kr/maps/place/Apollo+Clinic-+Best+Orthopaedic+and+Joint+Replacement+in+Chandigarh/data=!4m5!3m4!1s0x390fed0d63fa7fff:0x4a2871d698c798f6!8m2!3d30.7403361!4d76.7923828?authuser=0&hl=en&rclk=1,30.7403361,76.7923828,Punjab
"Fortis Medcentre Hospital in Chandigarh, Punjab",Medical clinic,"SCO, 11D, Sector 11, Chandigarh, 160011, India","https://www.google.co.kr/maps/place/Fortis+Medcentre+Hospital+in+Chandigarh,+Punjab/data=!4m5!3m4!1s0x390fed793fffff97:0x26ac8f25971112f6!8m2!3d30.7606565!4d76.7820387?authuser=0&hl=en&rclk=1",30.7606565,76.7820387,Punjab
"Chaitanya Hospital Best Gynecologist, Child Specialist, Delivery, NICU, PICU and Vaccination Centre in Chandigarh",Maternity hospital,"Hospital Site 1 And 2, 44C, Chandigarh, 160047, India","https://www.google.co.kr/maps/place/Chaitanya+Hospital+Best+Gynecologist,+Child+Specialist,+Delivery,+NICU,+PICU+and+Vaccination+Centre+in+Chandigarh/data=!4m5!3m4!1s0x390fec346aaaaaab:0x44ed6b196913f7fd!8m2!3d30.7106785!4d76.7542021?authuser=0&hl=en&rclk=1",30.7106785,76.7542021,Punjab
DOCTOR,Medical clinic,"39G5+JH4, Kotla Suraj Mal, Punjab 144703, India",https://www.google.co.kr/maps/place/DOCTOR/data=!4m5!3m4!1s0x391a6b1b2a35f885:0x2ef4a26117b56b94!8m2!3d31.076504!4d75.3589668?authuser=0&hl=en&rclk=1,31.076504,75.3589668,Punjab
Panchkarma clinic,Medical clinic,"Nakodar - Kapurthala Rd, Balehar Kalan, Punjab 144623, India",https://www.google.co.kr/maps/place/Panchkarma+clinic/data=!4m5!3m4!1s0x391a47fa8a0b95a7:0x419f37bf35557934!8m2!3d31.3048451!4d75.4239465?authuser=0&hl=en&rclk=1,31.3048451,75.4239465,Punjab
Ivy Hospital,General hospital,"Phagwara - Mohali Expy, Chandigarh Road, Nawanshahr, 144514, India",https://www.google.co.kr/maps/place/Ivy+Hospital/data=!4m5!3m4!1s0x391abc5cdfb25c05:0x53692d7b1ddd18a4!8m2!3d31.1139759!4d76.1525597?authuser=0&hl=en&rclk=1,31.1139759,76.1525597,Punjab
"Dr Arun Walia, MBBS, MD, Physician, Chest Specialist",Doctor,"18, Vedanta multispeciality Hospital, near, Shri Guru Ravidass Chowk, Guru Ravidass Nagar, Jalandhar, Punjab 144003, India","https://www.google.co.kr/maps/place/Dr+Arun+Walia,+MBBS,+MD,+Physician,+Chest+Specialist/data=!4m5!3m4!1s0x391a5bb3cc000001:0x657e21f3516bc03d!8m2!3d31.3084138!4d75.5658783?authuser=0&hl=en&rclk=1",31.3084138,75.5658783,Punjab
Fortis Hospital Mohali,Hospital,"Sector 62, Sahibzada Ajit Singh Nagar, Punjab 160062, India",https://www.google.co.kr/maps/place/Fortis+Hospital+Mohali/data=!4m5!3m4!1s0x390fee9f04ed85e1:0x63296ed41f02307d!8m2!3d30.6952387!4d76.7314157?authuser=0&hl=en&rclk=1,30.6952387,76.7314157,Punjab
AYUR - SUDHA :: Super Speciality Ayurveda Centre,Ayurvedic clinic,"67 A, near Guru Ravidass Chowk, Guru Ravidass Nagar, Abadpura, New Model Town, Jalandhar, Punjab 144003, India",https://www.google.co.kr/maps/place/AYUR+-+SUDHA+::+Super+Speciality+Ayurveda+Centre/data=!4m5!3m4!1s0x391a5afe1b4f2e1d:0x991b36fa50233b86!8m2!3d31.3081803!4d75.5691353?authuser=0&hl=en&rclk=1,31.3081803,75.5691353,Punjab
Amandeep Hospital - Robotic Joint & Knee Replacement Surgery,Private hospital,"Grand Trunk Rd, Model Town, Rani Ka Bagh, Mohindra Colony, Amritsar, Punjab 143001, India",https://www.google.co.kr/maps/place/Amandeep+Hospital+-+Robotic+Joint+%26+Knee+Replacement+Surgery/data=!4m5!3m4!1s0x391964b100676ff5:0xc1de36b231f8ac90!8m2!3d31.6345492!4d74.8590149?authuser=0&hl=en&rclk=1,31.6345492,74.8590149,Punjab
Raj Clinic,Medical clinic,"256/12 Babu Parmanand Nagar, Dorangla Rd, Shaheed Bhagat Singh Nagar, Gurdaspur, Punjab 143521, India",https://www.google.co.kr/maps/place/Raj+Clinic/data=!4m5!3m4!1s0x391b9279c1ba80c9:0x44414424d62c6a9!8m2!3d32.0426461!4d75.3983321?authuser=0&hl=en&rclk=1,32.0426461,75.3983321,Punjab
Sant Kirpal Hospital,Hospital,"8284, Street Number 10, Guru Angad Colony, Ranjit Nagar, Ludhiana, Punjab 141003, India",https://www.google.co.kr/maps/place/Sant+Kirpal+Hospital/data=!4m5!3m4!1s0x391a82ea0d0307d1:0xd9d84b5bad6c3b0b!8m2!3d30.8753468!4d75.8760821?authuser=0&hl=en&rclk=1,30.8753468,75.8760821,Punjab
Vedanta Multi Speciality Hospital,Hospital,"18, Guru Ravidass Nagar, Near Manbro, Jalandhar, Punjab 144001, India",https://www.google.co.kr/maps/place/Vedanta+Multi+Speciality+Hospital/data=!4m5!3m4!1s0x391a5b018d4ff64d:0x1ebdd39ea78e4331!8m2!3d31.3067859!4d75.5693953?authuser=0&hl=en&rclk=1,31.3067859,75.5693953,Punjab
Clinic,Doctor,"Unnamed Road, Ammi Wala, Punjab 142042, India",https://www.google.co.kr/maps/place/Clinic/data=!4m5!3m4!1s0x391a13d24d570d9d:0xfd2a68c4c6f35a4c!8m2!3d30.9999035!4d75.2571912?authuser=0&hl=en&rclk=1,30.9999035,75.2571912,Punjab
Chaitanya Public Hospital Panchkula,Women's health clinic,"SCO 21, Kalgidhar Enclave, Baltana, opposite K-Area, Zirakpur, 140603, India",https://www.google.co.kr/maps/place/Chaitanya+Public+Hospital+Panchkula/data=!4m5!3m4!1s0x390f94b4c65e4153:0xbe596f3146e48073!8m2!3d30.6609502!4d76.8289953?authuser=0&hl=en&rclk=1,30.6609502,76.8289953,Punjab
Karan Hospital,Hospital,"408-A, Kapurthala Rd, near Jain Bhavan, Krishna Nagar, Adarsh Nagar, Jalandhar, Punjab 144008, India",https://www.google.co.kr/maps/place/Karan+Hospital/data=!4m5!3m4!1s0x391a5a9180df41cb:0x8012326ae0ecb285!8m2!3d31.3346814!4d75.5596183?authuser=0&hl=en&rclk=1,31.3346814,75.5596183,Punjab
"Aastha Kidney & Super Speciality Hospital - Kidney Specialist, Dialysis, Urologist in Ludhiana, Punjab",Hospital,"1197, B-20, 1, Maya Nagar Rd, Near Aarti Chowk, Krishna Nagar, Civil Lines, Ludhiana, Punjab 141001, India","https://www.google.co.kr/maps/place/Aastha+Kidney+%26+Super+Speciality+Hospital+-+Kidney+Specialist,+Dialysis,+Urologist+in+Ludhiana,+Punjab/data=!4m5!3m4!1s0x391a83ec7282b797:0x2e95a370d591adad!8m2!3d30.902672!4d75.8249005?authuser=0&hl=en&rclk=1",30.902672,75.8249005,Punjab
Dr.Vijay Kumar,Medical clinic,"Near Arya Kanya High School, Basti Nau, Ashok Nagar, Jalandhar, Punjab 144002, India",https://www.google.co.kr/maps/place/Dr.Vijay+Kumar/data=!4m5!3m4!1s0x391a5aebd08b3475:0xc804152930bea788!8m2!3d31.3233698!4d75.554509?authuser=0&hl=en&rclk=1,31.3233698,75.554509,Punjab
Sidhu Hospital,Hospital,"G.T. Road, SBS Nagar, Doraha, Punjab 141421, India",https://www.google.co.kr/maps/place/Sidhu+Hospital/data=!4m5!3m4!1s0x39107460c9652bb5:0x208bc405856cff10!8m2!3d30.7967047!4d76.0337859?authuser=0&hl=en&rclk=1,30.7967047,76.0337859,Punjab
Oberoi Hospital,Hospital,"8, Mahavir Marg, Near Mann Scanning Center, Gujral Nagar, Jalandhar, Punjab 144001, India",https://www.google.co.kr/maps/place/Oberoi+Hospital/data=!4m5!3m4!1s0x391a5af11aaaaaab:0x97b27b6069c5e99!8m2!3d31.3233938!4d75.5667093?authuser=0&hl=en&rclk=1,31.3233938,75.5667093,Punjab
Puri Hospital,Hospital,"Mithapur Rd, Ravindra Nagar, Cheema Nagar, Urban Estate phase II, Jalandhar, Punjab 144003, India",https://www.google.co.kr/maps/place/Puri+Hospital/data=!4m5!3m4!1s0x391a5ba42aa2f929:0x28149e5e10ec2e9!8m2!3d31.294906!4d75.5801023?authuser=0&hl=en&rclk=1,31.294906,75.5801023,Punjab
ECHS Polyclinic,Medical clinic,"Nalwa Rd, New S A Colony, Jalandhar Cantt, Jalandhar, Punjab 144005, India",https://www.google.co.kr/maps/place/ECHS+Polyclinic/data=!4m5!3m4!1s0x391a595b83464779:0x7c34ab607f9e98b9!8m2!3d31.2859461!4d75.6292498?authuser=0&hl=en&rclk=1,31.2859461,75.6292498,Punjab
Bawa Hospital,Hospital,"38MQ+8JC, Shahkot, Punjab 144702, India",https://www.google.co.kr/maps/place/Bawa+Hospital/data=!4m5!3m4!1s0x391a15a48caba6f5:0xb38a75a0e4a11c51!8m2!3d31.0833052!4d75.3390241?authuser=0&hl=en&rclk=1,31.0833052,75.3390241,Punjab
Ooat centre,Medical clinic,"Dhobighat, Amritsar, India",https://www.google.co.kr/maps/place/Ooat+centre/data=!4m5!3m4!1s0x3919630155fbc49b:0x8ef0863ea1528e24!8m2!3d31.6293094!4d74.8777591?authuser=0&hl=en&rclk=1,31.6293094,74.8777591,Punjab
Fortis Hospital Ludhiana,Hospital,"Chandigarh Rd, near Radha Soami Satsang Bhavan, Village, Mundian Kalan, Ludhiana, Punjab 141010, India",https://www.google.co.kr/maps/place/Fortis+Hospital+Ludhiana/data=!4m5!3m4!1s0x391a8179bb6cc497:0x2b4288dfe693927a!8m2!3d30.8894461!4d75.9352818?authuser=0&hl=en&rclk=1,30.8894461,75.9352818,Punjab
Thind Hospital,Hospital,"Shahkot, Jalandhar, Dharmkot Shahkot Road, Nakodar, Nakodar, Punjab 144702, India",https://www.google.co.kr/maps/place/Thind+Hospital/data=!4m5!3m4!1s0x391a14b66b535bdb:0x3fb9ae402661b4af!8m2!3d31.0776845!4d75.3342669?authuser=0&hl=en&rclk=1,31.0776845,75.3342669,Punjab
Mohindra Hospital,Hospital,"mohindra hospital , khai road, Lehragaga, Punjab 148031, India",https://www.google.co.kr/maps/place/Mohindra+Hospital/data=!4m5!3m4!1s0x3911a5f838d66347:0x28b827f177197a3e!8m2!3d29.937269!4d75.81725?authuser=0&hl=en&rclk=1,29.937269,75.81725,Punjab
E.S.I Dispensary,Medical clinic,"Shahpur Rd, near Shri Parbodh Chander District Hospital, Lamini, Pathankot, Punjab 145001, India",https://www.google.co.kr/maps/place/E.S.I+Dispensary/data=!4m5!3m4!1s0x391c7fdc5b46254d:0x5cedc59924c85894!8m2!3d32.2827567!4d75.6527917?authuser=0&hl=en&rclk=1,32.2827567,75.6527917,Punjab
Ivy Hospital,General hospital,"City Center, Grand Trunk Rd, opp. Khanna, Alaur, Gobindgarh, Khanna, Punjab 141401, India",https://www.google.co.kr/maps/place/Ivy+Hospital/data=!4m5!3m4!1s0x3910102b726350cf:0xa8c1d8b01d7fd78f!8m2!3d30.6965311!4d76.2379852?authuser=0&hl=en&rclk=1,30.6965311,76.2379852,Punjab
Bhatia Hospital,Hospital,"Vasant Vihar Rd, Professor Colony, Kapurthala, Punjab 144602, India",https://www.google.co.kr/maps/place/Bhatia+Hospital/data=!4m5!3m4!1s0x391a4900d799344b:0x9fef1cd73f7dd003!8m2!3d31.3816803!4d75.3906083?authuser=0&hl=en&rclk=1,31.3816803,75.3906083,Punjab
Amar Hospital,Hospital,"Jalandhar - Nakodar Rd, Jyoti Chowk, Rainak Bazar, Lajpat Nagar, Jalandhar, Punjab 144001, India",https://www.google.co.kr/maps/place/Amar+Hospital/data=!4m5!3m4!1s0x391a5a58a4100bc3:0x59adcba641de9814!8m2!3d31.324162!4d75.574657?authuser=0&hl=en&rclk=1,31.324162,75.574657,Punjab
ESI DISPENSARY,Medical clinic,"Banga Rd, Bansawala Bazar, Hargobind Nagar, Phagwara, Punjab 144401, India",https://www.google.co.kr/maps/place/ESI+DISPENSARY/data=!4m5!3m4!1s0x391af5f7483fb3cf:0x33967cde8233ba65!8m2!3d31.2201891!4d75.7727556?authuser=0&hl=en&rclk=1,31.2201891,75.7727556,Punjab
"Malhotra Hospital | Best Hospital, Best Bone Hospital, Kidney Surgery, IV & Maternity Home | Phagwara",Hospital,"Banga Rd, Subhash Nagar, Valmiki Chowk, Phagwara, Punjab 144401, India","https://www.google.co.kr/maps/place/Malhotra+Hospital+%7C+Best+Hospital,+Best+Bone+Hospital,+Kidney+Surgery,+IV+%26+Maternity+Home+%7C+Phagwara/data=!4m5!3m4!1s0x391af4e834c01afd:0x5c4f0854cba2935!8m2!3d31.220175!4d75.7747836?authuser=0&hl=en&rclk=1",31.220175,75.7747836,Punjab
Bawa Hospital,Hospital,"Tagore Nagar, Kapurthala, Punjab 144602, India",https://www.google.co.kr/maps/place/Bawa+Hospital/data=!4m5!3m4!1s0x391a48e6d75e1c41:0x467d13e02ed09f94!8m2!3d31.3724543!4d75.4079764?authuser=0&hl=en&rclk=1,31.3724543,75.4079764,Punjab
Amandeep hospital,Hospital,"WJW7+PJJ, Railway Colony, Firozpur, Punjab 152002, India",https://www.google.co.kr/maps/place/Amandeep+hospital/data=!4m5!3m4!1s0x3919e9c04df025fb:0x605ee2c8eb3816e9!8m2!3d30.9468444!4d74.6140029?authuser=0&hl=en&rclk=1,30.9468444,74.6140029,Punjab
Medicare Hospital,Hospital,"NH 54, near Petrol Pump, Makhu, Punjab 142044, India",https://www.google.co.kr/maps/place/Medicare+Hospital/data=!4m5!3m4!1s0x391a200255555555:0x9e6178b35baefd21!8m2!3d31.1084031!4d74.9769751?authuser=0&hl=en&rclk=1,31.1084031,74.9769751,Punjab
Dang Hospital & Trauma Care Centre,Orthopedic surgeon,"30-a, Link Road, Abadpura, Model Town, Jalandhar, Punjab 144003, India",https://www.google.co.kr/maps/place/Dang+Hospital+%26+Trauma+Care+Centre/data=!4m5!3m4!1s0x391a5bab15555555:0x7b9b983c59d84ba5!8m2!3d31.3150486!4d75.5723975?authuser=0&hl=en&rclk=1,31.3150486,75.5723975,Punjab
Joshi Hospital Jalandhar.,General hospital,"kapurthala chowk, Adarsh Nagar, Jalandhar, Punjab 144002, India",https://www.google.co.kr/maps/place/Joshi+Hospital+Jalandhar./data=!4m5!3m4!1s0x391a5a594d22b88d:0xa8e9f1a5c3a9a58b!8m2!3d31.3340607!4d75.5633709?authuser=0&hl=en&rclk=1,31.3340607,75.5633709,Punjab
Hospital,Hospital,"157, Gali, Street Number 1, Dakoha, Rama Mandi, Jalandhar, Punjab 144005, India",https://www.google.co.kr/maps/place/Hospital/data=!4m5!3m4!1s0x391a59722c398e25:0xf8f882c79c6f11d9!8m2!3d31.3069945!4d75.6387582?authuser=0&hl=en&rclk=1,31.3069945,75.6387582,Punjab
LAL HOSPITAL AND MATERNITY HOME,Orthopedic surgeon,"3, DASHMESH NAGAR P.O. DAKOHA OPOSITE KHERA PETROL PUMP ROAD JALNDHAR,, Rama Mandi, Punjab, India",https://www.google.co.kr/maps/place/LAL+HOSPITAL+AND+MATERNITY+HOME/data=!4m5!3m4!1s0x391a598333ebed29:0x87fbeeedbf293900!8m2!3d31.318704!4d75.632157?authuser=0&hl=en&rclk=1,31.318704,75.632157,Punjab
Dr Darshan Singh Hospital & Maternity Home,Hospital,"Defence colony park, Defence Colony Park Rd, Defence Colony, Jalandhar, Punjab 144022, India",https://www.google.co.kr/maps/place/Dr+Darshan+Singh+Hospital+%26+Maternity+Home/data=!4m5!3m4!1s0x391a5a8095555555:0x265b9ae8203000b7!8m2!3d31.309664!4d75.594483?authuser=0&hl=en&rclk=1,31.309664,75.594483,Punjab
Indus Hospital,General hospital,"SCF 98-100, Near Chawla Chowk, Phase 3B-2, Sector 60, Sahibzada Ajit Singh Nagar, Punjab 160059, India",https://www.google.co.kr/maps/place/Indus+Hospital/data=!4m5!3m4!1s0x390fee8605689d5d:0xd59b4b3b1af58a09!8m2!3d30.7089058!4d76.7225259?authuser=0&hl=en&rclk=1,30.7089058,76.7225259,Punjab
Armaan Clinic,Hospital,"37H9+JCM, Talwandi Butian, Punjab 144702, India",https://www.google.co.kr/maps/place/Armaan+Clinic/data=!4m5!3m4!1s0x391a154c7c506011:0xed0eba3e8e27ece2!8m2!3d31.079093!4d75.2685341?authuser=0&hl=en&rclk=1,31.079093,75.2685341,Punjab
Neelam,Medical clinic,"Malhotra homeopathic clinic Rose avenue. Near subhash Palace., behind Dr Ranjit rai hospital, Punjab 144602, India",https://www.google.co.kr/maps/place/Neelam/data=!4m5!3m4!1s0x391a49270dee156b:0x1811597dfd0719c4!8m2!3d31.3705464!4d75.3725815?authuser=0&hl=en&rclk=1,31.3705464,75.3725815,Punjab
Civil Hospital,Hospital,"Field Ganj Rd, CMC Campus, Ludhiana, Punjab 141008, India",https://www.google.co.kr/maps/place/Civil+Hospital/data=!4m5!3m4!1s0x391a830ecef208db:0xa14f357720c91448!8m2!3d30.9065209!4d75.8596364?authuser=0&hl=en&rclk=1,30.9065209,75.8596364,Punjab
Global Hospital,Private hospital,"10, Link Road, Abadpura, Lajpat Nagar, Jalandhar, Punjab 144003, India",https://www.google.co.kr/maps/place/Global+Hospital/data=!4m5!3m4!1s0x391a5af90331819f:0xfbfebd80412e7129!8m2!3d31.313103!4d75.5762537?authuser=0&hl=en&rclk=1,31.313103,75.5762537,Punjab
ESI Dispensary,Medical clinic,"CMC Campus, Ludhiana, Punjab 141008, India",https://www.google.co.kr/maps/place/ESI+Dispensary/data=!4m5!3m4!1s0x391a830dd0aa4ed7:0x4028f221740f4201!8m2!3d30.909239!4d75.8627892?authuser=0&hl=en&rclk=1,30.909239,75.8627892,Punjab
Dr. Manpreet Singh,Doctor,"Street 8, Gurdeep Nagar, Guru Nanak Nagar, Jagraon, Punjab 142026, India",https://www.google.co.kr/maps/place/Dr.+Manpreet+Singh/data=!4m5!3m4!1s0x39109d7ece43570b:0x84d4904edee9f002!8m2!3d30.8001553!4d75.4839281?authuser=0&hl=en&rclk=1,30.8001553,75.4839281,Punjab
Bombay Clinic & Multi Speciality Hospital,Surgeon,"near Arya Smaj Chowk, Old City, Bathinda, Punjab 151001, India",https://www.google.co.kr/maps/place/Bombay+Clinic+%26+Multi+Speciality+Hospital/data=!4m5!3m4!1s0x391732997580563f:0x9778feb6bdd5044!8m2!3d30.2101913!4d74.9397649?authuser=0&hl=en&rclk=1,30.2101913,74.9397649,Punjab
Navjot Hospital,Hospital,"928Q+G54, Mahilpur, Punjab 146105, India",https://www.google.co.kr/maps/place/Navjot+Hospital/data=!4m5!3m4!1s0x391ae8ff53162f2f:0x9676c5777e6d0698!8m2!3d31.3662713!4d76.037966?authuser=0&hl=en&rclk=1,31.3662713,76.037966,Punjab
Grecian Super Specialty Hospital,Hospital,"Phase 9, Sahibzada Ajit Singh Nagar, Punjab 160062, India",https://www.google.co.kr/maps/place/Grecian+Super+Specialty+Hospital/data=!4m5!3m4!1s0x390fee61c0000001:0xd304c964b8144afd!8m2!3d30.6911695!4d76.7230479?authuser=0&hl=en&rclk=1,30.6911695,76.7230479,Punjab
Sadana Hospital,Hospital,"38GP+238, Shahkot, Punjab 144702, India",https://www.google.co.kr/maps/place/Sadana+Hospital/data=!4m5!3m4!1s0x391a14b69e8f609d:0x5182c484f1a702fb!8m2!3d31.0750392!4d75.3351883?authuser=0&hl=en&rclk=1,31.0750392,75.3351883,Punjab
Astha Hospital,Hospital,"Jalandhar, Abadpura, Model Town, Jalandhar, Punjab 144003, India",https://www.google.co.kr/maps/place/Astha+Hospital/data=!4m5!3m4!1s0x391a5b01f9ecc459:0xc20fc2e0421213f7!8m2!3d31.3070618!4d75.5687966?authuser=0&hl=en&rclk=1,31.3070618,75.5687966,Punjab
SATGURU PARTAP SINGH HOSPITAL,Private hospital,"SJS HEALTHCARE LIMITED SPS HOSPITAL SHERPUR CHOWK, Grand Trunk Rd, Ludhiana, Punjab 141003, India",https://www.google.co.kr/maps/place/SATGURU+PARTAP+SINGH+HOSPITAL/data=!4m5!3m4!1s0x391a82daad998293:0xfb700ee14b2bfd7b!8m2!3d30.8838732!4d75.8880919?authuser=0&hl=en&rclk=1,30.8838732,75.8880919,Punjab
Bhatia Multi Speciality Hospital,Hospital,"38, Mahavir Marg, Mahavir Marg, Jalandhar, Punjab 144008, India",https://www.google.co.kr/maps/place/Bhatia+Multi+Speciality+Hospital/data=!4m5!3m4!1s0x391a5af825ae79cd:0xa2a14e36063d954c!8m2!3d31.3187984!4d75.5722047?authuser=0&hl=en&rclk=1,31.3187984,75.5722047,Punjab
V Care Multispeciality Hospital,Hospital,"Sahitya Sadan Rd, Lajpat Nagar, Abohar, Punjab 152116, India",https://www.google.co.kr/maps/place/V+Care+Multispeciality+Hospital/data=!4m5!3m4!1s0x3917a78df43edc17:0xbf2610d7044cd82!8m2!3d30.1404948!4d74.2049566?authuser=0&hl=en&rclk=1,30.1404948,74.2049566,Punjab
Multispeciality Hospital in Panchkula - Amcare Hospitals in Zirakpur,Hospital,"Panchkula, Near, VIP Rd, Sector 21, 10mins Drive, Zirakpur, 134112, India",https://www.google.co.kr/maps/place/Multispeciality+Hospital+in+Panchkula+-+Amcare+Hospitals+in+Zirakpur/data=!4m5!3m4!1s0x390feb63c4a01bdf:0x8201f17454aca031!8m2!3d30.6381687!4d76.8160135?authuser=0&hl=en&rclk=1,30.6381687,76.8160135,Punjab
Harjeet Hospital,Hospital,"Phagwara-Hoshiarpur Rd, Plahi Gate, Phagwara, Punjab 144401, India",https://www.google.co.kr/maps/place/Harjeet+Hospital/data=!4m5!3m4!1s0x391af4e5275092eb:0x44098f3784fd56a1!8m2!3d31.228572!4d75.769157?authuser=0&hl=en&rclk=1,31.228572,75.769157,Punjab
Uni Hospital LPU,Hospital,"7P54+7R5, Kapurthala, Punjab 144601, India",https://www.google.co.kr/maps/place/Uni+Hospital+LPU/data=!4m5!3m4!1s0x391a5f60ba048471:0xd373a0a87d6db2d1!8m2!3d31.2581299!4d75.7071051?authuser=0&hl=en&rclk=1,31.2581299,75.7071051,Punjab
Punjab Clinic,Hospital,"Kalka Wale Halwai, 5606, Jagadhari Rd, BC Bazaar, Ambala Cantt, Haryana 133001, India",https://www.google.co.kr/maps/place/Punjab+Clinic/data=!4m5!3m4!1s0x390fb6171c2dbf7b:0x8b5a190499237046!8m2!3d30.3376977!4d76.8401926?authuser=0&hl=en&rclk=1,30.3376977,76.8401926,Punjab
Singh clinic,Hospital,"Mohalla Jattpura, Kapurthala, Punjab 144602, India",https://www.google.co.kr/maps/place/Singh+clinic/data=!4m5!3m4!1s0x391a495d80a659d7:0xa756c39f1c676f90!8m2!3d31.385575!4d75.385139?authuser=0&hl=en&rclk=1,31.385575,75.385139,Punjab
Cloudnine Hospital - Chandigarh,Maternity hospital,"48, Phase-2, Industrial Area Phase I, Chandigarh, 160002, India",https://www.google.co.kr/maps/place/Cloudnine+Hospital+-+Chandigarh/data=!4m5!3m4!1s0x390fecf305a2d351:0x46dbd6e5ebd44ac4!8m2!3d30.700183!4d76.787673?authuser=0&hl=en&rclk=1,30.700183,76.787673,Punjab
RANJIT HOSPITAL,Hospital,"58, Patel Chowk, Kapurthala Rd, Jalandhar, Punjab 144001, India",https://www.google.co.kr/maps/place/RANJIT+HOSPITAL/data=!4m5!3m4!1s0x391a4ea217aa8aa3:0xaaa9ea8cea2750b9!8m2!3d31.3351745!4d75.5674572?authuser=0&hl=en&rclk=1,31.3351745,75.5674572,Punjab
Dr Gurbeer Singh Gill,Cardiologist,"Near, Oxford Hospital, Nakodar Chowk, Jalandhar, Punjab 144001, India",https://www.google.co.kr/maps/place/Dr+Gurbeer+Singh+Gill/data=!4m5!3m4!1s0x391a5b1d9fea3a4d:0x86599ff6e309fa8e!8m2!3d31.3190585!4d75.5720003?authuser=0&hl=en&rclk=1,31.3190585,75.5720003,Punjab
Ela IVF Medical Center,Fertility clinic,"713, Mota Singh Nagar, Jalandhar, Punjab 144022, India",https://www.google.co.kr/maps/place/Ela+IVF+Medical+Center/data=!4m5!3m4!1s0x391a5b296033d0cb:0xc9218d7f273dd51c!8m2!3d31.3091752!4d75.5905278?authuser=0&hl=en&rclk=1,31.3091752,75.5905278,Punjab
Apollo Child Hospital,Children's hospital,"Palahi Road, Shaheed Bhagat Singh Nagar, Chahal Nagar, Phagwara, Punjab 144401, India",https://www.google.co.kr/maps/place/Apollo+Child+Hospital/data=!4m5!3m4!1s0x391af4fcbc6c651f:0xf43398a6c0a7f58a!8m2!3d31.2302566!4d75.7652338?authuser=0&hl=en&rclk=1,31.2302566,75.7652338,Punjab
"Grecian Hospital - Best Gynecologist, Obstetrician and Gynaecology Specialist Hospital in Chandigarh Mohali",Obstetrician-gynecologist,"OPD 137, Block B First Floor Ext 307, Sector 69, Sahibzada Ajit Singh Nagar, Punjab 160062, India","https://www.google.co.kr/maps/place/Grecian+Hospital+-+Best+Gynecologist,+Obstetrician+and+Gynaecology+Specialist+Hospital+in+Chandigarh+Mohali/data=!4m5!3m4!1s0x390fef548b0cd1a7:0x179d247c228b216b!8m2!3d30.692499!4d76.7206652?authuser=0&hl=en&rclk=1",30.692499,76.7206652,Punjab
Simran Hospital,Hospital,"Jandiala Manjki, Punjab 144033, India",https://www.google.co.kr/maps/place/Simran+Hospital/data=!4m5!3m4!1s0x391a674c6a22a33f:0x9598912e36b9822b!8m2!3d31.163229!4d75.6167671?authuser=0&hl=en&rclk=1,31.163229,75.6167671,Punjab
Arora Hospital,Private hospital,"Kartarpur-Bholath Road, Kartarpur, Jalandhar, Punjab 144801, India",https://www.google.co.kr/maps/place/Arora+Hospital/data=!4m5!3m4!1s0x391a4dd001573ebb:0x7004613c07a6851!8m2!3d31.4461108!4d75.4921209?authuser=0&hl=en&rclk=1,31.4461108,75.4921209,Punjab
"Dr Shangara Singh Hospital - Best Laparoscopic Surgeon in Jalandhar, Child Specialist in Jalandhar, Best Gynecologist in Jalandhar",Obstetrician-gynecologist,"29, Link Road, Abadpura, Model Town, Jalandhar, Punjab 144003, India","https://www.google.co.kr/maps/place/Dr+Shangara+Singh+Hospital+-+Best+Laparoscopic+Surgeon+in+Jalandhar,+Child+Specialist+in+Jalandhar,+Best+Gynecologist+in+Jalandhar/data=!4m5!3m4!1s0x391a5af8c71838cd:0x629955642528c3fc!8m2!3d31.3146718!4d75.5726482?authuser=0&hl=en&rclk=1",31.3146718,75.5726482,Punjab
Dr. Gulati Children Hospital,Pediatrician,"Arvindra Rd, Near DAV School, Hathi Gate, Katra Ahluwalia, Amritsar, Punjab 143001, India",https://www.google.co.kr/maps/place/Dr.+Gulati+Children+Hospital/data=!4m5!3m4!1s0x39197b553c2c8f23:0x740550433e7a6a6!8m2!3d31.626739!4d74.8722509?authuser=0&hl=en&rclk=1,31.626739,74.8722509,Punjab
Johal Multi-Speciality Hospital,Hospital,"Hoshiarpur Rd, Ladhewali Chowk, Rama Mandi, Jalandhar, Punjab 144005, India",https://www.google.co.kr/maps/place/Johal+Multi-Speciality+Hospital/data=!4m5!3m4!1s0x391a59716aaaaaab:0x4e7b375f5b591145!8m2!3d31.3217382!4d75.6323816?authuser=0&hl=en&rclk=1,31.3217382,75.6323816,Punjab
Hunjan Hospital : Orthopedics Surgery | Arthroscopic Surgery | General Surgery | Trauma Center | Superspeciality Hospital in Ludhiana,Orthopedic surgeon,"111, Kochar Market Rd, Sampooran Colony, South Model Gram, Ludhiana, Punjab 141002, India",https://www.google.co.kr/maps/place/Hunjan+Hospital+:+Orthopedics+Surgery+%7C+Arthroscopic+Surgery+%7C+General+Surgery+%7C+Trauma+Center+%7C+Superspeciality+Hospital+in+Ludhiana/data=!4m5!3m4!1s0x391a83b112fc8d69:0xfa50642b61e8b35f!8m2!3d30.8934935!4d75.8348306?authuser=0&hl=en&rclk=1,30.8934935,75.8348306,Punjab
Golden Hospital Jalandhar,Hospital,"613-LA ,Mall Road Model Town 613-LA, Mall Rd, Jalandhar, Punjab 144003, India",https://www.google.co.kr/maps/place/Golden+Hospital+Jalandhar/data=!4m5!3m4!1s0x391a5affd0b21187:0x8f8be3adf73b0abe!8m2!3d31.3080947!4d75.5721359?authuser=0&hl=en&rclk=1,31.3080947,75.5721359,Punjab
Chawla Children & Maternity Clinic,Pediatrician,"84/7 Nakodar Rd Bhargav Camp, Bhargav Nagar, near Civil Disprnsary, Avtar Nagar, Jalandhar, Punjab 144003, India",https://www.google.co.kr/maps/place/Chawla+Children+%26+Maternity+Clinic/data=!4m5!3m4!1s0x391a5afb9d89df77:0xc56e77b3c8b3eaf6!8m2!3d31.3137597!4d75.5650606?authuser=0&hl=en&rclk=1,31.3137597,75.5650606,Punjab
Hope Hospital - Laparoscopic Surgery in Ludhiana,Hospital,"28-B, Tagore Nagar Opp, Hero DMC, Ludhiana, Punjab 141001, India",https://www.google.co.kr/maps/place/Hope+Hospital+-+Laparoscopic+Surgery+in+Ludhiana/data=!4m5!3m4!1s0x391a83e990ac7099:0x53cef3bb4fdf6626!8m2!3d30.9121661!4d75.8233214?authuser=0&hl=en&rclk=1,30.9121661,75.8233214,Punjab
Amandeep Hospital,Hospital,"Dalhousie Road, Mamun, Pathankot, Punjab 145001, India",https://www.google.co.kr/maps/place/Amandeep+Hospital/data=!4m5!3m4!1s0x391c7febf2320527:0x104f94abb707839e!8m2!3d32.2762841!4d75.6951917?authuser=0&hl=en&rclk=1,32.2762841,75.6951917,Punjab
Sidhu Hospital,Private hospital,"Masitan Rd, near Gaushala\nKot, Kot Ise Khan, Punjab 142043, India",https://www.google.co.kr/maps/place/Sidhu+Hospital/data=!4m5!3m4!1s0x391a1ab398d41c05:0x2bd0e44d5d986170!8m2!3d30.9473824!4d75.1383432?authuser=0&hl=en&rclk=1,30.9473824,75.1383432,Punjab
Anand Hospital,Hospital,"Raja Paint and Hardware Store, Grand Trunk Rd, Near upal electronic, Rayya, Punjab 143112, India",https://www.google.co.kr/maps/place/Anand+Hospital/data=!4m5!3m4!1s0x391bcc63ee214d6f:0xaabb6045711de6f8!8m2!3d31.5418504!4d75.2315949?authuser=0&hl=en&rclk=1,31.5418504,75.2315949,Punjab
Sekhri Hospital,Orthopedic surgeon,"Malri Rd, Amardas Colony, Nakodar, Punjab 144040, India",https://www.google.co.kr/maps/place/Sekhri+Hospital/data=!4m5!3m4!1s0x391a69b3e452baa9:0xec22e79c901d2b48!8m2!3d31.1337058!4d75.4757969?authuser=0&hl=en&rclk=1,31.1337058,75.4757969,Punjab
N.H.S Hospital,Hospital,"Kapurthala Rd, Guru Nanak Nagar, Hardev Nagar, Jalandhar, Punjab 144008, India",https://www.google.co.kr/maps/place/N.H.S+Hospital/data=!4m5!3m4!1s0x391a4520c4889927:0x90ca84f13f587084!8m2!3d31.3355026!4d75.5570567?authuser=0&hl=en&rclk=1,31.3355026,75.5570567,Punjab
Amandeep Clinic,Hospital,"4457/5, Lehal Colony, Charan Bagh, Patiala, Punjab 147001, India",https://www.google.co.kr/maps/place/Amandeep+Clinic/data=!4m5!3m4!1s0x391028946a3f81df:0x5b5da8e706261b73!8m2!3d30.3442249!4d76.3913217?authuser=0&hl=en&rclk=1,30.3442249,76.3913217,Punjab
Avasthi Bone & Joint Clinic & Hospital,Hospital,"135, Prince Hostel Rd, opp. Prince Hostel, Patel Nagar, Green Park, Civil Lines, Ludhiana, Punjab 141001, India",https://www.google.co.kr/maps/place/Avasthi+Bone+%26+Joint+Clinic+%26+Hospital/data=!4m5!3m4!1s0x391a8395a7a09061:0x21c54aaf899de740!8m2!3d30.913177!4d75.833195?authuser=0&hl=en&rclk=1,30.913177,75.833195,Punjab
Hospital,Hospital,"657W+M55, Bharamal Mohalla, Sultanpur Lodhi, Punjab 144626, India",https://www.google.co.kr/maps/place/Hospital/data=!4m5!3m4!1s0x391a3c86aacb1ba7:0xb415a5959b0206af!8m2!3d31.2141324!4d75.1954979?authuser=0&hl=en&rclk=1,31.2141324,75.1954979,Punjab
"Civil Hospital, Jalandhar",Hospital,"Jyothi Chowk, near Police Station, Islam Ganj, Jalandhar, Punjab 144001, India","https://www.google.co.kr/maps/place/Civil+Hospital,+Jalandhar/data=!4m5!3m4!1s0x391a5af589879413:0x9fabad00e25c2dda!8m2!3d31.32627!4d75.5730449?authuser=0&hl=en&rclk=1",31.32627,75.5730449,Punjab
Revive Physio Clinic,Physical therapy clinic,"147, 5, Friends Colony, Ram Nagar, Jalandhar, Punjab 144008, India",https://www.google.co.kr/maps/place/Revive+Physio+Clinic/data=!4m5!3m4!1s0x391a5b53350be22d:0x95ace4973ee43fc0!8m2!3d31.351394!4d75.5616809?authuser=0&hl=en&rclk=1,31.351394,75.5616809,Punjab
chandi hospital,Hospital,"99MR+R64, Shanti Nagar, Kapurthala, Punjab 144602, India",https://www.google.co.kr/maps/place/chandi+hospital/data=!4m5!3m4!1s0x391a4907031ceedd:0xe9c7e5914a9a7fc7!8m2!3d31.3845237!4d75.3905694?authuser=0&hl=en&rclk=1,31.3845237,75.3905694,Punjab
KM Hospital & Fertility Clinic,Hospital,"TV tower, Near, Khurla Kingra, Jalandhar, Punjab 144014, India",https://www.google.co.kr/maps/place/KM+Hospital+%26+Fertility+Clinic/data=!4m5!3m4!1s0x391a5b1467fdd1ab:0x7809bbae689bf845!8m2!3d31.2873316!4d75.5553553?authuser=0&hl=en&rclk=1,31.2873316,75.5553553,Punjab
Mohan Skin Diseases Hospital,Hospital,"337, Main Road, Guru Hargobind Nagar, Phagwara, Punjab 144401, India",https://www.google.co.kr/maps/place/Mohan+Skin+Diseases+Hospital/data=!4m5!3m4!1s0x391af4c3edceaacd:0x1b3ca9c7b870dbcb!8m2!3d31.2144599!4d75.7766321?authuser=0&hl=en&rclk=1,31.2144599,75.7766321,Punjab
"Fortis Escorts Hospital, Amritsar",Hospital,"Majitha-Verka Bypass Road, Amritsar - 143004, Amritsar, Punjab 143004, India","https://www.google.co.kr/maps/place/Fortis+Escorts+Hospital,+Amritsar/data=!4m5!3m4!1s0x39196368fac3a7d9:0x3c1072af880d7974!8m2!3d31.6647473!4d74.9182825?authuser=0&hl=en&rclk=1",31.6647473,74.9182825,Punjab
Berry Hospital,Hospital,"Near Nakodar Chowk, Jalandhar, Punjab 144001, India",https://www.google.co.kr/maps/place/Berry+Hospital/data=!4m5!3m4!1s0x391a5a8095555555:0x523f0d5cd21506ce!8m2!3d31.3199999!4d75.5729569?authuser=0&hl=en&rclk=1,31.3199999,75.5729569,Punjab
Healing Hands Clinic,Hospital,"2117, 1457, Ferozepur Rd, opp. hotel onn, Near Yes Bank, Gobind Nagar, Krishna Nagar, Ludhiana, Punjab 141001, India",https://www.google.co.kr/maps/place/Healing+Hands+Clinic/data=!4m5!3m4!1s0x391a839a60e14fc1:0x64bbd8d6503e9d8d!8m2!3d30.9010285!4d75.8219909?authuser=0&hl=en&rclk=1,30.9010285,75.8219909,Punjab
Sarkari Hospital,Hospital,"144602, Rabbit Avenue, Kapurthala, Punjab, India",https://www.google.co.kr/maps/place/Sarkari+Hospital/data=!4m5!3m4!1s0x391a4853552816db:0xa21125a597aa47ec!8m2!3d31.375661!4d75.3818455?authuser=0&hl=en&rclk=1,31.375661,75.3818455,Punjab
Apollo Spectra - Amritsar,Hospital,"Mahindra Colony, Liberty Market, Amritsar, Punjab 143001, India",https://www.google.co.kr/maps/place/Apollo+Spectra+-+Amritsar/data=!4m5!3m4!1s0x3919634a01cca0ed:0x63e4e423dc49519d!8m2!3d31.6370579!4d74.9013263?authuser=0&hl=en&rclk=1,31.6370579,74.9013263,Punjab
Dn Diagnostic Hospital,Hospital,"Moga,, Kartar Nagar, Moga, Punjab 142001, India",https://www.google.co.kr/maps/place/Dn+Diagnostic+Hospital/data=!4m5!3m4!1s0x391a090e61cf3773:0xf8efc504099bb442!8m2!3d30.827224!4d75.2174972?authuser=0&hl=en&rclk=1,30.827224,75.2174972,Punjab
Columbia Asia Hospital - Patiala,General hospital,"Bhupindra Road, Near 22 No. Phatak, Patiala, Punjab 147001, India",https://www.google.co.kr/maps/place/Columbia+Asia+Hospital+-+Patiala/data=!4m5!3m4!1s0x391028b9647cfc47:0xddf8f9271079939c!8m2!3d30.344075!4d76.378885?authuser=0&hl=en&rclk=1,30.344075,76.378885,Punjab
Mahajan Hospital,Hospital,"Malri Rd, Amardas Colony, Nakodar, Punjab 144040, India",https://www.google.co.kr/maps/place/Mahajan+Hospital/data=!4m5!3m4!1s0x391a69b3fbe84cff:0x2fb8589567cf2915!8m2!3d31.1312905!4d75.4766418?authuser=0&hl=en&rclk=1,31.1312905,75.4766418,Punjab
"District Hospital, Faridkot",Hospital,"MQH6+H4G, Garden Colony, Faridkot, Punjab 151203, India","https://www.google.co.kr/maps/place/District+Hospital,+Faridkot/data=!4m5!3m4!1s0x391758344bf15527:0x30394fc5525c8d29!8m2!3d30.6789412!4d74.7603382?authuser=0&hl=en&rclk=1",30.6789412,74.7603382,Punjab
Clinic,Doctor,"363F+6G3, Miani, Punjab 144702, India",https://www.google.co.kr/maps/place/Clinic/data=!4m5!3m4!1s0x391a17373c262541:0x83bed93427240dbe!8m2!3d31.0530065!4d75.2237929?authuser=0&hl=en&rclk=1,31.0530065,75.2237929,Punjab
VIJAY HOSPITAL,Hospital,"Gurudwara Singh Sabha Rd, Employees colony, Shahkot, Punjab 144702, India",https://www.google.co.kr/maps/place/VIJAY+HOSPITAL/data=!4m5!3m4!1s0x391a15c4e324e337:0x33cc626f90f43b2b!8m2!3d31.0817931!4d75.3379587?authuser=0&hl=en&rclk=1,31.0817931,75.3379587,Punjab
Aujla hospital,Hospital,"349, Circular Road, New Mohabbat Nagar, Ashok Vihar, Kapurthala, Punjab 144602, India",https://www.google.co.kr/maps/place/Aujla+hospital/data=!4m5!3m4!1s0x391a48569033bab9:0x1484474a394a1d92!8m2!3d31.369486!4d75.384162?authuser=0&hl=en&rclk=1,31.369486,75.384162,Punjab
Goyal Clinic,Hospital,"Tokri Bazaar Road, Dhobi Mohalla, Firozpur, Punjab 152002, India",https://www.google.co.kr/maps/place/Goyal+Clinic/data=!4m5!3m4!1s0x3919e9f3b3047bc7:0xedde6a8e9d74e2d5!8m2!3d30.9628868!4d74.6127513?authuser=0&hl=en&rclk=1,30.9628868,74.6127513,Punjab
Civil Hospital Hoshiarpur,Hospital,"Kamalpur, Hoshiarpur, Punjab 146001, India",https://www.google.co.kr/maps/place/Civil+Hospital+Hoshiarpur/data=!4m5!3m4!1s0x391ae2d35435fd39:0xc567389a1e78487d!8m2!3d31.5300252!4d75.9001422?authuser=0&hl=en&rclk=1,31.5300252,75.9001422,Punjab
Takar Hospital,Hospital,"658W+9M9, Sultanpur Rural, Punjab 144626, India",https://www.google.co.kr/maps/place/Takar+Hospital/data=!4m5!3m4!1s0x391a3c816b11377d:0x86eefe81d6bcdf8b!8m2!3d31.215918!4d75.1967356?authuser=0&hl=en&rclk=1,31.215918,75.1967356,Punjab
Grewalz Health Care,Hospital,"Lane Number 2, Punia Colony, Sangrur, Punjab 148001, India",https://www.google.co.kr/maps/place/Grewalz+Health+Care/data=!4m5!3m4!1s0x391050e194c4e085:0xf62c9ceb36bbc3ad!8m2!3d30.2592063!4d75.8347462?authuser=0&hl=en&rclk=1,30.2592063,75.8347462,Punjab
Charitable Hospital Rurka Kalan,Hospital,"Masopur Rurka Klan Rd, Rurka Kalan, Punjab 144031, India",https://www.google.co.kr/maps/place/Charitable+Hospital+Rurka+Kalan/data=!4m5!3m4!1s0x391a61e7dd988151:0x1b3a0c6264765c24!8m2!3d31.1197124!4d75.7027215?authuser=0&hl=en&rclk=1,31.1197124,75.7027215,Punjab
BAL Hospital,Hospital,"Vpo. Gandhran, Teh. Nakodar, Gandhran, Punjab 144040, India",https://www.google.co.kr/maps/place/BAL+Hospital/data=!4m5!3m4!1s0x391a6a2cb792fbfd:0x1a7003972cab907c!8m2!3d31.1128998!4d75.4273251?authuser=0&hl=en&rclk=1,31.1128998,75.4273251,Punjab
Dr. S.K. Jain,Medical clinic,"Circular Rd, Near Sitla Mandir, Charanjit Pura, Neela Mahal, Jalandhar, Punjab 144008, India",https://www.google.co.kr/maps/place/Dr.+S.K.+Jain/data=!4m5!3m4!1s0x391a5a618b26d21b:0x2879393e1cd2fff6!8m2!3d31.3362727!4d75.5757694?authuser=0&hl=en&rclk=1,31.3362727,75.5757694,Punjab
Civil Hospital,Hospital,"5663+QMR, Lohian Khas, Punjab 144629, India",https://www.google.co.kr/maps/place/Civil+Hospital/data=!4m5!3m4!1s0x391a3da655555555:0x758718faad94d1fb!8m2!3d31.1619789!4d75.2041468?authuser=0&hl=en&rclk=1,31.1619789,75.2041468,Punjab
Cosmos Hospital,Hospital,"SCF 156-157, Street Number 7, Near Petrol Pump, Urban Estate Phase 1, Part 1, Golden Avenue, Jalandhar, Punjab 144022, India",https://www.google.co.kr/maps/place/Cosmos+Hospital/data=!4m5!3m4!1s0x391a5bb815cfb3c5:0x1deeee92bb92168e!8m2!3d31.2986747!4d75.5961862?authuser=0&hl=en&rclk=1,31.2986747,75.5961862,Punjab
The Joint Clinic/Dr Manish Bansal,Hospital,"The Joint Clinic, inside Caremax Hospital, near Guru Nanak Mission Chowk, Lajpat Nagar, Jalandhar, Punjab 144001, India",https://www.google.co.kr/maps/place/The+Joint+Clinic%2FDr+Manish+Bansal/data=!4m5!3m4!1s0x391a5b01cbe61d5f:0xafc2ebead7863528!8m2!3d31.3176822!4d75.5756365?authuser=0&hl=en&rclk=1,31.3176822,75.5756365,Punjab
Jain Hospital,Hospital,"Dharamkot - Shahkot Rd, Shahkot, Punjab 144702, India",https://www.google.co.kr/maps/place/Jain+Hospital/data=!4m5!3m4!1s0x391a14c986d3ebbb:0x17a0f3bcc1d48b41!8m2!3d31.0816295!4d75.3351778?authuser=0&hl=en&rclk=1,31.0816295,75.3351778,Punjab
JANAM FERTILITY CENTRE,Fertility clinic,"320, near NAKODAR CHOWK, Shastri Nagar, Lajpat Nagar, Jalandhar, Punjab 144003, India",https://www.google.co.kr/maps/place/JANAM+FERTILITY+CENTRE/data=!4m5!3m4!1s0x391a5af80b5ce3fd:0x6adf931e00d856f3!8m2!3d31.3181224!4d75.5739482?authuser=0&hl=en&rclk=1,31.3181224,75.5739482,Punjab
Civil Hospital,Hospital,"659R+4P6, Sultanpur Rural, Punjab 144626, India",https://www.google.co.kr/maps/place/Civil+Hospital/data=!4m5!3m4!1s0x391a3c82f2991b39:0x8df61d7bc72a5752!8m2!3d31.2177794!4d75.1917786?authuser=0&hl=en&rclk=1,31.2177794,75.1917786,Punjab
Tagore Hospital,Hospital,"Tagore hospital, Salachain Rd, Shahkot, Punjab 144702, India",https://www.google.co.kr/maps/place/Tagore+Hospital/data=!4m5!3m4!1s0x391a14b5b9802e5d:0x7e2f551759e2cb77!8m2!3d31.0810891!4d75.3328079?authuser=0&hl=en&rclk=1,31.0810891,75.3328079,Punjab
Dr.Sharda - Best Ayurvedic Clinic Muktsar Sahib,Hospital,"Ranjit Avenue, Sri Muktsar Sahib, Punjab 152026, India",https://www.google.co.kr/maps/place/Dr.Sharda+-+Best+Ayurvedic+Clinic+Muktsar+Sahib/data=!4m5!3m4!1s0x391769279f3b69c5:0xff5387c9197143da!8m2!3d30.4644454!4d74.5138006?authuser=0&hl=en&rclk=1,30.4644454,74.5138006,Punjab
Hospital,Medical Center,"Jalandhar Cantt - Jandiala Rd, Jamsher, Punjab 144020, India",https://www.google.co.kr/maps/place/Hospital/data=!4m5!3m4!1s0x391a5df29f271ac3:0x42c6ee6275a1ae98!8m2!3d31.2387142!4d75.6129668?authuser=0&hl=en&rclk=1,31.2387142,75.6129668,Punjab
Kalra Hospital,Hospital,"13, Sultanwind Rd, Ajit Nagar, Amritsar, Punjab 143001, India",https://www.google.co.kr/maps/place/Kalra+Hospital/data=!4m5!3m4!1s0x39197cbab9f281d5:0x5c616ac8df20df4a!8m2!3d31.6174532!4d74.8866199?authuser=0&hl=en&rclk=1,31.6174532,74.8866199,Punjab
KAPOOR HOMOEO HOSPITAL(KHH),Hospital,"Sant Colony, Agar Nagar, Malerkotla, Punjab 148023, India",https://www.google.co.kr/maps/place/KAPOOR+HOMOEO+HOSPITAL(KHH)/data=!4m5!3m4!1s0x391067c6c46731db:0x3c74f2e13ea57b07!8m2!3d30.5176902!4d75.88047?authuser=0&hl=en&rclk=1,30.5176902,75.88047,Punjab
Markanda Hospital for Children and Vaccination Center,Hospital,"Hoshiarpur Rd, Laxmi Pura, Jalandhar, Punjab 144004, India",https://www.google.co.kr/maps/place/Markanda+Hospital+for+Children+and+Vaccination+Center/data=!4m5!3m4!1s0x391a5a644b979507:0xc9bb5b0dbbca1fe1!8m2!3d31.3388838!4d75.5827076?authuser=0&hl=en&rclk=1,31.3388838,75.5827076,Punjab
SARB HOSPITAL,Hospital,"ITI Ground, Opp, Nawansahahr, Chandigarh Rd, Nawanshahr, Punjab 144514, India",https://www.google.co.kr/maps/place/SARB+HOSPITAL/data=!4m5!3m4!1s0x391abdb51d5923c3:0xc6d534e15b84576a!8m2!3d31.1215088!4d76.1291267?authuser=0&hl=en&rclk=1,31.1215088,76.1291267,Punjab
ECHS POLYCLINIC JAGRAON,Hospital,"RF47+HQR, Kothe Baggu, Jagraon, Punjab 142026, India",https://www.google.co.kr/maps/place/ECHS+POLYCLINIC+JAGRAON/data=!4m5!3m4!1s0x391a7626b875405b:0x95844b3eda38659b!8m2!3d30.8064795!4d75.4644037?authuser=0&hl=en&rclk=1,30.8064795,75.4644037,Punjab
Thind Hospital,Hospital,"5829+6JJ, Rupewali, Punjab 144701, India",https://www.google.co.kr/maps/place/Thind+Hospital/data=!4m5!3m4!1s0x391a3fe74937dba7:0xf786d7e4be476f9b!8m2!3d31.1505996!4d75.3190265?authuser=0&hl=en&rclk=1,31.1505996,75.3190265,Punjab
Ayushveda - Ayurvedic & Panchkarma Centre,Doctor,"SCF 50 opp. Singh Sabha Gurudwara, Estate, Phase 1, Jalandhar, Punjab 144022, India",https://www.google.co.kr/maps/place/Ayushveda+-+Ayurvedic+%26+Panchkarma+Centre/data=!4m5!3m4!1s0x391a5bb8e02d9e31:0x8e48cd8930ea8b5!8m2!3d31.2959203!4d75.5948297?authuser=0&hl=en&rclk=1,31.2959203,75.5948297,Punjab
Rajindra Hospital Patiala,Government hospital,"Sangrur Road, New Lal Bagh Colony, Patiala, Punjab 147001, India",https://www.google.co.kr/maps/place/Rajindra+Hospital+Patiala/data=!4m5!3m4!1s0x391028dd695e0c2b:0xab9eccd20f905b2d!8m2!3d30.3291498!4d76.3842612?authuser=0&hl=en&rclk=1,30.3291498,76.3842612,Punjab
Chawla Children Hospital & Advance New Born Center,Children's hospital,"Near Punjab National Bank, Mahavir Marg, Shaheed Udham Singh Nagar, opposite T V Centre, Jalandhar, Punjab 144001, India",https://www.google.co.kr/maps/place/Chawla+Children+Hospital+%26+Advance+New+Born+Center/data=!4m5!3m4!1s0x391a5a8095555555:0x3d50e55efd389c67!8m2!3d31.3231057!4d75.568307?authuser=0&hl=en&rclk=1,31.3231057,75.568307,Punjab
Hp Orthocare - Best orthopedic Surgeon | Knee & Hip replacement Surgery | Knee Specialist | Ortho Hospital in Jalandhar,Hospital,"KMV Marg, B D A Enclave, Santokh Pura, Jalandhar, Punjab 144004, India",https://www.google.co.kr/maps/place/Hp+Orthocare+-+Best+orthopedic+Surgeon+%7C+Knee+%26+Hip+replacement+Surgery+%7C+Knee+Specialist+%7C+Ortho+Hospital+in+Jalandhar/data=!4m5!3m4!1s0x391a5a7614cfe789:0x477187a691908f25!8m2!3d31.3535934!4d75.5904838?authuser=0&hl=en&rclk=1,31.3535934,75.5904838,Punjab
Astha Hospital,Hospital,"1390, 1390, Ludhiana, Punjab 141001, India",https://www.google.co.kr/maps/place/Astha+Hospital/data=!4m5!3m4!1s0x391a83c6edcaf0ed:0xed46a25e91a87e0e!8m2!3d30.9028227!4d75.8260663?authuser=0&hl=en&rclk=1,30.9028227,75.8260663,Punjab
Dog hospital,Hospital,"1, Wadala Rd Phase 3, Wadala Rd, Phase 3, Tower Enclave, Khurla Kingra, Jalandhar, Punjab 144003, India",https://www.google.co.kr/maps/place/Dog+hospital/data=!4m5!3m4!1s0x391a5b23568512dd:0x4c97df7a16904ea8!8m2!3d31.294213!4d75.5453574?authuser=0&hl=en&rclk=1,31.294213,75.5453574,Punjab
Sarvodya Hospital : Dr. Rajesh Kumar Agrawal,Urologist,"opp. Khalsa College for Boys, near BSF Chowk, PAP Complex, Jalandhar, Punjab 144004, India",https://www.google.co.kr/maps/place/Sarvodya+Hospital+:+Dr.+Rajesh+Kumar+Agrawal/data=!4m5!3m4!1s0x391a5bcd2761cb77:0xe12aae322ffabc7d!8m2!3d31.3111014!4d75.6062763?authuser=0&hl=en&rclk=1,31.3111014,75.6062763,Punjab
RG Stone Urology & Laparoscopy Hospital,Hospital,"510-L, Model Town Rd, Pritm Nagar, Model Town, Ludhiana, Punjab 141002, India",https://www.google.co.kr/maps/place/RG+Stone+Urology+%26+Laparoscopy+Hospital/data=!4m5!3m4!1s0x391a8345e2e7da81:0x4cbcc10871077bf8!8m2!3d30.88892!4d75.842946?authuser=0&hl=en&rclk=1,30.88892,75.842946,Punjab
BeFit Physiotherapy Clinic,Hospital,"8GGW+2W4, Dilbag Nagar, Basti Guzan, Jalandhar, Punjab 144002, India",https://www.google.co.kr/maps/place/BeFit+Physiotherapy+Clinic/data=!4m5!3m4!1s0x391a5b8a0c60019f:0xa3d6fddb5f455a72!8m2!3d31.3250007!4d75.5473227?authuser=0&hl=en&rclk=1,31.3250007,75.5473227,Punjab
A S Anand,Obstetrician-gynecologist,"Bypass Road, Rishi Nagar, Nakodar, Punjab 144040, India",https://www.google.co.kr/maps/place/A+S+Anand/data=!4m5!3m4!1s0x391a6903e04fc2a1:0xd5fb9211c35960d8!8m2!3d31.112246!4d75.4765807?authuser=0&hl=en&rclk=1,31.112246,75.4765807,Punjab
Gandhi Hospital,Hospital,"Mahavir Marg, Adarsh Nagar, Jalandhar, Punjab 144001, India",https://www.google.co.kr/maps/place/Gandhi+Hospital/data=!4m5!3m4!1s0x391a5a8d466f62e5:0x58865433acec88b!8m2!3d31.3303647!4d75.563797?authuser=0&hl=en&rclk=1,31.3303647,75.563797,Punjab
Gera ENT Hospital,Hospital,"253,VIRK ENCLAVE, CHOWK,, Jalandhar - Nakodar Rd, Wadala, Jalandhar, Punjab 144003, India",https://www.google.co.kr/maps/place/Gera+ENT+Hospital/data=!4m5!3m4!1s0x391a5b17654a7767:0xbc7f1d5d2ef48f5!8m2!3d31.294271!4d75.554613?authuser=0&hl=en&rclk=1,31.294271,75.554613,Punjab
Vasal Hospital,Hospital,"37, Mahavir Marg, Opp.Jashi Hospital, Kapurthala Chowk, Adarsh Nagar, Jalandhar, Punjab 144001, India",https://www.google.co.kr/maps/place/Vasal+Hospital/data=!4m5!3m4!1s0x391a5a8de949b5ab:0x59f652ce38b3a8de!8m2!3d31.3340749!4d75.5636764?authuser=0&hl=en&rclk=1,31.3340749,75.5636764,Punjab
Physiotherapy Opd,Physical therapy clinic,"MPJV+MPR, Kotakpura, GGS Medical Hospital, Faridkot, Punjab 15120, India",https://www.google.co.kr/maps/place/Physiotherapy+Opd/data=!4m5!3m4!1s0x3917599e9e01d053:0xa4517a86d7873211!8m2!3d30.681731!4d74.744257?authuser=0&hl=en&rclk=1,30.681731,74.744257,Punjab
Goodwill Hospital & Maternity Home,Hospital,"Hoshiarpur Road, near Flyover, Rama Mandi, Jalandhar, Punjab 144005, India",https://www.google.co.kr/maps/place/Goodwill+Hospital+%26+Maternity+Home/data=!4m5!3m4!1s0x391a5979ac7a8bab:0x7925bd71d6580563!8m2!3d31.311541!4d75.629684?authuser=0&hl=en&rclk=1,31.311541,75.629684,Punjab
New Ruby Hospital Private Limited,Private hospital,"26, Link Road, Lajpat Nagar, Jalandhar, Punjab 144001, India",https://www.google.co.kr/maps/place/New+Ruby+Hospital+Private+Limited/data=!4m5!3m4!1s0x391a5af8be172d2b:0x9f26ef7eee6f91a!8m2!3d31.3153515!4d75.5728507?authuser=0&hl=en&rclk=1,31.3153515,75.5728507,Punjab
CAREMAX Hospital,Cardiologist,"333, Near Guru Nanak Mission Chowk, Shastri Nagar, Lajpat Nagar, Jalandhar, Punjab 144001, India",https://www.google.co.kr/maps/place/CAREMAX+Hospital/data=!4m5!3m4!1s0x391a5a56c9b497a7:0x20cbf174f628643a!8m2!3d31.3174109!4d75.5757655?authuser=0&hl=en&rclk=1,31.3174109,75.5757655,Punjab
Life Care Hospital,Hospital,"Suffipind, Jalandhar, Punjab 144001, India",https://www.google.co.kr/maps/place/Life+Care+Hospital/data=!4m5!3m4!1s0x391a5eb4a7cc6847:0x2a783b4c3ed242ca!8m2!3d31.2700786!4d75.6384329?authuser=0&hl=en&rclk=1,31.2700786,75.6384329,Punjab
Arora Hospital,Hospital,"BSF Rd, Civil Lines, Gurdaspur, Punjab 143521, India",https://www.google.co.kr/maps/place/Arora+Hospital/data=!4m5!3m4!1s0x391b93c5ddd0ced9:0xac0453d11354e37b!8m2!3d32.0449895!4d75.4188634?authuser=0&hl=en&rclk=1,32.0449895,75.4188634,Punjab
Prince clinic,Doctor,"45C2+RH6, Gatta Mundi Kasu, Punjab 144629, India",https://www.google.co.kr/maps/place/Prince+clinic/data=!4m5!3m4!1s0x391a1924c9af1107:0x32896a150d8d2836!8m2!3d31.1220368!4d75.1513978?authuser=0&hl=en&rclk=1,31.1220368,75.1513978,Punjab
PATEL HOSPITAL,Heart hospital,"Civil Line, Jalandhar, Punjab 144001, India",https://www.google.co.kr/maps/place/PATEL+HOSPITAL/data=!4m5!3m4!1s0x391a5bf9f58ebe8d:0xd152c6a1bd2a1832!8m2!3d31.3236367!4d75.5781801?authuser=0&hl=en&rclk=1,31.3236367,75.5781801,Punjab
CITY HOSPITAL,Hospital,"Basketball court Mai bhago college, Near, Majitha Rd, Amritsar, Punjab 143008, India",https://www.google.co.kr/maps/place/CITY+HOSPITAL/data=!4m5!3m4!1s0x3919639fd2792059:0xcbf342b65796f609!8m2!3d31.668577!4d74.893071?authuser=0&hl=en&rclk=1,31.668577,74.893071,Punjab
Sikka Hospital,Hospital,"Sikka Hospital, opp. Punjab College Of Higher Studies, Shaheed Udham Singh Nagar, Jalandhar, Punjab 144001, India",https://www.google.co.kr/maps/place/Sikka+Hospital/data=!4m5!3m4!1s0x391a5af6b4119563:0x64d43459a057df54!8m2!3d31.3233762!4d75.5688077?authuser=0&hl=en&rclk=1,31.3233762,75.5688077,Punjab
SGL Superspeciality Hospital,Hospital,"Garha Rd, Guru Amardas Market, Hardyal Nagar, Jalandhar, Punjab 144022, India",https://www.google.co.kr/maps/place/SGL+Superspeciality+Hospital/data=!4m5!3m4!1s0x391a5bb7c26a5b19:0x169c5c89934a2cf0!8m2!3d31.3014338!4d75.5968212?authuser=0&hl=en&rclk=1,31.3014338,75.5968212,Punjab
Narad Hospital,Hospital,"18-a, Model Toen, Link Road, Opposite Ram Sharnam, Link Road, Jalandhar, Punjab 144001, India",https://www.google.co.kr/maps/place/Narad+Hospital/data=!4m5!3m4!1s0x391a5a594d22b88d:0xb0ecbfe6c03aaf22!8m2!3d31.3260152!4d75.5761829?authuser=0&hl=en&rclk=1,31.3260152,75.5761829,Punjab
BMC Hospital,Hospital,"3HWV+764, Nurmahal, Punjab 144039, India",https://www.google.co.kr/maps/place/BMC+Hospital/data=!4m5!3m4!1s0x391a6699963675f7:0x7f2046863121742f!8m2!3d31.0956461!4d75.5930802?authuser=0&hl=en&rclk=1,31.0956461,75.5930802,Punjab
Dr Lakhvinder Singh,Surgeon,"607-L, Mall Rd, Abadpura, Model Town, Jalandhar, Punjab 144003, India",https://www.google.co.kr/maps/place/Dr+Lakhvinder+Singh/data=!4m5!3m4!1s0x391a5b01ccdc7193:0x71d8ea97f98d72d8!8m2!3d31.3070796!4d75.5712654?authuser=0&hl=en&rclk=1,31.3070796,75.5712654,Punjab
"Vig Hospital :: Ayushman Bharat hospital list | Prostate Surgery, kidney Stone Operation in Jalandhar | Shakuntala Devi Vig Hospital | Dr Rakesh Vig",Hospital,"Main, Kapurthala Rd, Opp. Sports College, Hardev Nagar, Jalandhar, Punjab 144001, India","https://www.google.co.kr/maps/place/Vig+Hospital+::+Ayushman+Bharat+hospital+list+%7C+Prostate+Surgery,+kidney+Stone+Operation+in+Jalandhar+%7C+Shakuntala+Devi+Vig+Hospital+%7C+Dr+Rakesh+Vig/data=!4m5!3m4!1s0x391a5a5f309bf7c9:0xdfe01b0956430ed1!8m2!3d31.3359727!4d75.5521991?authuser=0&hl=en&rclk=1",31.3359727,75.5521991,Punjab
Patel Hospital Jalandhar,Hospital,"8HFH+C7X, Civil Lines, Jalandhar, Punjab 144001, India",https://www.google.co.kr/maps/place/Patel+Hospital+Jalandhar/data=!4m5!3m4!1s0x391a5a5f309bff8d:0xc45e2c1240883746!8m2!3d31.3236056!4d75.5782385?authuser=0&hl=en&rclk=1,31.3236056,75.5782385,Punjab
Guru Nanak Hospital,Hospital,"6JP9+976, Main Bazzar, Jamsher, Punjab 144020, India",https://www.google.co.kr/maps/place/Guru+Nanak+Hospital/data=!4m5!3m4!1s0x391a5c27cc6c75db:0xf64a121727332b21!8m2!3d31.235911!4d75.6181561?authuser=0&hl=en&rclk=1,31.235911,75.6181561,Punjab
Oxford Hospital,Heart hospital,"305, Nakodar Chowk, Lajpat Nagar, Jalandhar, Punjab 144001, India",https://www.google.co.kr/maps/place/Oxford+Hospital/data=!4m5!3m4!1s0x391a5af828ceed45:0x1bd81a3af9895f23!8m2!3d31.3179388!4d75.5734404?authuser=0&hl=en&rclk=1,31.3179388,75.5734404,Punjab
Bedi Hospital,Hospital,"4H3V+8MJ, Jalandhar, Punjab 144039, India",https://www.google.co.kr/maps/place/Bedi+Hospital/data=!4m5!3m4!1s0x391a669429c163d9:0x4bd9772b69fff979!8m2!3d31.1033481!4d75.5941491?authuser=0&hl=en&rclk=1,31.1033481,75.5941491,Punjab
Arogya Clinic,Doctor,"7HWX+G8R, Dayanand Chowk, Garha, Jalandhar, Punjab 144022, India",https://www.google.co.kr/maps/place/Arogya+Clinic/data=!4m5!3m4!1s0x391a5bc76fffffff:0x52981274e5431f53!8m2!3d31.2963671!4d75.5982571?authuser=0&hl=en&rclk=1,31.2963671,75.5982571,Punjab
Civil Hospital Nawanshahr,Government hospital,"4584+P45, Punjab 144516, India",https://www.google.co.kr/maps/place/Civil+Hospital+Nawanshahr/data=!4m5!3m4!1s0x391abc6818daeebd:0xc5b7a9ec2ae5da99!8m2!3d31.1167699!4d76.1553696?authuser=0&hl=en&rclk=1,31.1167699,76.1553696,Punjab
Prolife Hospitals Ludhiana,Private hospital,"Prolife Hospitals Village Gill, Malerkotla Rd, Bulara, Ludhiana, Punjab 141116, India",https://www.google.co.kr/maps/place/Prolife+Hospitals+Ludhiana/data=!4m5!3m4!1s0x3910787aa65546b7:0x14df293e76179c57!8m2!3d30.8369434!4d75.864826?authuser=0&hl=en&rclk=1,30.8369434,75.864826,Punjab
Nirmala Hospital,Hospital,"Unnamed Road, Ajit Avenue, Guru Nanak Nagar, Kapurthala, Punjab 144602, India",https://www.google.co.kr/maps/place/Nirmala+Hospital/data=!4m5!3m4!1s0x391a490f30000001:0x3d3c5a5335db5a86!8m2!3d31.3896492!4d75.3937136?authuser=0&hl=en&rclk=1,31.3896492,75.3937136,Punjab
Dr Vatsyayan's Sanjivani Ayurvedshala - Best Ayurvedic Doctor Ludhiana,Hospital,"Near Rose Garden Main Gate, Civil Lines, Ludhiana, Punjab 141001, India",https://www.google.co.kr/maps/place/Dr+Vatsyayan's+Sanjivani+Ayurvedshala+-+Best+Ayurvedic+Doctor+Ludhiana/data=!4m5!3m4!1s0x391a837d0a600c19:0xec054a51f2d8f526!8m2!3d30.9074401!4d75.8263968?authuser=0&hl=en&rclk=1,30.9074401,75.8263968,Punjab
AASTHA Nipro Renal Care,Hospital,"Green Park, Civil Lines, Ludhiana, Punjab 141001, India",https://www.google.co.kr/maps/place/AASTHA+Nipro+Renal+Care/data=!4m5!3m4!1s0x391a83294483a1fb:0xe16eee8cb621011e!8m2!3d30.9149621!4d75.830984?authuser=0&hl=en&rclk=1,30.9149621,75.830984,Punjab
Children Medical Center & Vaccination Centre,Pediatrician,"near B6 Place Station, Model Town, Jalandhar, Punjab 144003, India",https://www.google.co.kr/maps/place/Children+Medical+Center+%26+Vaccination+Centre/data=!4m5!3m4!1s0x391a5bab734e21df:0x280c276a65ca86ea!8m2!3d31.306421!4d75.578641?authuser=0&hl=en&rclk=1,31.306421,75.578641,Punjab
Sud Bone & Joint Clinic,Orthopedic surgeon,"Nakodar Chowk, adjoining R.K.MAHAJAN HERO SHOWROOM, Ajit Nagar, Shaheed Udham Singh Nagar, Jalandhar, Punjab 144001, India",https://www.google.co.kr/maps/place/Sud+Bone+%26+Joint+Clinic/data=!4m5!3m4!1s0x391a5bbe192a2b81:0x317b2f04258b0089!8m2!3d31.3196624!4d75.5722345?authuser=0&hl=en&rclk=1,31.3196624,75.5722345,Punjab
ECHS Polyclinic Mohali,Medical clinic,"Near Dara Studio 56A, Phase 6, Sector 56A, Sahibzada Ajit Singh Nagar, 160055, India",https://www.google.co.kr/maps/place/ECHS+Polyclinic+Mohali/data=!4m5!3m4!1s0x390fee3fae689fd7:0x11df8019f1729754!8m2!3d30.7373492!4d76.7082632?authuser=0&hl=en&rclk=1,30.7373492,76.7082632,Punjab
MANN MEDICITI HOSPITAL,Hospital,"Jalandhar - Nakodar Rd, Adda Khambra, Khurla Kingra, Jalandhar, Punjab 144003, India",https://www.google.co.kr/maps/place/MANN+MEDICITI+HOSPITAL/data=!4m5!3m4!1s0x391a5b41d3841121:0x4ac43eb4870060f1!8m2!3d31.2802934!4d75.5506246?authuser=0&hl=en&rclk=1,31.2802934,75.5506246,Punjab
Dev Hospital,Hospital,"Batala Road, opposite Rishabh Automobiles, Amritsar, Punjab 143001, India",https://www.google.co.kr/maps/place/Dev+Hospital/data=!4m5!3m4!1s0x3919633907694039:0x1491aac6c840a87!8m2!3d31.6453359!4d74.901003?authuser=0&hl=en&rclk=1,31.6453359,74.901003,Punjab
Shree Devi Talab Mandir Charitable Hospital,Hospital,"Mandir Marg, Tanda Road, near Kusht Ashram, Jalandhar, Punjab 144004, India",https://www.google.co.kr/maps/place/Shree+Devi+Talab+Mandir+Charitable+Hospital/data=!4m5!3m4!1s0x391a5a594d22b88d:0xf4a99e1addbc536e!8m2!3d31.342787!4d75.581738?authuser=0&hl=en&rclk=1,31.342787,75.581738,Punjab
City Hospital,Hospital,"Nurmahal, Jalandhar, Numahal Phillaur Road, Jalandhar, Jalandhar, Punjab 144039, India",https://www.google.co.kr/maps/place/City+Hospital/data=!4m5!3m4!1s0x391a6420683ce605:0x7c7b3c7b36e9e7cc!8m2!3d31.085253!4d75.595452?authuser=0&hl=en&rclk=1,31.085253,75.595452,Punjab
Fortis hospital,Hospital,"MQHQ+89Q, Chandigarh Airport Area, Chandigarh, 160003, India",https://www.google.co.kr/maps/place/Fortis+hospital/data=!4m5!3m4!1s0x390fede1040a7ca7:0x4865d99d3ac9840e!8m2!3d30.6783321!4d76.7884713?authuser=0&hl=en&rclk=1,30.6783321,76.7884713,Punjab
Neurociti Hospital and Diagnostics Centre,Hospital,"B-XX/2034, near Hotel Onn, Gobind Nagar, Ludhiana, Punjab 141001, India",https://www.google.co.kr/maps/place/Neurociti+Hospital+and+Diagnostics+Centre/data=!4m5!3m4!1s0x391a83c5ab1f0b7b:0x8de43f0bbc2127d!8m2!3d30.901457!4d75.821471?authuser=0&hl=en&rclk=1,30.901457,75.821471,Punjab
Aujla Hospital,Private hospital,"Mandi Road, Nurmahal, Punjab 144039, India",https://www.google.co.kr/maps/place/Aujla+Hospital/data=!4m5!3m4!1s0x391a669ec2020b33:0x84c8ed12f56f0e08!8m2!3d31.09062!4d75.593529?authuser=0&hl=en&rclk=1,31.09062,75.593529,Punjab
Dr Kamal Gadwal,Doctor,"1522, Rehmanpur, Nakodar, India",https://www.google.co.kr/maps/place/Dr+Kamal+Gadwal/data=!4m5!3m4!1s0x391a6900f6b2e275:0xe41dcc0c535c9c1!8m2!3d31.1162323!4d75.4778096?authuser=0&hl=en&rclk=1,31.1162323,75.4778096,Punjab
District Hospital Bathinda,Hospital,"Mansa Rd, opp. Police lines, Guru Ki Nagri, Bathinda, Punjab 151005, India",https://www.google.co.kr/maps/place/District+Hospital+Bathinda/data=!4m5!3m4!1s0x39172d5c78ac8693:0x56a6e820c4b49f4e!8m2!3d30.1944511!4d74.9500786?authuser=0&hl=en&rclk=1,30.1944511,74.9500786,Punjab
Raja Diagnostic Centre & Hospital,Hospital,"Mota Singh Road, near Civil Surgeon Office, Sirsa Colony, Nawanshahr, Punjab 144514, India",https://www.google.co.kr/maps/place/Raja+Diagnostic+Centre+%26+Hospital/data=!4m5!3m4!1s0x391abdc7cfb8f917:0xb0ca32d2ecda59d8!8m2!3d31.1248494!4d76.1197413?authuser=0&hl=en&rclk=1,31.1248494,76.1197413,Punjab
Dr jasuja Homoeopathic Clinic,Hospital,"Dr Jasuja Homoeopathic Clinic, near Gurudwara Singh Sabha, Punjab 152123, India",https://www.google.co.kr/maps/place/Dr+jasuja+Homoeopathic+Clinic/data=!4m5!3m4!1s0x391791a851108247:0x207ca613c0b0a2e9!8m2!3d30.4014528!4d74.0294674?authuser=0&hl=en&rclk=1,30.4014528,74.0294674,Punjab
Guru nanak hospital,Hospital,"Inder singh Marg, Jalandhar - Nakodar Rd, Kang Sahbu, Punjab 144630, India",https://www.google.co.kr/maps/place/Guru+nanak+hospital/data=!4m5!3m4!1s0x391a43cb61d1a667:0xa8550c635686aed4!8m2!3d31.2174153!4d75.5124296?authuser=0&hl=en&rclk=1,31.2174153,75.5124296,Punjab
SPINE AND JOINT PAIN CENTRE,Orthopedic surgeon,"811/1, Sabji Mandi Road, Guru Teg Bahadur Nagar, Jalandhar, Punjab 144004, India",https://www.google.co.kr/maps/place/SPINE+AND+JOINT+PAIN+CENTRE/data=!4m5!3m4!1s0x391a5ba9fe66aee9:0xfd51b02bb5a10d64!8m2!3d31.3024269!4d75.574379?authuser=0&hl=en&rclk=1,31.3024269,75.574379,Punjab
Amandeep Medicity,Hospital,"Mall Road, Near Novelty Chownk, Maharaja Ranjit Singh Nagar, Joshi Colony, Amritsar, Punjab 143001, India",https://www.google.co.kr/maps/place/Amandeep+Medicity/data=!4m5!3m4!1s0x39196359b5f4e8d9:0x56d517bc8a3d20cc!8m2!3d31.6412123!4d74.87735?authuser=0&hl=en&rclk=1,31.6412123,74.87735,Punjab
BBC Heart Care Pruthi Hospital,Heart hospital,"301, Mahavir Marg, Lajpat Nagar, Jalandhar, Punjab 144003, India",https://www.google.co.kr/maps/place/BBC+Heart+Care+Pruthi+Hospital/data=!4m5!3m4!1s0x391a5a5625555555:0xa099c401698c0f2c!8m2!3d31.3175578!4d75.574294?authuser=0&hl=en&rclk=1,31.3175578,75.574294,Punjab
Civil Hospital,Government hospital,"Hospital Rd near old judicial Court complx, Nakodar, Punjab 144040, India",https://www.google.co.kr/maps/place/Civil+Hospital/data=!4m5!3m4!1s0x391a69ade403d09b:0x9edd6577e1e092f7!8m2!3d31.1280064!4d75.4758704?authuser=0&hl=en&rclk=1,31.1280064,75.4758704,Punjab
"Max Super Speciality Hospital, Bathinda",Hospital,"Mansa Rd, Guru Ki Nagri, Bathinda, Punjab 151001, India","https://www.google.co.kr/maps/place/Max+Super+Speciality+Hospital,+Bathinda/data=!4m5!3m4!1s0x39172d5d1fc30cdf:0x385314714c7fe21c!8m2!3d30.1922931!4d74.9471034?authuser=0&hl=en&rclk=1",30.1922931,74.9471034,Punjab
Tyagmurti Goswami Ganeshdutt Missionary Hospital,Hospital,"Jalandhar - Nakodar Road, Jyothi Chowk, Shastri Nagar, Lajpat Nagar, Jalandhar, Punjab 144001, India",https://www.google.co.kr/maps/place/Tyagmurti+Goswami+Ganeshdutt+Missionary+Hospital/data=!4m5!3m4!1s0x391a5a5891a580af:0xf41997a7a79d3c5c!8m2!3d31.32327!4d75.5752019?authuser=0&hl=en&rclk=1,31.32327,75.5752019,Punjab
Orthonova,Hospital,"Jalandhar - Nakodar Rd, Jalandhar, Punjab 144001, India",https://www.google.co.kr/maps/place/Orthonova/data=!4m5!3m4!1s0x391a434ec2f8bd01:0x979fe459fffd2510!8m2!3d31.2301277!4d75.5175672?authuser=0&hl=en&rclk=1,31.2301277,75.5175672,Punjab
Punjab Institute of Medical Sciences,Medical Center,"Garha Rd, Model House, Jalandhar, Punjab 144006, India",https://www.google.co.kr/maps/place/Punjab+Institute+of+Medical+Sciences/data=!4m5!3m4!1s0x391a5bb48f0ec149:0x21dbcab6b9072756!8m2!3d31.3066897!4d75.5956625?authuser=0&hl=en&rclk=1,31.3066897,75.5956625,Punjab
Mata Kaushalya Hospital,Hospital,"89PX+VRV, Sheran Wala Gate, Patiala, Punjab 147001, India",https://www.google.co.kr/maps/place/Mata+Kaushalya+Hospital/data=!4m5!3m4!1s0x391028f26d65bd71:0xa23f720c575627df!8m2!3d30.3372288!4d76.3995387?authuser=0&hl=en&rclk=1,30.3372288,76.3995387,Punjab
ESIC Dispensary,Occupational health service,"Hospital Rd, Gugga Mari Mohalla, Rupnagar, Punjab 140001, India",https://www.google.co.kr/maps/place/ESIC+Dispensary/data=!4m5!3m4!1s0x3905543560cdd35d:0x99b900c952f1824b!8m2!3d30.965388!4d76.526041?authuser=0&hl=en&rclk=1,30.965388,76.526041,Punjab
S. Satnam Singh Memorial Innocent Hearts Multispeciality Hospital,Hospital,"Near TV Tower, Jalandhar - Nakodar Rd, Adda Khambra, Jalandhar, Punjab 144026, India",https://www.google.co.kr/maps/place/S.+Satnam+Singh+Memorial+Innocent+Hearts+Multispeciality+Hospital/data=!4m5!3m4!1s0x391a5b41ae2b79e5:0x225c04a3e0c464ad!8m2!3d31.2797025!4d75.5487568?authuser=0&hl=en&rclk=1,31.2797025,75.5487568,Punjab
Civil Hospital,Government hospital,"44F9+MR5, Rahon Rd, Sirsa Colony, Nawanshahr, Punjab 144514, India",https://www.google.co.kr/maps/place/Civil+Hospital/data=!4m5!3m4!1s0x391abdc7c1879bd1:0xa6c8d9edd57db1cd!8m2!3d31.1240735!4d76.1192656?authuser=0&hl=en&rclk=1,31.1240735,76.1192656,Punjab
"Max Super Specialty Hospital, Mohali",Hospital,"Chandigarh Rd, near Civil Hospital, Phase 6, Sector 56, Sahibzada Ajit Singh Nagar, Punjab 160055, India","https://www.google.co.kr/maps/place/Max+Super+Specialty+Hospital,+Mohali/data=!4m5!3m4!1s0x390fee144e36fcd5:0xa254c2b1f858248a!8m2!3d30.74008!4d76.7142961?authuser=0&hl=en&rclk=1",30.74008,76.7142961,Punjab
Civil Hospital Moga,Hospital,"Civil hospital, New Town, Moga, Punjab 142001, India",https://www.google.co.kr/maps/place/Civil+Hospital+Moga/data=!4m5!3m4!1s0x391a0985d9435d31:0xf46ef3e2af03c126!8m2!3d30.8115985!4d75.1691917?authuser=0&hl=en&rclk=1,30.8115985,75.1691917,Punjab
Civil Hospital (PHC),Government hospital,"2FWG+7C5, Mehatpur, Punjab 144041, India",https://www.google.co.kr/maps/place/Civil+Hospital+(PHC)/data=!4m5!3m4!1s0x391a6ee15acc3a23:0x944868b864d5386c!8m2!3d31.045637!4d75.4761037?authuser=0&hl=en&rclk=1,31.045637,75.4761037,Punjab
Dr.Sharda - Best Ayurvedic Clinic Bathinda,Ayurvedic clinic,"Gate No.1, near, Tinkoni Chowk, opp. Sepal Hotel, Parjapat Colony, Bathinda, Punjab 151001, India",https://www.google.co.kr/maps/place/Dr.Sharda+-+Best+Ayurvedic+Clinic+Bathinda/data=!4m5!3m4!1s0x391732a28db314bd:0x2625f0b094415ff2!8m2!3d30.224173!4d74.937764?authuser=0&hl=en&rclk=1,30.224173,74.937764,Punjab
Esi Hospital,Hospital,"944V+5XJ, Khakh, Goindwal, Punjab 143422, India",https://www.google.co.kr/maps/place/Esi+Hospital/data=!4m5!3m4!1s0x391a2e2e44f0f26b:0x9a31b416b63dbe26!8m2!3d31.3554633!4d75.1449015?authuser=0&hl=en&rclk=1,31.3554633,75.1449015,Punjab
Cantonment General Hospital,Government hospital,"7JWG+88M, Jalandhar Cantt, Jalandhar, Punjab 144005, India",https://www.google.co.kr/maps/place/Cantonment+General+Hospital/data=!4m5!3m4!1s0x391a59616ab55689:0xc408a544a11b9aa8!8m2!3d31.2958467!4d75.6257966?authuser=0&hl=en&rclk=1,31.2958467,75.6257966,Punjab
Superlakshmi1140,General hospital,"Civil hospital, New Town, Moga, Punjab 142001, India",https://www.google.co.kr/maps/place/Superlakshmi1140/data=!4m5!3m4!1s0x391a0862f55e021f:0xaff306f3a047ffd7!8m2!3d30.8115985!4d75.1691917?authuser=0&hl=en&rclk=1,30.8115985,75.1691917,Punjab
"Civil Hospital ,jaitu",Hospital,"CVXJ+PV9, Jaito, Punjab 151202, India","https://www.google.co.kr/maps/place/Civil+Hospital+,jaitu/data=!4m5!3m4!1s0x39174be437e89159:0x452d7b149afacc65!8m2!3d30.4492977!4d74.8822204?authuser=0&hl=en&rclk=1",30.4492977,74.8822204,Punjab
PGI Sangrur,Hospital,"7X55+364, Sangrur, Punjab 148026, India",https://www.google.co.kr/maps/place/PGI+Sangrur/data=!4m5!3m4!1s0x39104ee90c77bfff:0x358c0996de26bc90!8m2!3d30.257634!4d75.9580833?authuser=0&hl=en&rclk=1,30.257634,75.9580833,Punjab
city hospital,Hospital,"salaichan road, Shahkot, Punjab 144702, India",https://www.google.co.kr/maps/place/city+hospital/data=!4m5!3m4!1s0x391a15d0edb409ef:0x72f072d3b43d31fd!8m2!3d31.0817896!4d75.3269151?authuser=0&hl=en&rclk=1,31.0817896,75.3269151,Punjab
Dr Damanbir S.Chahal,Urologist,"Ground Floor, 63 & 64, Cool Road, Waryam Nagar, Mota Singh Nagar, Jalandhar, Punjab 144001, India",https://www.google.co.kr/maps/place/Dr+Damanbir+S.Chahal/data=!4m5!3m4!1s0x391a5b333dfaab3f:0xb750a576a1def141!8m2!3d31.3080336!4d75.586898?authuser=0&hl=en&rclk=1,31.3080336,75.586898,Punjab
Krsnaa Diagnostics (Regional Hospital),Diagnostic center,"Una - Hamirpur Rd, Una, Himachal Pradesh 174303, India",https://www.google.co.kr/maps/place/Krsnaa+Diagnostics+(Regional+Hospital)/data=!4m5!3m4!1s0x391ad080fe8e6003:0x3b055135510ca2e2!8m2!3d31.4785062!4d76.2742673?authuser=0&hl=en&rclk=1,31.4785062,76.2742673,Punjab
SRL DIAGNOSTICS,Diagnostic center,"HEALTH SOLUTION CENTRE, Amritsar, Punjab 143001, India",https://www.google.co.kr/maps/place/SRL+DIAGNOSTICS/data=!4m5!3m4!1s0x391a41dc3dd2b9e3:0x5764c13e4c88673d!8m2!3d31.1471305!4d75.3412179?authuser=0&hl=en&rclk=1,31.1471305,75.3412179,Punjab
Dr. Sandeep Goel (NHS Neurology),Doctor,"NHS Hospital, Kapurthala Rd, Saraswati Vihar, Hardev Nagar, Jalandhar, Punjab 144001, India",https://www.google.co.kr/maps/place/Dr.+Sandeep+Goel+(NHS+Neurology)/data=!4m5!3m4!1s0x391a5a594d22b88d:0x8688fb09d7d74759!8m2!3d31.3358006!4d75.5570246?authuser=0&hl=en&rclk=1,31.3358006,75.5570246,Punjab
RG Stone Hospital,Private hospital,"VRRV+9Q3, Pritm Nagar, Model Town, Ludhiana, Punjab 141002, India",https://www.google.co.kr/maps/place/RG+Stone+Hospital/data=!4m5!3m4!1s0x391a83ad26ee01b9:0x7deffdbdb83c509f!8m2!3d30.8908883!4d75.8444315?authuser=0&hl=en&rclk=1,30.8908883,75.8444315,Punjab
Cloudnine Hospital (Paras/Pure Bliss) - Panchkula,Maternity hospital,"Room 4C,Sector -5,Swastik Vihar, Mansa Devi Complex, Panchkula, Haryana 134109, India",https://www.google.co.kr/maps/place/Cloudnine+Hospital+(Paras%2FPure+Bliss)+-+Panchkula/data=!4m5!3m4!1s0x390f931e90d77661:0xa3c4b4b48acc4d7d!8m2!3d30.716996!4d76.851485?authuser=0&hl=en&rclk=1,30.716996,76.851485,Punjab
PGI Chandigarh,Hospital,"New OPD PGI, Sector 12, Chandigarh, 160012, India",https://www.google.co.kr/maps/place/PGI+Chandigarh/data=!4m5!3m4!1s0x390ff38e8152b0cd:0xde151a432d7c2bec!8m2!3d30.766192!4d76.7783748?authuser=0&hl=en&rclk=1,30.766192,76.7783748,Punjab
Aastha Nipro Dialysis Centre,Dialysis center,"Aastha Hospital 3rd Floor, B-20, 1197/1, Krishna Nagar Rd, Civil Lines, Ludhiana, Punjab 141001, India",https://www.google.co.kr/maps/place/Aastha+Nipro+Dialysis+Centre/data=!4m5!3m4!1s0x391a833d3d29bdad:0x5cb114b3d86f2450!8m2!3d30.9013247!4d75.8229942?authuser=0&hl=en&rclk=1,30.9013247,75.8229942,Punjab
Arvind Hospital,Hospital,"National Highway 65, Ismailbad, Haryana 136129, India",https://www.google.co.kr/maps/place/Arvind+Hospital/data=!4m5!3m4!1s0x390e31898d993bdb:0x404ecec4fb7ae06e!8m2!3d30.1186262!4d76.6707945?authuser=0&hl=en&rclk=1,30.1186262,76.6707945,Punjab
ECHS Poly Clinic,Medical clinic,"Jutogh Cantt, Shimla, Himachal Pradesh 171008, India",https://www.google.co.kr/maps/place/ECHS+Poly+Clinic/data=!4m5!3m4!1s0x3905797ceaddebab:0xe5502c3f11010c8f!8m2!3d31.104337!4d77.1067209?authuser=0&hl=en&rclk=1,31.104337,77.1067209,Punjab
Krsnaa Diagnostics Pvt. Ltd (Civil Hospital),Medical diagnostic imaging center,"Sundernagar, near lalit Chowk, Himachal Pradesh 175018, India",https://www.google.co.kr/maps/place/Krsnaa+Diagnostics+Pvt.+Ltd+(Civil+Hospital)/data=!4m5!3m4!1s0x390519c7dbd80ae1:0x136b77d0829ca9b2!8m2!3d31.5164781!4d76.8839871?authuser=0&hl=en&rclk=1,31.5164781,76.8839871,Punjab
Bilaspur ECHS,Hospital,"Near, Bilaspur, India",https://www.google.co.kr/maps/place/Bilaspur+ECHS/data=!4m5!3m4!1s0x39053f1a252be129:0x6e0ee0fb83670066!8m2!3d31.3391168!4d76.7630307?authuser=0&hl=en&rclk=1,31.3391168,76.7630307,Punjab
Krsnaa Diagnostics (Netaji Subhash Chandra Bose Zonal Hospital),Diagnostic center,"PW6G+HVC, Palace Colony, Mandi, Himachal Pradesh 175001, India",https://www.google.co.kr/maps/place/Krsnaa+Diagnostics+(Netaji+Subhash+Chandra+Bose+Zonal+Hospital)/data=!4m5!3m4!1s0x3904e22508dd4d0d:0xcb4b1b84509fdb96!8m2!3d31.7114297!4d76.9271274?authuser=0&hl=en&rclk=1,31.7114297,76.9271274,Punjab
