Company_Name,Category,Address,Url,Latitude,Longitude,Territory
Dr. Bhatts Clinic,Medical clinic,"Bara Bazar Rd, Mallital, Nainital, Uttarakhand 263001, India",https://www.google.co.kr/maps/place/Dr.+Bhatts+Clinic/data=!4m5!3m4!1s0x39a0a1eb4e6d5fa1:0xf525d91cbeaa64a7!8m2!3d29.3923466!4d79.452716?authuser=0&hl=en&rclk=1,29.3923466,79.452716,Uttarakhand
Om Physiotherapy Clinic,Medical clinic,"Tallital, Nainital, Uttarakhand 263002, India",https://www.google.co.kr/maps/place/Om+Physiotherapy+Clinic/data=!4m5!3m4!1s0x39a0a1fa35cb9dab:0x193a4b0ecba37dfe!8m2!3d29.3795525!4d79.4635212?authuser=0&hl=en&rclk=1,29.3795525,79.4635212,Uttarakhand
Hospital,Government hospital,"Unnamed Road, Ghuggu Kham, Uttarakhand 263001, India",https://www.google.co.kr/maps/place/Hospital/data=!4m5!3m4!1s0x39a0a183a029cc9f:0xc253b39d85506d28!8m2!3d29.4416814!4d79.4126558?authuser=0&hl=en&rclk=1,29.4416814,79.4126558,Uttarakhand
Med. Superintendent house - Ramsay Hospital,Doctor,"Ramsay Hospital Rd, Tallital, Nainital, Uttarakhand 263002, India",https://www.google.co.kr/maps/place/Med.+Superintendent+house+-+Ramsay+Hospital/data=!4m5!3m4!1s0x39a0a1f75b46c6cd:0xf8862bd2cc504086!8m2!3d29.382965!4d79.4657458?authuser=0&hl=en&rclk=1,29.382965,79.4657458,Uttarakhand
LIFE CARE CLINIC,Hospital,"main chauraha bhowali, opposite bank of, Uttarakhand, India",https://www.google.co.kr/maps/place/LIFE+CARE+CLINIC/data=!4m5!3m4!1s0x39a0a3eb67fcf759:0xf2f70cc1384655e3!8m2!3d29.3822764!4d79.5195938?authuser=0&hl=en&rclk=1,29.3822764,79.5195938,Uttarakhand
shri life care clinic,Hospital,"NH109, Bhowali, Bhawanipur, Uttarakhand 263132, India",https://www.google.co.kr/maps/place/shri+life+care+clinic/data=!4m5!3m4!1s0x39a0a3dd8f97abbf:0xa69b385cfafea588!8m2!3d29.3860277!4d79.5138905?authuser=0&hl=en&rclk=1,29.3860277,79.5138905,Uttarakhand
State Allopathic Dispensary,Government hospital,"CCR6+MVF, Ghuggu Kham, Uttarakhand 263001, India",https://www.google.co.kr/maps/place/State+Allopathic+Dispensary/data=!4m5!3m4!1s0x39a0a167ea420605:0xf24d606779c40c7c!8m2!3d29.4416803!4d79.412166?authuser=0&hl=en&rclk=1,29.4416803,79.412166,Uttarakhand
Bhaskar Clinic,Doctor,"9FH7+JGF, Tallital, Nainital, Uttarakhand 263002, India",https://www.google.co.kr/maps/place/Bhaskar+Clinic/data=!4m5!3m4!1s0x39a0a1fbcc662939:0x1c9698fccd62967b!8m2!3d29.3790551!4d79.463786?authuser=0&hl=en&rclk=1,29.3790551,79.463786,Uttarakhand
"Sai clinic, Unchapul, Haldwani",Medical clinic,"Unnamed Road, Lohariyasal Malla, Unchapul, Haldwani, Uttarakhand 263126, India","https://www.google.co.kr/maps/place/Sai+clinic,+Unchapul,+Haldwani/data=!4m5!3m4!1s0x39a09bc2c3cf4e33:0x56d47e9bbd79a056!8m2!3d29.2283157!4d79.4946805?authuser=0&hl=en&rclk=1",29.2283157,79.4946805,Uttarakhand
Malik Clinic,Medical clinic,"6FW3+HX9, Gujraura, Uttarakhand 263139, India",https://www.google.co.kr/maps/place/Malik+Clinic/data=!4m5!3m4!1s0x39a09c6f1f912c1f:0x2f62d18626d615e9!8m2!3d29.2464201!4d79.4549831?authuser=0&hl=en&rclk=1,29.2464201,79.4549831,Uttarakhand
Biswas Clinic,Private hospital,"Malli Bazaar Rd, near State Bank of India, Bhowali, Sukha, Uttarakhand 263132, India",https://www.google.co.kr/maps/place/Biswas+Clinic/data=!4m5!3m4!1s0x39a0a31246c937ad:0xca983e8a5d364f8a!8m2!3d29.3838403!4d79.5172447?authuser=0&hl=en&rclk=1,29.3838403,79.5172447,Uttarakhand
Sitapur Hospital,Hospital,"9FR5+622, Mallital, Nainital, Uttarakhand 263001, India",https://www.google.co.kr/maps/place/Sitapur+Hospital/data=!4m5!3m4!1s0x39a0a1ed0bbc93dd:0x2109a21bfba47b8a!8m2!3d29.3905135!4d79.4575044?authuser=0&hl=en&rclk=1,29.3905135,79.4575044,Uttarakhand
Ayurvedic Hospital,Government hospital,"Bagar Talla, Uttarakhand 263001, India",https://www.google.co.kr/maps/place/Ayurvedic+Hospital/data=!4m5!3m4!1s0x39a0a0eeed5e99c9:0x2fa2ccc7c3bb7ed5!8m2!3d29.4273662!4d79.4099723?authuser=0&hl=en&rclk=1,29.4273662,79.4099723,Uttarakhand
homoeopathic clinic,Medical clinic,"shop no 8, asha complex, Block Rd, Block Road Area, Bhimtal, Uttarakhand 263136, India",https://www.google.co.kr/maps/place/homoeopathic+clinic/data=!4m5!3m4!1s0x39a099e91c4138b3:0xbd7fae183f70d91b!8m2!3d29.3528259!4d79.552726?authuser=0&hl=en&rclk=1,29.3528259,79.552726,Uttarakhand
B.D Pandey Hospital,Hospital,"Mall Rd, Bara Bazar, Mallital, Nainital, Uttarakhand 263001, India",https://www.google.co.kr/maps/place/B.D+Pandey+Hospital/data=!4m5!3m4!1s0x39a0a1ecaa23e501:0xebd2242bb52581a1!8m2!3d29.3924719!4d79.4536889?authuser=0&hl=en&rclk=1,29.3924719,79.4536889,Uttarakhand
Pacific Hospital,Hospital,"near Hanuman Mandir, Shiv Puram Phase -I, Kusumkhera, Haldwani, Uttarakhand 263139, India",https://www.google.co.kr/maps/place/Pacific+Hospital/data=!4m5!3m4!1s0x39a09b117722e349:0xd32f6defe481c758!8m2!3d29.2210558!4d79.4994037?authuser=0&hl=en&rclk=1,29.2210558,79.4994037,Uttarakhand
BVM Dispenasry,Hospital,"9FR9+24P, Mallital, Nainital, Uttarakhand 263001, India",https://www.google.co.kr/maps/place/BVM+Dispenasry/data=!4m5!3m4!1s0x39a0a1f5b3944339:0x155747a518e93595!8m2!3d29.3900815!4d79.4678257?authuser=0&hl=en&rclk=1,29.3900815,79.4678257,Uttarakhand
Dr. Danish khan wellness clinic,Physical therapy clinic,"Kaladhungi Rd, near Nainital Bank, Pilikothi, Haldwani, Uttarakhand 263139, India",https://www.google.co.kr/maps/place/Dr.+Danish+khan+wellness+clinic/data=!4m5!3m4!1s0x39a09b1e73ca1ead:0x43741933b73252e8!8m2!3d29.2192396!4d79.5136657?authuser=0&hl=en&rclk=1,29.2192396,79.5136657,Uttarakhand
Amakona,Hospital,"Ramsay Hospital Rd, Tallital, Nainital, Uttarakhand 263002, India",https://www.google.co.kr/maps/place/Amakona/data=!4m5!3m4!1s0x39a0a10307709ae3:0xb8316a81dc1cf7ff!8m2!3d29.3811707!4d79.4663387?authuser=0&hl=en&rclk=1,29.3811707,79.4663387,Uttarakhand
Dr Lal Pathlabs Collection Center,Diagnostic center,"opposite B D Pandey Hospital, Mallital, Nainital, Uttarakhand 263001, India",https://www.google.co.kr/maps/place/Dr+Lal+Pathlabs+Collection+Center/data=!4m5!3m4!1s0x39a0a1187ca06c1b:0xfb17b50f5411646a!8m2!3d29.3924719!4d79.4536889?authuser=0&hl=en&rclk=1,29.3924719,79.4536889,Uttarakhand
Nainital,Hospital,"9FJ7+4CG, Tallital, Nainital, Uttarakhand 263002, India",https://www.google.co.kr/maps/place/Nainital/data=!4m5!3m4!1s0x39a0a156e203e04f:0x27bab31468a2b818!8m2!3d29.3803039!4d79.4635658?authuser=0&hl=en&rclk=1,29.3803039,79.4635658,Uttarakhand
B D Pandey Women Hospital,Hospital,"9FV3+39H, Mallital, Nainital, Uttarakhand 263001, India",https://www.google.co.kr/maps/place/B+D+Pandey+Women+Hospital/data=!4m5!3m4!1s0x39a0a152bfd7d465:0xc46366c2c040ca0c!8m2!3d29.3926849!4d79.4534754?authuser=0&hl=en&rclk=1,29.3926849,79.4534754,Uttarakhand
KANDPAL ENT HOSPITAL- KENT HALDWANI,Otolaryngology clinic,"search "" Kandpal ENT hospital "" on Google maps, Nawabi Rd, Shaktipuram, Haldwani, Uttarakhand 263139, India",https://www.google.co.kr/maps/place/KANDPAL+ENT+HOSPITAL-+KENT+HALDWANI/data=!4m5!3m4!1s0x39a09afb986ee545:0xbead955737b0b99d!8m2!3d29.2251454!4d79.52445?authuser=0&hl=en&rclk=1,29.2251454,79.52445,Uttarakhand
Dr K.C lohani clinic,Medical clinic,"6GMM+FH9, Civil Lines, Thapa Colony, Haldwani, Uttarakhand 263139, India",https://www.google.co.kr/maps/place/Dr+K.C+lohani+clinic/data=!4m5!3m4!1s0x39a09bd0d29bb3bd:0x2e8fb48030193102!8m2!3d29.2336521!4d79.5339758?authuser=0&hl=en&rclk=1,29.2336521,79.5339758,Uttarakhand
Old Hospital Building,Hospital,"CCG5+XW5, Bagar Talla, Uttarakhand 263001, India",https://www.google.co.kr/maps/place/Old+Hospital+Building/data=!4m5!3m4!1s0x39a0a13269983c35:0x46d21dfcc804f70f!8m2!3d29.427388!4d79.4098694?authuser=0&hl=en&rclk=1,29.427388,79.4098694,Uttarakhand
Office director hospital,Hospital,"40, Bara Bazar Rd, Mallital, Nainital, Uttarakhand 263002, India",https://www.google.co.kr/maps/place/Office+director+hospital/data=!4m5!3m4!1s0x39a0a13866188e2f:0xe06243c3f427d810!8m2!3d29.3928172!4d79.4539729?authuser=0&hl=en&rclk=1,29.3928172,79.4539729,Uttarakhand
Dr Sk agarwal Clinic pedia & Vaccination Center,Medical clinic,"Sabji Mandi, Mangal Parao, Banbhoolpura, Haldwani, Uttarakhand 263139, India",https://www.google.co.kr/maps/place/Dr+Sk+agarwal+Clinic+pedia+%26+Vaccination+Center/data=!4m5!3m4!1s0x39a09ac3641b580d:0xdaf70481349efa7e!8m2!3d29.2111755!4d79.5288002?authuser=0&hl=en&rclk=1,29.2111755,79.5288002,Uttarakhand
Primary Health Centre,Government hospital,"Betalghat, Uttarakhand, India",https://www.google.co.kr/maps/place/Primary+Health+Centre/data=!4m5!3m4!1s0x390a07d2e8b42f9b:0x1374ea7681f0ad58!8m2!3d29.5534187!4d79.3370305?authuser=0&hl=en&rclk=1,29.5534187,79.3370305,Uttarakhand
Dr Lal PathLabs,Diagnostic center,"OPP BD PANDEY HOSPITAL, ,MALLITAL,NAINITAL-263001, OPP.BD PANDEY HOSPITAL, Uttarakhand 263001, India",https://www.google.co.kr/maps/place/Dr+Lal+PathLabs/data=!4m5!3m4!1s0x39a0a1f2bfffffe3:0x14c9b92b9b727262!8m2!3d29.391939!4d79.460544?authuser=0&hl=en&rclk=1,29.391939,79.460544,Uttarakhand
DEEP CLINIC,Doctor,"7G9V+JCJ, Kathgodam, Harigarh Dalipsingh, Uttarakhand 263126, India",https://www.google.co.kr/maps/place/DEEP+CLINIC/data=!4m5!3m4!1s0x39a09bfd200f5e31:0xd0ff4dc88794578e!8m2!3d29.2690965!4d79.5435181?authuser=0&hl=en&rclk=1,29.2690965,79.5435181,Uttarakhand
Chandan Diagnostic Centre,Diagnostic center,"Near arya smaj mandir, Mallital, Nainital, Uttarakhand 263002, India",https://www.google.co.kr/maps/place/Chandan+Diagnostic+Centre/data=!4m5!3m4!1s0x39a0a1f2bfffffe3:0xe2b82c9e028c6a0!8m2!3d29.3918494!4d79.4533288?authuser=0&hl=en&rclk=1,29.3918494,79.4533288,Uttarakhand
Warsi physiotherapy clinic,Psychotherapist,"Ward no 2 Dak bunglow, Bhimtal, Uttarakhand, India",https://www.google.co.kr/maps/place/Warsi+physiotherapy+clinic/data=!4m5!3m4!1s0x39a0976176a73fd3:0xd5c4a2a54c2797d4!8m2!3d29.3443173!4d79.5620004?authuser=0&hl=en&rclk=1,29.3443173,79.5620004,Uttarakhand
Dr Arun Kapoor Clinic,Medical clinic,"6G6G+MX6, Mangal Parao, Banbhoolpura, Haldwani, Uttarakhand 263139, India",https://www.google.co.kr/maps/place/Dr+Arun+Kapoor+Clinic/data=!4m5!3m4!1s0x39a09ac325e56d7d:0x38a38c9a6cb9babf!8m2!3d29.2116525!4d79.5273759?authuser=0&hl=en&rclk=1,29.2116525,79.5273759,Uttarakhand
एलोपैथिक चिकित्सालय पतलि�?��,Hospital,"9899+898, Pandey Gaon, Uttarakhand 263159, India",https://www.google.co.kr/maps/place/%E0%A4%8F%E0%A4%B2%E0%A5%8B%E0%A4%AA%E0%A5%88%E0%A4%A5%E0%A4%BF%E0%A4%95+%E0%A4%9A%E0%A4%BF%E0%A4%95%E0%A4%BF%E0%A4%A4%E0%A5%8D%E0%A4%B8%E0%A4%BE%E0%A4%B2%E0%A4%AF+%E0%A4%AA%E0%A4%A4%E0%A4%B2%E0%A4%BF%E0%A4%AF%E0%A4%BE/data=!4m5!3m4!1s0x390a0b30d2be8757:0x4be19d0f5f73f6f9!8m2!3d29.3682994!4d79.3184657?authuser=0&hl=en&rclk=1,29.3682994,79.3184657,Uttarakhand
COMBINED HOSPITAL,Hospital,"98X2+F8V, Kotabagh, Uttarakhand 263159, India",https://www.google.co.kr/maps/place/COMBINED+HOSPITAL/data=!4m5!3m4!1s0x390a0b79e58f2d3f:0x4df7ead039c386a9!8m2!3d29.3987258!4d79.3008024?authuser=0&hl=en&rclk=1,29.3987258,79.3008024,Uttarakhand
Nanital,Hospital,"bsnl office near, Awala Khot, Uttarakhand, India",https://www.google.co.kr/maps/place/Nanital/data=!4m5!3m4!1s0x390a0b79f37e5e07:0x54ebbabd70044fa0!8m2!3d29.3980985!4d79.3002354?authuser=0&hl=en&rclk=1,29.3980985,79.3002354,Uttarakhand
Tulsi Tele Health Clinic,Hospital,"Bhowali-Ramgarh-Mukteshwar Rd, Bhowali Range, Uttarakhand 263132, India",https://www.google.co.kr/maps/place/Tulsi+Tele+Health+Clinic/data=!4m5!3m4!1s0x39a0bd241fa22fc9:0x79b395e361f4a9ce!8m2!3d29.4387018!4d79.5887105?authuser=0&hl=en&rclk=1,29.4387018,79.5887105,Uttarakhand
Bhatt Skin Allergy And General Hospital,Private hospital,"Unnamed Road, Lohariyasal Malla, Unchapul, Haldwani, Uttarakhand 263126, India",https://www.google.co.kr/maps/place/Bhatt+Skin+Allergy+And+General+Hospital/data=!4m5!3m4!1s0x39a09b0dae26e04b:0x800bb502c2452bb6!8m2!3d29.227406!4d79.4950355?authuser=0&hl=en&rclk=1,29.227406,79.4950355,Uttarakhand
Shri Krishna Piles Care Center,Medical clinic,"Amarawati vihar, Opp. Dani General Store, near Shyama Garden, Haldwani, Uttarakhand 263139, India",https://www.google.co.kr/maps/place/Shri+Krishna+Piles+Care+Center/data=!4m5!3m4!1s0x39a09b03d15c770f:0x9ed32d83b7c035ee!8m2!3d29.2281972!4d79.5247242?authuser=0&hl=en&rclk=1,29.2281972,79.5247242,Uttarakhand
गेठि�?�� चिकित्सालय,Hospital,"Bhowali-Sanitorium-Haldwani Rd, Gethiya, Uttarakhand 263127, India",https://www.google.co.kr/maps/place/%E0%A4%97%E0%A5%87%E0%A4%A0%E0%A4%BF%E0%A4%AF%E0%A4%BE+%E0%A4%9A%E0%A4%BF%E0%A4%95%E0%A4%BF%E0%A4%A4%E0%A5%8D%E0%A4%B8%E0%A4%BE%E0%A4%B2%E0%A4%AF/data=!4m5!3m4!1s0x39a09930397075ad:0x576add1019c00665!8m2!3d29.357857!4d79.489932?authuser=0&hl=en&rclk=1,29.357857,79.489932,Uttarakhand
"T.B.Sanatorium, Bhowali, Nainital",Hospital,"TB sanatorium, Bhowali, Sukha, Uttarakhand 263132, India","https://www.google.co.kr/maps/place/T.B.Sanatorium,+Bhowali,+Nainital/data=!4m5!3m4!1s0x39a0a265d797a411:0x6d73cb32bff48f08!8m2!3d29.3889877!4d79.5065026?authuser=0&hl=en&rclk=1",29.3889877,79.5065026,Uttarakhand
Devyanshi physio clinic mall road almora,Hospital,"Mall Rd, Chowk Bazar, Paltan Bazar, Dharanaula, Almora, Uttarakhand 263601, India",https://www.google.co.kr/maps/place/Devyanshi+physio+clinic+mall+road+almora/data=!4m5!3m4!1s0x39a0b7d605933873:0x29d3f685e7f357ab!8m2!3d29.5989004!4d79.6593858?authuser=0&hl=en&rclk=1,29.5989004,79.6593858,Uttarakhand
Anurjun Maternity And Laproscopic Centre,Hospital,"Behind nainital bank, Kaladhungi Rd, Haldwani, Uttarakhand 263139, India",https://www.google.co.kr/maps/place/Anurjun+Maternity+And+Laproscopic+Centre/data=!4m5!3m4!1s0x39a09de010e13bdb:0x51135c77e605e0f3!8m2!3d29.2519099!4d79.4418237?authuser=0&hl=en&rclk=1,29.2519099,79.4418237,Uttarakhand
CHC Khairna,Hospital,"Khairna Bridge, Chhara, Uttarakhand 263645, India",https://www.google.co.kr/maps/place/CHC+Khairna/data=!4m5!3m4!1s0x39a0a425376f3691:0xf4f2c67c4cd4a0a3!8m2!3d29.4965709!4d79.4809851?authuser=0&hl=en&rclk=1,29.4965709,79.4809851,Uttarakhand
hospital,Hospital,"Airari, Ranikhet, Uttarakhand 263645, India",https://www.google.co.kr/maps/place/hospital/data=!4m5!3m4!1s0x39a0a97982a9b3cd:0x3fea24ea52c907a3!8m2!3d29.6346078!4d79.4303336?authuser=0&hl=en&rclk=1,29.6346078,79.4303336,Uttarakhand
Anjali Hospital,Hospital,"new mobile solution, opposite Anjali hospital, Almora, Uttarakhand 263601, India",https://www.google.co.kr/maps/place/Anjali+Hospital/data=!4m5!3m4!1s0x39a0b736b648a9c1:0x93de7782d264c6ad!8m2!3d29.597093!4d79.656479?authuser=0&hl=en&rclk=1,29.597093,79.656479,Uttarakhand
CHC GARAMPANI,Government hospital,"Khairna, Garampani, Uttarakhand 263139, India",https://www.google.co.kr/maps/place/CHC+GARAMPANI/data=!4m5!3m4!1s0x39a0a425ae740f05:0xc8378403cfde2bfe!8m2!3d29.495767!4d79.4810578?authuser=0&hl=en&rclk=1,29.495767,79.4810578,Uttarakhand
Prathmik Swasthya Kendra Ganja Jeolikote,Government hospital,"village ganja post district nainitsl uttrakhand, Jeolikote, Uttarakhand 263127, India",https://www.google.co.kr/maps/place/Prathmik+Swasthya+Kendra+Ganja+Jeolikote/data=!4m5!3m4!1s0x39a098b668ad72fd:0xa550ba92826f87d8!8m2!3d29.350875!4d79.4770396?authuser=0&hl=en&rclk=1,29.350875,79.4770396,Uttarakhand
Public Health Center,Hospital,"Bhowali-Bhimtal-Haldwani Rd, Bhimtal, Uttarakhand 263136, India",https://www.google.co.kr/maps/place/Public+Health+Center/data=!4m5!3m4!1s0x39a09955532e7afd:0xc2701348a25f9e3f!8m2!3d29.334715!4d79.5581036?authuser=0&hl=en&rclk=1,29.334715,79.5581036,Uttarakhand
"Ex Servicemen Contributory Health Scheme, Polyclinic",Medical clinic,"56 APO, Stn HQ Haldwani, Haldwani, Uttarakhand 900281, India","https://www.google.co.kr/maps/place/Ex+Servicemen+Contributory+Health+Scheme,+Polyclinic/data=!4m5!3m4!1s0x39a09af2fc784d39:0xfeebe3ccc437479a!8m2!3d29.2295829!4d79.5355439?authuser=0&hl=en&rclk=1",29.2295829,79.5355439,Uttarakhand
Human Hospital,Hospital,"FJFW+5RJ, Darima, Uttarakhand 263138, India",https://www.google.co.kr/maps/place/Human+Hospital/data=!4m5!3m4!1s0x39a0bc010c1abc6d:0xfda6a7f7f3ce2ae9!8m2!3d29.4729521!4d79.6470045?authuser=0&hl=en&rclk=1,29.4729521,79.6470045,Uttarakhand
Dr. Aparna Bisht Pande,Pediatrician,"Nawabi Rd, near Sidhharth Public school, Ward Number 25, Azad Nagar, Heera Nagar, Haldwani, Uttarakhand 263139, India",https://www.google.co.kr/maps/place/Dr.+Aparna+Bisht+Pande/data=!4m5!3m4!1s0x39a09b232728961f:0x7d0c1a796d8da2b4!8m2!3d29.2206106!4d79.5239152?authuser=0&hl=en&rclk=1,29.2206106,79.5239152,Uttarakhand
Primary Health Centre,Hospital,"JCVQ+9GX, Khari Bazar, Ranikhet, Uttarakhand 263645, India",https://www.google.co.kr/maps/place/Primary+Health+Centre/data=!4m5!3m4!1s0x39a0a9628490fb21:0x985e9bd87bcee01b!8m2!3d29.6434792!4d79.438861?authuser=0&hl=en&rclk=1,29.6434792,79.438861,Uttarakhand
Dr Prashant Nigam Medical Clinic,Medical clinic,"Amba Nagar, Azad Nagar, Amrawati Colony, Uttarakhand 263139, India",https://www.google.co.kr/maps/place/Dr+Prashant+Nigam+Medical+Clinic/data=!4m5!3m4!1s0x39a09ae79701442f:0x85ea6a7a3eb41f75!8m2!3d29.2249145!4d79.5227199?authuser=0&hl=en&rclk=1,29.2249145,79.5227199,Uttarakhand
Ramsay Hospital,Government hospital,"Ramsay Hospital Rd, Tallital, Nainital, Uttarakhand 263002, India",https://www.google.co.kr/maps/place/Ramsay+Hospital/data=!4m5!3m4!1s0x39a0a1f9dde40605:0xb65a25915718edd1!8m2!3d29.3820901!4d79.4660113?authuser=0&hl=en&rclk=1,29.3820901,79.4660113,Uttarakhand
tkakot,Hospital,"Unnamed Road, North Gola Range, Uttarakhand 263138, India",https://www.google.co.kr/maps/place/tkakot/data=!4m5!3m4!1s0x39a0bbe2d21aeadd:0xf131094687629b75!8m2!3d29.4906888!4d79.6302353?authuser=0&hl=en&rclk=1,29.4906888,79.6302353,Uttarakhand
Dr Tirlochan Singh Clinic,Medical clinic,"Opp nainital distt co operative bank, near prem talkies, Nainital, Road, Haldwani, Uttarakhand 263139, India",https://www.google.co.kr/maps/place/Dr+Tirlochan+Singh+Clinic/data=!4m5!3m4!1s0x39a09bd8f2f2be97:0x8f44d444f52f18b!8m2!3d29.2183459!4d79.5302116?authuser=0&hl=en&rclk=1,29.2183459,79.5302116,Uttarakhand
ANURJUN HOSPITAL,Hospital,"Kaladhungi Rd, behind Nainital Bank, Pilikothi, Haldwani, Uttarakhand 263139, India",https://www.google.co.kr/maps/place/ANURJUN+HOSPITAL/data=!4m5!3m4!1s0x39a09bb8826f13ff:0xa44c3c2761611d3b!8m2!3d29.2182595!4d79.5141634?authuser=0&hl=en&rclk=1,29.2182595,79.5141634,Uttarakhand
Meenakshi Hospital and Nursing Home,Hospital,"Nainital Road, NH 87, Malla Gorakhpur, Heera Nagar, Haldwani, Uttarakhand 263139, India",https://www.google.co.kr/maps/place/Meenakshi+Hospital+and+Nursing+Home/data=!4m5!3m4!1s0x39a09b7a49792d3f:0x3c8c280182346fc7!8m2!3d29.2210064!4d79.5289062?authuser=0&hl=en&rclk=1,29.2210064,79.5289062,Uttarakhand
M N Srivastava Hospital,Hospital,"JM22+QWF, Almora, Paltan Bazar, Dharanaula, Almora, Uttarakhand 253529, India",https://www.google.co.kr/maps/place/M+N+Srivastava+Hospital/data=!4m5!3m4!1s0x39a0b732ed7c4a7d:0xe15ba9c96f70461e!8m2!3d29.60193!4d79.652304?authuser=0&hl=en&rclk=1,29.60193,79.652304,Uttarakhand
Janta clinice,Hospital,"UT SH 41, Kaladhungi, Uttarakhand 263140, India",https://www.google.co.kr/maps/place/Janta+clinice/data=!4m5!3m4!1s0x390a75ebb6dbe3bd:0x1b35b31caffa948c!8m2!3d29.2825567!4d79.349638?authuser=0&hl=en&rclk=1,29.2825567,79.349638,Uttarakhand
Mohan Co. Chemist,Hospital,"86, Bara Bazar Rd, Mallital, Nainital, Uttarakhand 263001, India",https://www.google.co.kr/maps/place/Mohan+Co.+Chemist/data=!4m5!3m4!1s0x39a0a194cd3a0ed3:0x5bec44649b0d964d!8m2!3d29.3929486!4d79.4516324?authuser=0&hl=en&rclk=1,29.3929486,79.4516324,Uttarakhand
Bombay Hospital,General hospital,"Near Saurabh Hotel, Avas Vikas Road, Nainital, Haldwani, Uttarakhand 263139, India",https://www.google.co.kr/maps/place/Bombay+Hospital/data=!4m5!3m4!1s0x39a09b1e6726e603:0x528227145fa2a403!8m2!3d29.2347538!4d79.5329028?authuser=0&hl=en&rclk=1,29.2347538,79.5329028,Uttarakhand
Floravale Nursery,Medical clinic,"F-21 Industrial Area, Bhimtal road, Bhimtal, Uttarakhand 263136, India",https://www.google.co.kr/maps/place/Floravale+Nursery/data=!4m5!3m4!1s0x39a09810b6f418db:0x87fb1e6614f2f41d!8m2!3d29.3605466!4d79.5479408?authuser=0&hl=en&rclk=1,29.3605466,79.5479408,Uttarakhand
"Mansa clinic, Dr Neha Sharma, Pchyciatrist, PHD",Doctor,"Kamalwaganja Road Girija Complex, near hanuman mandir, Haldwani, Uttarakhand 263139, India","https://www.google.co.kr/maps/place/Mansa+clinic,+Dr+Neha+Sharma,+Pchyciatrist,+PHD/data=!4m5!3m4!1s0x39a09bba26f9d28d:0x2a5faf46371d9366!8m2!3d29.2217745!4d79.4999599?authuser=0&hl=en&rclk=1",29.2217745,79.4999599,Uttarakhand
S N Hospital and Heart Centre,Hospital,"Zaroori Bazaar Rd, Khari Bazar, Ranikhet, Uttarakhand 263645, India",https://www.google.co.kr/maps/place/S+N+Hospital+and+Heart+Centre/data=!4m5!3m4!1s0x39a0a97d842f83af:0x9cab4b4a92b3f8df!8m2!3d29.6443161!4d79.4384721?authuser=0&hl=en&rclk=1,29.6443161,79.4384721,Uttarakhand
Dr. Ajay Pandey baby hospital,Hospital,"Nawabi Rd, Durga Colony, Azad Nagar, Heera Nagar, Haldwani, Uttarakhand 263139, India",https://www.google.co.kr/maps/place/Dr.+Ajay+Pandey+baby+hospital/data=!4m5!3m4!1s0x39a09ae59e38e369:0x34803ef18c5ffcb4!8m2!3d29.2233552!4d79.5252815?authuser=0&hl=en&rclk=1,29.2233552,79.5252815,Uttarakhand
Central Hospital,Hospital,"Kaladhungi Road, Tiraha, near Gas Godam, Kusumkhera, Haldwani, Uttarakhand 263139, India",https://www.google.co.kr/maps/place/Central+Hospital/data=!4m5!3m4!1s0x39a09bc39ab6240b:0xba2f0cddf35b5ec5!8m2!3d29.2222469!4d79.5052685?authuser=0&hl=en&rclk=1,29.2222469,79.5052685,Uttarakhand
Srivastava Nursing Home & Hospital,Hospital,"Almora-Ranikhet Rd, Ranikhet Range, Uttarakhand 263652, India",https://www.google.co.kr/maps/place/Srivastava+Nursing+Home+%26+Hospital/data=!4m5!3m4!1s0x39a0ac0c3440e197:0x80e39378614005a0!8m2!3d29.665414!4d79.4785619?authuser=0&hl=en&rclk=1,29.665414,79.4785619,Uttarakhand
Balaji Hospital,Private hospital,"Rampur Rd, Savitri Colony, Rampur, Haldwani, Uttarakhand 263139, India",https://www.google.co.kr/maps/place/Balaji+Hospital/data=!4m5!3m4!1s0x39a09adb6b241241:0x5bd23b0719114600!8m2!3d29.2076852!4d79.5249723?authuser=0&hl=en&rclk=1,29.2076852,79.5249723,Uttarakhand
Kushwaha ENT Care & Diagnosis Centre,Private hospital,"Ramlila Rd, Ganesh Vihar, Heera Nagar, Haldwani, Uttarakhand 263139, India",https://www.google.co.kr/maps/place/Kushwaha+ENT+Care+%26+Diagnosis+Centre/data=!4m5!3m4!1s0x39a09ae049d62667:0x39b3e3ef9354cca7!8m2!3d29.2168649!4d79.5157046?authuser=0&hl=en&rclk=1,29.2168649,79.5157046,Uttarakhand
Joshi clinic Ayurvedic doctor,Doctor,"Haldwani Kaladungi Rd, Near, Lal danth, Tiraha, Uttarakhand 263139, India",https://www.google.co.kr/maps/place/Joshi+clinic+Ayurvedic+doctor/data=!4m5!3m4!1s0x39a09d6c49b8ac7b:0xc970d170fc5c1328!8m2!3d29.2287449!4d79.4178271?authuser=0&hl=en&rclk=1,29.2287449,79.4178271,Uttarakhand
Neelkanth Hospital,Private hospital,"NEW I.T.I. ROAD Government Hospital, near Susheela Tiwari, Haldwani, Uttarakhand 263139, India",https://www.google.co.kr/maps/place/Neelkanth+Hospital/data=!4m5!3m4!1s0x39a09ad8f2bc76d9:0xd688b6fda55443a5!8m2!3d29.2061056!4d79.5162127?authuser=0&hl=en&rclk=1,29.2061056,79.5162127,Uttarakhand
Bhatt skin allergy clinic,Hospital,"Kaladhungi Rd, Lohariyasal Malla, Unchapul, Haldwani, Uttarakhand 263139, India",https://www.google.co.kr/maps/place/Bhatt+skin+allergy+clinic/data=!4m5!3m4!1s0x39a09bd4c8edf2a7:0x385004fb18fb2cda!8m2!3d29.2273389!4d79.4951573?authuser=0&hl=en&rclk=1,29.2273389,79.4951573,Uttarakhand
Dr Lal PathLabs,Diagnostic center,"Gas Godam Road,Ramnagar,Dist-Nainital,Uttarakhand, Gas Godam Road, Uttarakhand 263139, India",https://www.google.co.kr/maps/place/Dr+Lal+PathLabs/data=!4m5!3m4!1s0x39a0a1fa392f9e3b:0xa4b4c7865c7c4831!8m2!3d29.380304!4d79.463566?authuser=0&hl=en&rclk=1,29.380304,79.463566,Uttarakhand
Sanjivani Hospital,Private hospital,"NEAR CANCER HOSPITAL NEW I.T.I, Rampur Rd, Haldwani, Uttarakhand 263139, India",https://www.google.co.kr/maps/place/Sanjivani+Hospital/data=!4m5!3m4!1s0x39a09ad88d496f0f:0x8dc5674fd9a2ec1d!8m2!3d29.2060867!4d79.5167899?authuser=0&hl=en&rclk=1,29.2060867,79.5167899,Uttarakhand
Sarkari Hospital,Hospital,"Suyal Bari, Uttarakhand 263601, India",https://www.google.co.kr/maps/place/Sarkari+Hospital/data=!4m5!3m4!1s0x39a0bab615555555:0xb7f74bf63c6c4ef!8m2!3d29.5409341!4d79.567368?authuser=0&hl=en&rclk=1,29.5409341,79.567368,Uttarakhand
पश�?अस्पता�?तल्ल�?रा�?��ढ़,Government hospital,"Kaichi - Ramgarh Rd, Ramgarh, Uttarakhand 263137, India",https://www.google.co.kr/maps/place/%E0%A4%AA%E0%A4%B6%E0%A5%81+%E0%A4%85%E0%A4%B8%E0%A5%8D%E0%A4%AA%E0%A4%A4%E0%A4%BE%E0%A4%B2+%E0%A4%A4%E0%A4%B2%E0%A5%8D%E0%A4%B2%E0%A4%BE+%E0%A4%B0%E0%A4%BE%E0%A4%AE%E0%A4%97%E0%A4%A2%E0%A4%BC/data=!4m5!3m4!1s0x39a0bdf016c9c4b9:0x809ce20a180c44aa!8m2!3d29.4454704!4d79.5615174?authuser=0&hl=en&rclk=1,29.4454704,79.5615174,Uttarakhand
JOSHI CLINIC Dr. SANJAY JOSHI AYURVEDIC DOCTOR,Doctor,"Kaladhungi Road, Tiraha, near Gas Godam, Kusumkhera, Haldwani, Uttarakhand 263139, India",https://www.google.co.kr/maps/place/JOSHI+CLINIC+Dr.+SANJAY+JOSHI+AYURVEDIC+DOCTOR/data=!4m5!3m4!1s0x39a09b2f29d4f805:0x855b6329ffa9a47a!8m2!3d29.2226243!4d79.5052307?authuser=0&hl=en&rclk=1,29.2226243,79.5052307,Uttarakhand
सा�?��दा�?���?स्वास्�?���?केंद्र �?��्ल रा�?��ढ़ (Hospital),Government hospital,"Ramgarh Rd, Ramgarh, Uttarakhand 263137, India",https://www.google.co.kr/maps/place/%E0%A4%B8%E0%A4%BE%E0%A4%AE%E0%A5%81%E0%A4%A6%E0%A4%BE%E0%A4%AF%E0%A4%BF%E0%A4%95+%E0%A4%B8%E0%A5%8D%E0%A4%B5%E0%A4%BE%E0%A4%B8%E0%A5%8D%E0%A4%A5%E0%A5%8D%E0%A4%AF+%E0%A4%95%E0%A5%87%E0%A4%82%E0%A4%A6%E0%A5%8D%E0%A4%B0+%E0%A4%AE%E0%A4%B2%E0%A5%8D%E0%A4%B2+%E0%A4%B0%E0%A4%BE%E0%A4%AE%E0%A4%97%E0%A4%A2%E0%A4%BC+(Hospital)/data=!4m5!3m4!1s0x39a0a32f190152e9:0x4811fc1f8ebdb017!8m2!3d29.428404!4d79.5506452?authuser=0&hl=en&rclk=1,29.428404,79.5506452,Uttarakhand
District Hospital Almora,Government hospital,"Mall Rd, Chowk Bazar, Paltan Bazar, Dharanaula, Almora, Uttarakhand 263601, India",https://www.google.co.kr/maps/place/District+Hospital+Almora/data=!4m5!3m4!1s0x39a0b7372c6f3bf3:0xd455beaf413e361d!8m2!3d29.5980091!4d79.658916?authuser=0&hl=en&rclk=1,29.5980091,79.658916,Uttarakhand
female hospital,Hospital,"high school, India",https://www.google.co.kr/maps/place/female+hospital/data=!4m5!3m4!1s0x390a76154a63e1f9:0xa472d2e27099d298!8m2!3d29.2487934!4d79.3580139?authuser=0&hl=en&rclk=1,29.2487934,79.3580139,Uttarakhand
S N Mehrotra House,Doctor,"Connecting path, Bhowali, Sukha, Uttarakhand 263132, India",https://www.google.co.kr/maps/place/S+N+Mehrotra+House/data=!4m5!3m4!1s0x39a0a396ae7b8621:0xa5b33b860b731d19!8m2!3d29.3810976!4d79.5192414?authuser=0&hl=en&rclk=1,29.3810976,79.5192414,Uttarakhand
Hospital govt.,Hospital,"8HM5+R76, Jantuwal Gaon, Uttarakhand 263136, India",https://www.google.co.kr/maps/place/Hospital+govt./data=!4m5!3m4!1s0x39a0998290b457fd:0x9854ffd6ac54fabe!8m2!3d29.3345423!4d79.5581496?authuser=0&hl=en&rclk=1,29.3345423,79.5581496,Uttarakhand
ENT Hospital,Hospital,"Block A, Lal danth, Haldwani, Uttarakhand 263139, India",https://www.google.co.kr/maps/place/ENT+Hospital/data=!4m5!3m4!1s0x39a09b1e762a2357:0x7261c08035962cc7!8m2!3d29.2195666!4d79.513464?authuser=0&hl=en&rclk=1,29.2195666,79.513464,Uttarakhand
SRL Diagnostics,Diagnostic center,"House No.33, Ground Floor, Ramsay, Road, Tallital, Nainital, Uttarakhand 263001, India",https://www.google.co.kr/maps/place/SRL+Diagnostics/data=!4m5!3m4!1s0x39a0a1c0190861ad:0x1f9b8cd1247cf019!8m2!3d29.3790385!4d79.4635089?authuser=0&hl=en&rclk=1,29.3790385,79.4635089,Uttarakhand
ANM CENTRE,Child health care centre,"Nathuakhan, Nathuwakhan, Uttarakhand 263158, India",https://www.google.co.kr/maps/place/ANM+CENTRE/data=!4m5!3m4!1s0x39a0bda45f3e7ecb:0x8b759ce29375736f!8m2!3d29.4729105!4d79.6059448?authuser=0&hl=en&rclk=1,29.4729105,79.6059448,Uttarakhand
Primary Health Centre (PHC),Government hospital,"Bhatelia-Dhanachuli-Mukteshwer road, Ladfora Talla, Uttarakhand 263136, India",https://www.google.co.kr/maps/place/Primary+Health+Centre+(PHC)/data=!4m5!3m4!1s0x39a0bd512a55d7e3:0x571acee3b3ce12b!8m2!3d29.3835853!4d79.619493?authuser=0&hl=en&rclk=1,29.3835853,79.619493,Uttarakhand
Soban Singh Jeena Base Hospital Haldwani,Hospital,"Bareilly - Nainital Rd, near bus station, Banbhoolpura, Haldwani, Uttarakhand 263139, India",https://www.google.co.kr/maps/place/Soban+Singh+Jeena+Base+Hospital+Haldwani/data=!4m5!3m4!1s0x39a09ae9d2a43c5d:0x9332a33f02e06f93!8m2!3d29.215783!4d79.5294912?authuser=0&hl=en&rclk=1,29.215783,79.5294912,Uttarakhand
Dr. Prakash Pant Jagdamba Heart Care & Maternity Centre,Heart hospital,"Kapil Complex, 7, Kaladhungi Rd, Mukhani Chouraha, Heera Nagar, Haldwani, Uttarakhand 263139, India",https://www.google.co.kr/maps/place/Dr.+Prakash+Pant+Jagdamba+Heart+Care+%26+Maternity+Centre/data=!4m5!3m4!1s0x39a09ae19660ac35:0xf16ac8ef0fd9240f!8m2!3d29.2182646!4d79.5168526?authuser=0&hl=en&rclk=1,29.2182646,79.5168526,Uttarakhand
chc kotabagh,Hospital,"98X2+W3C, Kotabagh, Uttarakhand 263159, India",https://www.google.co.kr/maps/place/chc+kotabagh/data=!4m5!3m4!1s0x390a0b79c7ea34fb:0x3ae1aad86e858947!8m2!3d29.3998024!4d79.3001533?authuser=0&hl=en&rclk=1,29.3998024,79.3001533,Uttarakhand
"Tiwari Maternity & Nursing Home (TMC), Haldwani",Hospital,"Mukhani, Kaladhungi Rd, Haldwani, Uttarakhand 263139, India","https://www.google.co.kr/maps/place/Tiwari+Maternity+%26+Nursing+Home+(TMC),+Haldwani/data=!4m5!3m4!1s0x39a09b8bac4a1dfd:0x9599e2fd25a69e93!8m2!3d29.2169569!4d79.5180435?authuser=0&hl=en&rclk=1",29.2169569,79.5180435,Uttarakhand
Pathkind Labs,Diagnostic center,"SNo.1,Vill.Chada Khairane, Garampani Kaushya Kutauli, Nainital, Uttarakhand 263125, India",https://www.google.co.kr/maps/place/Pathkind+Labs/data=!4m5!3m4!1s0x39a0a5edae40800d:0xef5b0fc76e1626d8!8m2!3d29.488944!4d79.479111?authuser=0&hl=en&rclk=1,29.488944,79.479111,Uttarakhand
Dr. Susheela Tiwari Government Hospital,Government hospital,"Rampur Rd, Haldwani, Uttarakhand 263129, India",https://www.google.co.kr/maps/place/Dr.+Susheela+Tiwari+Government+Hospital/data=!4m5!3m4!1s0x39a09ad8e572629b:0x2694d08d4eaa772a!8m2!3d29.2042638!4d79.5161385?authuser=0&hl=en&rclk=1,29.2042638,79.5161385,Uttarakhand
�?��तृ एव�?शिशु कल्याण उप केंद्र पतलि�?�� ANM Center,Government hospital,"9887+VMR, Pipalchora, Uttarakhand 263159, India",https://www.google.co.kr/maps/place/%E0%A4%AE%E0%A4%BE%E0%A4%A4%E0%A5%83+%E0%A4%8F%E0%A4%B5%E0%A4%82+%E0%A4%B6%E0%A4%BF%E0%A4%B6%E0%A5%81+%E0%A4%95%E0%A4%B2%E0%A5%8D%E0%A4%AF%E0%A4%BE%E0%A4%A3+%E0%A4%89%E0%A4%AA+%E0%A4%95%E0%A5%87%E0%A4%82%E0%A4%A6%E0%A5%8D%E0%A4%B0+%E0%A4%AA%E0%A4%A4%E0%A4%B2%E0%A4%BF%E0%A4%AF%E0%A4%BE+ANM+Center/data=!4m5!3m4!1s0x390a0b3635595835:0xb756727a3ad934c!8m2!3d29.3672382!4d79.3141416?authuser=0&hl=en&rclk=1,29.3672382,79.3141416,Uttarakhand
Om Clinic Dr P D Joshi Ayurvedic Doctor,Doctor,"Kapil Vihar Rd, Shiv Puri, Haldwani, Uttarakhand 263139, India",https://www.google.co.kr/maps/place/Om+Clinic+Dr+P+D+Joshi+Ayurvedic+Doctor/data=!4m5!3m4!1s0x39a09bb20876ed25:0x99914c44b968342!8m2!3d29.2403262!4d79.5277816?authuser=0&hl=en&rclk=1,29.2403262,79.5277816,Uttarakhand
Government Hospital,Government hospital,"Betalghat, Uttarakhand, India",https://www.google.co.kr/maps/place/Government+Hospital/data=!4m5!3m4!1s0x390a07d2ef41a373:0x7e9d658ec3c07345!8m2!3d29.5534248!4d79.3371295?authuser=0&hl=en&rclk=1,29.5534248,79.3371295,Uttarakhand
Neeraj Epilepsy Clinic,Medical clinic,"306, Haridwar Rd, Kolghatti, Rishikesh, Uttarakhand 249201, India",https://www.google.co.kr/maps/place/Neeraj+Epilepsy+Clinic/data=!4m5!3m4!1s0x39091603045eaf73:0xfe97897eb423ef58!8m2!3d30.0986549!4d78.2879838?authuser=0&hl=en&rclk=1,30.0986549,78.2879838,Uttarakhand
Dr Lal Path Lab Collection Center Bhowali,Diagnostic center,"Bhowali - Nainital Rd, near Police Station, Bhowali, Bhawanipur, Uttarakhand 263132, India",https://www.google.co.kr/maps/place/Dr+Lal+Path+Lab+Collection+Center+Bhowali/data=!4m5!3m4!1s0x39a0a3aedf7e6a99:0xa32379cff1929595!8m2!3d29.3867512!4d79.5136023?authuser=0&hl=en&rclk=1,29.3867512,79.5136023,Uttarakhand
City Hospital Haldwani,General hospital,"Teenpani, Bareilly - Nainital Rd, Haldwani, Uttarakhand 263139, India",https://www.google.co.kr/maps/place/City+Hospital+Haldwani/data=!4m5!3m4!1s0x39a085266d7170ed:0x343bb9b87ccba433!8m2!3d29.1782985!4d79.5202849?authuser=0&hl=en&rclk=1,29.1782985,79.5202849,Uttarakhand
"RAGHAV ADVANCED UROLOGY CARE, Dr Siddharth Pandey M.Ch",Urologist,"Kapil Complex, Kaladhungi Rd, opposite BP Petrol Pump, Near Mukhani Chauraha, Haldwani, Uttarakhand 263139, India","https://www.google.co.kr/maps/place/RAGHAV+ADVANCED+UROLOGY+CARE,+Dr+Siddharth+Pandey+M.Ch/data=!4m5!3m4!1s0x39a09b069792dcdb:0xd13bf177feabb05a!8m2!3d29.2185567!4d79.5177256?authuser=0&hl=en&rclk=1",29.2185567,79.5177256,Uttarakhand
Government Hospital Kalakhet,Hospital,"Kalakhet, Uttarakhand, India",https://www.google.co.kr/maps/place/Government+Hospital+Kalakhet/data=!4m5!3m4!1s0x390a075445166097:0x24c36ae8da99ca5c!8m2!3d29.5967539!4d79.3644002?authuser=0&hl=en&rclk=1,29.5967539,79.3644002,Uttarakhand
Apollo Clinic Dehradun,Medical clinic,"Near, 3rd Floor, Apollo Tower, Chowk, Ballupur Rd, Krishna Nagar, Dehradun, Uttarakhand 248001, India",https://www.google.co.kr/maps/place/Apollo+Clinic+Dehradun/data=!4m5!3m4!1s0x390929f98d308003:0x63fed79803d76fc6!8m2!3d30.3333843!4d78.0247457?authuser=0&hl=en&rclk=1,30.3333843,78.0247457,Uttarakhand
Government Railway Hospital,Hospital,"Railway Colony, Kathgodam, Uttarakhand 263126, India",https://www.google.co.kr/maps/place/Government+Railway+Hospital/data=!4m5!3m4!1s0x39a09a117aefad99:0x549e4950bdc010d3!8m2!3d29.2686551!4d79.5457235?authuser=0&hl=en&rclk=1,29.2686551,79.5457235,Uttarakhand
Dr Lal PathLabs,Diagnostic center,"Kaladhungi Road, Kathghariya, Civil Township, Fatehpur Range, near Nainital Bank, Haldwani, Uttarakhand 263139, India",https://www.google.co.kr/maps/place/Dr+Lal+PathLabs/data=!4m5!3m4!1s0x39a09d384d3c08c1:0x5e14e67ed1891dda!8m2!3d29.253145!4d79.444145?authuser=0&hl=en&rclk=1,29.253145,79.444145,Uttarakhand
Jamuna Memorial Hospital,Hospital,"Pilibhit Rd, Khatima, Uttarakhand 262308, India",https://www.google.co.kr/maps/place/Jamuna+Memorial+Hospital/data=!4m5!3m4!1s0x39a0511d405023af:0xe6f9c5b06122367e!8m2!3d28.916132!4d79.965295?authuser=0&hl=en&rclk=1,28.916132,79.965295,Uttarakhand
TB Hospital,Hospital,"NH-87, Naina Range, Uttarakhand 263132, India",https://www.google.co.kr/maps/place/TB+Hospital/data=!4m5!3m4!1s0x39a0a265afb92ac7:0xc9e8e97b6f45b640!8m2!3d29.3889428!4d79.5063912?authuser=0&hl=en&rclk=1,29.3889428,79.5063912,Uttarakhand
Star Diagnostic Centre,Diagnostic center,"Nainwal complex, Heera Nagar, Haldwani, Uttarakhand 263139, India",https://www.google.co.kr/maps/place/Star+Diagnostic+Centre/data=!4m5!3m4!1s0x39a09adfbe00ce25:0xfa857b6fdf9323ad!8m2!3d29.2119809!4d79.516633?authuser=0&hl=en&rclk=1,29.2119809,79.516633,Uttarakhand
Bhagwati Hospital,Hospital,"No:325, Chaomandi, Roorkee, Uttarakhand 247667, India",https://www.google.co.kr/maps/place/Bhagwati+Hospital/data=!4m5!3m4!1s0x390eb381874f3edd:0xe56190285a1ff669!8m2!3d29.8690547!4d77.8800201?authuser=0&hl=en&rclk=1,29.8690547,77.8800201,Uttarakhand
Matrix Hospital,Hospital,"Block A, Lal danth, Haldwani, Uttarakhand 263139, India",https://www.google.co.kr/maps/place/Matrix+Hospital/data=!4m5!3m4!1s0x39a09be46adf02ed:0x6d81b261750bbb7e!8m2!3d29.22069!4d79.511687?authuser=0&hl=en&rclk=1,29.22069,79.511687,Uttarakhand
Clinic,Medical clinic,"WXJG+HXV, Daulatpur, Uttarakhand 249402, India",https://www.google.co.kr/maps/place/Clinic/data=!4m5!3m4!1s0x39094a54f0000001:0x1a4edd171516e5c3!8m2!3d29.9314851!4d77.977434?authuser=0&hl=en&rclk=1,29.9314851,77.977434,Uttarakhand
Kalyan Hospital,Private hospital,"Mukhani, Chauraha, Kaladhungi Rd, Haldwani, Uttarakhand 263139, India",https://www.google.co.kr/maps/place/Kalyan+Hospital/data=!4m5!3m4!1s0x39a09b88f6ed8143:0xabafb1be9b93be96!8m2!3d29.2179229!4d79.5187371?authuser=0&hl=en&rclk=1,29.2179229,79.5187371,Uttarakhand
Gov. Hospital,Hospital,"8HM5+V65, Jantuwal Gaon, Uttarakhand 263136, India",https://www.google.co.kr/maps/place/Gov.+Hospital/data=!4m5!3m4!1s0x39a09935cf70cbb7:0x5e7f7bb3ca965f95!8m2!3d29.334632!4d79.5581184?authuser=0&hl=en&rclk=1,29.334632,79.5581184,Uttarakhand
PathKind Labs,Diagnostic center,"Kohli Colony, Kaaladungi Road Bithoria No 1, Distt, Haldwani, Uttarakhand 263139, India",https://www.google.co.kr/maps/place/PathKind+Labs/data=!4m5!3m4!1s0x39a09d4fcbd4eaa5:0x9c86f9b811ed2293!8m2!3d29.2505439!4d79.4447458?authuser=0&hl=en&rclk=1,29.2505439,79.4447458,Uttarakhand
SSGK Infirmary,Hospital,"Ghorakhal Road, Ghorakhal, Uttarakhand 202001, India",https://www.google.co.kr/maps/place/SSGK+Infirmary/data=!4m5!3m4!1s0x39a0a2a72e4445c1:0xd766a442137fbb41!8m2!3d29.3790736!4d79.5437273?authuser=0&hl=en&rclk=1,29.3790736,79.5437273,Uttarakhand
Govt. Ayurvedic Hospital,Hospital,"Unnamed Road, Nathuwakhan, Uttarakhand 263158, India",https://www.google.co.kr/maps/place/Govt.+Ayurvedic+Hospital/data=!4m5!3m4!1s0x39a0bbd411a9a10f:0xdbaf0dd74cd66e24!8m2!3d29.4747901!4d79.6043161?authuser=0&hl=en&rclk=1,29.4747901,79.6043161,Uttarakhand
Medray Diagnostic Centre,Diagnostic center,"Gaula Rd, Banbhoolpura, Haldwani, Uttarakhand 263139, India",https://www.google.co.kr/maps/place/Medray+Diagnostic+Centre/data=!4m5!3m4!1s0x39a09b7068dfe389:0x1aae037da5fe7a61!8m2!3d29.2124946!4d79.5331088?authuser=0&hl=en&rclk=1,29.2124946,79.5331088,Uttarakhand
RARI Ranikhet,Hospital,"Road to, Rd to army canteen, Thapla, Ranikhet, Uttarakhand 263645, India",https://www.google.co.kr/maps/place/RARI+Ranikhet/data=!4m5!3m4!1s0x39a0aa2ad6aa4243:0x75b07771dfa0eb6c!8m2!3d29.6320514!4d79.4131812?authuser=0&hl=en&rclk=1,29.6320514,79.4131812,Uttarakhand
heath care centre,Medical clinic,"6QFR+3G3, Rawadi, Uttarakhand 246174, India",https://www.google.co.kr/maps/place/heath+care+centre/data=!4m5!3m4!1s0x3909a5823f61424f:0x8f46c7dbe375ea08!8m2!3d30.222637!4d78.7912896?authuser=0&hl=en&rclk=1,30.222637,78.7912896,Uttarakhand
District Hospital,Government hospital,"Gopeshwar Chamoli Rd, near Head Post Office, Gopeshwar, Uttarakhand 246401, India",https://www.google.co.kr/maps/place/District+Hospital/data=!4m5!3m4!1s0x3909d458913abc09:0x94b91733f52fefc2!8m2!3d30.4100855!4d79.3201357?authuser=0&hl=en&rclk=1,30.4100855,79.3201357,Uttarakhand
Sanstivtiy,Hospital,"GHJ5+3W8, New Delhi, Uttarakhand 263135, India",https://www.google.co.kr/maps/place/Sanstivtiy/data=!4m5!3m4!1s0x39a0a532d6519917:0x5a036c7314d73e6b!8m2!3d29.5301619!4d79.5598437?authuser=0&hl=en&rclk=1,29.5301619,79.5598437,Uttarakhand
Uttaranchal Medical Center,Medical clinic,"Telephone Exchange Road, Subhash Nagar, Jwalapur, Uttarakhand 249407, India",https://www.google.co.kr/maps/place/Uttaranchal+Medical+Center/data=!4m5!3m4!1s0x390949ca7a769157:0xb90d2aabb3ac21b1!8m2!3d29.9224941!4d78.0965408?authuser=0&hl=en&rclk=1,29.9224941,78.0965408,Uttarakhand
Himani Medicos(name Of Turst & Faith Of People life),Medical Center,"Mallital, Nainital, Uttarakhand 263001, India",https://www.google.co.kr/maps/place/Himani+Medicos(name+Of+Turst+%26+Faith+Of+People+life)/data=!4m5!3m4!1s0x39a0a194cca5f45d:0xb67744bab38c3fc5!8m2!3d29.3925584!4d79.452088?authuser=0&hl=en&rclk=1,29.3925584,79.452088,Uttarakhand
IVF INDIA CARE - Best Fertility Clinic in Dehradun,Fertility clinic,"Dr Sumita Prabhakar, CMI Hospital, 54, Haridwar Rd, Dehradun, Uttarakhand 248001, India",https://www.google.co.kr/maps/place/IVF+INDIA+CARE+-+Best+Fertility+Clinic+in+Dehradun/data=!4m5!3m4!1s0x390929bca6c45f49:0x584e6f5089b67ae!8m2!3d30.312345!4d78.047751?authuser=0&hl=en&rclk=1,30.312345,78.047751,Uttarakhand
Kanishk Surgical & Super Specialty Hospital Dehradun,Hospital,"Kanishk Hospital - I.S.B.T Road, Main, Haridwar Bypass Rd, Dehradun, Uttarakhand 248001, India",https://www.google.co.kr/maps/place/Kanishk+Surgical+%26+Super+Specialty+Hospital+Dehradun/data=!4m5!3m4!1s0x3909290e5cbf5b4b:0xd8f45e2570309ed3!8m2!3d30.291778!4d78.050745?authuser=0&hl=en&rclk=1,30.291778,78.050745,Uttarakhand
Cancer Hospital,Hospital,"7394+RM2, Shelaqui, Haripur, Nawada, Dehradun, Uttarakhand 248005, India",https://www.google.co.kr/maps/place/Cancer+Hospital/data=!4m5!3m4!1s0x3909292455555555:0x8e48cbf4c69460b2!8m2!3d30.2695026!4d78.0566344?authuser=0&hl=en&rclk=1,30.2695026,78.0566344,Uttarakhand
Kumaon Path Lab,Pathologist,"Nagar Palika complex, Bhowali, Sukha, Uttarakhand 263132, India",https://www.google.co.kr/maps/place/Kumaon+Path+Lab/data=!4m5!3m4!1s0x39a0a3f4b47b7a9d:0x555ffca0c6a4cb0b!8m2!3d29.383137!4d79.5188169?authuser=0&hl=en&rclk=1,29.383137,79.5188169,Uttarakhand
Synergy Institute of Medical Sciences,Hospital,"Canal Rd, P.O, Ballupur, Dehradun, Uttarakhand 248001, India",https://www.google.co.kr/maps/place/Synergy+Institute+of+Medical+Sciences/data=!4m5!3m4!1s0x39092a06b4301195:0x7a8d8a16414d26bb!8m2!3d30.3372316!4d78.0132456?authuser=0&hl=en&rclk=1,30.3372316,78.0132456,Uttarakhand
"Maharaja Agrasen Hospital, Rudrapur",Hospital,"Kichha Rd, Agrasen nagar, Rudrapur, Uttarakhand 244923, India","https://www.google.co.kr/maps/place/Maharaja+Agrasen+Hospital,+Rudrapur/data=!4m5!3m4!1s0x39a07f9a51cb8a67:0x682b80d9bae327aa!8m2!3d28.9638702!4d79.4062454?authuser=0&hl=en&rclk=1",28.9638702,79.4062454,Uttarakhand
"Fortis Escorts Hospital, Dehradun",Hospital,"2nd Floor, Coronation Hospital, Curzon Rd, Dalanwala, Dehradun, Uttarakhand 248001, India","https://www.google.co.kr/maps/place/Fortis+Escorts+Hospital,+Dehradun/data=!4m5!3m4!1s0x390929b65632ccad:0xfd495f0b3dcf32ef!8m2!3d30.3206928!4d78.0576317?authuser=0&hl=en&rclk=1",30.3206928,78.0576317,Uttarakhand
Metro Hospital & Heart Institute Haridwar Uttarakhand,Private hospital,"Plot No. F - 1, Sector 6A, SIDCUL Sector 8A, Road, Integrated Industrial Estate, BHEL Township, Haridwar, Uttarakhand 249403, India",https://www.google.co.kr/maps/place/Metro+Hospital+%26+Heart+Institute+Haridwar+Uttarakhand/data=!4m5!3m4!1s0x390949a0b0f46407:0x354376b826c28afd!8m2!3d29.9671832!4d78.0624588?authuser=0&hl=en&rclk=1,29.9671832,78.0624588,Uttarakhand
Chaklawa Village Nanku Baba,Doctor,"78PX+555, Kaladhungi, Uttarakhand 263140, India",https://www.google.co.kr/maps/place/Chaklawa+Village+Nanku+Baba/data=!4m5!3m4!1s0x390a759e8864c9bd:0xb4ee30e6d3b83f25!8m2!3d29.2853881!4d79.34798?authuser=0&hl=en&rclk=1,29.2853881,79.34798,Uttarakhand
Indira IVF Dehradun,Fertility clinic,"First floor, Ashirwad Towers, Chakarata Rd, above Nexa Showroom, Ballupur Chowk, Dehradun, Uttarakhand 248004, India",https://www.google.co.kr/maps/place/Indira+IVF+Dehradun/data=!4m5!3m4!1s0x39092bcd718f6ba1:0xe48a0ca2964c17b4!8m2!3d30.3332298!4d78.0141773?authuser=0&hl=en&rclk=1,30.3332298,78.0141773,Uttarakhand
Landour Community Hospital,General hospital,"Tehri Rd, Luxmanpuri, Rajmandi, Landour, Mussoorie, Uttarakhand 248179, India",https://www.google.co.kr/maps/place/Landour+Community+Hospital/data=!4m5!3m4!1s0x3908d0e74cfb43cf:0x5832cece680dc633!8m2!3d30.4589859!4d78.0951686?authuser=0&hl=en&rclk=1,30.4589859,78.0951686,Uttarakhand
Chandra Hospital,Hospital,"Kaulagarh Rd, Rajender Nagar, Dehradun, Uttarakhand 248001, India",https://www.google.co.kr/maps/place/Chandra+Hospital/data=!4m5!3m4!1s0x390929f8d30539dd:0x92cbd7f94953a16e!8m2!3d30.3371809!4d78.0218956?authuser=0&hl=en&rclk=1,30.3371809,78.0218956,Uttarakhand
Govind Hospital,Hospital,"Haridwar - Dehradun Rd, Jogiwala, Dehradun, Uttarakhand 248001, India",https://www.google.co.kr/maps/place/Govind+Hospital/data=!4m5!3m4!1s0x390928e10ee1ecaf:0x7675f8efb517e0e0!8m2!3d30.2828564!4d78.0685539?authuser=0&hl=en&rclk=1,30.2828564,78.0685539,Uttarakhand
Govt. Combined Hospital,Hospital,"6QFM+3RP, Srinagar, Uttarakhand 246174, India",https://www.google.co.kr/maps/place/Govt.+Combined+Hospital/data=!4m5!3m4!1s0x3909a58436aa0281:0x4126f8c788223719!8m2!3d30.2227013!4d78.7845804?authuser=0&hl=en&rclk=1,30.2227013,78.7845804,Uttarakhand
Lokpriy Hospital,Hospital,"Jwalapur, Uttarakhand 249407, India",https://www.google.co.kr/maps/place/Lokpriy+Hospital/data=!4m5!3m4!1s0x3909489cffffffff:0x7e66eec09be2c672!8m2!3d29.9270591!4d78.1079763?authuser=0&hl=en&rclk=1,29.9270591,78.1079763,Uttarakhand
Doon Hospital,Government hospital,"New Rd, Race Course, Dehradun, Uttarakhand 248001, India",https://www.google.co.kr/maps/place/Doon+Hospital/data=!4m5!3m4!1s0x3909299586d37819:0x62078fdbe8bc3559!8m2!3d30.3196299!4d78.0421506?authuser=0&hl=en&rclk=1,30.3196299,78.0421506,Uttarakhand
Uttaranchal hospital,Hospital,"Uttaranchal hospital, Mazri Grant, Uttarakhand 248140, India",https://www.google.co.kr/maps/place/Uttaranchal+hospital/data=!4m5!3m4!1s0x39093bf78d49e82f:0x400a9020c087740f!8m2!3d30.1466639!4d78.1493281?authuser=0&hl=en&rclk=1,30.1466639,78.1493281,Uttarakhand
"Gangotri Children Hospital, Dehradun",Pediatrician,"29, Laxmi Rd, Old Nehru Colony, Dalanwala, Dehradun, Uttarakhand 248001, India","https://www.google.co.kr/maps/place/Gangotri+Children+Hospital,+Dehradun/data=!4m5!3m4!1s0x390929a79e99418b:0x87550a07dc7ce8e1!8m2!3d30.301347!4d78.0511776?authuser=0&hl=en&rclk=1",30.301347,78.0511776,Uttarakhand
patanjali haridwar hospital,Hospital,"R698+JJV, Pathari Forest Range, Uttarakhand 249408, India",https://www.google.co.kr/maps/place/patanjali+haridwar+hospital/data=!4m5!3m4!1s0x3909434c33caf779:0x27913606a4eb8960!8m2!3d29.8191091!4d78.2165586?authuser=0&hl=en&rclk=1,29.8191091,78.2165586,Uttarakhand
Government Hospital,Hospital,"Ladfora Talla, Uttarakhand 263136, India",https://www.google.co.kr/maps/place/Government+Hospital/data=!4m5!3m4!1s0x39a0bd89d291b9df:0x152be79c7a950994!8m2!3d29.383739!4d79.6206345?authuser=0&hl=en&rclk=1,29.383739,79.6206345,Uttarakhand
SETHI hospital and maternity centre (Dr. A K Sethi & Dr. Vandana Sethi),Hospital,"sethi Hospital, Dehradun Rd, opp. Andhra Bank, Adarsh Gram, Rishikesh, Uttarakhand 249201, India",https://www.google.co.kr/maps/place/SETHI+hospital+and+maternity+centre+(Dr.+A+K+Sethi+%26+Dr.+Vandana+Sethi)/data=!4m5!3m4!1s0x390917826c1d330f:0x87c1562cfa483fde!8m2!3d30.1111984!4d78.2943185?authuser=0&hl=en&rclk=1,30.1111984,78.2943185,Uttarakhand
District Hospital,Government hospital,"Off, Old Tehri Rd, Baurari, New Tehri, Uttarakhand 249001, India",https://www.google.co.kr/maps/place/District+Hospital/data=!4m5!3m4!1s0x39091d7d8c4cc053:0x22bb1eced749512a!8m2!3d30.3802056!4d78.4370562?authuser=0&hl=en&rclk=1,30.3802056,78.4370562,Uttarakhand
VELMED HOSPITALS,Hospital,"Turner Rd, Morowala, Clement Town, Dehradun, Uttarakhand 248002, India",https://www.google.co.kr/maps/place/VELMED+HOSPITALS/data=!4m5!3m4!1s0x39092b0bb0f3149d:0x26b7699bb919eaac!8m2!3d30.2722902!4d78.007725?authuser=0&hl=en&rclk=1,30.2722902,78.007725,Uttarakhand
Dr. Gusani Clinic,Public medical center,"49RG+M9V, Kevar Malla, Uttarakhand 246455, India",https://www.google.co.kr/maps/place/Dr.+Gusani+Clinic/data=!4m5!3m4!1s0x3909dfe52c45bf4f:0x4284c13382c501dc!8m2!3d30.1417439!4d79.3759216?authuser=0&hl=en&rclk=1,30.1417439,79.3759216,Uttarakhand
Uttaranchal Medical Centre,Hospital,"W3FW+2QM, Subhash Nagar, Jwalapur, Uttarakhand 249407, India",https://www.google.co.kr/maps/place/Uttaranchal+Medical+Centre/data=!4m5!3m4!1s0x390949e85153418f:0x2d3b507952d59fb5!8m2!3d29.9225769!4d78.096915?authuser=0&hl=en&rclk=1,29.9225769,78.096915,Uttarakhand
Ramrati Hospital,Hospital,"Pump House, 34/2, Kendriya Vidyalaya Road, near Amitabh Textile Mill, Special Wing, Prem Nagar, Dehradun, Uttarakhand 248001, India",https://www.google.co.kr/maps/place/Ramrati+Hospital/data=!4m5!3m4!1s0x39092b1684678ea5:0x7dc38f7f75461303!8m2!3d30.3352711!4d77.9692728?authuser=0&hl=en&rclk=1,30.3352711,77.9692728,Uttarakhand
CMI Hospital,Hospital,"54, Haridwar Rd, East Rest Camp, Guru Nanak Vihar, Race Course, Dehradun, Uttarakhand 248001, India",https://www.google.co.kr/maps/place/CMI+Hospital/data=!4m5!3m4!1s0x390929bca6ae81df:0x8836014710cb01ae!8m2!3d30.3123446!4d78.0477508?authuser=0&hl=en&rclk=1,30.3123446,78.0477508,Uttarakhand
Doon Valley Hospital,Private hospital,"55, Haridwar Rd, East Rest Camp, Guru Nanak Vihar, Race Course, Dehradun, Uttarakhand 248001, India",https://www.google.co.kr/maps/place/Doon+Valley+Hospital/data=!4m5!3m4!1s0x390929bca9d5ad7f:0x26ebcb0e8250d48a!8m2!3d30.3119152!4d78.0480822?authuser=0&hl=en&rclk=1,30.3119152,78.0480822,Uttarakhand
"Kishore Hospital, Kichha",Hospital,"Kishanpur, Uttarakhand 263148, India","https://www.google.co.kr/maps/place/Kishore+Hospital,+Kichha/data=!4m5!3m4!1s0x39a07b88143efde7:0xef3ca5c3569cfcb9!8m2!3d28.9127546!4d79.5029916?authuser=0&hl=en&rclk=1",28.9127546,79.5029916,Uttarakhand
Archana Hospital & Lithotripsy Centre,Hospital,"A,, 123, Ballupur Rd, behind Hotel Surbhi Palace, Mahendra Vihar, Khurbura Mohalla, Dehradun, Uttarakhand 248001, India",https://www.google.co.kr/maps/place/Archana+Hospital+%26+Lithotripsy+Centre/data=!4m5!3m4!1s0x390929f83020dfb3:0x6fb97ffdee395d5!8m2!3d30.3325003!4d78.0222587?authuser=0&hl=en&rclk=1,30.3325003,78.0222587,Uttarakhand
Omega Hair Transplant Clinic,Hospital,"H-18, Bypass Rd, Model Colony, Haridwar, Uttarakhand 249410, India",https://www.google.co.kr/maps/place/Omega+Hair+Transplant+Clinic/data=!4m5!3m4!1s0x39094637d0555551:0xd1094287560723d3!8m2!3d29.9345087!4d78.1331033?authuser=0&hl=en&rclk=1,29.9345087,78.1331033,Uttarakhand
Mela Hospital,General hospital,"Bypass Rd, Brhumpuri, Industrial Area, Haridwar, Uttarakhand 249401, India",https://www.google.co.kr/maps/place/Mela+Hospital/data=!4m5!3m4!1s0x39094700b4fed7df:0x5f7a7bab2319fbdc!8m2!3d29.9515122!4d78.1579603?authuser=0&hl=en&rclk=1,29.9515122,78.1579603,Uttarakhand
Health Center,Hospital,"Mukhmal Gaon, Uttarakhand 249165, India",https://www.google.co.kr/maps/place/Health+Center/data=!4m5!3m4!1s0x3908f1f899e2462f:0x1e2303d570dea6d7!8m2!3d30.5801482!4d78.4799274?authuser=0&hl=en&rclk=1,30.5801482,78.4799274,Uttarakhand
Chauhan Hospital,Hospital,"Main Road, Punjabi Colony, Vikasnagar, Uttarakhand 248198, India",https://www.google.co.kr/maps/place/Chauhan+Hospital/data=!4m5!3m4!1s0x390f2fba357ec4db:0xe74ca69f896006a4!8m2!3d30.471919!4d77.776809?authuser=0&hl=en&rclk=1,30.471919,77.776809,Uttarakhand
Manas Deaddiction center,Rehabilitation center,"Kaladhungi Rd, near Kirola Petrol Pump Lamachaur, Haldwani, Uttarakhand 263139, India",https://www.google.co.kr/maps/place/Manas+Deaddiction+center/data=!4m5!3m4!1s0x39a09b68e643c429:0x53897cfc1ee35491!8m2!3d29.2263357!4d79.4252062?authuser=0&hl=en&rclk=1,29.2263357,79.4252062,Uttarakhand
"District Hospital, Champawat",Hospital,"NH-125, NH125, Lohaghat Range, Uttarakhand 262523, India","https://www.google.co.kr/maps/place/District+Hospital,+Champawat/data=!4m5!3m4!1s0x39a0e1feac5b0ee1:0x719a6b00148903b3!8m2!3d29.3324829!4d80.0928705?authuser=0&hl=en&rclk=1",29.3324829,80.0928705,Uttarakhand
Dr. Ahuja's Pathology & Imaging Centre,Pathologist,"Dehradun Road, near PNB Bank, Rishikesh, Uttarakhand 249201, India",https://www.google.co.kr/maps/place/Dr.+Ahuja's+Pathology+%26+Imaging+Centre/data=!4m5!3m4!1s0x3909161c4d894cc1:0x27d36c6c5572ca65!8m2!3d30.1100107!4d78.296258?authuser=0&hl=en&rclk=1,30.1100107,78.296258,Uttarakhand
Tulsi Hospital,General hospital,"Railway Rd, Ganesh Chowk, Ganeshpur, Roorkee, Uttarakhand 247667, India",https://www.google.co.kr/maps/place/Tulsi+Hospital/data=!4m5!3m4!1s0x390eb3995320a3bf:0xc5fc444e2d38ad7f!8m2!3d29.8585849!4d77.8771448?authuser=0&hl=en&rclk=1,29.8585849,77.8771448,Uttarakhand
Chaudhari Hospital,Hospital,"Badrinath- Kirtinagar Bridge, Srinagar, Uttarakhand 246174, India",https://www.google.co.kr/maps/place/Chaudhari+Hospital/data=!4m5!3m4!1s0x3909a58f032576fd:0x57956e7095399f58!8m2!3d30.2208!4d78.779?authuser=0&hl=en&rclk=1,30.2208,78.779,Uttarakhand
District Female Hospital,Hospital,"RQX8+G45, Civil Lines, Moradabad, Uttar Pradesh 244001, India",https://www.google.co.kr/maps/place/District+Female+Hospital/data=!4m5!3m4!1s0x390afbe152eddfc1:0x94bf7d714dcb44df!8m2!3d28.8487619!4d78.7653459?authuser=0&hl=en&rclk=1,28.8487619,78.7653459,Uttarakhand
dr ahujas' pathology & imaging centre,Hospital,"Haridwar Bypass, Mothorowala Rd, near Mahindra Showroom, Ajabpur Khurd, Dehradun, Uttarakhand 248001, India",https://www.google.co.kr/maps/place/dr+ahujas'+pathology+%26+imaging+centre/data=!4m5!3m4!1s0x390929606e106457:0xa757d424020dc9fd!8m2!3d30.2889444!4d78.0417496?authuser=0&hl=en&rclk=1,30.2889444,78.0417496,Uttarakhand
