Company_Name,Category,Address,Url,Latitude,Longitude,State
Clinic,Medical clinic,"Unnamed Road, Dhin, Haryana 133202, India",https://www.google.co.kr/maps/place/Clinic/data=!4m5!3m4!1s0x390e54a7c50f9927:0xcb60a074d8769d42!8m2!3d30.242675!4d77.1045181?authuser=0&hl=en&rclk=1,30.242675,77.1045181,Haryana
Clinic,Medical clinic,"Tikona Park, Hazi Sarai, Hansi, Haryana 125033, India",https://www.google.co.kr/maps/place/Clinic/data=!4m5!3m4!1s0x391239560e65a8af:0x59137ad88a8dc6d7!8m2!3d29.1009238!4d75.9582551?authuser=0&hl=en&rclk=1,29.1009238,75.9582551,Haryana
Clinic,Medical clinic,"76PM+GXX, Rajpura, Haryana 126102, India",https://www.google.co.kr/maps/place/Clinic/data=!4m5!3m4!1s0x39121af1eb673b77:0x75024684223b9727!8m2!3d29.2863543!4d76.2349814?authuser=0&hl=en&rclk=1,29.2863543,76.2349814,Haryana
Life Care Hospital,Hospital,"Near, Gufa Mandir Rd, Model Town, Rohtak, Haryana 124001, India",https://www.google.co.kr/maps/place/Life+Care+Hospital/data=!4m5!3m4!1s0x390d851c30af7427:0xbf007a3151601c22!8m2!3d28.8919974!4d76.6076998?authuser=0&hl=en&rclk=1,28.8919974,76.6076998,Haryana
Manvi Clinic,Medical clinic,"987P+5HX, Sector 8, Faridabad, Haryana 121006, India",https://www.google.co.kr/maps/place/Manvi+Clinic/data=!4m5!3m4!1s0x390cdc8f80dedd59:0xaba5f1c85e0c0fdd!8m2!3d28.3629971!4d77.3364772?authuser=0&hl=en&rclk=1,28.3629971,77.3364772,Haryana
"SEHAT CLINIC, MADLAUDA",Medical clinic,"SH 14, Madlauda, Haryana 132113, India","https://www.google.co.kr/maps/place/SEHAT+CLINIC,+MADLAUDA/data=!4m5!3m4!1s0x390de7b0280071cf:0xcc6ee6a91ba2dcc9!8m2!3d29.3932884!4d76.8066711?authuser=0&hl=en&rclk=1",29.3932884,76.8066711,Haryana
W Pratiksha Hospital: Multispeciality Clinic,Medical clinic,"4307, DLF Phase IV, Sector 28, Gurugram, Haryana 122022, India",https://www.google.co.kr/maps/place/W+Pratiksha+Hospital:+Multispeciality+Clinic/data=!4m5!3m4!1s0x390d18e6933f9ec1:0xf103a917e7a0afbf!8m2!3d28.466451!4d77.082204?authuser=0&hl=en&rclk=1,28.466451,77.082204,Haryana
Express clinic Gurugram,Medical clinic,"SCO – 58, Ground Floor, Huda Shopping Centre, Sector 56, Gurugram, Haryana 122002, India",https://www.google.co.kr/maps/place/Express+clinic+Gurugram/data=!4m5!3m4!1s0x390d1f2a83be8623:0xb36b8b56f0f76866!8m2!3d28.4284543!4d77.0988258?authuser=0&hl=en&rclk=1,28.4284543,77.0988258,Haryana
Clinic,Medical clinic,"Sunarian, Haryana 124001, India",https://www.google.co.kr/maps/place/Clinic/data=!4m5!3m4!1s0x390d843e657ab8b7:0x3f3f044cf613f451!8m2!3d28.8594127!4d76.5670242?authuser=0&hl=en&rclk=1,28.8594127,76.5670242,Haryana
Dhir Clinic,Medical clinic,"House no, 179, Sector 4, Panchkula, Haryana 134112, India",https://www.google.co.kr/maps/place/Dhir+Clinic/data=!4m5!3m4!1s0x390f937b3021a457:0xf6b3695ee8aecb16!8m2!3d30.689828!4d76.864302?authuser=0&hl=en&rclk=1,30.689828,76.864302,Haryana
Khowal Clinic,Medical clinic,"God Brahman Collage, Gau Karan Rd, Gopal Colony, Rohtak, Haryana 124001, India",https://www.google.co.kr/maps/place/Khowal+Clinic/data=!4m5!3m4!1s0x390d85ea7eb54fb3:0x9a7b397959de6a45!8m2!3d28.9027729!4d76.5690513?authuser=0&hl=en&rclk=1,28.9027729,76.5690513,Haryana
Jiwan Clinic & Nursing Home,Hospital,"Chhotu Ram Chowk, Rohtak, Haryana 124001, India",https://www.google.co.kr/maps/place/Jiwan+Clinic+%26+Nursing+Home/data=!4m5!3m4!1s0x390d85a48aaefd93:0xd094b55307c436d9!8m2!3d28.8977927!4d76.5863562?authuser=0&hl=en&rclk=1,28.8977927,76.5863562,Haryana
Bhar Clinic,Medical clinic,"26CF+QH2, Singhwa Khas, Haryana 125042, India",https://www.google.co.kr/maps/place/Bhar+Clinic/data=!4m5!3m4!1s0x39126c535871934b:0xe41b9a06d92f72d0!8m2!3d29.0218998!4d76.2238999?authuser=0&hl=en&rclk=1,29.0218998,76.2238999,Haryana
Raj Clinic,Medical clinic,"Ram Nagar, Main Market, Karnal, Haryana 132001, India",https://www.google.co.kr/maps/place/Raj+Clinic/data=!4m5!3m4!1s0x390e6fd53a2be055:0x6c8f3558337238c7!8m2!3d29.6974639!4d76.9651843?authuser=0&hl=en&rclk=1,29.6974639,76.9651843,Haryana
"Express Clinics, Faridabad",Medical clinic,"1D, BP, Hardware Chowk, Hardware Colony, New Industrial Twp 1, New Industrial Town, Faridabad, Haryana 121001, India","https://www.google.co.kr/maps/place/Express+Clinics,+Faridabad/data=!4m5!3m4!1s0x390cdd165eda88a5:0x66802f687a091bfe!8m2!3d28.3786826!4d77.2977702?authuser=0&hl=en&rclk=1",28.3786826,77.2977702,Haryana
Dr. Rajesh Clinic,Medical clinic,"Bhatol Jattan, Haryana 125033, India",https://www.google.co.kr/maps/place/Dr.+Rajesh+Clinic/data=!4m5!3m4!1s0x3912153dd9b7ba2b:0xec1755ab4ce3b222!8m2!3d29.1017781!4d76.1015508?authuser=0&hl=en&rclk=1,29.1017781,76.1015508,Haryana
The Apollo Clinic,Medical clinic,"624, Sector 17, Faridabad, Haryana 121002, India",https://www.google.co.kr/maps/place/The+Apollo+Clinic/data=!4m5!3m4!1s0x390cddaa2226b5d1:0xf448b7d6e3fdb5f7!8m2!3d28.4099487!4d77.3310098?authuser=0&hl=en&rclk=1,28.4099487,77.3310098,Haryana
Medanta Mediclinic,Medical clinic,"Building No. 10C, DLF Cyber City, DLF Phase 2, Gurugram, Haryana 122002, India",https://www.google.co.kr/maps/place/Medanta+Mediclinic/data=!4m5!3m4!1s0x390d193855e4529b:0x6a81601ac9a0a7cb!8m2!3d28.493802!4d77.087766?authuser=0&hl=en&rclk=1,28.493802,77.087766,Haryana
Uttam Clinic,Medical clinic,"Unnamed Road, Sadar Bazar, Karnal, Haryana 132001, India",https://www.google.co.kr/maps/place/Uttam+Clinic/data=!4m5!3m4!1s0x390e7023784c6c13:0xd6eef1f5dc51ef4a!8m2!3d29.6886627!4d76.9821912?authuser=0&hl=en&rclk=1,29.6886627,76.9821912,Haryana
National Skin Hospital,Hospital,"Mansa Devi Complex, SCO 142, Sector 5, Panchkula, Haryana 134108, India",https://www.google.co.kr/maps/place/National+Skin+Hospital/data=!4m5!3m4!1s0x390f93162c6b1a4f:0xbcbedd3170960308!8m2!3d30.71278!4d76.849628?authuser=0&hl=en&rclk=1,30.71278,76.849628,Haryana
Sarvodaya Health Clinic,Medical clinic,"SRS Royal Hills, SRS Pearl, Sector 87, Neharpar Faridabad, Faridabad, Haryana 121002, India",https://www.google.co.kr/maps/place/Sarvodaya+Health+Clinic/data=!4m5!3m4!1s0x390cdcfd90852f87:0x4f6f3d8d62c32b6c!8m2!3d28.4105657!4d77.3429868?authuser=0&hl=en&rclk=1,28.4105657,77.3429868,Haryana
"Polyclinic, Sector 31",Medical clinic,"LIG Colony, Sector 31, Gurugram, Haryana 122022, India","https://www.google.co.kr/maps/place/Polyclinic,+Sector+31/data=!4m5!3m4!1s0x390d185bc1da13b9:0xae0850d27fc90959!8m2!3d28.453856!4d77.049479?authuser=0&hl=en&rclk=1",28.453856,77.049479,Haryana
Dr Kuldeep Kumar,Pulmonologist,"GNH Tower, Near, Anamika Enclave, Old DLF Colony, Gurugram, Haryana 122001, India",https://www.google.co.kr/maps/place/Dr+Kuldeep+Kumar/data=!4m5!3m4!1s0x390d19d45b0cd9c9:0x80a97ca840ab70d8!8m2!3d28.4680382!4d77.0429288?authuser=0&hl=en&rclk=1,28.4680382,77.0429288,Haryana
HARYANA CLINIC,Hospital,"125001, Vijay Nagar, Krishna Nagar Colony, Hisar, Haryana 125001, India",https://www.google.co.kr/maps/place/HARYANA+CLINIC/data=!4m5!3m4!1s0x3912332648211cb3:0x8dc2054dc09f9a6a!8m2!3d29.153753!4d75.7269855?authuser=0&hl=en&rclk=1,29.153753,75.7269855,Haryana
Bharat Clinic,Hospital,"X2XM+7C5, Sector 14, Sonipat, Haryana 131001, India",https://www.google.co.kr/maps/place/Bharat+Clinic/data=!4m5!3m4!1s0x390db041d43588a1:0x2d09d644dbc08c4!8m2!3d28.9981291!4d77.03362?authuser=0&hl=en&rclk=1,28.9981291,77.03362,Haryana
Clinic,Private hospital,"Bhiwani - Hansi Rd, Bhiwani, Haryana 127032, India",https://www.google.co.kr/maps/place/Clinic/data=!4m5!3m4!1s0x391243da2fe95cff:0xa0d5e381fd4ffa2!8m2!3d28.9494125!4d76.0383688?authuser=0&hl=en&rclk=1,28.9494125,76.0383688,Haryana
Apollo clinic,Hospital,"HFHJ+J5V, Gadhi Patti, Rajound, Haryana 136044, India",https://www.google.co.kr/maps/place/Apollo+clinic/data=!4m5!3m4!1s0x390e02392402e627:0xbd5b064e01fa28ae!8m2!3d29.5791219!4d76.4804297?authuser=0&hl=en&rclk=1,29.5791219,76.4804297,Haryana
"Neelkanth Hospitals - Best IVF Hospital in Gurgaon, Delhi NCR",Hospital,"1 Main Mehrauli-Gurgaon Road Near Guru Dronacharya Metro Station, DLF Phase 3, Gurugram, Haryana 122022, India","https://www.google.co.kr/maps/place/Neelkanth+Hospitals+-+Best+IVF+Hospital+in+Gurgaon,+Delhi+NCR/data=!4m5!3m4!1s0x390d1925e8e9a36d:0xf9af785b757d7ad4!8m2!3d28.4827568!4d77.1049166?authuser=0&hl=en&rclk=1",28.4827568,77.1049166,Haryana
Madhur Homoeopathic Clinic,Medical clinic,"Rajgarh Rd, opposite Police Station, Azad Nagar, Hisar, Haryana 125001, India",https://www.google.co.kr/maps/place/Madhur+Homoeopathic+Clinic/data=!4m5!3m4!1s0x391233b04a65c3f3:0x393d564aecf392bc!8m2!3d29.1444163!4d75.7185267?authuser=0&hl=en&rclk=1,29.1444163,75.7185267,Haryana
Rohini Clinic,Hospital,"Adarsh Nagar, Fatehabad, MDR-101, Ratia Tohana Road, Tohana, Tohana, Haryana 125120, India",https://www.google.co.kr/maps/place/Rohini+Clinic/data=!4m5!3m4!1s0x391199d754afe147:0xf82ec265365794e1!8m2!3d29.7097!4d75.8941?authuser=0&hl=en&rclk=1,29.7097,75.8941,Haryana
Jain's Clinic And Nursing Home,Medical clinic,"45, Shahid Sukhdev Marg, Block F, New Industrial Twp 5, New Industrial Town, Faridabad, Haryana 121001, India",https://www.google.co.kr/maps/place/Jain's+Clinic+And+Nursing+Home/data=!4m5!3m4!1s0x390cdc31202aa689:0x30f2568ccf453480!8m2!3d28.3934204!4d77.302288?authuser=0&hl=en&rclk=1,28.3934204,77.302288,Haryana
Haryana Clinic,Doctor,"3/73-A, Shivaji Nagar, Sector 11, Gurugram, Haryana 122001, India",https://www.google.co.kr/maps/place/Haryana+Clinic/data=!4m5!3m4!1s0x390d191f7599fbb5:0x6383c3dc62b6f959!8m2!3d28.4533996!4d77.0258648?authuser=0&hl=en&rclk=1,28.4533996,77.0258648,Haryana
Dr. Jagdish Chander,Medical clinic,"Shop no. 2H/38, Gurgaon Faridabad Road, New Industrial Town, Faridabad, Haryana 121001, India",https://www.google.co.kr/maps/place/Dr.+Jagdish+Chander/data=!4m5!3m4!1s0x390cdc274026bfa5:0xd55f895180c060c0!8m2!3d28.384718!4d77.2877671?authuser=0&hl=en&rclk=1,28.384718,77.2877671,Haryana
Columbia Asia Clinic,Medical clinic,"POWERGRID Township, Block D, Gurugram, Haryana 122022, India",https://www.google.co.kr/maps/place/Columbia+Asia+Clinic/data=!4m5!3m4!1s0x390d19bf6309dcb9:0x3af2a5d13f7ffb4b!8m2!3d28.4542843!4d77.0772588?authuser=0&hl=en&rclk=1,28.4542843,77.0772588,Haryana
Beli Clinic,Medical clinic,"Shop No -1, Dhani Market, Wazirabad sec-52, Sector 52A, Gurugram, Haryana 122003, India",https://www.google.co.kr/maps/place/Beli+Clinic/data=!4m5!3m4!1s0x390d190baa2a85b1:0xa7edc43a5a5b6b57!8m2!3d28.4404821!4d77.0901321?authuser=0&hl=en&rclk=1,28.4404821,77.0901321,Haryana
Divya Hospital,Medical clinic,"Manheru - Bhiwani Link Rd, Shanti Nagar, Surya Nagar, Bhiwani, Haryana 127021, India",https://www.google.co.kr/maps/place/Divya+Hospital/data=!4m5!3m4!1s0x39126167842ae055:0xc2f290ceb9ac99be!8m2!3d28.7831089!4d76.1555726?authuser=0&hl=en&rclk=1,28.7831089,76.1555726,Haryana
Healthy life Medical Clinic,Medical clinic,"331, Pocket B, Sainik Colony, Sector 49, Faridabad, Haryana 121001, India",https://www.google.co.kr/maps/place/Healthy+life+Medical+Clinic/data=!4m5!3m4!1s0x390cddb503948719:0x564383570363d33b!8m2!3d28.4008136!4d77.2772556?authuser=0&hl=en&rclk=1,28.4008136,77.2772556,Haryana
Cloudnine Hospital - Gurgaon,Maternity hospital,"MSJ House, Plot No. A-2, Vikas Marg, beside SS Plaza, Mayfield Garden, Sector 47, Gurugram, Haryana 122003, India",https://www.google.co.kr/maps/place/Cloudnine+Hospital+-+Gurgaon/data=!4m5!3m4!1s0x390d188064b0b709:0x4918925739e2bd7f!8m2!3d28.4274314!4d77.0574249?authuser=0&hl=en&rclk=1,28.4274314,77.0574249,Haryana
Haryana clinic,Hospital,"8G25+GJQ, Baldhan Khurd, Haryana 123401, India",https://www.google.co.kr/maps/place/Haryana+clinic/data=!4m5!3m4!1s0x390d5f35257d0a73:0x4b2817477c661318!8m2!3d28.3013293!4d76.5091153?authuser=0&hl=en&rclk=1,28.3013293,76.5091153,Haryana
Cloudnine Hospital,Maternity hospital,"94, 4, Mehrauli-Gurgaon Rd, Anamika Enclave, Sector 14, Gurugram, Haryana 122001, India",https://www.google.co.kr/maps/place/Cloudnine+Hospital/data=!4m5!3m4!1s0x390d19f8200b4861:0x5b5227e380835ed9!8m2!3d28.4680396!4d77.0433287?authuser=0&hl=en&rclk=1,28.4680396,77.0433287,Haryana
Uttam Clinic Cum Hospital,Hospital,"37, sector 14,Urban Estate, Karnal, Haryana 132001, India",https://www.google.co.kr/maps/place/Uttam+Clinic+Cum+Hospital/data=!4m5!3m4!1s0x390e701177b80309:0xeb6b00047cc02f15!8m2!3d29.6956742!4d77.0057918?authuser=0&hl=en&rclk=1,29.6956742,77.0057918,Haryana
Apex Hospital & IVF Centre,Hospital,"Bank of Baroda St, near Shiv Chowk, Multani Colony, B Block, Ellenabad, Sirsa, Haryana 125055, India",https://www.google.co.kr/maps/place/Apex+Hospital+%26+IVF+Centre/data=!4m5!3m4!1s0x39114c4d884d7cf9:0x83467444e98ae04a!8m2!3d29.537031!4d75.027128?authuser=0&hl=en&rclk=1,29.537031,75.027128,Haryana
"Apollo Clinic, Rewari",Hospital,"Garhi Bolni Rd, near Public Health Office, krishna Nagar, Rewari, Haryana 123401, India","https://www.google.co.kr/maps/place/Apollo+Clinic,+Rewari/data=!4m5!3m4!1s0x390d501a8d87a10d:0xc4438c71dad70598!8m2!3d28.1861727!4d76.6208196?authuser=0&hl=en&rclk=1",28.1861727,76.6208196,Haryana
"AMRITDHARA, my Hospital",Hospital,"Near ITI Chowk, Gahoon Vihar, Karnal, Haryana 132001, India","https://www.google.co.kr/maps/place/AMRITDHARA,+my+Hospital/data=!4m5!3m4!1s0x390e6ffbc79bddfd:0x15408a05cea7606c!8m2!3d29.7071303!4d77.0032523?authuser=0&hl=en&rclk=1",29.7071303,77.0032523,Haryana
RAJVANSHI CLINIC गुरूकुल वाला डॉक्टर,Medical clinic,"84/10, Joshian St, Thanesar, Haryana 136118, India",https://www.google.co.kr/maps/place/RAJVANSHI+CLINIC+%E0%A4%97%E0%A5%81%E0%A4%B0%E0%A5%82%E0%A4%95%E0%A5%81%E0%A4%B2+%E0%A4%B5%E0%A4%BE%E0%A4%B2%E0%A4%BE+%E0%A4%A1%E0%A5%89%E0%A4%95%E0%A5%8D%E0%A4%9F%E0%A4%B0/data=!4m5!3m4!1s0x390e47595e36bc9b:0x8780c16add026067!8m2!3d29.9707815!4d76.8315265?authuser=0&hl=en&rclk=1,29.9707815,76.8315265,Haryana
SHRI GURU NANAK HOSPITAL,Orthopedic surgeon,"Guru Nanak hospital, Adjoining SBI,Near Bhim Goda Chowk, Sanoli Rd, Panipat, Haryana 132103, India",https://www.google.co.kr/maps/place/SHRI+GURU+NANAK+HOSPITAL/data=!4m5!3m4!1s0x390ddb2d10daca47:0x95b64366cc23b023!8m2!3d29.3870933!4d76.9792672?authuser=0&hl=en&rclk=1,29.3870933,76.9792672,Haryana
Dr. Jagdish Clinic,Medical clinic,"Shop No, 255, Gurudwara Rd, Block G, Jawahar Colony, Faridabad, Haryana 121005, India",https://www.google.co.kr/maps/place/Dr.+Jagdish+Clinic/data=!4m5!3m4!1s0x390cdc02b66bcea5:0xcfe522c298092ac5!8m2!3d28.3670667!4d77.2878327?authuser=0&hl=en&rclk=1,28.3670667,77.2878327,Haryana
Cloudnine Hospital (Paras/Pure Bliss) - Panchkula,Maternity hospital,"Room 4C,Sector -5,Swastik Vihar, Mansa Devi Complex, Panchkula, Haryana 134109, India",https://www.google.co.kr/maps/place/Cloudnine+Hospital+(Paras%2FPure+Bliss)+-+Panchkula/data=!4m5!3m4!1s0x390f931e90d77661:0xa3c4b4b48acc4d7d!8m2!3d30.716996!4d76.851485?authuser=0&hl=en&rclk=1,30.716996,76.851485,Haryana
Central Medical Centre,Private hospital,"Near, Delhi Road, Dabra Chowk Rd, Bank Colony, Hisar, Haryana 125001, India",https://www.google.co.kr/maps/place/Central+Medical+Centre/data=!4m5!3m4!1s0x3912333c2a80de4d:0x266e02249150373e!8m2!3d29.1408879!4d75.7341024?authuser=0&hl=en&rclk=1,29.1408879,75.7341024,Haryana
"ESI Dispensary, Khairpur, Sirsa",Medical clinic,"near Bajaj Sweets, Khairpur colony, Khanna Colony, Sirsa, Haryana 125055, India","https://www.google.co.kr/maps/place/ESI+Dispensary,+Khairpur,+Sirsa/data=!4m5!3m4!1s0x39114dd39f6f8229:0x957a8308d5f5b586!8m2!3d29.5334049!4d75.0539009?authuser=0&hl=en&rclk=1",29.5334049,75.0539009,Haryana
Curofy,Medical group,"103, Time Tower, Mehrauli-Gurgaon Rd, Sector 28, Gurugram, Haryana 122002, India",https://www.google.co.kr/maps/place/Curofy/data=!4m5!3m4!1s0x390d190e9bab709d:0xb5a22445cff09990!8m2!3d28.4782219!4d77.0762055?authuser=0&hl=en&rclk=1,28.4782219,77.0762055,Haryana
Hospital,Hospital,"8RHW+QQJ, Kalkha, Haryana 132107, India",https://www.google.co.kr/maps/place/Hospital/data=!4m5!3m4!1s0x390ddd4868852be1:0x19954906be3107aa!8m2!3d29.3294643!4d76.8469053?authuser=0&hl=en&rclk=1,29.3294643,76.8469053,Haryana
Kalra Clinic,Medical clinic,"Shop No. 2C/88, Near-Navarang Panchyati Gurudwara, New Industrial Township, Faridabad, Haryana 121001, India",https://www.google.co.kr/maps/place/Kalra+Clinic/data=!4m5!3m4!1s0x390cdc222dedaba1:0x8b95b94e4ee70f76!8m2!3d28.3807298!4d77.292785?authuser=0&hl=en&rclk=1,28.3807298,77.292785,Haryana
DAHIYA HOSPITAL& DIABETES CLINIC,Doctor,"389/1, opp. honda showroom, Near Sheetla Hospital , New Railway Road, Gurugram, Haryana 122001, India",https://www.google.co.kr/maps/place/DAHIYA+HOSPITAL%26+DIABETES+CLINIC/data=!4m5!3m4!1s0x390d19ccb6eb9651:0xc6a9981007fc854a!8m2!3d28.468587!4d77.025538?authuser=0&hl=en&rclk=1,28.468587,77.025538,Haryana
Delhi Pain Management Centre,Medical clinic,"162 - P , Ambedkar Chowk, Vikas Marg, Sector 51, Gurugram, Haryana 122003, India",https://www.google.co.kr/maps/place/Delhi+Pain+Management+Centre/data=!4m5!3m4!1s0x390d18d7d188d7d1:0x7191ed959b4a22e1!8m2!3d28.4364925!4d77.0673449?authuser=0&hl=en&rclk=1,28.4364925,77.0673449,Haryana
Jiva Ayurvedic Clinic,Hospital,"X2JG+3QH, SS Park Extn, Sujan Singh Park Colony, Sonipat, Haryana 131001, India",https://www.google.co.kr/maps/place/Jiva+Ayurvedic+Clinic/data=!4m5!3m4!1s0x390db01a2d67dd07:0xcd3b6f4f96ecc8e4!8m2!3d28.9801843!4d77.0269831?authuser=0&hl=en&rclk=1,28.9801843,77.0269831,Haryana
Nova IVF Fertility Center - IVF Centre In Hisar,Fertility clinic,"165,Ground Floor,Hari Palace Bldg, ITI Chowk, Dabra Chowk Rd, Hisar, Haryana 125005, India",https://www.google.co.kr/maps/place/Nova+IVF+Fertility+Center+-+IVF+Centre+In+Hisar/data=!4m5!3m4!1s0x391233694ec7882b:0x54ef8d81da54cc80!8m2!3d29.1292888!4d75.7423454?authuser=0&hl=en&rclk=1,29.1292888,75.7423454,Haryana
"Dr Sanjay Kapoor, Best Orthopedic Surgeon in Gurgaon, Knee, Joint Replacement, Arthroscopic Surgeon, Back Pain Doctor",Orthopedic surgeon,"KK Health Care Center, 238, Near Sheetla Mata Mandir Sector-5, Old, Gurugram, Haryana 122001, India","https://www.google.co.kr/maps/place/Dr+Sanjay+Kapoor,+Best+Orthopedic+Surgeon+in+Gurgaon,+Knee,+Joint+Replacement,+Arthroscopic+Surgeon,+Back+Pain+Doctor/data=!4m5!3m4!1s0x390d19db965c9dcf:0xbe148ea063b8e913!8m2!3d28.483284!4d77.0177365?authuser=0&hl=en&rclk=1",28.483284,77.0177365,Haryana
Haryana Hospital,Hospital,"Hospital Site, No. 5, Main Market Road, Sector 7, Karnal, Haryana 132001, India",https://www.google.co.kr/maps/place/Haryana+Hospital/data=!4m5!3m4!1s0x390e7ba225c30e83:0xefb967136a59f39f!8m2!3d29.6874805!4d77.0104253?authuser=0&hl=en&rclk=1,29.6874805,77.0104253,Haryana
AHUJA CLINIC,Medical clinic,"Gurgaon Faridabad Road, Block L, New Industrial Twp 2, New Industrial Town, Faridabad, Haryana 121001, India",https://www.google.co.kr/maps/place/AHUJA+CLINIC/data=!4m5!3m4!1s0x390cdc27997658e3:0x4f58841f2e07030b!8m2!3d28.3866336!4d77.2874957?authuser=0&hl=en&rclk=1,28.3866336,77.2874957,Haryana
Satya Hospital,Hospital,"Roop Nagar, Barwala Rd, near Tikona Park, Roop Nagar, Hansi, Haryana 125033, India",https://www.google.co.kr/maps/place/Satya+Hospital/data=!4m5!3m4!1s0x3912391ab24a1029:0x6897e67a8438ac01!8m2!3d29.0998488!4d75.9571036?authuser=0&hl=en&rclk=1,29.0998488,75.9571036,Haryana
Dr Kalra Clinic,Hospital,"Rohtak, Haryana 124001, India",https://www.google.co.kr/maps/place/Dr+Kalra+Clinic/data=!4m5!3m4!1s0x390d85bcae8dfabb:0x7feb96076709c629!8m2!3d28.8993499!4d76.5830675?authuser=0&hl=en&rclk=1,28.8993499,76.5830675,Haryana
Tomar Hospital,Hospital,"Israna, Panipat, State Highway 16, Gohana - Panipat Rd, Panipat, Haryana 132103, India",https://www.google.co.kr/maps/place/Tomar+Hospital/data=!4m5!3m4!1s0x390dc25f712605ef:0xece4905b0cda44c6!8m2!3d29.273256!4d76.852324?authuser=0&hl=en&rclk=1,29.273256,76.852324,Haryana
Clinic,Doctor,"6H6C+6P9, Jakhod Khera, Haryana 125001, India",https://www.google.co.kr/maps/place/Clinic/data=!4m5!3m4!1s0x3913d04af1028487:0xeb9cf1b92e516e13!8m2!3d29.2105268!4d75.5718455?authuser=0&hl=en&rclk=1,29.2105268,75.5718455,Haryana
Chaitanya Public Hospital Panchkula,Women's health clinic,"SCO 21, Kalgidhar Enclave, Baltana, opposite K-Area, Zirakpur, 140603, India",https://www.google.co.kr/maps/place/Chaitanya+Public+Hospital+Panchkula/data=!4m5!3m4!1s0x390f94b4c65e4153:0xbe596f3146e48073!8m2!3d30.6609502!4d76.8289953?authuser=0&hl=en&rclk=1,30.6609502,76.8289953,Haryana
Mangla Hospital,Hospital,"887F+QFF, Gandhi Nagar, Scheme No 5, Jind, Haryana 126102, India",https://www.google.co.kr/maps/place/Mangla+Hospital/data=!4m5!3m4!1s0x39120453780e62bb:0x586feaed3831974c!8m2!3d29.3144261!4d76.3236828?authuser=0&hl=en&rclk=1,29.3144261,76.3236828,Haryana
Ayurveda Doctor Clinic,Doctor,"C7F6+5XC, Baghot, Haryana 123027, India",https://www.google.co.kr/maps/place/Ayurveda+Doctor+Clinic/data=!4m5!3m4!1s0x3912975affffffff:0xcd08b58c59336e69!8m2!3d28.4229352!4d76.2623945?authuser=0&hl=en&rclk=1,28.4229352,76.2623945,Haryana
Shankar Clinic,Medical clinic,"99X2+HQV, Sector 85, Faridabad, Haryana 121002, India",https://www.google.co.kr/maps/place/Shankar+Clinic/data=!4m5!3m4!1s0x390cdce6e675ebe1:0x73afb01606526d93!8m2!3d28.3989813!4d77.351932?authuser=0&hl=en&rclk=1,28.3989813,77.351932,Haryana
Dr. Chopra Clinic - Open Digitally,Doctor,"F-17, sector-10, DLF, 10-11 Dividing Road, Faridabad, Haryana 121006, India",https://www.google.co.kr/maps/place/Dr.+Chopra+Clinic+-+Open+Digitally/data=!4m5!3m4!1s0x390cdc62e2ad0beb:0x84f7dcd9ad29783c!8m2!3d28.3739572!4d77.3234396?authuser=0&hl=en&rclk=1,28.3739572,77.3234396,Haryana
Medicity Hospital,Hospital,"1705, Sector 16-17, Sector 16, Hisar, Haryana 125011, India",https://www.google.co.kr/maps/place/Medicity+Hospital/data=!4m5!3m4!1s0x39123343ca2f6565:0x244b5ac5155efebb!8m2!3d29.1281035!4d75.7338449?authuser=0&hl=en&rclk=1,29.1281035,75.7338449,Haryana
Phool Clinic,Hospital,"Adarsh Nagar, Fatehabad, MDR-101, Ratia Tohana Road, Tohana, Tohana, Haryana 125120, India",https://www.google.co.kr/maps/place/Phool+Clinic/data=!4m5!3m4!1s0x39119762bd536bc7:0x1bf40692ba59233c!8m2!3d29.7086688!4d75.9005839?authuser=0&hl=en&rclk=1,29.7086688,75.9005839,Haryana
Aryan Hospital,General hospital,"78, Old Railway Rd, Rattan Garden, Shivpuri Extension, Sector 7, Gurugram, Haryana 122001, India",https://www.google.co.kr/maps/place/Aryan+Hospital/data=!4m5!3m4!1s0x390d19d2ed327641:0xe82baf86ae51842c!8m2!3d28.4695251!4d77.0195729?authuser=0&hl=en&rclk=1,28.4695251,77.0195729,Haryana
Siwach Hospital,General hospital,"Delhi Rd, Dev Colony, Rohtak, Haryana 124001, India",https://www.google.co.kr/maps/place/Siwach+Hospital/data=!4m5!3m4!1s0x390d851e17b7fc6f:0x5c34f2a1191f0ba1!8m2!3d28.88564!4d76.6137597?authuser=0&hl=en&rclk=1,28.88564,76.6137597,Haryana
Adarsh Clinic,Hospital,"sco 49/13, Haryana, India",https://www.google.co.kr/maps/place/Adarsh+Clinic/data=!4m5!3m4!1s0x390e473ae84ff039:0x6c5fb95c9e1de532!8m2!3d29.9712239!4d76.8589917?authuser=0&hl=en&rclk=1,29.9712239,76.8589917,Haryana
Geetanjali Hospital,Doctor,"270, Model Town, Hisar, Haryana 125005, India",https://www.google.co.kr/maps/place/Geetanjali+Hospital/data=!4m5!3m4!1s0x3912336c77b3e11b:0xab31901f64390f7c!8m2!3d29.1322478!4d75.7431085?authuser=0&hl=en&rclk=1,29.1322478,75.7431085,Haryana
City Heart Clinic & Nursing Home,Hospital,"Approach Rd, Rohtak Station Diary Mohalla, Rohtak, Haryana 124001, India",https://www.google.co.kr/maps/place/City+Heart+Clinic+%26+Nursing+Home/data=!4m5!3m4!1s0x390d85b06b41dba1:0x9fa8f04766abd428!8m2!3d28.8918182!4d76.5819857?authuser=0&hl=en&rclk=1,28.8918182,76.5819857,Haryana
Medanta Mediclinic,Medical clinic,"E-18, NH 48, Block E, Defence Colony, New Delhi, Delhi 110024, India",https://www.google.co.kr/maps/place/Medanta+Mediclinic/data=!4m5!3m4!1s0x390ce25ab2ee4eb5:0x19f36a49659fe304!8m2!3d28.5671148!4d77.2282145?authuser=0&hl=en&rclk=1,28.5671148,77.2282145,Haryana
ECHS POLYCLINIC Sonepat,Medical clinic,"Purkhas-Ganaur-Sonipat Rd, Jamalpura, Sonipat, Haryana 131001, India",https://www.google.co.kr/maps/place/ECHS+POLYCLINIC+Sonepat/data=!4m5!3m4!1s0x390dba9c0d0ad2eb:0x6823c8adae3e6f56!8m2!3d29.0091166!4d77.0108884?authuser=0&hl=en&rclk=1,29.0091166,77.0108884,Haryana
"Fortis Medcentre Hospital in Chandigarh, Punjab",Medical clinic,"SCO, 11D, Sector 11, Chandigarh, 160011, India","https://www.google.co.kr/maps/place/Fortis+Medcentre+Hospital+in+Chandigarh,+Punjab/data=!4m5!3m4!1s0x390fed793fffff97:0x26ac8f25971112f6!8m2!3d30.7606565!4d76.7820387?authuser=0&hl=en&rclk=1",30.7606565,76.7820387,Haryana
dr. ravinder clinic,Doctor,"MDR134, Haryana 122107, India",https://www.google.co.kr/maps/place/dr.+ravinder+clinic/data=!4m5!3m4!1s0x390d2bb90e52adaf:0xe7c8911001f8a135!8m2!3d28.129272!4d77.133553?authuser=0&hl=en&rclk=1,28.129272,77.133553,Haryana
Amrit Orthopaedic Clinic,Doctor,"Mohna Road, Building No 7, Ballabgarh, Ballabgarh, Faridabad, Haryana 121001, India",https://www.google.co.kr/maps/place/Amrit+Orthopaedic+Clinic/data=!4m5!3m4!1s0x390cdb96b80e3197:0x79ea6999fb7fd69b!8m2!3d28.337202!4d77.3246126?authuser=0&hl=en&rclk=1,28.337202,77.3246126,Haryana
W Pratiksha Hospital,General hospital,"Golf Course Ext Rd, Sushant Lok-II, Shushant Lok 2, Sector 56, Gurugram, Haryana 122011, India",https://www.google.co.kr/maps/place/W+Pratiksha+Hospital/data=!4m5!3m4!1s0x390d2203669a5151:0x6d275bde29f8078d!8m2!3d28.4184224!4d77.0972182?authuser=0&hl=en&rclk=1,28.4184224,77.0972182,Haryana
Op Jindal Hospital Hisar Haryana,Hospital,"Unnamed Road, Bajina, Haryana 127040, India",https://www.google.co.kr/maps/place/Op+Jindal+Hospital+Hisar+Haryana/data=!4m5!3m4!1s0x3912594feaaaaaab:0x200adfcc52838f74!8m2!3d28.7612538!4d75.9826075?authuser=0&hl=en&rclk=1,28.7612538,75.9826075,Haryana
"Fortis Escorts Hospital, Faridabad",Hospital,"Neelam Bata Rd, AC Nagar, New Industrial Town, Faridabad, Haryana 121001, India","https://www.google.co.kr/maps/place/Fortis+Escorts+Hospital,+Faridabad/data=!4m5!3m4!1s0x390cdc50ffffffff:0x86a24e6de5b09f9e!8m2!3d28.391214!4d77.3068975?authuser=0&hl=en&rclk=1",28.391214,77.3068975,Haryana
Supreety Hospital,Hospital,"Barsat Rd, near Darpan Cinema, Preet Vihar, Tehsil Camp, Panipat, Haryana 132103, India",https://www.google.co.kr/maps/place/Supreety+Hospital/data=!4m5!3m4!1s0x390dda31efbfffff:0xe8a641f52781e47b!8m2!3d29.4114593!4d76.9711945?authuser=0&hl=en&rclk=1,29.4114593,76.9711945,Haryana
Arora Ultrasound & X-Ray,Medical clinic,"Shop No, 99, Deep Chand Bhartia Marg, Sector 22, Faridabad, Haryana 121001, India",https://www.google.co.kr/maps/place/Arora+Ultrasound+%26+X-Ray/data=!4m5!3m4!1s0x390cdc0f75ec4ad5:0x9eadeb37b28420be!8m2!3d28.3641713!4d77.299154?authuser=0&hl=en&rclk=1,28.3641713,77.299154,Haryana
Atul Arora Clinic,Hospital,"XVF6+577, Sector 13, Kurukshetra, Haryana 136118, India",https://www.google.co.kr/maps/place/Atul+Arora+Clinic/data=!4m5!3m4!1s0x390e4724d2975b7f:0x948fc25428f87cec!8m2!3d29.9729023!4d76.8606734?authuser=0&hl=en&rclk=1,29.9729023,76.8606734,Haryana
Supreme Hospital,Hospital,"Suraj Kund Rd, Charmwood Village, Faridabad, Haryana 121009, India",https://www.google.co.kr/maps/place/Supreme+Hospital/data=!4m5!3m4!1s0x390ce70b54aa9fc1:0x807dbad8d9fb20b5!8m2!3d28.4909688!4d77.2911821?authuser=0&hl=en&rclk=1,28.4909688,77.2911821,Haryana
RG Stone Urology & Laparoscopy Hospital,Urology clinic,"A-6, Neelam Bata Rd, Nehru Ground, AC Nagar, New Industrial Town, Faridabad, Haryana 121001, India",https://www.google.co.kr/maps/place/RG+Stone+Urology+%26+Laparoscopy+Hospital/data=!4m5!3m4!1s0x390cdc39a8c2c58b:0xbf79a02800a95e77!8m2!3d28.3879881!4d77.3060549?authuser=0&hl=en&rclk=1,28.3879881,77.3060549,Haryana
Hamidiya Hospital,Hospital,"Rasulpur Rd, Minar Gate Area, Palwal, Haryana 121102, India",https://www.google.co.kr/maps/place/Hamidiya+Hospital/data=!4m5!3m4!1s0x390cd3b2161ff7ff:0x66b5a723c5c1436f!8m2!3d28.1412752!4d77.3276863?authuser=0&hl=en&rclk=1,28.1412752,77.3276863,Haryana
Dr hem clinic,Hospital,"Kalaka Rd, Mahavir Nagar, Rewari, Haryana 123401, India",https://www.google.co.kr/maps/place/Dr+hem+clinic/data=!4m5!3m4!1s0x390d51d99831aa65:0x308a402b5e7d5178!8m2!3d28.1965678!4d76.6272598?authuser=0&hl=en&rclk=1,28.1965678,76.6272598,Haryana
R P Stone Clinic in Delhi,Medical clinic,"B6/B45 Lower Ground Floor, Greater Kailash - 1 Opp. Archana Shopping Complex, New Delhi, Delhi 110048, India",https://www.google.co.kr/maps/place/R+P+Stone+Clinic+in+Delhi/data=!4m5!3m4!1s0x390ce3e1c4d133bd:0xb68e1dc766cb0128!8m2!3d28.5537359!4d77.2321307?authuser=0&hl=en&rclk=1,28.5537359,77.2321307,Haryana
Arora Hospital,Hospital,"Bawani Khera, Haryana 127032, India",https://www.google.co.kr/maps/place/Arora+Hospital/data=!4m5!3m4!1s0x391243cc03a54cf1:0xf36969d3f0838c60!8m2!3d28.9460725!4d76.0333966?authuser=0&hl=en&rclk=1,28.9460725,76.0333966,Haryana
ECHS Polyclinic Bhiwani,Medical clinic,"H No: 126 Raja House, Vijay Nagar, Bhiwani, Haryana 127021, India",https://www.google.co.kr/maps/place/ECHS+Polyclinic+Bhiwani/data=!4m5!3m4!1s0x391267277a09a0db:0x2047beb03aa46545!8m2!3d28.8039848!4d76.1314817?authuser=0&hl=en&rclk=1,28.8039848,76.1314817,Haryana
Healing Hands Clinic,Medical clinic,"E-574,LGF, Greater Kailash II, Greater Kailash, New Delhi, Delhi 110048, India",https://www.google.co.kr/maps/place/Healing+Hands+Clinic/data=!4m5!3m4!1s0x390ce22cacc68f83:0xd7737a7c60f59649!8m2!3d28.539989!4d77.240457?authuser=0&hl=en&rclk=1,28.539989,77.240457,Haryana
"Max Hospital, Gurugram",Hospital,"B Block, Sushant Lok 1, Near Huda City Centre, MF Husain Marg, Near Huda City Centre, Sector 43, Gurugram, Haryana 122001, India","https://www.google.co.kr/maps/place/Max+Hospital,+Gurugram/data=!4m5!3m4!1s0x390d18e61094333f:0x1123ba8cd09898e2!8m2!3d28.4614566!4d77.0747393?authuser=0&hl=en&rclk=1",28.4614566,77.0747393,Haryana
Mayom Hospital,Private hospital,"D-Block, 19, S City Rd Number 1, Block G, South City I, Sector 41, Gurugram, Haryana 122001, India",https://www.google.co.kr/maps/place/Mayom+Hospital/data=!4m5!3m4!1s0x390d18ef46a5e2f1:0x544c27cb86824c5f!8m2!3d28.4580894!4d77.0635685?authuser=0&hl=en&rclk=1,28.4580894,77.0635685,Haryana
Sanjeevni clinic,Doctor,"Patel Nagar, Tohana, Haryana 125120, India",https://www.google.co.kr/maps/place/Sanjeevni+clinic/data=!4m5!3m4!1s0x3911977670e27071:0xf5fea6f02822da4b!8m2!3d29.7095153!4d75.9025113?authuser=0&hl=en&rclk=1,29.7095153,75.9025113,Haryana
Sarvodaya Multispeciality & Cancer Hospital,Hospital,"Opp. Red Cross Bhawan, Delhi Rd, Hisar, Haryana 125001, India",https://www.google.co.kr/maps/place/Sarvodaya+Multispeciality+%26+Cancer+Hospital/data=!4m5!3m4!1s0x391233b4687a55d7:0xcf71aea46320fec5!8m2!3d29.1410442!4d75.7334667?authuser=0&hl=en&rclk=1,29.1410442,75.7334667,Haryana
"Narayana Superspeciality Hospital, Gurugram",Hospital,"Block - V, DLF Phase - III, Plot 3201, Lane Number V-37, Nathupur, Sector 24, Gurugram, Haryana 122002, India","https://www.google.co.kr/maps/place/Narayana+Superspeciality+Hospital,+Gurugram/data=!4m5!3m4!1s0x390d194aaf07e26f:0x6eb838e6cbc7b64b!8m2!3d28.4978911!4d77.1018711?authuser=0&hl=en&rclk=1",28.4978911,77.1018711,Haryana
ECHS Polyclinic,Medical clinic,"SF-06, Sohna Rd, Sispal Vihar, Sector 49, Gurugram, Haryana 122018, India",https://www.google.co.kr/maps/place/ECHS+Polyclinic/data=!4m5!3m4!1s0x390d229c84442c0d:0x85c95b2f2cc4b28d!8m2!3d28.4172877!4d77.0404836?authuser=0&hl=en&rclk=1,28.4172877,77.0404836,Haryana
Hospital,Hospital,"Amar Garh Colony, Kaithal, Haryana 136027, India",https://www.google.co.kr/maps/place/Hospital/data=!4m5!3m4!1s0x3911e08c628a37e1:0xeff25c2e4f22f73d!8m2!3d29.80045!4d76.403345?authuser=0&hl=en&rclk=1,29.80045,76.403345,Haryana
Sahyog Multispecialty Hospital and Ayurvedic-Panchkarma centre,Hospital,"Approach Rd, Uklanamandi, Haryana 125113, India",https://www.google.co.kr/maps/place/Sahyog+Multispecialty+Hospital+and+Ayurvedic-Panchkarma+centre/data=!4m5!3m4!1s0x391185e570547da7:0xd025d5d8792d87c4!8m2!3d29.5079654!4d75.8833024?authuser=0&hl=en&rclk=1,29.5079654,75.8833024,Haryana
Express Clinics Indiarapurm,Medical clinic,"Ground Floor & Basement, Plot No 403, Near Presidium School, Niti Khand 2, Indra Puram, Ghaziabad, Uttar Pradesh 201014, India",https://www.google.co.kr/maps/place/Express+Clinics+Indiarapurm/data=!4m5!3m4!1s0x390cfaaed60fde29:0x20540d17dfdb5574!8m2!3d28.6416526!4d77.3728139?authuser=0&hl=en&rclk=1,28.6416526,77.3728139,Haryana
Artemis Hospital Gurgaon,Private hospital,"Sector 51, Gurugram, Haryana 122001, India",https://www.google.co.kr/maps/place/Artemis+Hospital+Gurgaon/data=!4m5!3m4!1s0x390d1883aaaaaaab:0x404085140375fa28!8m2!3d28.4317132!4d77.0723797?authuser=0&hl=en&rclk=1,28.4317132,77.0723797,Haryana
"Columbia Asia Hospital Palam Vihar, Gurgaon",Private hospital,"Gol Chakkar, Carterpuri Rd, Block F, Palam Vihar, Gurugram, Haryana 122017, India","https://www.google.co.kr/maps/place/Columbia+Asia+Hospital+Palam+Vihar,+Gurgaon/data=!4m5!3m4!1s0x390d19e69aaaaaab:0xd40e679700a4c5ab!8m2!3d28.5090877!4d77.0416632?authuser=0&hl=en&rclk=1",28.5090877,77.0416632,Haryana
Ankur Hospital (Unit of Ankur Clinic and Maternity Home),Hospital,"Basai Rd, Baldev Nagar, Manohar Nagar, Sector 7, Gurugram, Haryana 122001, India",https://www.google.co.kr/maps/place/Ankur+Hospital+(Unit+of+Ankur+Clinic+and+Maternity+Home)/data=!4m5!3m4!1s0x390d17a227df5d6d:0xb1763229a3e947da!8m2!3d28.4570733!4d77.0124052?authuser=0&hl=en&rclk=1,28.4570733,77.0124052,Haryana
City Hospital,Hospital,"F59H+VJV, Uchana, Haryana 126115, India",https://www.google.co.kr/maps/place/City+Hospital/data=!4m5!3m4!1s0x3911f6787cbbe1fb:0xb0b6f192da4fba33!8m2!3d29.4697345!4d76.1790349?authuser=0&hl=en&rclk=1,29.4697345,76.1790349,Haryana
Center of Diabetes and Allied Sciences,Hospital,"Malibu Town, Sector 47, Gurugram, Haryana 122018, India",https://www.google.co.kr/maps/place/Center+of+Diabetes+and+Allied+Sciences/data=!4m5!3m4!1s0x390d236570335f37:0xe8bb9cfbdb48836e!8m2!3d28.4208726!4d77.0509255?authuser=0&hl=en&rclk=1,28.4208726,77.0509255,Haryana
W Pratiksha Hospital | Orthopaedics & Joint Replacement,Orthopedic surgeon,"Room No. 920, W Pratiksha Hospital, Golf Course Ext Rd, Sector 56, Gurugram, Haryana 122011, India",https://www.google.co.kr/maps/place/W+Pratiksha+Hospital+%7C+Orthopaedics+%26+Joint+Replacement/data=!4m5!3m4!1s0x390d231f27d50f81:0xde17321e59bab38c!8m2!3d28.4186701!4d77.097261?authuser=0&hl=en&rclk=1,28.4186701,77.097261,Haryana
Cloudnine Hospital - Noida,Maternity hospital,"C-9, Gali Number 1, Hoshiarpur Village, Sector 51, Noida, Uttar Pradesh 201301, India",https://www.google.co.kr/maps/place/Cloudnine+Hospital+-+Noida/data=!4m5!3m4!1s0x390ce5ac2e13e19d:0x9f80df9d17e223eb!8m2!3d28.5789993!4d77.3668907?authuser=0&hl=en&rclk=1,28.5789993,77.3668907,Haryana
"Metro Hospital & Heart Institute, Rewari, Haryana | Metro Umkal Hospital",Hospital,"Kayasthwara Mohalla, Rewari, Haryana 123110, India","https://www.google.co.kr/maps/place/Metro+Hospital+%26+Heart+Institute,+Rewari,+Haryana+%7C+Metro+Umkal+Hospital/data=!4m5!3m4!1s0x390d50719ae37551:0x9f99dc0011d879ea!8m2!3d28.1977918!4d76.6241391?authuser=0&hl=en&rclk=1",28.1977918,76.6241391,Haryana
Hospital,Hospital,"Pauli, Haryana 126101, India",https://www.google.co.kr/maps/place/Hospital/data=!4m5!3m4!1s0x3912755e770b5479:0x3fda4ddd5944a250!8m2!3d29.0758994!4d76.4507263?authuser=0&hl=en&rclk=1,29.0758994,76.4507263,Haryana
ECHS Polyclinic Kurukshetra,Hospital,"Sector-5 Market, Section 5, Sector 5, Kurukshetra, Haryana 136118, India",https://www.google.co.kr/maps/place/ECHS+Polyclinic+Kurukshetra/data=!4m5!3m4!1s0x390e46d06aaaaaab:0x9c005e988d314773!8m2!3d29.9700744!4d76.8819897?authuser=0&hl=en&rclk=1,29.9700744,76.8819897,Haryana
Hospital,Hospital,"Shivani Road, near Andhra bank, Tosham, Haryana 127040, India",https://www.google.co.kr/maps/place/Hospital/data=!4m5!3m4!1s0x390d5f70b5b27efd:0x2d646e625c5a6adb!8m2!3d28.8672719!4d75.9162358?authuser=0&hl=en&rclk=1,28.8672719,75.9162358,Haryana
Asian Institute of Medical Sciences,Hospital,"Badkal Flyover, Road, Sector 21A, Faridabad, Haryana 121001, India",https://www.google.co.kr/maps/place/Asian+Institute+of+Medical+Sciences/data=!4m5!3m4!1s0x390cdde9ae5f2175:0x25d73b332736f2df!8m2!3d28.4260095!4d77.2999836?authuser=0&hl=en&rclk=1,28.4260095,77.2999836,Haryana
"Fortis La Femme, Greater Kailash II",Maternity hospital,"S - 549 Alakananda, Alaknanda Don Bosco Rd, Greater Kailash II, New Delhi, Delhi 110048, India","https://www.google.co.kr/maps/place/Fortis+La+Femme,+Greater+Kailash+II/data=!4m5!3m4!1s0x390ce17ed7361ec7:0x5802692b09adb2c6!8m2!3d28.5288575!4d77.2437059?authuser=0&hl=en&rclk=1",28.5288575,77.2437059,Haryana
Vardaan hospital,Hospital,"NH10-Tosham Rd Connection Rd, near HUDA office, New Model Town, Hisar, Haryana 125001, India",https://www.google.co.kr/maps/place/Vardaan+hospital/data=!4m5!3m4!1s0x391233a405220c99:0xcba1ec20b2324a25!8m2!3d29.1324746!4d75.7409614?authuser=0&hl=en&rclk=1,29.1324746,75.7409614,Haryana
Mukhi Hospital,Hospital,"Mukhi Hospital, 1063/3, Ganaur Rd, Sant Kabir Nagar, Sonipat, Haryana 131001, India",https://www.google.co.kr/maps/place/Mukhi+Hospital/data=!4m5!3m4!1s0x390db071f954d647:0xbefe9197e941b637!8m2!3d28.9998482!4d77.02156?authuser=0&hl=en&rclk=1,28.9998482,77.02156,Haryana
Civil Hospital,Hospital,"Para Mohalla, Rohtak, Haryana 124001, India",https://www.google.co.kr/maps/place/Civil+Hospital/data=!4m5!3m4!1s0x390d85d4624ab251:0x8a2dc333dc3bea45!8m2!3d28.899364!4d76.5843136?authuser=0&hl=en&rclk=1,28.899364,76.5843136,Haryana
Vardhman Hospital,Hospital,"9QCP+R7J, Manali House, Sector 1, Ambala, Haryana 133006, India",https://www.google.co.kr/maps/place/Vardhman+Hospital/data=!4m5!3m4!1s0x390fc85a2805f6df:0x8754c937042def38!8m2!3d30.3720838!4d76.7856306?authuser=0&hl=en&rclk=1,30.3720838,76.7856306,Haryana
"MM Hospital Emergency Ward, MMU",Urgent care center,"MMU Campus, Mullana University Road, MMIMSR, Mullana, Haryana 133207, India","https://www.google.co.kr/maps/place/MM+Hospital+Emergency+Ward,+MMU/data=!4m5!3m4!1s0x390fad2c49dd6503:0x5351060be78ee6bf!8m2!3d30.2519864!4d77.0484566?authuser=0&hl=en&rclk=1",30.2519864,77.0484566,Haryana
Hospital,Hospital,"Salem Garh, Haryana 125001, India",https://www.google.co.kr/maps/place/Hospital/data=!4m5!3m4!1s0x3913d01d4806a843:0xd5bc671b2ea20728!8m2!3d29.1837341!4d75.5400211?authuser=0&hl=en&rclk=1,29.1837341,75.5400211,Haryana
"Krishna Clinic, Dr JD Singh, child specialist, vaccination center",Doctor,"shop no. 1475, FIRST FLOOR, Saini mohalla, opposite primary health centre, Najafgarh, Delhi, 110043, India","https://www.google.co.kr/maps/place/Krishna+Clinic,+Dr+JD+Singh,+child+specialist,+vaccination+center/data=!4m5!3m4!1s0x390d0537e19a2975:0xba7bf4b6c5fb23e!8m2!3d28.6129975!4d76.9857422?authuser=0&hl=en&rclk=1",28.6129975,76.9857422,Haryana
Shanti Mission Hospital,Hospital,"4PPV+3HX, Model Town, Hisar, Haryana 125005, India",https://www.google.co.kr/maps/place/Shanti+Mission+Hospital/data=!4m5!3m4!1s0x3912336cbbe0ce41:0xf9d6b19a68fd35d7!8m2!3d29.1352415!4d75.7439994?authuser=0&hl=en&rclk=1,29.1352415,75.7439994,Haryana
Ramesh Clinic- GAMS and Ayurveda Ratna,Doctor,"Old Bus Stand, SH 11, Gohana, Haryana 131301, India",https://www.google.co.kr/maps/place/Ramesh+Clinic-+GAMS+and+Ayurveda+Ratna/data=!4m5!3m4!1s0x390ded855c5ab599:0xc55193ee97ed16e4!8m2!3d29.1393013!4d76.6983619?authuser=0&hl=en&rclk=1,29.1393013,76.6983619,Haryana
Hospital,Hospital,"48PG+XQ3, Karela, Haryana 126101, India",https://www.google.co.kr/maps/place/Hospital/data=!4m5!3m4!1s0x39120c50ef94e131:0x58a3ba4d8f95db4c!8m2!3d29.1373843!4d76.3269069?authuser=0&hl=en&rclk=1,29.1373843,76.3269069,Haryana
Hospital,Hospital,"Panipat Road, Anchra Khurd, Haryana 126112, India",https://www.google.co.kr/maps/place/Hospital/data=!4m5!3m4!1s0x390dfaa623343fb5:0x1588ec752ab50a14!8m2!3d29.301366!4d76.6290144?authuser=0&hl=en&rclk=1,29.301366,76.6290144,Haryana
Dr. Banarasi Dass Sharma Hospital,Hospital,"5P5G+4X6, Mehta Nagar, Hisar, Haryana 125001, India",https://www.google.co.kr/maps/place/Dr.+Banarasi+Dass+Sharma+Hospital/data=!4m5!3m4!1s0x391232d8719e6d25:0x9ec6d2bc4172045a!8m2!3d29.1577759!4d75.7273754?authuser=0&hl=en&rclk=1,29.1577759,75.7273754,Haryana
CGHS Dispensary D92,Medical clinic,"A1/302, Sanjay Maurya Sco100 Marg, Sushant Lok 2, Sector 55, Gurugram, Haryana 122003, India",https://www.google.co.kr/maps/place/CGHS+Dispensary+D92/data=!4m5!3m4!1s0x390d21fdb25540c5:0x60bf2056b35b58a9!8m2!3d28.4268553!4d77.1103815?authuser=0&hl=en&rclk=1,28.4268553,77.1103815,Haryana
Surya Hospital,Hospital,"Khandsa Rd, Raj Nagar, Shivji Park Colony, Sector 10A, Gurugram, Haryana 122001, India",https://www.google.co.kr/maps/place/Surya+Hospital/data=!4m5!3m4!1s0x390d19d0926dcac5:0x2fb174a441914899!8m2!3d28.4484662!4d77.0156786?authuser=0&hl=en&rclk=1,28.4484662,77.0156786,Haryana
New Bhatia Hospital,Hospital,"Old Ct Rd, Near Ram Lal Chowk, Bhatia Colony, Hari Bagh Colony, Panipat, Haryana 132103, India",https://www.google.co.kr/maps/place/New+Bhatia+Hospital/data=!4m5!3m4!1s0x390ddbb6f5105169:0x784571e652a89c97!8m2!3d29.3956314!4d76.9569991?authuser=0&hl=en&rclk=1,29.3956314,76.9569991,Haryana
Civil Hospital,Hospital,"98PR+WWP, Surya Nagar, Bhattu Mandi, Haryana 125053, India",https://www.google.co.kr/maps/place/Civil+Hospital/data=!4m5!3m4!1s0x3911607fe154dfc1:0xc2b93a0d80786b00!8m2!3d29.3873281!4d75.3423228?authuser=0&hl=en&rclk=1,29.3873281,75.3423228,Haryana
Hospital,Hospital,"QX6M+G25, Bajina, Haryana 127111, India",https://www.google.co.kr/maps/place/Hospital/data=!4m5!3m4!1s0x3912594f9626db01:0x85c6d7c7f4c7aa80!8m2!3d28.7612538!4d75.9826075?authuser=0&hl=en&rclk=1,28.7612538,75.9826075,Haryana
Hospital,Hospital,"WQW4+4CV, Talwandi Badshahpur, Haryana 125001, India",https://www.google.co.kr/maps/place/Hospital/data=!4m5!3m4!1s0x39124b5e9aaeef11:0xb67401ad5da9835b!8m2!3d28.9453546!4d75.7560455?authuser=0&hl=en&rclk=1,28.9453546,75.7560455,Haryana
Hospital,Hospital,"Unnamed Road, Madina, Haryana 124001, India",https://www.google.co.kr/maps/place/Hospital/data=!4m5!3m4!1s0x391277b8d47a90e3:0x8c97e5c87a28f751!8m2!3d28.940717!4d76.430601?authuser=0&hl=en&rclk=1,28.940717,76.430601,Haryana
urocare hospital,Hospital,"Jind, Raj Nagar, Patiala Chowk, Jind, Haryana 126102, India",https://www.google.co.kr/maps/place/urocare+hospital/data=!4m5!3m4!1s0x391204ed18f50bdf:0x5b1e1b921d1e7798!8m2!3d29.3280732!4d76.3016558?authuser=0&hl=en&rclk=1,29.3280732,76.3016558,Haryana
local hospital,Hospital,"JXW9+XPR, Golagarh, Haryana 127030, India",https://www.google.co.kr/maps/place/local+hospital/data=!4m5!3m4!1s0x3912f7ed8a3ac42b:0xb27a68f9077b4e03!8m2!3d28.6474848!4d75.9692506?authuser=0&hl=en&rclk=1,28.6474848,75.9692506,Haryana
Hospital,Hospital,"J4QR+G55, Rasiwas, Haryana 127021, India",https://www.google.co.kr/maps/place/Hospital/data=!4m5!3m4!1s0x39128ba4568d4faf:0x598b3df33237b492!8m2!3d28.6387725!4d76.1404695?authuser=0&hl=en&rclk=1,28.6387725,76.1404695,Haryana
Doctor Subash,Hospital,"HR8H+RWR, Jhajjar, Haryana 124105, India",https://www.google.co.kr/maps/place/Doctor+Subash/data=!4m5!3m4!1s0x390d13602f123b35:0x82aeb0a11ddfda6e!8m2!3d28.5671089!4d76.829774?authuser=0&hl=en&rclk=1,28.5671089,76.829774,Haryana
Hospital,Hospital,"FXXR+H9F, Sainthali, Haryana 126152, India",https://www.google.co.kr/maps/place/Hospital/data=!4m5!3m4!1s0x391189a7d9ffdafd:0xb0f131ed142c1712!8m2!3d29.4989498!4d75.9909252?authuser=0&hl=en&rclk=1,29.4989498,75.9909252,Haryana
Arpana Hospital,Hospital,"G.T. Road, Madhuban, Karnal, Karnal, Haryana 132027, India",https://www.google.co.kr/maps/place/Arpana+Hospital/data=!4m5!3m4!1s0x390e771706c9a09d:0x71f776ee5cf409ee!8m2!3d29.6063669!4d76.9796911?authuser=0&hl=en&rclk=1,29.6063669,76.9796911,Haryana
Aam Aadmi Mohalla Clinic - Dera Village,Medical clinic,"Unnamed Road, Dera Village, Dera Mandi, New Delhi, Delhi 110074, India",https://www.google.co.kr/maps/place/Aam+Aadmi+Mohalla+Clinic+-+Dera+Village/data=!4m5!3m4!1s0x390d21857115b2ef:0x84a7669362e8f4be!8m2!3d28.4343672!4d77.1790215?authuser=0&hl=en&rclk=1,28.4343672,77.1790215,Haryana
Kailash Hospital,Medical Center,"167-S, Gurudwara Rd, Model Town, Hisar, Haryana 125005, India",https://www.google.co.kr/maps/place/Kailash+Hospital/data=!4m5!3m4!1s0x3912336eaab8e007:0x6e86f39b18a29b89!8m2!3d29.1304277!4d75.7431038?authuser=0&hl=en&rclk=1,29.1304277,75.7431038,Haryana
Navdeep Hospital,Hospital,"house no. 453, Sector 13-17, HUDA, Panipat, Haryana 132103, India",https://www.google.co.kr/maps/place/Navdeep+Hospital/data=!4m5!3m4!1s0x390ddb9f362f86f5:0xef95ba7d36091154!8m2!3d29.4218897!4d76.980692?authuser=0&hl=en&rclk=1,29.4218897,76.980692,Haryana
Mann MultiSpecialty Hospital,General hospital,"near Radio Station, Company Bagh, Rohtak, Haryana 124001, India",https://www.google.co.kr/maps/place/Mann+MultiSpecialty+Hospital/data=!4m5!3m4!1s0x390d85a6a10580ab:0xdc448fce36eebd10!8m2!3d28.8982732!4d76.5895775?authuser=0&hl=en&rclk=1,28.8982732,76.5895775,Haryana
NK Urology Center And Stone Clinic,Hospital,"Bye pass road, Yamuna Nagar, Haryana 135001, India",https://www.google.co.kr/maps/place/NK+Urology+Center+And+Stone+Clinic/data=!4m5!3m4!1s0x390ef9b06d03ef25:0x72d20117d9824167!8m2!3d30.1396435!4d77.2816189?authuser=0&hl=en&rclk=1,30.1396435,77.2816189,Haryana
FIMS Hospital,General hospital,"Sonipat Bahalgarh Road, Haryana 131001, India",https://www.google.co.kr/maps/place/FIMS+Hospital/data=!4m5!3m4!1s0x390dae10afe758b9:0xba086fb3c026624e!8m2!3d28.9726023!4d77.0687223?authuser=0&hl=en&rclk=1,28.9726023,77.0687223,Haryana
Global Hospital,Private hospital,"Kaimari Rd, Housing Board Colony, Sector 15A, Hisar, Haryana 125001, India",https://www.google.co.kr/maps/place/Global+Hospital/data=!4m5!3m4!1s0x39123336762d858d:0x802cfd36b6a0aa11!8m2!3d29.1356072!4d75.7197677?authuser=0&hl=en&rclk=1,29.1356072,75.7197677,Haryana
Aadhar Hospital - Aadhar Health Institute | Hisar,Hospital,"Near, South Bypass Crossing NH10, Hisar, Haryana 125001, India",https://www.google.co.kr/maps/place/Aadhar+Hospital+-+Aadhar+Health+Institute+%7C+Hisar/data=!4m5!3m4!1s0x39123363837686f1:0x445ec716639967e5!8m2!3d29.1188287!4d75.7455735?authuser=0&hl=en&rclk=1,29.1188287,75.7455735,Haryana
NK Urology Center,Hospital,"National Highway 73, Sarojini Colony, Model Town, Yamuna Nagar, Haryana 135001, India",https://www.google.co.kr/maps/place/NK+Urology+Center/data=!4m5!3m4!1s0x390ef97edae3db81:0xf0c8595e1ffcc956!8m2!3d30.1405777!4d77.2835891?authuser=0&hl=en&rclk=1,30.1405777,77.2835891,Haryana
Medanta Mediclinic,Hospital,"E-18, Chauhan Vithi Rd, Block E, Defence Colony, New Delhi, Delhi 110049, India",https://www.google.co.kr/maps/place/Medanta+Mediclinic/data=!4m5!3m4!1s0x390ce37bb7699cc1:0xe29a95d42cef75fc!8m2!3d28.5671747!4d77.2281806?authuser=0&hl=en&rclk=1,28.5671747,77.2281806,Haryana
CHC Hospital,Hospital,"RPRQ+J6C, Bhiwani, Haryana 127043, India",https://www.google.co.kr/maps/place/CHC+Hospital/data=!4m5!3m4!1s0x39124d6065656427:0xe29133b75b18a436!8m2!3d28.8415565!4d75.738005?authuser=0&hl=en&rclk=1,28.8415565,75.738005,Haryana
All India Institute of Medical Sciences,Government hospital,"Tehsil Badli, Badsa, Haryana 124105, India",https://www.google.co.kr/maps/place/All+India+Institute+of+Medical+Sciences/data=!4m5!3m4!1s0x390d137f56b3d8bd:0x2f6a61b5a8365b4b!8m2!3d28.4987734!4d76.8720675?authuser=0&hl=en&rclk=1,28.4987734,76.8720675,Haryana
any hospital,Hospital,"Unnamed Road, Janta Colony, Rohtak, Haryana 124001, India",https://www.google.co.kr/maps/place/any+hospital/data=!4m5!3m4!1s0x390d8572045fdbe5:0xdd77854b395e6980!8m2!3d28.8860937!4d76.5836143?authuser=0&hl=en&rclk=1,28.8860937,76.5836143,Haryana
Civil Hospital,Hospital,"NH 10, Bahadur Colony, Hansi, Haryana 125033, India",https://www.google.co.kr/maps/place/Civil+Hospital/data=!4m5!3m4!1s0x391239031d82e8eb:0xa12589dfd64f68f3!8m2!3d29.0935458!4d75.9559482?authuser=0&hl=en&rclk=1,29.0935458,75.9559482,Haryana
Delhi Pain Management Centre,Hospital,"A-1/14, Safdarjung Enclave, Near ICICI Bank, B3 Block, Nauroji Nagar, Safdarjung Enclave, New Delhi, Delhi 110029, India",https://www.google.co.kr/maps/place/Delhi+Pain+Management+Centre/data=!4m5!3m4!1s0x390d1d863bb65675:0x12fe37ef5d818a89!8m2!3d28.5656451!4d77.1964672?authuser=0&hl=en&rclk=1,28.5656451,77.1964672,Haryana
Doctor Kares Hospital,Hospital,"D1/28, Vasant Vihar, Delhi, 110075, India",https://www.google.co.kr/maps/place/Doctor+Kares+Hospital/data=!4m5!3m4!1s0x390d1db00affffff:0x85cf324a3eec0ac0!8m2!3d28.5957683!4d77.0520639?authuser=0&hl=en&rclk=1,28.5957683,77.0520639,Haryana
Fauji doctor haryana,Hospital,"Market Rd, Ujina, Haryana 122107, India",https://www.google.co.kr/maps/place/Fauji+doctor+haryana/data=!4m5!3m4!1s0x3972d3b25980e697:0x414be2f89cc3038d!8m2!3d28.043085!4d77.0840384?authuser=0&hl=en&rclk=1,28.043085,77.0840384,Haryana
Chugh Hospital,Hospital,"5L, 164, KC Rd, Block L, New Industrial Twp 5, New Industrial Town, Faridabad, Haryana 121013, India",https://www.google.co.kr/maps/place/Chugh+Hospital/data=!4m5!3m4!1s0x390cddcd527e3acf:0x558b07389a2b45e6!8m2!3d28.4017022!4d77.2986818?authuser=0&hl=en&rclk=1,28.4017022,77.2986818,Haryana
Dr. Deepti Singh - Best ENT in Hisar | ENT surgeon | ENT Doctor in Hisar,Otolaryngologist,"Doordarshan kendra, road, Hisar, Haryana 125001, India",https://www.google.co.kr/maps/place/Dr.+Deepti+Singh+-+Best+ENT+in+Hisar+%7C+ENT+surgeon+%7C+ENT+Doctor+in+Hisar/data=!4m5!3m4!1s0x391233aa8c0c1daf:0x8862703064caa3ec!8m2!3d29.1321061!4d75.7393034?authuser=0&hl=en&rclk=1,29.1321061,75.7393034,Haryana
Hospital,Hospital,"Unnamed Road, Muzadpur, Haryana 125037, India",https://www.google.co.kr/maps/place/Hospital/data=!4m5!3m4!1s0x391249d55e38c6af:0x1333f75823440034!8m2!3d28.9780998!4d75.8722455?authuser=0&hl=en&rclk=1,28.9780998,75.8722455,Haryana
Hospital,Hospital,"Badal Jhojhu Rd, Pichopa Kalan, Haryana 127026, India",https://www.google.co.kr/maps/place/Hospital/data=!4m5!3m4!1s0x39128d0b99599327:0x4c0809ee31909e0f!8m2!3d28.5410525!4d76.1273032?authuser=0&hl=en&rclk=1,28.5410525,76.1273032,Haryana
"Saharan Hospital, Kalayat",Hospital,"Railway Rd, near Floor Mill, Kalayat, Haryana 136117, India","https://www.google.co.kr/maps/place/Saharan+Hospital,+Kalayat/data=!4m5!3m4!1s0x3911efeec81a7853:0x5071a1f75ba53266!8m2!3d29.6775066!4d76.2460694?authuser=0&hl=en&rclk=1",29.6775066,76.2460694,Haryana
Bone & Joint Clinic- Dr N K Magu,Orthopedic surgeon,"SCF- 24, near BJP Office, HUDA Complex, Rohtak, Haryana 124001, India",https://www.google.co.kr/maps/place/Bone+%26+Joint+Clinic-+Dr+N+K+Magu/data=!4m5!3m4!1s0x390d8595d4af9ab9:0x2b454906c4a8c637!8m2!3d28.8954411!4d76.5835292?authuser=0&hl=en&rclk=1,28.8954411,76.5835292,Haryana
Hospital,Hospital,"Unnamed Road, Sisar Khas, Haryana 124112, India",https://www.google.co.kr/maps/place/Hospital/data=!4m5!3m4!1s0x39126f5aa110ef4d:0x84ae45fdb360bb6!8m2!3d28.9218845!4d76.2658828?authuser=0&hl=en&rclk=1,28.9218845,76.2658828,Haryana
Hospital,Hospital,"Surbara, Haryana 126152, India",https://www.google.co.kr/maps/place/Hospital/data=!4m5!3m4!1s0x39118b470293f03b:0x6d5022e3528e225b!8m2!3d29.4925793!4d76.0704903?authuser=0&hl=en&rclk=1,29.4925793,76.0704903,Haryana
Hospital,Hospital,"GP6C+W4C, Salwan, Haryana 132046, India",https://www.google.co.kr/maps/place/Hospital/data=!4m5!3m4!1s0x390e0992cf382bed:0xe530cfd36c780f98!8m2!3d29.512304!4d76.7202581?authuser=0&hl=en&rclk=1,29.512304,76.7202581,Haryana
Hospital,Government hospital,"76VG+H45, Rajpura Bhan, Haryana 126102, India",https://www.google.co.kr/maps/place/Hospital/data=!4m5!3m4!1s0x39121af899ad4249:0xfa022ee37e341200!8m2!3d29.293878!4d76.2253609?authuser=0&hl=en&rclk=1,29.293878,76.2253609,Haryana
Medanta -The Medicity,Hospital,"CH Baktawar Singh Rd, near Olympus, Medicity, Islampur Colony, Sector 38, Gurugram, Haryana 122001, India",https://www.google.co.kr/maps/place/Medanta+-The+Medicity/data=!4m5!3m4!1s0x390d186ec89f751b:0xdc2ab32fc4675cac!8m2!3d28.4395016!4d77.0408337?authuser=0&hl=en&rclk=1,28.4395016,77.0408337,Haryana
Hospital,Hospital,"Kheri Chopta, Kheri Lohchab, Haryana 125039, India",https://www.google.co.kr/maps/place/Hospital/data=!4m5!3m4!1s0x391219dc08b4e925:0x2d014b067f57c85d!8m2!3d29.3308733!4d76.0935761?authuser=0&hl=en&rclk=1,29.3308733,76.0935761,Haryana
Cmc,Hospital,"Haryana 125033, India",https://www.google.co.kr/maps/place/Cmc/data=!4m5!3m4!1s0x39126b81b7d597b1:0xd885f80b6dd332b3!8m2!3d29.0587757!4d76.085601?authuser=0&hl=en&rclk=1,29.0587757,76.085601,Haryana
General Hospital,Hospital,"Subhash Nagar, Hisar, NH-10, Delhi Rohtak Hisar Road, Hansi, Hansi, Haryana 125045, India",https://www.google.co.kr/maps/place/General+Hospital/data=!4m5!3m4!1s0x391239031d18eb8d:0x64084827e007bab!8m2!3d29.093647!4d75.955856?authuser=0&hl=en&rclk=1,29.093647,75.955856,Haryana
Dr manoj clinic,Doctor,"5W25+M28, Kulana, Haryana 125033, India",https://www.google.co.kr/maps/place/Dr+manoj+clinic/data=!4m5!3m4!1s0x39123b0e7779de1d:0xac75a16f43bf056!8m2!3d29.1516626!4d75.9075743?authuser=0&hl=en&rclk=1,29.1516626,75.9075743,Haryana
Hospital,Hospital,"SH 21, Model Town, Ratia, Haryana 125051, India",https://www.google.co.kr/maps/place/Hospital/data=!4m5!3m4!1s0x3911725471b7cbbb:0x29ef2e50ce1b1570!8m2!3d29.6802509!4d75.5703915?authuser=0&hl=en&rclk=1,29.6802509,75.5703915,Haryana
PHC & Maternity Centre THURANA,Hospital,"44V7+VFX, Thurana, Haryana 125033, India",https://www.google.co.kr/maps/place/PHC+%26+Maternity+Centre+THURANA/data=!4m5!3m4!1s0x391215dc6482cead:0x98069cae812c36f9!8m2!3d29.1447378!4d76.1137369?authuser=0&hl=en&rclk=1,29.1447378,76.1137369,Haryana
INDIA,Hospital,"Model Town, Narwana, Haryana 126116, India",https://www.google.co.kr/maps/place/INDIA/data=!4m5!3m4!1s0x3911f293ffffffff:0xead686d0c564eec7!8m2!3d29.5910963!4d76.1145993?authuser=0&hl=en&rclk=1,29.5910963,76.1145993,Haryana
Sonakshi IVF (fertility) center; Dr pooja Bhayana infertility specialist: Best IVF center in hisar,Fertility clinic,"Jindal hospital road, Mahavir Colony, New Model Town Exyension, New Model Town, Hisar, Haryana 125005, India",https://www.google.co.kr/maps/place/Sonakshi+IVF+(fertility)+center;+Dr+pooja+Bhayana+infertility+specialist:+Best+IVF+center+in+hisar/data=!4m5!3m4!1s0x3912334216cd51fb:0x4dbc625a6c80a3e3!8m2!3d29.1297754!4d75.744266?authuser=0&hl=en&rclk=1,29.1297754,75.744266,Haryana
Sukhda,General hospital,"4QHP+MMX, Satrod, Satrod Khurd, Hisar, Haryana 125006, India",https://www.google.co.kr/maps/place/Sukhda/data=!4m5!3m4!1s0x391233f27e61adb3:0x86cffb3f594d8555!8m2!3d29.1292279!4d75.7867377?authuser=0&hl=en&rclk=1,29.1292279,75.7867377,Haryana
Civil Hospital,Government hospital,"Khanda Road Narnaund, local, Narnaund, Haryana 125039, India",https://www.google.co.kr/maps/place/Civil+Hospital/data=!4m5!3m4!1s0x3912176d37de505d:0x3508f92fab51260f!8m2!3d29.2242971!4d76.1454036?authuser=0&hl=en&rclk=1,29.2242971,76.1454036,Haryana
Civil hospital,Hospital,"Khanour Road, Maraudhi, Haryana 124001, India",https://www.google.co.kr/maps/place/Civil+hospital/data=!4m5!3m4!1s0x390d872685171f11:0x5a07553b5271dd61!8m2!3d28.83275!4d76.521862?authuser=0&hl=en&rclk=1,28.83275,76.521862,Haryana
"Paras Hospitals, Gurgaon",Private hospital,"Phase- I, C-1, Sushant Lok Rd, Sector 43, Gurugram, Haryana 122002, India","https://www.google.co.kr/maps/place/Paras+Hospitals,+Gurgaon/data=!4m5!3m4!1s0x390d19041dfb4c59:0xb185f5d948cb2f8f!8m2!3d28.4511221!4d77.0876594?authuser=0&hl=en&rclk=1",28.4511221,77.0876594,Haryana
Artemis Hospital,Hospital,"Jacobpura, Sector 12, Gurugram, Haryana 122001, India",https://www.google.co.kr/maps/place/Artemis+Hospital/data=!4m5!3m4!1s0x390d183124b3ce65:0xbce605a6cf3954b0!8m2!3d28.4594965!4d77.0266383?authuser=0&hl=en&rclk=1,28.4594965,77.0266383,Haryana
Civil Hospital,Government hospital,"MHXH+525, Pana chulyan, Beri, Haryana 124201, India",https://www.google.co.kr/maps/place/Civil+Hospital/data=!4m5!3m4!1s0x390d791e00c2878b:0xb5da45ba19dd41fa!8m2!3d28.6978979!4d76.5775961?authuser=0&hl=en&rclk=1,28.6978979,76.5775961,Haryana
District Civil Hospital,Government hospital,"216, BK Chowk, Narela Rajeev Nagar, New Industrial Town, Faridabad, Haryana 121001, India",https://www.google.co.kr/maps/place/District+Civil+Hospital/data=!4m5!3m4!1s0x390cdc303421ac79:0x80e72362471060f7!8m2!3d28.3922273!4d77.2984702?authuser=0&hl=en&rclk=1,28.3922273,77.2984702,Haryana
Tanya,Hospital,"Haryana 125033, India",https://www.google.co.kr/maps/place/Tanya/data=!4m5!3m4!1s0x39126aaaaaaaaaab:0x49dd76d16957012d!8m2!3d29.0587757!4d76.085601?authuser=0&hl=en&rclk=1,29.0587757,76.085601,Haryana
Civil hospital,Hospital,"Dadri - Bhiwani Rd, Dadri, Bhiwani, Haryana 127021, India",https://www.google.co.kr/maps/place/Civil+hospital/data=!4m5!3m4!1s0x391261226db02e6f:0x3f456c65d00ff29a!8m2!3d28.78678!4d76.126486?authuser=0&hl=en&rclk=1,28.78678,76.126486,Haryana
Hospital,Hospital,"562V+2G9, Bhaklana, Haryana 125038, India",https://www.google.co.kr/maps/place/Hospital/data=!4m5!3m4!1s0x3912123c236ca26b:0xc845712587eaff35!8m2!3d29.1500413!4d76.2438438?authuser=0&hl=en&rclk=1,29.1500413,76.2438438,Haryana
Medi City Hospital Neurocare And Trauma Center,Neurologist,"Nursing Home Site -2, Sec. 16-17, South By Pass, Haryana 125005, India",https://www.google.co.kr/maps/place/Medi+City+Hospital+Neurocare+And+Trauma+Center/data=!4m5!3m4!1s0x39123365553ed66b:0xf3748c321a537ed1!8m2!3d29.1281389!4d75.733818?authuser=0&hl=en&rclk=1,29.1281389,75.733818,Haryana
Civil Hospital Fatehabad,Hospital,"Civil Hospital Rd, Model Town, Fatehabad, Haryana 125050, India",https://www.google.co.kr/maps/place/Civil+Hospital+Fatehabad/data=!4m5!3m4!1s0x391165e91cf66f8d:0x4c45c03381a25f75!8m2!3d29.5168065!4d75.4492857?authuser=0&hl=en&rclk=1,29.5168065,75.4492857,Haryana
"CIVIL HOSPITAL, PANIPAT",Hospital,"BEHIND BUS STAND OPPOSITE ARYA SENIOR SECONDARY SCHOOL, Panipat, Haryana 132103, India","https://www.google.co.kr/maps/place/CIVIL+HOSPITAL,+PANIPAT/data=!4m5!3m4!1s0x390dda36083df4a7:0xeb887aa702a1e324!8m2!3d29.399844!4d76.9699705?authuser=0&hl=en&rclk=1",29.399844,76.9699705,Haryana
Hospital,Hospital,"M6FX+7QM, Panjupura, Kalayat, Haryana 136117, India",https://www.google.co.kr/maps/place/Hospital/data=!4m5!3m4!1s0x3911ef92d4c5de11:0x3ecb52662e4babc6!8m2!3d29.6732049!4d76.2494265?authuser=0&hl=en&rclk=1,29.6732049,76.2494265,Haryana
Civil Hospital Panchkula,Hospital,"Sector 6, Panchkula, Haryana 134108, India",https://www.google.co.kr/maps/place/Civil+Hospital+Panchkula/data=!4m5!3m4!1s0x390f936cb37b348f:0x8ffd50108aac1859!8m2!3d30.7049758!4d76.8545986?authuser=0&hl=en&rclk=1,30.7049758,76.8545986,Haryana
Government hospital,Hospital,"SH 17, Gandhi Nagar, Hansi, Haryana 125033, India",https://www.google.co.kr/maps/place/Government+hospital/data=!4m5!3m4!1s0x3912391f2cddf4ad:0xf8ca6c1e0fbc0446!8m2!3d29.0974599!4d75.9671599?authuser=0&hl=en&rclk=1,29.0974599,75.9671599,Haryana
"Shalby Hospital, Mohali",Hospital,"near PCA Stadium, Phase 9, Sector 63, Sahibzada Ajit Singh Nagar, Chandigarh 160062, India","https://www.google.co.kr/maps/place/Shalby+Hospital,+Mohali/data=!4m5!3m4!1s0x390feea000764e3f:0xd0f04b8e00abed86!8m2!3d30.6923537!4d76.7334135?authuser=0&hl=en&rclk=1",30.6923537,76.7334135,Haryana
Civil Hospital,Hospital,"6G76+34M, Siswal, Haryana 125052, India",https://www.google.co.kr/maps/place/Civil+Hospital/data=!4m5!3m4!1s0x3913da91f8ed0549:0x92411b0f8419613!8m2!3d29.2127052!4d75.5102995?authuser=0&hl=en&rclk=1,29.2127052,75.5102995,Haryana
Urban Health Centre,Hospital,"Saket Extension, Azad Nagar, Hisar, Haryana 125007, India",https://www.google.co.kr/maps/place/Urban+Health+Centre/data=!4m5!3m4!1s0x3913ccb0aa7920bd:0x94161941990b21c9!8m2!3d29.1259683!4d75.7025364?authuser=0&hl=en&rclk=1,29.1259683,75.7025364,Haryana
Crysta IVF Gurugram,Fertility clinic,"House no. 1308, opposite shalom Hills School, near paras hospital, Sector 43, Gurugram, Haryana 122002, India",https://www.google.co.kr/maps/place/Crysta+IVF+Gurugram/data=!4m5!3m4!1s0x390d1959f062bac9:0xb84b2fcd6782dbde!8m2!3d28.4488696!4d77.0833833?authuser=0&hl=en&rclk=1,28.4488696,77.0833833,Haryana
Civil Hospital,Government hospital,"Model Town Road, Polytechnic Chowk, Ambala, Haryana 134003, India",https://www.google.co.kr/maps/place/Civil+Hospital/data=!4m5!3m4!1s0x390fc8f56881c621:0xbc1d3ea0cb29ea4e!8m2!3d30.3787852!4d76.779832?authuser=0&hl=en&rclk=1,30.3787852,76.779832,Haryana
Sharda Child Hospital,Children's hospital,"4PMV+MP6, Model Town, Hisar, Haryana 125011, India",https://www.google.co.kr/maps/place/Sharda+Child+Hospital/data=!4m5!3m4!1s0x3912336c8eaf2e75:0x24e81e0cbc1f2959!8m2!3d29.134159!4d75.744269?authuser=0&hl=en&rclk=1,29.134159,75.744269,Haryana
Ravindra Hospital & Heart Centre,Hospital,"Jindal hospital Road, Model Town, Hisar, Haryana 125005, India",https://www.google.co.kr/maps/place/Ravindra+Hospital+%26+Heart+Centre/data=!4m5!3m4!1s0x3912336dacfbf8e5:0x19a146f030205f08!8m2!3d29.1331476!4d75.7460787?authuser=0&hl=en&rclk=1,29.1331476,75.7460787,Haryana
City Hospital,Hospital,"RJ27+FPM, Rohtak, Haryana 124001, India",https://www.google.co.kr/maps/place/City+Hospital/data=!4m5!3m4!1s0x390d831911dd402f:0xf878f62597e3f242!8m2!3d28.8012046!4d76.6142891?authuser=0&hl=en&rclk=1,28.8012046,76.6142891,Haryana
Hospital,Hospital,"Birthe Bahari-Thal Rd, Thall, Haryana 132039, India",https://www.google.co.kr/maps/place/Hospital/data=!4m5!3m4!1s0x390e01489fe000bf:0x4bcbd4c54add53fc!8m2!3d29.5279716!4d76.5192685?authuser=0&hl=en&rclk=1,29.5279716,76.5192685,Haryana
Rohtak Cancer Care Hospital,Hospital,"Rohtak cancer care hospital opposite tvs showroom, Delhi Rd, near jaat bhawan, Rohtak, Haryana 124001, India",https://www.google.co.kr/maps/place/Rohtak+Cancer+Care+Hospital/data=!4m5!3m4!1s0x390d8540c32c1a97:0x659dbf5b46f874c7!8m2!3d28.8907078!4d76.6238404?authuser=0&hl=en&rclk=1,28.8907078,76.6238404,Haryana
Echs Polyclinic,Medical clinic,"RWA Marg, near Lal Market, Arun Vihar, Sector 37, Noida, Uttar Pradesh 201301, India",https://www.google.co.kr/maps/place/Echs+Polyclinic/data=!4m5!3m4!1s0x390ce5b7f48a1e7f:0xb6479a2666b8b686!8m2!3d28.5676103!4d77.3433822?authuser=0&hl=en&rclk=1,28.5676103,77.3433822,Haryana
ESI Hospital Hisar,Hospital,"Industrial Area, Hisar, Haryana 125005, India",https://www.google.co.kr/maps/place/ESI+Hospital+Hisar/data=!4m5!3m4!1s0x3912339cf6e1ed87:0xdeb3f4c2583f2db1!8m2!3d29.1296792!4d75.7642259?authuser=0&hl=en&rclk=1,29.1296792,75.7642259,Haryana
ESI Hospital,Hospital,"Bhiwani - Hansi Rd, Housing Board Colony, Bhiwani, Haryana 127021, India",https://www.google.co.kr/maps/place/ESI+Hospital/data=!4m5!3m4!1s0x391267209f872d33:0xfbadef6d8a62395d!8m2!3d28.8082119!4d76.1319047?authuser=0&hl=en&rclk=1,28.8082119,76.1319047,Haryana
CT Scan/MRI Center,Hospital,"UH2, PGIMS Road, Dariyao Nagar, Rohtak, Haryana 124001, India",https://www.google.co.kr/maps/place/CT+Scan%2FMRI+Center/data=!4m5!3m4!1s0x390d85bc355bb2b3:0x3a97b8e0daf77d3f!8m2!3d28.8832218!4d76.6064208?authuser=0&hl=en&rclk=1,28.8832218,76.6064208,Haryana
Hisar Children's Hospital,Children's hospital,"Het Ram Park Colony, Vijay Nagar, Krishna Nagar Colony, Hisar, Haryana 125001, India",https://www.google.co.kr/maps/place/Hisar+Children's+Hospital/data=!4m5!3m4!1s0x3912332f75aea06d:0x7bfa04d73bfec27c!8m2!3d29.1484563!4d75.7243485?authuser=0&hl=en&rclk=1,29.1484563,75.7243485,Haryana
Civil hospital,Hospital,"6CFR+JPQ, Chaupal, Dhigana, Haryana 126114, India",https://www.google.co.kr/maps/place/Civil+hospital/data=!4m5!3m4!1s0x39120920df226793:0x645871a29a9c70b6!8m2!3d29.2240769!4d76.4418473?authuser=0&hl=en&rclk=1,29.2240769,76.4418473,Haryana
Campus Hospital,Hospital,"CCS Haryana Agricultural Unversity, Hisar, Haryana 125004, India",https://www.google.co.kr/maps/place/Campus+Hospital/data=!4m5!3m4!1s0x3913ccd6c86c97af:0xafc8495d59ef9852!8m2!3d29.1499248!4d75.7065859?authuser=0&hl=en&rclk=1,29.1499248,75.7065859,Haryana
Maharaja Agrasen Civil Hospital,General hospital,"Sirsa Rd, Tayal Bagh Colony, Hisar, Haryana 125001, India",https://www.google.co.kr/maps/place/Maharaja+Agrasen+Civil+Hospital/data=!4m5!3m4!1s0x391232cdc92daff3:0x10940781b6bf6106!8m2!3d29.1697504!4d75.7185033?authuser=0&hl=en&rclk=1,29.1697504,75.7185033,Haryana
Medicover Fertility,Fertility clinic,"56, Maharaja Agrasen Marg, Pocket E, Sector 18, Noida, Uttar Pradesh 201301, India",https://www.google.co.kr/maps/place/Medicover+Fertility/data=!4m5!3m4!1s0x390ce44bf0cd847d:0x6eb1d0f99ed25b78!8m2!3d28.5703529!4d77.3275495?authuser=0&hl=en&rclk=1,28.5703529,77.3275495,Haryana
"Fortis Hospital, Sector 62, Noida",Hospital,"B-22, Rasoolpur Nawada, D Block, Sector 62, Noida, Uttar Pradesh 201301, India","https://www.google.co.kr/maps/place/Fortis+Hospital,+Sector+62,+Noida/data=!4m5!3m4!1s0x390cef719cf3f0b3:0xc24d4fda4fdca748!8m2!3d28.6187084!4d77.3725835?authuser=0&hl=en&rclk=1",28.6187084,77.3725835,Haryana
Artemis Hospitals Dwarka,General hospital,"Sector 20 Dwarka, Dwarka, New Delhi, Delhi 110075, India",https://www.google.co.kr/maps/place/Artemis+Hospitals+Dwarka/data=!4m5!3m4!1s0x390d1b03c0000001:0x3eb1330d284a7209!8m2!3d28.5709273!4d77.0593246?authuser=0&hl=en&rclk=1,28.5709273,77.0593246,Haryana
Agroha,Hospital,"Unnamed Road, Agroha, Haryana 125047, India",https://www.google.co.kr/maps/place/Agroha/data=!4m5!3m4!1s0x3913d5d3c6884773:0x8915bed734ce8d97!8m2!3d29.3363612!4d75.6219448?authuser=0&hl=en&rclk=1,29.3363612,75.6219448,Haryana
Communal Hospital,Hospital,"QF5P+5WC, Kahnaur, Haryana 124412, India",https://www.google.co.kr/maps/place/Communal+Hospital/data=!4m5!3m4!1s0x390d804763117cdd:0xfd8b690c1248dc33!8m2!3d28.7579351!4d76.4872734?authuser=0&hl=en&rclk=1,28.7579351,76.4872734,Haryana
Hospital delivery,Hospital department,"7345+JM3, Lohari Ragho, Haryana 125039, India",https://www.google.co.kr/maps/place/Hospital+delivery/data=!4m5!3m4!1s0x3912231996666fe9:0xe2eef9482848b667!8m2!3d29.2565142!4d76.0591663?authuser=0&hl=en&rclk=1,29.2565142,76.0591663,Haryana
ESI DISPENSARY,Hospital,"Sector-6, Bahadurgarh, Haryana 124507, India",https://www.google.co.kr/maps/place/ESI+DISPENSARY/data=!4m5!3m4!1s0x390d0bfaadc972e1:0xeaa6edc3df901f6c!8m2!3d28.696255!4d76.907251?authuser=0&hl=en&rclk=1,28.696255,76.907251,Haryana
Fortis Opd Centre,Medical clinic,"Shop No-4, Panchsheel Well Bazar, Crossing Republik, Ghaziabad, Uttar Pradesh 201009, India",https://www.google.co.kr/maps/place/Fortis+Opd+Centre/data=!4m5!3m4!1s0x390cee3845c4ef49:0x93f4fe081de41bf9!8m2!3d28.623276!4d77.437619?authuser=0&hl=en&rclk=1,28.623276,77.437619,Haryana
Civil Hospital,Hospital,"MHPC+34H, Dera Surjanhar, Ratia, Haryana 125051, India",https://www.google.co.kr/maps/place/Civil+Hospital/data=!4m5!3m4!1s0x3911725589bc0a79:0x35bc9072e95909b5!8m2!3d29.6851846!4d75.5703582?authuser=0&hl=en&rclk=1,29.6851846,75.5703582,Haryana
SUB DIVISION HOSPITAL,Hospital,"VWF9+HH3, Tosham, Haryana 127040, India",https://www.google.co.kr/maps/place/SUB+DIVISION+HOSPITAL/data=!4m5!3m4!1s0x391245e27eb4b231:0xab1e37cb98307bf4!8m2!3d28.8739!4d75.9189371?authuser=0&hl=en&rclk=1,28.8739,75.9189371,Haryana
Red Cross,Hospital,"Indira Nagar, Bhiwani, Haryana 127021, India",https://www.google.co.kr/maps/place/Red+Cross/data=!4m5!3m4!1s0x391266d02160a10d:0xa063c574177baf3e!8m2!3d28.8006502!4d76.1432469?authuser=0&hl=en&rclk=1,28.8006502,76.1432469,Haryana
Yashoda Super Speciality Hospital,Hospital,"near, Metro Station, Kaushambi, Ghaziabad, Uttar Pradesh 201012, India",https://www.google.co.kr/maps/place/Yashoda+Super+Speciality+Hospital/data=!4m5!3m4!1s0x390cfb3bd3995a61:0xb6fc00cb6128d5ae!8m2!3d28.6447827!4d77.3286477?authuser=0&hl=en&rclk=1,28.6447827,77.3286477,Haryana
"M.S. Chouhan, Pal Ki Dhani",Doctor,"Pal Ki Dhani, Haryana 125049, India","https://www.google.co.kr/maps/place/M.S.+Chouhan,+Pal+Ki+Dhani/data=!4m5!3m4!1s0x39123c057459317d:0x90617ec98869f40!8m2!3d29.1512527!4d76.0017191?authuser=0&hl=en&rclk=1",29.1512527,76.0017191,Haryana
Prof. Dr. Sanjeev Bagai Nephron Clinic,Nephrologist,"43, Vasant Vihar Poorvi Marg, Basant Lok, Vasant Vihar, New Delhi, Delhi 110057, India",https://www.google.co.kr/maps/place/Prof.+Dr.+Sanjeev+Bagai+Nephron+Clinic/data=!4m5!3m4!1s0x390ce1853d856c41:0x83c26fa3e7657454!8m2!3d28.5607381!4d77.167319?authuser=0&hl=en&rclk=1,28.5607381,77.167319,Haryana
Texas Medical concierge,Medical group,"2, Sardar Patel Marg, Block B, Diplomatic Enclave, Chanakyapuri, New Delhi, Delhi 110021, India",https://www.google.co.kr/maps/place/Texas+Medical+concierge/data=!4m5!3m4!1s0x390d1d439c227d3d:0x203eb7e04eec5fd4!8m2!3d28.60141!4d77.1817581?authuser=0&hl=en&rclk=1,28.60141,77.1817581,Haryana
Max Lab,Diagnostic center,"Jaypee Wishtown, Evergreen Complex, Shop No 6, LG Floor, Sector 134 Landmark Groceries & More & Evergreen Sweets, Noida, Uttar Pradesh 201304, India",https://www.google.co.kr/maps/place/Max+Lab/data=!4m5!3m4!1s0x390ce9bcfc8bf549:0x486f066031ef5629!8m2!3d28.5041231!4d77.3860442?authuser=0&hl=en&rclk=1,28.5041231,77.3860442,Haryana
CGHS Dispensary,Medical clinic,"C4A, Jain Mandir Marg, Opp Kirpa Dham, Janakpuri II, New Delhi, Delhi 110058, India",https://www.google.co.kr/maps/place/CGHS+Dispensary/data=!4m5!3m4!1s0x390d04b1b347058d:0xa01f591a0f16851d!8m2!3d28.6196007!4d77.0891138?authuser=0&hl=en&rclk=1,28.6196007,77.0891138,Haryana
Dr Sumit Singh Neurologist,Neurologist,"Artemis Hospitals, Sector 51, Gurugram, Haryana 122001, India",https://www.google.co.kr/maps/place/Dr+Sumit+Singh+Neurologist/data=!4m5!3m4!1s0x390d19774d00b7d5:0x50f084479ebb420!8m2!3d28.4319831!4d77.0730147?authuser=0&hl=en&rclk=1,28.4319831,77.0730147,Haryana
Kukreja Hospital and Heart Centre,Hospital,"C-1, Block A, Vishal Enclave, Rajouri Garden, New Delhi, Delhi 110027, India",https://www.google.co.kr/maps/place/Kukreja+Hospital+and+Heart+Centre/data=!4m5!3m4!1s0x390d03e89036938b:0x74e54268e55919e2!8m2!3d28.6467718!4d77.1170604?authuser=0&hl=en&rclk=1,28.6467718,77.1170604,Haryana
"The Clinical Establishments (Registration and Regulation) Act, 2010",Government hospital,"Room No. 506- D, Nirman Bhawan, New Delhi, Delhi 110011, India","https://www.google.co.kr/maps/place/The+Clinical+Establishments+(Registration+and+Regulation)+Act,+2010/data=!4m5!3m4!1s0x390cfd37b03665eb:0x71318a8992216854!8m2!3d28.6327426!4d77.2195969?authuser=0&hl=en&rclk=1",28.6327426,77.2195969,Haryana
Janral Hospital,Hospital,"Madina Kaursan, Haryana 124111, India",https://www.google.co.kr/maps/place/Janral+Hospital/data=!4m5!3m4!1s0x391277f6aaaaaaab:0xdcadb846d55ff646!8m2!3d28.9185062!4d76.4389549?authuser=0&hl=en&rclk=1,28.9185062,76.4389549,Haryana
CGHS Dispensery,Hospital,"H5J9+PCF, Nanak Pura, South Moti Bagh, New Delhi, Delhi 110021, India",https://www.google.co.kr/maps/place/CGHS+Dispensery/data=!4m5!3m4!1s0x390d1d0da9f6a35f:0xda016ba5bab6edb3!8m2!3d28.5818046!4d77.1685334?authuser=0&hl=en&rclk=1,28.5818046,77.1685334,Haryana
"A block, gmch",Hospital,"1157-B, Chandi Path, 32B, Sector 32, Chandigarh, 160047, India","https://www.google.co.kr/maps/place/A+block,+gmch/data=!4m5!3m4!1s0x390fed14591a4e55:0x257ffd6c5aad0301!8m2!3d30.7096526!4d76.7814621?authuser=0&hl=en&rclk=1",30.7096526,76.7814621,Haryana
Chakravarty Nursing Home,Nursing home,"207-208, Sector 10, Budanpur, Panchkula, Haryana 134117, India",https://www.google.co.kr/maps/place/Chakravarty+Nursing+Home/data=!4m5!3m4!1s0x390f9367477a57eb:0xe6c1f6b67ebcf5af!8m2!3d30.6884529!4d76.850354?authuser=0&hl=en&rclk=1,30.6884529,76.850354,Haryana
Sai Nursing Home Janak Puri,Doctor,"On A-3, 18, Lal Sai Mandir Marg, Janakpuri, New Delhi, Delhi 110058, India",https://www.google.co.kr/maps/place/Sai+Nursing+Home+Janak+Puri/data=!4m5!3m4!1s0x390d04afaaaaaaab:0x1ca6bbdb16b0c61c!8m2!3d28.6214166!4d77.0816715?authuser=0&hl=en&rclk=1,28.6214166,77.0816715,Haryana
Charak Palika Hospital,Government hospital,"C 7 Ln, Moti Bagh 1, Block F, Moti Bagh, New Delhi, Delhi 110021, India",https://www.google.co.kr/maps/place/Charak+Palika+Hospital/data=!4m5!3m4!1s0x390d1d6dff7be64b:0xdd95d2187f1db083!8m2!3d28.5852879!4d77.177094?authuser=0&hl=en&rclk=1,28.5852879,77.177094,Haryana
Dr. Sumit Singh,Neurologist,"Artemis Hospital Rd, Koyal Vihar, Sector 52, Gurugram, Haryana 122003, India",https://www.google.co.kr/maps/place/Dr.+Sumit+Singh/data=!4m5!3m4!1s0x390d188cafe7bf37:0x40c96a3fbb5b75d1!8m2!3d28.4317134!4d77.0723534?authuser=0&hl=en&rclk=1,28.4317134,77.0723534,Haryana
max hospital india,Hospital,"1, 2, Press Enclave Marg, Saket Institutional Area, Saket, New Delhi, Delhi 110017, India",https://www.google.co.kr/maps/place/max+hospital+india/data=!4m5!3m4!1s0x390ce1f44b9cdb6f:0xb3ba7a9920f39323!8m2!3d28.5281435!4d77.2135257?authuser=0&hl=en&rclk=1,28.5281435,77.2135257,Haryana
BLK-Max Super Speciality Hospital,Hospital,"Pusa Rd, Radha Soami Satsang, Rajendra Place, New Delhi, Delhi 110005, India",https://www.google.co.kr/maps/place/BLK-Max+Super+Speciality+Hospital/data=!4m5!3m4!1s0x390d029633b6af21:0x9a67323b63bcc188!8m2!3d28.6433105!4d77.1796932?authuser=0&hl=en&rclk=1,28.6433105,77.1796932,Haryana
MRI & C T SCAN CENTER,Medical Center,"Chaudhry bansilal civil hospital, Bhiwani, Haryana 127021, India",https://www.google.co.kr/maps/place/MRI+%26+C+T+SCAN+CENTER/data=!4m5!3m4!1s0x39126729c6008521:0xb64eddb82d39d110!8m2!3d28.797476!4d76.130906?authuser=0&hl=en&rclk=1,28.797476,76.130906,Haryana
CGHS Dispensary No 9 & Ayurvedic Hospital,Hospital,"Aliganj, South Delhi, New Delhi, Delhi 110003, India",https://www.google.co.kr/maps/place/CGHS+Dispensary+No+9+%26+Ayurvedic+Hospital/data=!4m5!3m4!1s0x390ce25f36aaaaab:0x41c43478e2ead19a!8m2!3d28.5822586!4d77.2200073?authuser=0&hl=en&rclk=1,28.5822586,77.2200073,Haryana
Safdarjung Hospital,Government hospital,"Ansari Nagar East, near to AIIMS Metro Station, New Delhi, Delhi 110029, India",https://www.google.co.kr/maps/place/Safdarjung+Hospital/data=!4m5!3m4!1s0x390ce27b1527eb57:0xf71af9b11f97c064!8m2!3d28.5680405!4d77.2058155?authuser=0&hl=en&rclk=1,28.5680405,77.2058155,Haryana
Allergy,Allergist,"132, Puneet hospital mc colony, M. C. Colony, Hisar, Haryana 125005, India",https://www.google.co.kr/maps/place/Allergy/data=!4m5!3m4!1s0x391233143bab3f97:0x986eb74e1198326f!8m2!3d29.1407335!4d75.7410167?authuser=0&hl=en&rclk=1,29.1407335,75.7410167,Haryana
Indira Gandhi Hospital,Hospital,"Dwarka Sector 9, Dwarka, New Delhi, Delhi 110077, India",https://www.google.co.kr/maps/place/Indira+Gandhi+Hospital/data=!4m5!3m4!1s0x390d1b1ea4c4deed:0x248d178586d91bda!8m2!3d28.5803737!4d77.0612537?authuser=0&hl=en&rclk=1,28.5803737,77.0612537,Haryana
Dr Sawan Kumar Verma - Best Neurologist |Stroke Specialist| Migraine Specialist,Neurologist,"Shalby Multi specialty Hospital, Phase 9, Sector 63, Sahibzada Ajit Singh Nagar, Chandigarh 160063, India",https://www.google.co.kr/maps/place/Dr+Sawan+Kumar+Verma+-+Best+Neurologist+%7CStroke+Specialist%7C+Migraine+Specialist/data=!4m5!3m4!1s0x390fef074ef0f49d:0x8e95a4708c298a39!8m2!3d30.6925183!4d76.7332584?authuser=0&hl=en&rclk=1,30.6925183,76.7332584,Haryana
"Asian Institute of Medical Sciences,Noida",Hospital,"D-141 A, &, Sector 41 Block B Rd, Noida, Uttar Pradesh 201301, India","https://www.google.co.kr/maps/place/Asian+Institute+of+Medical+Sciences,Noida/data=!4m5!3m4!1s0x390ce50fa60aa82b:0xd3ddbb37380821ce!8m2!3d28.5653359!4d77.3594833?authuser=0&hl=en&rclk=1",28.5653359,77.3594833,Haryana
OPD Tb Hospital,Hospital,"TB Hospital Rd, Seth Sarai, Mehrauli, New Delhi, Delhi 110016, India",https://www.google.co.kr/maps/place/OPD+Tb+Hospital/data=!4m5!3m4!1s0x390d1f1bc73a409b:0x3c56712ce6632df1!8m2!3d28.5288603!4d77.1885812?authuser=0&hl=en&rclk=1,28.5288603,77.1885812,Haryana
Govind Ballabh Pant Hospital,Government hospital,"1, Jawaharlal Nehru Marg, 64 Khamba, Raj Ghat, New Delhi, Delhi 110002, India",https://www.google.co.kr/maps/place/Govind+Ballabh+Pant+Hospital/data=!4m5!3m4!1s0x390cfcd80ec13561:0x8941ec4bf9184f80!8m2!3d28.6393553!4d77.2350332?authuser=0&hl=en&rclk=1,28.6393553,77.2350332,Haryana
"CGHS Dispensary, Shastri Nagar",Hospital,"A-517, Nandkishore Gupta Marg, Beside Bank of India, Shastri Nagar, New Delhi, Delhi 110052, India","https://www.google.co.kr/maps/place/CGHS+Dispensary,+Shastri+Nagar/data=!4m5!3m4!1s0x390d0264992f298f:0x6760201b634f704e!8m2!3d28.6745058!4d77.1832292?authuser=0&hl=en&rclk=1",28.6745058,77.1832292,Haryana
R P Stone Clinic Pvt. Ltd.,Hospital,"16A, D-MALL, A-1, Netaji Subhash Place, New Delhi, Delhi 110034, India",https://www.google.co.kr/maps/place/R+P+Stone+Clinic+Pvt.+Ltd./data=!4m5!3m4!1s0x390d013ed8060511:0x753ba268eff5550e!8m2!3d28.693017!4d77.1524906?authuser=0&hl=en&rclk=1,28.693017,77.1524906,Haryana
Safdarjung Hospital Accounts Department,Hospital,"Safdarjung Campus, Ansari Nagar West, New Delhi, Delhi 110016, India",https://www.google.co.kr/maps/place/Safdarjung+Hospital+Accounts+Department/data=!4m5!3m4!1s0x390ce2652644ba25:0x8d2acd32bd7fa4e1!8m2!3d28.5676351!4d77.2068742?authuser=0&hl=en&rclk=1,28.5676351,77.2068742,Haryana
Book New Appointment,Hospital,"AIIMS Campus Temple, Central Lawn Ln, Ansari Nagar East, New Delhi, Delhi 110016, India",https://www.google.co.kr/maps/place/Book+New+Appointment/data=!4m5!3m4!1s0x390ce3fd017ae8e7:0x4010051fce4e1e4e!8m2!3d28.5674239!4d77.2110467?authuser=0&hl=en&rclk=1,28.5674239,77.2110467,Haryana
Yashoda Super Speciality Hospitals,Hospital,"Metro Station, near Kaushambi, Neelpadam Kunj Complex, Kamma 1, Kaushambi, Ghaziabad, Uttar Pradesh 201012, India",https://www.google.co.kr/maps/place/Yashoda+Super+Speciality+Hospitals/data=!4m5!3m4!1s0x390cfbb0f267a861:0xd2a81386862c2079!8m2!3d28.6462371!4d77.3323047?authuser=0&hl=en&rclk=1,28.6462371,77.3323047,Haryana
ORTHO OPD Safdarjung Hospital,Hospice,"Safdarjung Hospital, Yusuf Sarai, Block C 1, Ansari Nagar East, New Delhi, Delhi 110029, India",https://www.google.co.kr/maps/place/ORTHO+OPD+Safdarjung+Hospital/data=!4m5!3m4!1s0x390ce26525fc115d:0x47a044fec7067fce!8m2!3d28.5674905!4d77.2067693?authuser=0&hl=en&rclk=1,28.5674905,77.2067693,Haryana
"Fortis Hospital, Shalimar Bagh",General hospital,"AA-299, Shaheed Udham Singh Marg, AA Block, Poorbi Shalimar Bag, Shalimar Bagh, Delhi, 110088, India","https://www.google.co.kr/maps/place/Fortis+Hospital,+Shalimar+Bagh/data=!4m5!3m4!1s0x390d02206e9e71cf:0xb096542618cd68b4!8m2!3d28.7095568!4d77.169913?authuser=0&hl=en&rclk=1",28.7095568,77.169913,Haryana
Medical Testing Lab Yashoda Superspeciality Hospital,Hospital,"H-1, near Metro, Kaushambi, Ghaziabad, Uttar Pradesh 201010, India",https://www.google.co.kr/maps/place/Medical+Testing+Lab+Yashoda+Superspeciality+Hospital/data=!4m5!3m4!1s0x390cfb305ac70c29:0x242672337ee39b12!8m2!3d28.6424143!4d77.3187435?authuser=0&hl=en&rclk=1,28.6424143,77.3187435,Haryana
National Health Mission - Haryana,Public health department,"Bay No.55-58, Paryatan Bhawan Building, Sector 2, Panchkula, Haryana 134115, India",https://www.google.co.kr/maps/place/National+Health+Mission+-+Haryana/data=!4m5!3m4!1s0x390f93702823fec1:0x3a4556d4f7c14d38!8m2!3d30.6964385!4d76.8605886?authuser=0&hl=en&rclk=1,30.6964385,76.8605886,Haryana
ESIC Dispensary,Occupational health service,"Hospital Rd, Gugga Mari Mohalla, Rupnagar, Punjab 140001, India",https://www.google.co.kr/maps/place/ESIC+Dispensary/data=!4m5!3m4!1s0x3905543560cdd35d:0x99b900c952f1824b!8m2!3d30.965388!4d76.526041?authuser=0&hl=en&rclk=1,30.965388,76.526041,Haryana
Krsnaa Diagnostics (B D K Hospital Jhunjhunu),Diagnostic center,"498W+P27, Man Nagar, Jhunjhunu, Rajasthan 333001, India",https://www.google.co.kr/maps/place/Krsnaa+Diagnostics+(B+D+K+Hospital+Jhunjhunu)/data=!4m5!3m4!1s0x391339a9e05c4ee3:0x50f182fc42394040!8m2!3d28.1167997!4d75.3950333?authuser=0&hl=en&rclk=1,28.1167997,75.3950333,Haryana
ESIC Dispensary,Medical clinic,"Chuleta House, Near Bus Stand, Dist Sikar, Reengus, Rajasthan 332404, India",https://www.google.co.kr/maps/place/ESIC+Dispensary/data=!4m5!3m4!1s0x396ce528d980ee9f:0x7ebc66a306d1a12!8m2!3d27.3646874!4d75.5693198?authuser=0&hl=en&rclk=1,27.3646874,75.5693198,Haryana
ESI Dispensary,Medical clinic,"CMC Campus, Ludhiana, Punjab 141008, India",https://www.google.co.kr/maps/place/ESI+Dispensary/data=!4m5!3m4!1s0x391a830dd0aa4ed7:0x4028f221740f4201!8m2!3d30.909239!4d75.8627892?authuser=0&hl=en&rclk=1,30.909239,75.8627892,Haryana
Seth Surajmal Bambaiyawala Aayurved Hospital,Medical clinic,"Indira Bazar Road, 235, Sonkhiyon Ka Rasta, Kishanpole Bazar, Chandpole Bazar, Chandpole, Kishan Pole, Jaipur, Rajasthan 302003, India",https://www.google.co.kr/maps/place/Seth+Surajmal+Bambaiyawala+Aayurved+Hospital/data=!4m5!3m4!1s0x396db1e1237abf3f:0x7c4ea01bbc2d5628!8m2!3d26.921904!4d75.8175164?authuser=0&hl=en&rclk=1,26.921904,75.8175164,Haryana
"Krsnaa Diagnostics (Sattelite Hospital,Nawalgarh)",Diagnostic center,"Unnamed Road, Rajasthan 333042, India","https://www.google.co.kr/maps/place/Krsnaa+Diagnostics+(Sattelite+Hospital,Nawalgarh)/data=!4m5!3m4!1s0x396cb4b07eb25a17:0x46f7523983bed3a6!8m2!3d27.862443!4d75.2621382?authuser=0&hl=en&rclk=1",27.862443,75.2621382,Haryana
