Company_Name,Category,Address,Url,latitude,longtitude
om clinic,Medical clinic,"MH MSH 2, Amalner, Maharashtra 413207, India",https://www.google.co.kr/maps/place/om+clinic/data=!4m5!3m4!1s0x3bc4b57a40c533e9:0x5b12eea30f7f291d!8m2!3d18.9382052!4d75.3313261?authuser=0&hl=en&rclk=1,18.9382052,75.3313261
Hospitals,Medical clinic,"FQHW+22J, Vitthal Nagar, Warje, Pune, Maharashtra 411058, India",https://www.google.co.kr/maps/place/Hospitals/data=!4m5!3m4!1s0x3bc2957ff79e0bdd:0xb9a08c7f56e4e269!8m2!3d18.477593!4d73.795031?authuser=0&hl=en&rclk=1,18.477593,73.795031
Express Clinics Nashik,Diagnostic center,"Shop No. 8, Punyasmruti Apartment, B Rd, opposite to Body Master Gym, Behind Water Tank, Nashik, Maharashtra 422007, India",https://www.google.co.kr/maps/place/Express+Clinics+Nashik/data=!4m5!3m4!1s0x3bddebb8157269d7:0x12aad4f10d06a6c7!8m2!3d20.0001685!4d73.7526442?authuser=0&hl=en&rclk=1,20.0001685,73.7526442
Express Clinics Moshi Pune,Diagnostic center,"Venus Hospital, 129/3, Sector 13, Jadhavwadi Chowk Besides Jaquar Flyover, Spine Rd, Chikhali, Pune, Maharashtra 411062, India",https://www.google.co.kr/maps/place/Express+Clinics+Moshi+Pune/data=!4m5!3m4!1s0x3bc2b92a89eed78d:0xa42ca43d43bfb431!8m2!3d18.6622644!4d73.8237661?authuser=0&hl=en&rclk=1,18.6622644,73.8237661
Bombay Hospital & Medical Research Centre,Hospital,"12, Vitthaldas Thackersey Marg, Near to Liberty Cinema, New Marine Lines, Marine Lines, Mumbai, Maharashtra 400020, India",https://www.google.co.kr/maps/place/Bombay+Hospital+%26+Medical+Research+Centre/data=!4m5!3m4!1s0x3be7d1e00d250293:0xfebacae0844e5091!8m2!3d18.941034!4d72.8274361?authuser=0&hl=en&rclk=1,18.941034,72.8274361
New You Clinic,Medical clinic,"3,Service Industry, behind Yogesh kirana, Town Centre, N 1, Cidco, Aurangabad, Maharashtra 431006, India",https://www.google.co.kr/maps/place/New+You+Clinic/data=!4m5!3m4!1s0x3bdba2ec28e963ff:0xc6b9b0b5d873f0f9!8m2!3d19.8779444!4d75.3702098?authuser=0&hl=en&rclk=1,19.8779444,75.3702098
Vitalife Clinic,Medical clinic,"111, 1st Floor, Mont Vert Arcade, Pashan-Sus Road,, Pashan-Sus Road, near Balaji Mandir, Pune, Maharashtra 411021, India",https://www.google.co.kr/maps/place/Vitalife+Clinic/data=!4m5!3m4!1s0x3bc2bee168d91447:0x20d639ac25be8e96!8m2!3d18.542527!4d73.7907?authuser=0&hl=en&rclk=1,18.542527,73.7907
Apollo Clinic,Medical clinic,"#102, B Wing, 1st Floor, Kul Scapes, Magarpatta Road, Opp. Reliance Smart, Kharadi, Pune, Maharashtra 411014, India",https://www.google.co.kr/maps/place/Apollo+Clinic/data=!4m5!3m4!1s0x3bc2c3d88f575fdb:0x78e159a0643c0b33!8m2!3d18.551615!4d73.9367343?authuser=0&hl=en&rclk=1,18.551615,73.9367343
Inamdar Multispeciality Hospital Pune,Cardiologist,"Inamdar Hospital building, s No. 15, Vitthal Rao Shivarkar Rd, Fatima Nagar, Wanowrie, Pune, Maharashtra 411040, India",https://www.google.co.kr/maps/place/Inamdar+Multispeciality+Hospital+Pune/data=!4m5!3m4!1s0x3bc2c1cf5d78ff29:0x6e14191df5a0bb13!8m2!3d18.5031702!4d73.8999937?authuser=0&hl=en&rclk=1,18.5031702,73.8999937
Ashwini Clinic,Diagnostic center,"Shanker Ghanekar Marg, Appasaheb Marathe Marg, S, New Prabhadevi Rd, Mumbai, Maharashtra 400025, India",https://www.google.co.kr/maps/place/Ashwini+Clinic/data=!4m5!3m4!1s0x3be7cec0505fb0e7:0xb950c3521b2d6f66!8m2!3d19.0139263!4d72.8302306?authuser=0&hl=en&rclk=1,19.0139263,72.8302306
सुशीला नेत्रालय आणि दातांचा दवाखाना,Hospital,"Sweet Shop, Plot No 08 Front Side Of Bikaner, Dr Bhapkar Marg, Bansilal Nagar, Aurangabad, Maharashtra 431005, India",https://www.google.co.kr/maps/place/%E0%A4%B8%E0%A5%81%E0%A4%B6%E0%A5%80%E0%A4%B2%E0%A4%BE+%E0%A4%A8%E0%A5%87%E0%A4%A4%E0%A5%8D%E0%A4%B0%E0%A4%BE%E0%A4%B2%E0%A4%AF+%E0%A4%86%E0%A4%A3%E0%A4%BF+%E0%A4%A6%E0%A4%BE%E0%A4%A4%E0%A4%BE%E0%A4%82%E0%A4%9A%E0%A4%BE+%E0%A4%A6%E0%A4%B5%E0%A4%BE%E0%A4%96%E0%A4%BE%E0%A4%A8%E0%A4%BE/data=!4m5!3m4!1s0x3bdb985dc2582745:0x54123ec536200d63!8m2!3d19.8649636!4d75.3162954?authuser=0&hl=en&rclk=1,19.8649636,75.3162954
Apollo Clinic,Medical clinic,"Plot no B-1, Amba Vatika Co-op Housing society, near Café Coffee Day, Khondawa Khurd, Pune, Maharashtra 411048, India",https://www.google.co.kr/maps/place/Apollo+Clinic/data=!4m5!3m4!1s0x3bc2ea7b98e7238b:0xbe158e80eaaa93bf!8m2!3d18.4794221!4d73.8963326?authuser=0&hl=en&rclk=1,18.4794221,73.8963326
Healing Hands Clinic,Hospital,"Ground Floor, Millenium Star Extension Adjacent to Ruby Hall Entrance Gate, Dhole Patil Rd, Pune, Maharashtra 411001, India",https://www.google.co.kr/maps/place/Healing+Hands+Clinic/data=!4m5!3m4!1s0x3bc2c0f7f771d26d:0x6ed27e332b3dc5d1!8m2!3d18.5330757!4d73.8767766?authuser=0&hl=en&rclk=1,18.5330757,73.8767766
Obesity Doctor India,Weight loss service,"Aston Building, 7th Floor, Lokhandwala Road, Sundervan Complex, Shastri Nagar, Andheri West, Mumbai, Maharashtra 400053, India",https://www.google.co.kr/maps/place/Obesity+Doctor+India/data=!4m5!3m4!1s0x3be7c9a705425bfd:0x2828ba79d50b3f0a!8m2!3d19.1374023!4d72.8260224?authuser=0&hl=en&rclk=1,19.1374023,72.8260224
Apollo Clinic,Medical clinic,"Ground Nyati Millenium Premises S1 Datta Mandir Chowk, Viman Nagar, Pune, Maharashtra 411014, India",https://www.google.co.kr/maps/place/Apollo+Clinic/data=!4m5!3m4!1s0x3bc2c1474783aef5:0xc1584c91db9aef7e!8m2!3d18.564464!4d73.913942?authuser=0&hl=en&rclk=1,18.564464,73.913942
mumtaz clinic,Medical clinic,"Khokadpura Rd, Khokadpura, Banjara Colony, Aurangabad, Maharashtra 431001, India",https://www.google.co.kr/maps/place/mumtaz+clinic/data=!4m5!3m4!1s0x3bdb99a056742ea9:0x25c6a9ae92d0dffa!8m2!3d19.8789411!4d75.3309821?authuser=0&hl=en&rclk=1,19.8789411,75.3309821
"Apollo Clinic - Best Clinic for General Physician, Gynaecologist, Paediatrics, ENT Specialist, Orthopaedics, Cardiologist, Dermatology, Physiotherapy Treatments in Colaba, Mumbai",Hospital,"Ground Floor, Eucharistic congress Building No. 1, 5, Convent street, Apollo Bandar, Colaba, Mumbai, Maharashtra 400001, India","https://www.google.co.kr/maps/place/Apollo+Clinic+-+Best+Clinic+for+General+Physician,+Gynaecologist,+Paediatrics,+ENT+Specialist,+Orthopaedics,+Cardiologist,+Dermatology,+Physiotherapy+Treatments+in+Colaba,+Mumbai/data=!4m5!3m4!1s0x3be7d1c10607a41d:0x1e9efd7869b169f2!8m2!3d18.923251!4d72.8313256?authuser=0&hl=en&rclk=1",18.923251,72.8313256
Awake Skin & Laser Clinic,Hospital,"Suvarna Nagaar, Buldana, Maharashtra 443001, India",https://www.google.co.kr/maps/place/Awake+Skin+%26+Laser+Clinic/data=!4m5!3m4!1s0x3bd9f5514a6d326f:0xe98c5a3b0cf611b!8m2!3d20.5346877!4d76.1727391?authuser=0&hl=en&rclk=1,20.5346877,76.1727391
Global Hospital & Research Institute-Pune,General hospital,"577/2, off Sinhgad Road, Police Chaoki Rd, near Dattawadi, Dattawadi, Pune, Maharashtra 411030, India",https://www.google.co.kr/maps/place/Global+Hospital+%26+Research+Institute-Pune/data=!4m5!3m4!1s0x3bc2bff596c6d26b:0x1f6744f41b70df3d!8m2!3d18.5011225!4d73.8413647?authuser=0&hl=en&rclk=1,18.5011225,73.8413647
Kamalnayan Bajaj Hospital,Hospital,"Bajaj Marg, Gut No 43, Beed Bypass Rd, Satara Deolai Parisar, Aurangabad, Maharashtra 431010, India",https://www.google.co.kr/maps/place/Kamalnayan+Bajaj+Hospital/data=!4m5!3m4!1s0x3bdb98f39ca15447:0x96c2632e2aaa42c!8m2!3d19.851538!4d75.314769?authuser=0&hl=en&rclk=1,19.851538,75.314769
Kokilaben Dhirubhai Ambani Hospital OPD Centre: Sports Medicine,Physical therapy clinic,"Kokilaben Dhirubhai Ambani Hospital, 6th Floor, Achutrao Patwardhan Marg, Four Bungalows, Andheri West, Mumbai, Maharashtra 400053, India",https://www.google.co.kr/maps/place/Kokilaben+Dhirubhai+Ambani+Hospital+OPD+Centre:+Sports+Medicine/data=!4m5!3m4!1s0x3be7ce0fdfa492f3:0x1d53f89642a39d1c!8m2!3d19.1311101!4d72.8249148?authuser=0&hl=en&rclk=1,19.1311101,72.8249148
Parvati Clinic,Medical clinic,"Main Road Near, Sonar Galli, Waluj, Aurangabad, Maharashtra 431136, India",https://www.google.co.kr/maps/place/Parvati+Clinic/data=!4m5!3m4!1s0x3bdb9c0c95daa721:0xa3716b900095743a!8m2!3d19.7972795!4d75.2261456?authuser=0&hl=en&rclk=1,19.7972795,75.2261456
Shatayushi Clinic,Medical clinic,"Jalgaon Rd, Besdie City Bus Stop, Dr. Ambedkar Nagar, N 7, Cidco, Aurangabad, Maharashtra 431006, India",https://www.google.co.kr/maps/place/Shatayushi+Clinic/data=!4m5!3m4!1s0x3bdba2b8060bad33:0x75b9f99be1fd3f7e!8m2!3d19.896465!4d75.364184?authuser=0&hl=en&rclk=1,19.896465,75.364184
"Dr. Ashwin Porwal - Best Piles, Fistula Doctor in Pune, India",Surgeon,"4th Floor, Healing Hands Clinic, Millenium Star Extension Adjacent to Ruby Hall Entrance Gate, Dhole Patil Rd, Pune, Maharashtra 411001, India","https://www.google.co.kr/maps/place/Dr.+Ashwin+Porwal+-+Best+Piles,+Fistula+Doctor+in+Pune,+India/data=!4m5!3m4!1s0x3bc2c171d6938aa7:0x7af1e08d66a5e5a4!8m2!3d18.5323897!4d73.8769782?authuser=0&hl=en&rclk=1",18.5323897,73.8769782
Pise Clinic,Doctor,"MH SH 178, Bhokardan, Maharashtra 431114, India",https://www.google.co.kr/maps/place/Pise+Clinic/data=!4m5!3m4!1s0x3bda33a523952b11:0x35f6589e8bf6156!8m2!3d20.2541349!4d75.7708624?authuser=0&hl=en&rclk=1,20.2541349,75.7708624
Reliance Hospital - Navi Mumbai,Hospital,"Thane - Belapur Rd, opp. Kopar Khairane Station, next to Dhirubhai Ambani Knowledge City, Dhirubhai Ambani Knowledge City, MIDC Industrial Area, Kopar Khairane, Navi Mumbai, Maharashtra 400710, India",https://www.google.co.kr/maps/place/Reliance+Hospital+-+Navi+Mumbai/data=!4m5!3m4!1s0x3be7c0de93e7897b:0x8b1917237744e89b!8m2!3d19.1029013!4d73.0130259?authuser=0&hl=en&rclk=1,19.1029013,73.0130259
Cloudnine Hospital - Malad,Maternity hospital,"Siddhachal Arcade CTS Nos. 1084C & 1186A, New Link Rd, Malad West, Mumbai, Maharashtra 400064, India",https://www.google.co.kr/maps/place/Cloudnine+Hospital+-+Malad/data=!4m5!3m4!1s0x3be7b6f1a44de94f:0xb665bb3d4c5612f3!8m2!3d19.1755524!4d72.8376046?authuser=0&hl=en&rclk=1,19.1755524,72.8376046
MPCT Hospital,Hospital,"C7, Budhyadev Mandir Marg, Sector 4, Sanpada, Navi Mumbai, Maharashtra 400705, India",https://www.google.co.kr/maps/place/MPCT+Hospital/data=!4m5!3m4!1s0x3be7c15cb5740b23:0xe449834910676dda!8m2!3d19.0632898!4d73.0123945?authuser=0&hl=en&rclk=1,19.0632898,73.0123945
Apollo Clinic,Medical clinic,"Shop # 14 -20, City Pride building , Below kotak mahindra bank Next to, Sant Dyaneshwar Chowk, Nigdi, Pune, Maharashtra 411044, India",https://www.google.co.kr/maps/place/Apollo+Clinic/data=!4m5!3m4!1s0x3bc2b9e0954a83e9:0x74100bd8a4b92c5a!8m2!3d18.6561993!4d73.7699231?authuser=0&hl=en&rclk=1,18.6561993,73.7699231
Vitalife clinic,Medical clinic,"Srushti Elegance, Baner - Balewadi Rd, opp. Kalmadi School, Pune, Maharashtra 411045, India",https://www.google.co.kr/maps/place/Vitalife+clinic/data=!4m5!3m4!1s0x3bc2becdfe084ac9:0x2ffeb8c46d016f75!8m2!3d18.5645477!4d73.7840206?authuser=0&hl=en&rclk=1,18.5645477,73.7840206
Cloudnine Hospital - Shivajinagar,Maternity hospital,"Axon Building,Bhamburda, Survey No 28/1, KB Joshi Path, Shivajinagar, Pune, Maharashtra 411005, India",https://www.google.co.kr/maps/place/Cloudnine+Hospital+-+Shivajinagar/data=!4m5!3m4!1s0x3bc2c08156d83015:0xa1da88a5e7acc4f7!8m2!3d18.5335475!4d73.8471171?authuser=0&hl=en&rclk=1,18.5335475,73.8471171
Siddhi Polyclinic,Medical clinic,"Infinity Mall, Mum, Twinkle Apartments, Adarsh Nagar Rd, Highland Park, Landmark:, Mumbai, Maharashtra 400053, India",https://www.google.co.kr/maps/place/Siddhi+Polyclinic/data=!4m5!3m4!1s0x3be7b73988fb8849:0x21998671ab3a4889!8m2!3d19.1425593!4d72.8289997?authuser=0&hl=en&rclk=1,19.1425593,72.8289997
Holy Family Multispeciality Hospital Bandra,General hospital,"St Andrews Rd, Bandra West, Mumbai, Maharashtra 400050, India",https://www.google.co.kr/maps/place/Holy+Family+Multispeciality+Hospital+Bandra/data=!4m5!3m4!1s0x3be7c93e5d13ed89:0xc292fcb80177198f!8m2!3d19.0551164!4d72.8272534?authuser=0&hl=en&rclk=1,19.0551164,72.8272534
"Jupiter Hospital, Pune",Hospital,"Lane 3, Baner - Balewadi Rd, Prathamesh Park, Baner, Pune, Maharashtra 411045, India","https://www.google.co.kr/maps/place/Jupiter+Hospital,+Pune/data=!4m5!3m4!1s0x3bc2bed25aaaaaab:0x4bc3d74ac9a97807!8m2!3d18.5657127!4d73.785962?authuser=0&hl=en&rclk=1",18.5657127,73.785962
Life Care HIV Clinic,HIV testing center,"Akruti Arcade, Shop no 7, Opp. Varad Ganesh Mandir, Samarth Nagar, Near Central Bus Stand, Aurangabad, Maharashtra 431001, India",https://www.google.co.kr/maps/place/Life+Care+HIV+Clinic/data=!4m5!3m4!1s0x3bdb986a5c6019bf:0xb7f957ac29f0bbb0!8m2!3d19.8782906!4d75.3196035?authuser=0&hl=en&rclk=1,19.8782906,75.3196035
Shaishav Clinic,Children's hospital,"Laxmi Road, opp. Vijay Talkies, Pune, Maharashtra 411030, India",https://www.google.co.kr/maps/place/Shaishav+Clinic/data=!4m5!3m4!1s0x3bc2c07133362c51:0xf4014cb47173db08!8m2!3d18.5138061!4d73.8477028?authuser=0&hl=en&rclk=1,18.5138061,73.8477028
Shri Krishna Hospital,Hospital,"opp all india radio, Jalna Road, Mondha, Aurangabad, Maharashtra 431001, India",https://www.google.co.kr/maps/place/Shri+Krishna+Hospital/data=!4m5!3m4!1s0x3bdba29dd638dd33:0x1ff6347ad190a1bd!8m2!3d19.8776298!4d75.3438692?authuser=0&hl=en&rclk=1,19.8776298,75.3438692
Shalby Clinic - Orthopedic & Joint Replacement Centre,Orthopedic clinic,"A/95, Ground Floor, Shanti Niketan, Netaji Subhash Road, Marine Dr, Mumbai, Maharashtra 400002, India",https://www.google.co.kr/maps/place/Shalby+Clinic+-+Orthopedic+%26+Joint+Replacement+Centre/data=!4m5!3m4!1s0x3be7ce1e3e364c35:0x907af8f2ad84b68f!8m2!3d18.94325!4d72.823568?authuser=0&hl=en&rclk=1,18.94325,72.823568
"Apollo Clinic - in Thane, Mumbai",Medical clinic,"Flower Valley, Z-5, Z Shopping Centre, Off, Eastern Express Hwy, Khopat, Thane, Maharashtra 400601, India","https://www.google.co.kr/maps/place/Apollo+Clinic+-+in+Thane,+Mumbai/data=!4m5!3m4!1s0x3be7b93b347e5257:0x507f9e7adc866f80!8m2!3d19.2073849!4d72.9725915?authuser=0&hl=en&rclk=1",19.2073849,72.9725915
Cloudnine Hospital - Kalyaninagar,Maternity hospital,"no 212/1b plot, Waves Survey, no. 59, C Ln, Kalyani Nagar, Pune, Maharashtra 411006, India",https://www.google.co.kr/maps/place/Cloudnine+Hospital+-+Kalyaninagar/data=!4m5!3m4!1s0x3bc2c11aa9d5b7d9:0x120c84a5fcacb7bb!8m2!3d18.5455782!4d73.9008028?authuser=0&hl=en&rclk=1,18.5455782,73.9008028
Apollo Clinic,Medical clinic,"Plot no- 77 50, Chetak Ghoda Chowk, opposite Sapna Supermarket, Jai Vishwa Bharti Colony, Aurangabad, Maharashtra 431005, India",https://www.google.co.kr/maps/place/Apollo+Clinic/data=!4m5!3m4!1s0x3bdba28206a36e3b:0x51f764e037b32e36!8m2!3d19.8665571!4d75.3415735?authuser=0&hl=en&rclk=1,19.8665571,75.3415735
Ruby Hall Clinic,Hospital,"40, Sasoon Rd, Sangamvadi, Pune, Maharashtra 411001, India",https://www.google.co.kr/maps/place/Ruby+Hall+Clinic/data=!4m5!3m4!1s0x3bc2c0f827512e15:0x47538bcedae49c07!8m2!3d18.5336111!4d73.8771929?authuser=0&hl=en&rclk=1,18.5336111,73.8771929
Air India Medical Clinic,Hospital,"Air India Rd, Kolivery Village, P and T Colony, Vakola, Santacruz East, Mumbai, Maharashtra 400029, India",https://www.google.co.kr/maps/place/Air+India+Medical+Clinic/data=!4m5!3m4!1s0x3be7c97bae3f2473:0xbd08b8f388aee1bc!8m2!3d19.0829265!4d72.8589754?authuser=0&hl=en&rclk=1,19.0829265,72.8589754
"Hair Patch Clinic Near me In Pune ,India | Hair Solutions Since 1988 : Papillon Hair World",Hair replacement service,"Alliance Prima, Showroom no.1, S-Floor, Plot no. 1002, Navipeth, Pune, Maharashtra 411030, India","https://www.google.co.kr/maps/place/Hair+Patch+Clinic+Near+me+In+Pune+,India+%7C+Hair+Solutions+Since+1988+:+Papillon+Hair+World/data=!4m5!3m4!1s0x3bc2bfec49201065:0xf678aeed289591ec!8m2!3d18.504828!4d73.841665?authuser=0&hl=en&rclk=1",18.504828,73.841665
Apollo Clinic,Medical clinic,"Centriole Building, 130, ITI Rd, above Star Bucks coffee, Anand Park, Aundh, Pune, Maharashtra 411007, India",https://www.google.co.kr/maps/place/Apollo+Clinic/data=!4m5!3m4!1s0x3bc2bf3b05494883:0xfcc4c4076ec1d487!8m2!3d18.5566858!4d73.8087644?authuser=0&hl=en&rclk=1,18.5566858,73.8087644
Vedant children hospital,Medical clinic,"Plot No. 842, Opp. Chistiya Police Chowki, Gulmohar Colony, Sahyadri Nagar, N 5, Cidco, Aurangabad, Maharashtra 431003, India",https://www.google.co.kr/maps/place/Vedant+children+hospital/data=!4m5!3m4!1s0x3bdba2946e40ad1f:0xfce7e8ff8b8da233!8m2!3d19.8802129!4d75.3606889?authuser=0&hl=en&rclk=1,19.8802129,75.3606889
GADE orthopedic and Accident HOSPITAL,Orthopedic clinic,"Plot Number 8, Pundlik Nagar Rd, Chaitanya HSG Society, Opposite Gajanan Mandir, Chaitanya Nagar, Garkheda, Aurangabad, Maharashtra 431001, India",https://www.google.co.kr/maps/place/GADE+orthopedic+and+Accident+HOSPITAL/data=!4m5!3m4!1s0x3bdba285e4a6e227:0x3b68607717bbd18e!8m2!3d19.8675067!4d75.3521412?authuser=0&hl=en&rclk=1,19.8675067,75.3521412
"Sancheti Hospital, Pune",Hospital department,"11/12 Thube Park 16, MH SH 114, Shivajinagar, Pune, Maharashtra 411005, India","https://www.google.co.kr/maps/place/Sancheti+Hospital,+Pune/data=!4m5!3m4!1s0x3bc2c086dd5c5e85:0x8a8ad0458938df70!8m2!3d18.5298731!4d73.8529189?authuser=0&hl=en&rclk=1",18.5298731,73.8529189
Cloudnine Hospital - Vashi,Maternity hospital,"PLOT NO.- 88, 17, Phase 2, Sector 19D, Vashi, Navi Mumbai, Maharashtra 400705, India",https://www.google.co.kr/maps/place/Cloudnine+Hospital+-+Vashi/data=!4m5!3m4!1s0x3be7c15eab21a345:0x7a38770bca94d1c0!8m2!3d19.0852316!4d73.007675?authuser=0&hl=en&rclk=1,19.0852316,73.007675
"Jilla Hospital, Aurangabad",Reproductive health clinic,"84, Motiwala Nagar, Central Naka Road,, Aurangabad, Maharashtra 431001, India","https://www.google.co.kr/maps/place/Jilla+Hospital,+Aurangabad/data=!4m5!3m4!1s0x3bdba290a82c2a77:0x71bafd1adec41a9d!8m2!3d19.878254!4d75.352862?authuser=0&hl=en&rclk=1",19.878254,75.352862
Lokmanya Hospitals,Orthopedic clinic,"484/6, Shiv Darshan Rd, Mitra Mandal Colony, Parvati Paytha, Pune, Maharashtra 411009, India",https://www.google.co.kr/maps/place/Lokmanya+Hospitals/data=!4m5!3m4!1s0x3bc2c0101b1558bd:0xf4bca04b7b11b8ef!8m2!3d18.495952!4d73.854339?authuser=0&hl=en&rclk=1,18.495952,73.854339
Aayesha Clinic,Hospital,"maniyar society, opposite iqra school, Dhule, Maharashtra 424001, India",https://www.google.co.kr/maps/place/Aayesha+Clinic/data=!4m5!3m4!1s0x3bdecf48189876e7:0x2d9a1355f54f2c22!8m2!3d20.8863178!4d74.7841126?authuser=0&hl=en&rclk=1,20.8863178,74.7841126
Nilini Hospital,Hospital,"Bhokardan, Jalna, SH-178, Sillod Road, Jalana, Jalana, Maharashtra 431203, India",https://www.google.co.kr/maps/place/Nilini+Hospital/data=!4m5!3m4!1s0x3bda33a4c0d1498f:0xfb8f19e7d7268631!8m2!3d20.252386!4d75.770915?authuser=0&hl=en&rclk=1,20.252386,75.770915
Surya Hospitals,Children's hospital,"Mangal Ashirwad Building, Santacruz West, 101-102, Swami Vivekananda Rd, Mumbai, Maharashtra 400054, India",https://www.google.co.kr/maps/place/Surya+Hospitals/data=!4m5!3m4!1s0x3be7c9a669e34eef:0xe4c3095ea3853d52!8m2!3d19.0856333!4d72.8377754?authuser=0&hl=en&rclk=1,19.0856333,72.8377754
Gupte Hospital (Accurate Diagnostics Private Limited),Women's health clinic,"904, Bhandarkar Rd, Ganeshwadi, Deccan Gymkhana, Pune, Maharashtra 411004, India",https://www.google.co.kr/maps/place/Gupte+Hospital+(Accurate+Diagnostics+Private+Limited)/data=!4m5!3m4!1s0x3bc2bf87a4e8a9db:0xccbc03be5f5c47da!8m2!3d18.5183325!4d73.8406075?authuser=0&hl=en&rclk=1,18.5183325,73.8406075
"Wockhardt Hospital, Nashik",Hospital,"Wani House, Mumbai - Agra National Hwy, Wadala Naka, Nashik, Maharashtra 422001, India","https://www.google.co.kr/maps/place/Wockhardt+Hospital,+Nashik/data=!4m5!3m4!1s0x3bddeb036d423f9f:0x5e9b17cbe10809ab!8m2!3d19.9915858!4d73.7904216?authuser=0&hl=en&rclk=1",19.9915858,73.7904216
IMMAD CLINIC,Doctor,"Hina Nagar Rd, Chilkalthana, Maharashtra 431007, India",https://www.google.co.kr/maps/place/IMMAD+CLINIC/data=!4m5!3m4!1s0x3bdba37637b4dc93:0xe41fdb0a90e48dd7!8m2!3d19.8681932!4d75.4193546?authuser=0&hl=en&rclk=1,19.8681932,75.4193546
AGRAWAL HOSPITAL,Hospital,"sai colony, karvenagar main chowk, Maharashtra 411052, India",https://www.google.co.kr/maps/place/AGRAWAL+HOSPITAL/data=!4m5!3m4!1s0x3bc2bfdc8b96bdb3:0x287bb9edc164609d!8m2!3d18.4892189!4d73.8141539?authuser=0&hl=en&rclk=1,18.4892189,73.8141539
Apollo Clinic,Medical clinic,"Suyojit Commercial Complex, Mumbai - Agra National Hwy, Mumbai Naka, Govind Nagar, Nashik, Maharashtra 422001, India",https://www.google.co.kr/maps/place/Apollo+Clinic/data=!4m5!3m4!1s0x3bddeb10a27751b1:0xb28ed560b14ed389!8m2!3d19.984622!4d73.782583?authuser=0&hl=en&rclk=1,19.984622,73.782583
"Samarth Hospital - IVF, Fertility center in Aurangabad",Fertility clinic,"1, Srinagar Society, Opposite Vnkatesh Mangal Karyalay, Garkheda, Aurangabad, Maharashtra 431005, India","https://www.google.co.kr/maps/place/Samarth+Hospital+-+IVF,+Fertility+center+in+Aurangabad/data=!4m5!3m4!1s0x3bdba2874d95c765:0x8a21056851e6f09d!8m2!3d19.861651!4d75.347302?authuser=0&hl=en&rclk=1",19.861651,75.347302
Quadri Hospital,Hospital,"J627+QRF, Partur, Maharashtra 431501, India",https://www.google.co.kr/maps/place/Quadri+Hospital/data=!4m5!3m4!1s0x3bda91d775461545:0xcdf57bd24bc38b37!8m2!3d19.6019389!4d76.2145454?authuser=0&hl=en&rclk=1,19.6019389,76.2145454
"Ruby Hall Clinic, Wanowarie",Hospital,"59/6, Kedari Nagar Rd, Disney Park, Azad Nagar, Wanowrie, Pune, Maharashtra 411040, India","https://www.google.co.kr/maps/place/Ruby+Hall+Clinic,+Wanowarie/data=!4m5!3m4!1s0x3bc2ea76f4fd68e3:0xcac9c2a9349894f8!8m2!3d18.4852522!4d73.9047987?authuser=0&hl=en&rclk=1",18.4852522,73.9047987
HAYAT CLINIC,Hospital,"Arham Nivas, 2, Sarafa Bazar Rd, Pratap Chowk, Shivaji Nagar, Lonar, Maharashtra 443302, India",https://www.google.co.kr/maps/place/HAYAT+CLINIC/data=!4m5!3m4!1s0x3bd0833bb2555529:0x57a9c9c87d48fd9e!8m2!3d19.9856702!4d76.5180377?authuser=0&hl=en&rclk=1,19.9856702,76.5180377
Trinity Clinic,Medical clinic,"10/12, Dr Wilson St, Charni Road, Opera House, Girgaon, Mumbai, Maharashtra 400004, India",https://www.google.co.kr/maps/place/Trinity+Clinic/data=!4m5!3m4!1s0x3be7ce16e50666b7:0xbe59644dcc4b5c96!8m2!3d18.9570077!4d72.8240559?authuser=0&hl=en&rclk=1,18.9570077,72.8240559
VaccineOnWheels.com,Medical clinic,"Office No.2, Chaitanya Vihar, Boat Club Rd, Datta Nagar, Thergaon, Pune, Maharashtra 411033, India",https://www.google.co.kr/maps/place/VaccineOnWheels.com/data=!4m5!3m4!1s0x3bc2b9a2a5488d13:0xb0ba68f01bfc4eb6!8m2!3d18.6243689!4d73.7740588?authuser=0&hl=en&rclk=1,18.6243689,73.7740588
Parvati Clinic,Hospital,"Near Sai Mandir, Pahadsingpura, Dr Babasaheb Ambedkar Marathwada University Campus, Aurangabad, Maharashtra 431001, India",https://www.google.co.kr/maps/place/Parvati+Clinic/data=!4m5!3m4!1s0x3bdb97e9014904c3:0xb8be3290c03ea630!8m2!3d19.9059712!4d75.3182943?authuser=0&hl=en&rclk=1,19.9059712,75.3182943
Santpure Hospital,Orthopedic surgeon,"Yashodeep, Shrinath Nagar Behind Hotel, Aurangabad, Maharashtra 431003, India",https://www.google.co.kr/maps/place/Santpure+Hospital/data=!4m5!3m4!1s0x3bdba29bc8ea5797:0x8524d6ecefbaad42!8m2!3d19.8774751!4d75.3493512?authuser=0&hl=en&rclk=1,19.8774751,75.3493512
Apollo Clinic,Medical clinic,"Xtrium, Ground Floor, Andheri - Kurla Rd, next to Holy Family Church, Chakala, Andheri East, Mumbai, Maharashtra 400093, India",https://www.google.co.kr/maps/place/Apollo+Clinic/data=!4m5!3m4!1s0x3be7c825ef39849d:0x1a23cff6cc31412!8m2!3d19.115126!4d72.8592891?authuser=0&hl=en&rclk=1,19.115126,72.8592891
Fortis hospital,Hospital,"MQP4+G72, Vajulsar, Palghar, Maharashtra 401404, India",https://www.google.co.kr/maps/place/Fortis+hospital/data=!4m5!3m4!1s0x3be71d53558ae6bb:0x1f3b16e3728e6f9e!8m2!3d19.6862662!4d72.7556347?authuser=0&hl=en&rclk=1,19.6862662,72.7556347
Endoworld Hospital - IVF Treatment Center in Aurangabad,Fertility clinic,"723, Chikalthana, Opposite the Airport, behind Petrol Pump, MIDC Industrial Area, Aurangabad, Maharashtra 431001, India",https://www.google.co.kr/maps/place/Endoworld+Hospital+-+IVF+Treatment+Center+in+Aurangabad/data=!4m5!3m4!1s0x3bdba308b49e5761:0xa024c7722605cf80!8m2!3d19.8709616!4d75.4003236?authuser=0&hl=en&rclk=1,19.8709616,75.4003236
"P. D. Hinduja Hospital & Medical Research Centre, Khar Facility",General hospital,"Marvela, 724, 11th Rd, Khar, Khar West, Mumbai, Maharashtra 400052, India","https://www.google.co.kr/maps/place/P.+D.+Hinduja+Hospital+%26+Medical+Research+Centre,+Khar+Facility/data=!4m5!3m4!1s0x3be7c9c937305407:0x1b516e73633d6ff8!8m2!3d19.0679148!4d72.8353697?authuser=0&hl=en&rclk=1",19.0679148,72.8353697
Apollo Clinic,Medical clinic,"45b, Great Nag Rd Beside Hotel Orient Taibah, opp. Imambada Police Station, Ganeshpeth Colony, Nagpur, Maharashtra 440018, India",https://www.google.co.kr/maps/place/Apollo+Clinic/data=!4m5!3m4!1s0x3bd4c723cc714a47:0x9363bc88b8fec16a!8m2!3d21.1365762!4d79.0922277?authuser=0&hl=en&rclk=1,21.1365762,79.0922277
Bay View Clinic,Medical clinic,"3A, Mama Paramanand Marg, Charni Road East, Opera House, Girgaon, Mumbai, Maharashtra 400004, India",https://www.google.co.kr/maps/place/Bay+View+Clinic/data=!4m5!3m4!1s0x3be7cde2b8663499:0x377803f88dfed29!8m2!3d18.9534263!4d72.8171176?authuser=0&hl=en&rclk=1,18.9534263,72.8171176
"Aurangabad Hospital, near Head post office, Junabazar, Aurangabad Maharashtra India",Hospital,"Juna Bazar Rd, near Head Post Office, Town Hall, Buddi lane, Naralibag, Aurangabad, Maharashtra 431001, India","https://www.google.co.kr/maps/place/Aurangabad+Hospital,+near+Head+post+office,+Junabazar,+Aurangabad+Maharashtra+India/data=!4m5!3m4!1s0x3bdb981173da2d33:0xb471c27e41fc3daa!8m2!3d19.889236!4d75.326152?authuser=0&hl=en&rclk=1",19.889236,75.326152
Dr Kasbekar Sterling Hospital,General hospital,"Sion - Panvel Expy, Sector 7, Vashi, Navi Mumbai, Maharashtra 400703, India",https://www.google.co.kr/maps/place/Dr+Kasbekar+Sterling+Hospital/data=!4m5!3m4!1s0x3be7c6b67f73b3d7:0x6256f6239ebc9f09!8m2!3d19.0698822!4d72.9874113?authuser=0&hl=en&rclk=1,19.0698822,72.9874113
Shinde Hospital,Hospital,"Khultabad Road, Phulambri, Phulambri, Aurangabad, Maharashtra 431001, India",https://www.google.co.kr/maps/place/Shinde+Hospital/data=!4m5!3m4!1s0x3bdbbf5b2e60230b:0x89def638e3f4084a!8m2!3d19.8761653!4d75.3433139?authuser=0&hl=en&rclk=1,19.8761653,75.3433139
Indu Clinic,Medical clinic,"No. 58, Ground Floor, Royal Terrace Near Corporation Bank Woodhouse Road, Colaba, Mumbai, Maharashtra 400005, India",https://www.google.co.kr/maps/place/Indu+Clinic/data=!4m5!3m4!1s0x3be7cf21727d5445:0x4c9eb2f432afc4b6!8m2!3d18.9157964!4d72.8244138?authuser=0&hl=en&rclk=1,18.9157964,72.8244138
Saraswati Hospital,Child health care centre,"Tilak nagar,, Mehkar, Maharashtra 443301, India",https://www.google.co.kr/maps/place/Saraswati+Hospital/data=!4m5!3m4!1s0x3bd098e41c18654b:0xcdaaeaac7c884b3!8m2!3d20.1528421!4d76.5779998?authuser=0&hl=en&rclk=1,20.1528421,76.5779998
Akola Accident Clinic,Medical clinic,"Gorakshan Rd, Laxmi Nagar, Kirti Nagar, Akola, Maharashtra 444001, India",https://www.google.co.kr/maps/place/Akola+Accident+Clinic/data=!4m5!3m4!1s0x3bd72f4e7f871bd3:0x61f3a95ef0786855!8m2!3d20.6986139!4d77.0127813?authuser=0&hl=en&rclk=1,20.6986139,77.0127813
P. D. Hinduja National Hospital & Medical Research Centre,Private hospital,"SVS Rd, Mahim West, Shivaji Park, Mumbai, Maharashtra 400016, India",https://www.google.co.kr/maps/place/P.+D.+Hinduja+National+Hospital+%26+Medical+Research+Centre/data=!4m5!3m4!1s0x3be7cecd88740bcb:0xe378fe89e47ab606!8m2!3d19.0335001!4d72.838349?authuser=0&hl=en&rclk=1,19.0335001,72.838349
M.G.M. Hospital,General hospital,"34, Jalna Road, Jlal Colony, Vidya Nagar, M G M, Aurangabad, Maharashtra 431001, India",https://www.google.co.kr/maps/place/M.G.M.+Hospital/data=!4m5!3m4!1s0x3bdba29db9f2ac5d:0x4417eb07679f4421!8m2!3d19.8778993!4d75.3541739?authuser=0&hl=en&rclk=1,19.8778993,75.3541739
Fortis Hiranandani Hospital,Private hospital,"Mini, Seashore Rd, Juhu Nagar, Sector 10A, Vashi, Navi Mumbai, Maharashtra 400703, India",https://www.google.co.kr/maps/place/Fortis+Hiranandani+Hospital/data=!4m5!3m4!1s0x3be7c132f4eeeb11:0xbbfa8e7f5cefbc33!8m2!3d19.0836483!4d72.9959203?authuser=0&hl=en&rclk=1,19.0836483,72.9959203
"Dr Vijay Ramanan's Best Bone Marrow Transplant Centre, Maharashtra, India",Hematologist,"40, Sasoon Rd, Sangamvadi, Pune, Maharashtra 411001, India","https://www.google.co.kr/maps/place/Dr+Vijay+Ramanan's+Best+Bone+Marrow+Transplant+Centre,+Maharashtra,+India/data=!4m5!3m4!1s0x3bc2c059a5011501:0xb0b741946deb5a1c!8m2!3d18.5335956!4d73.8772066?authuser=0&hl=en&rclk=1",18.5335956,73.8772066
Dr Kute's Child Care Hospital,Hospital,"1st floor jolly plaza, behind indian oil petrol pump, Deolali Camp, Nashik, Maharashtra 422401, India",https://www.google.co.kr/maps/place/Dr+Kute's+Child+Care+Hospital/data=!4m5!3m4!1s0x3bdd956580e92649:0x45303508f58e12d7!8m2!3d19.9041868!4d73.8314492?authuser=0&hl=en&rclk=1,19.9041868,73.8314492
"Sahyadri Super Speciality Hospital, Deccan Gymkhana",Specialized hospital,"Plot No. 30-C, Erandvane, Karve Rd, Deccan Gymkhana, Pune, Maharashtra 411004, India","https://www.google.co.kr/maps/place/Sahyadri+Super+Speciality+Hospital,+Deccan+Gymkhana/data=!4m5!3m4!1s0x3bc2bf89a5c2551f:0xe5a1afe1c6049f8b!8m2!3d18.513111!4d73.8392905?authuser=0&hl=en&rclk=1",18.513111,73.8392905
Agarwal Clinic,Hospital,"402, Daftary Road, Malad, Primal Nagar,, Malad East, Mumbai, Maharashtra 400097, India",https://www.google.co.kr/maps/place/Agarwal+Clinic/data=!4m5!3m4!1s0x3be7b71d72071fa5:0xf6549d5422c46bc0!8m2!3d19.1882098!4d72.8527782?authuser=0&hl=en&rclk=1,19.1882098,72.8527782
Fortis Hospital Mulund,Private hospital,"Mulund Goregaon Link Rd, Nahur West, Industrial Area, Bhandup West, Mumbai, Maharashtra 400078, India",https://www.google.co.kr/maps/place/Fortis+Hospital+Mulund/data=!4m5!3m4!1s0x3be7b85e410ad361:0x6ca97bfe9216e096!8m2!3d19.1617315!4d72.9419077?authuser=0&hl=en&rclk=1,19.1617315,72.9419077
Akshay Clinic old bus stand main road Shirur Anantpal Latur Maharastra India,Hospital,"Badapur, Maharashtra 431202, India",https://www.google.co.kr/maps/place/Akshay+Clinic+old+bus+stand+main+road+Shirur+Anantpal+Latur+Maharastra+India/data=!4m5!3m4!1s0x3bdb000000000001:0x313796afa507cf18!8m2!3d19.7514798!4d75.7138884?authuser=0&hl=en&rclk=1,19.7514798,75.7138884
Jehangir Hospital,General hospital,"32, Sasoon Rd, Opposite Railway Station, Central Excise Colony, Sangamvadi, Pune, Maharashtra 411001, India",https://www.google.co.kr/maps/place/Jehangir+Hospital/data=!4m5!3m4!1s0x3bc2c05816d29283:0xfe98c3452724e113!8m2!3d18.5303448!4d73.8767266?authuser=0&hl=en&rclk=1,18.5303448,73.8767266
Sahyadri Super Speciality Hospital Nashik,Private hospital,"Mumbai-Agra Road, Wadala Rd, near Nashik, Dwarka Circle, Maharashtra 422001, India",https://www.google.co.kr/maps/place/Sahyadri+Super+Speciality+Hospital+Nashik/data=!4m5!3m4!1s0x3bddeb1d38dca1c5:0x73c2f6bcf29e6071!8m2!3d19.98924!4d73.793471?authuser=0&hl=en&rclk=1,19.98924,73.793471
Wockhardt Hospitals,Hospital,"The Umrao Institute of Medical Science and Research, Evershine Rd, near Railway Station, Naya Nagar, Mira Road, Mira Bhayandar, Maharashtra 401107, India",https://www.google.co.kr/maps/place/Wockhardt+Hospitals/data=!4m5!3m4!1s0x3be7b04f4d02f227:0x3f76483fe3d607f!8m2!3d19.28432!4d72.8621553?authuser=0&hl=en&rclk=1,19.28432,72.8621553
"NH SRCC Children's Hospital, Mumbai",Children's hospital,"1, 1A, Keshavrao Khadye Marg, Haji Ali, Haji Ali Government Colony, Mahalakshmi, Mumbai, Maharashtra 400034, India","https://www.google.co.kr/maps/place/NH+SRCC+Children's+Hospital,+Mumbai/data=!4m5!3m4!1s0x3be7ce7ba69677b1:0x1ccfbe82b0fe3246!8m2!3d18.9793906!4d72.8128744?authuser=0&hl=en&rclk=1",18.9793906,72.8128744
Nanavati Super Speciality Hospital,Private hospital,"Swami Vivekananda Rd, near LIC, LIC Colony, Suresh Colony, Vile Parle West, Mumbai, Maharashtra 400056, India",https://www.google.co.kr/maps/place/Nanavati+Super+Speciality+Hospital/data=!4m5!3m4!1s0x3be7c9cf3d7e6811:0x44a05f975f97e7e0!8m2!3d19.0958737!4d72.8401187?authuser=0&hl=en&rclk=1,19.0958737,72.8401187
Deenanath Mangeshkar Hospital and Research Center,Hospital,"Deenanath Mangeshkar Hospital Road, near Mhatre Bridge, Erandwane, Pune, Maharashtra 411004, India",https://www.google.co.kr/maps/place/Deenanath+Mangeshkar+Hospital+and+Research+Center/data=!4m5!3m4!1s0x3bc2bff340000001:0x89785750a9af6cf7!8m2!3d18.5020467!4d73.8322305?authuser=0&hl=en&rclk=1,18.5020467,73.8322305
Taparia Institute Of Ophthalmology,Ophthalmology clinic,"4th Floor, New Wing, Bombay Hospital & Medical Research Centre. 12, 12, New Marine Lines, Mumbai, Maharashtra 400020, India",https://www.google.co.kr/maps/place/Taparia+Institute+Of+Ophthalmology/data=!4m5!3m4!1s0x3be7d1de2fffffff:0xb8621c4792ab692b!8m2!3d18.9389181!4d72.8286535?authuser=0&hl=en&rclk=1,18.9389181,72.8286535
Sabale Hospital,Hospital,"Bhokardan, Jalna, SH-178, Sillod Road, Jalana, Jalana, Maharashtra 431203, India",https://www.google.co.kr/maps/place/Sabale+Hospital/data=!4m5!3m4!1s0x3bda33a4c0b033a9:0xbee81c82c1e2e3ec!8m2!3d20.2522808!4d75.7709081?authuser=0&hl=en&rclk=1,20.2522808,75.7709081
"Thunga Hospital, Malad",Hospital,"Opp. Nirman Hitech Diagnostics, Goraswadi Lane, Near PVR Milap theatre, Off, Swami Vivekananda Rd, Malad, W, Mumbai, Maharashtra 400064, India","https://www.google.co.kr/maps/place/Thunga+Hospital,+Malad/data=!4m5!3m4!1s0x3be7b6e0c9135f4f:0x9173bc908d0ce4e6!8m2!3d19.1953203!4d72.8461197?authuser=0&hl=en&rclk=1",19.1953203,72.8461197
Holy Spirit Hospital,General hospital,"Mahakali Caves Rd, Sher E Punjab Colony, Andheri East, Mumbai, Maharashtra 400093, India",https://www.google.co.kr/maps/place/Holy+Spirit+Hospital/data=!4m5!3m4!1s0x3be7c827a060a6bb:0x81664138aa674942!8m2!3d19.1284192!4d72.866633?authuser=0&hl=en&rclk=1,19.1284192,72.866633
Jehangir Hospital,Gastrointestinal surgeon,"GVJG+8M8, Central Excise Colony, Sangamvadi, Pune, Maharashtra 411001, India",https://www.google.co.kr/maps/place/Jehangir+Hospital/data=!4m5!3m4!1s0x3bc2c14b6ade629b:0x2ac2a737cd66e8cc!8m2!3d18.5307892!4d73.8766941?authuser=0&hl=en&rclk=1,18.5307892,73.8766941
Thunga Hospital,Hospital,"Mira Bhayander Rd, Medetiya Nagar, Queens Park, Mira Road, Mira Bhayandar, Maharashtra 401107, India",https://www.google.co.kr/maps/place/Thunga+Hospital/data=!4m5!3m4!1s0x3be7b03793dc7d1b:0x7ef027b7d3317cf1!8m2!3d19.2922486!4d72.8623682?authuser=0&hl=en&rclk=1,19.2922486,72.8623682
Dwarka Hospital,Private hospital,"Main Rd, Soygaon, Maharashtra 431120, India",https://www.google.co.kr/maps/place/Dwarka+Hospital/data=!4m5!3m4!1s0x3bd97be2ec87bc09:0x330cd61ca9adf15f!8m2!3d20.5951211!4d75.6191791?authuser=0&hl=en&rclk=1,20.5951211,75.6191791
Mind-Xone Psychiatry Clinic,Psychiatrist,"Plot No 31 ,First Floor New Shanti niketan Colony Opposite Orchid Furnishing ,Near Pande security Office Akashwani Trimurthy, Chowk Road, Aurangabad, Maharashtra 431001, India",https://www.google.co.kr/maps/place/Mind-Xone+Psychiatry+Clinic/data=!4m5!3m4!1s0x3bdba3006a9b7041:0x3e17ecdcc857835c!8m2!3d19.8720361!4d75.3460728?authuser=0&hl=en&rclk=1,19.8720361,75.3460728
Meher Hospital,Hospital,"meher hospital, Milan chowk, Old Jalna, Maharashtra 431213, India",https://www.google.co.kr/maps/place/Meher+Hospital/data=!4m5!3m4!1s0x3bda5744f38668b3:0x4cbca936e1489bbe!8m2!3d19.8426849!4d75.8855741?authuser=0&hl=en&rclk=1,19.8426849,75.8855741
Career Counselling India,Medical clinic,"Flat no, Jai Serenity, 3, Gadiya Vihar Road, Aurangabad, Maharashtra 431001, India",https://www.google.co.kr/maps/place/Career+Counselling+India/data=!4m5!3m4!1s0x3bdb9975af11ad63:0x2efae94a8bd9c2d3!8m2!3d19.8551962!4d75.339193?authuser=0&hl=en&rclk=1,19.8551962,75.339193
Dr Gopal Shivajirao Kulkarni,Surgeon,"Neha Clinic Pandharpur, Waluj, Waluj, Aurangabad, Maharashtra 431133, India",https://www.google.co.kr/maps/place/Dr+Gopal+Shivajirao+Kulkarni/data=!4m5!3m4!1s0x3bdb9bc555555555:0xb74dc3e18b6c6967!8m2!3d19.8399102!4d75.2362381?authuser=0&hl=en&rclk=1,19.8399102,75.2362381
Pardeshi Hospital,Private hospital,"Ambad - Tirthpuri Rd, Tirthpuri, Maharashtra 431209, India",https://www.google.co.kr/maps/place/Pardeshi+Hospital/data=!4m5!3m4!1s0x3bdae86084383abd:0xd7e9e89e8535f22e!8m2!3d19.4398908!4d75.9219642?authuser=0&hl=en&rclk=1,19.4398908,75.9219642
Aditya Birla Memorial Hospital,Private hospital,"Aditya Birla Hospital Marg, Thergaon, Pimpri-Chinchwad, Maharashtra 411033, India",https://www.google.co.kr/maps/place/Aditya+Birla+Memorial+Hospital/data=!4m5!3m4!1s0x3bc2b99df46ea253:0xe83013cd8eda1fc1!8m2!3d18.625716!4d73.774776?authuser=0&hl=en&rclk=1,18.625716,73.774776
Lokesh Hospital,Hospital,"82, Opp. India Garage, Jilha Peth, Jalgaon, Maharashtra 425001, India",https://www.google.co.kr/maps/place/Lokesh+Hospital/data=!4m5!3m4!1s0x3bd90fae6ca4f6c7:0xab9c387bef5e8284!8m2!3d21.0030952!4d75.5639907?authuser=0&hl=en&rclk=1,21.0030952,75.5639907
Dr. D. Y. Patil Hospital & Research Centre,Hospital,"Sant Tukaram Nagar, Pimpri Colony, Pimpri-Chinchwad, Maharashtra 411018, India",https://www.google.co.kr/maps/place/Dr.+D.+Y.+Patil+Hospital+%26+Research+Centre/data=!4m5!3m4!1s0x3bc2b861a598c525:0x33351712329fed7f!8m2!3d18.6227786!4d73.822143?authuser=0&hl=en&rclk=1,18.6227786,73.822143
Samarth Hospital.,Hospital,"FJC9+X88, Deolali Pravara, Maharashtra 413716, India",https://www.google.co.kr/maps/place/Samarth+Hospital./data=!4m5!3m4!1s0x3bdc9366a88f9bc3:0xd6f338547739c9!8m2!3d19.4724199!4d74.618343?authuser=0&hl=en&rclk=1,19.4724199,74.618343
Dr.Sheth Surgical Clinic,Medical clinic,"Shop No.3/15, Santacruz Mansion, Ground Floor, Near Post Office, Station Rd, Sen Nagar, Santacruz East, Mumbai, Maharashtra 400055, India",https://www.google.co.kr/maps/place/Dr.Sheth+Surgical+Clinic/data=!4m5!3m4!1s0x3be7c9077090d93f:0x8119346f4d759d5b!8m2!3d19.0811766!4d72.8430782?authuser=0&hl=en&rclk=1,19.0811766,72.8430782
"Bembde Hospital for Plastic, Cosmetic, Burns & Hand Surgery",Hospital,"Beed Bypass Rd, Sangram Nagar, Aurangabad, Maharashtra 431005, India","https://www.google.co.kr/maps/place/Bembde+Hospital+for+Plastic,+Cosmetic,+Burns+%26+Hand+Surgery/data=!4m5!3m4!1s0x3bdba2826df09781:0xc905747ddd5b32d9!8m2!3d19.8498478!4d75.3350833?authuser=0&hl=en&rclk=1",19.8498478,75.3350833
Apollo Hospital,Private hospital,"Plot # 13, Plot # 13, Parsik Hill Rd, Sector 23, CBD Belapur, Navi Mumbai, Maharashtra 400614, India",https://www.google.co.kr/maps/place/Apollo+Hospital/data=!4m5!3m4!1s0x3be7c3b0730d13b1:0xa0fac0993993ee7c!8m2!3d19.0205643!4d73.0291026?authuser=0&hl=en&rclk=1,19.0205643,73.0291026
Bhaktivedanta Hospital & Research Institute,General hospital,"Bhaktivedanta Swami Marg, Sector 6, Sector 1, Srishti Complex, Mira Road, Mira Bhayandar, Maharashtra 401107, India",https://www.google.co.kr/maps/place/Bhaktivedanta+Hospital+%26+Research+Institute/data=!4m5!3m4!1s0x3be7b05f3c197291:0xba65a8254281cee3!8m2!3d19.2701049!4d72.8704989?authuser=0&hl=en&rclk=1,19.2701049,72.8704989
Bhatia Hospital,General hospital,"Tardeo Rd, Old Chikalwadi, Grant Road (W), Tardeo, Mumbai, Maharashtra 400007, India",https://www.google.co.kr/maps/place/Bhatia+Hospital/data=!4m5!3m4!1s0x3be7ce72e0d235f1:0x698fc7b311d5db8b!8m2!3d18.9657188!4d72.8132737?authuser=0&hl=en&rclk=1,18.9657188,72.8132737
Sanjivani Hospital,Medical clinic,"V8W9+43V, Jaisingpura, Begumpura, Aurangabad, Maharashtra 431004, India",https://www.google.co.kr/maps/place/Sanjivani+Hospital/data=!4m5!3m4!1s0x3bdb98229cb37dc9:0xa334171a5be4a8a2!8m2!3d19.895352!4d75.317661?authuser=0&hl=en&rclk=1,19.895352,75.317661
Asian Ortho - Spine Clinic Aundh Pune,Orthopedic clinic,"Akshay Complex, Asian Ortho-Spine Clinic 2 nd floor,above Taneira store, next to Kobe Sizzles, Pushpak Park, Aundh, Pune, Maharashtra 411007, India",https://www.google.co.kr/maps/place/Asian+Ortho+-+Spine+Clinic+Aundh+Pune/data=!4m5!3m4!1s0x3bc2bf13a9f4be15:0xd361f0680f91c80a!8m2!3d18.555337!4d73.8096106?authuser=0&hl=en&rclk=1,18.555337,73.8096106
Hyaat Hospital,Hospital,"Meeyar Plaza, Beside, Kat Kat Gate, Aurangabad, Maharashtra 431003, India",https://www.google.co.kr/maps/place/Hyaat+Hospital/data=!4m5!3m4!1s0x3bdba3d73c160fd5:0xc358658fcf059ccc!8m2!3d19.8921417!4d75.3465135?authuser=0&hl=en&rclk=1,19.8921417,75.3465135
Giriraj Hospital,Hospital,"Jalna Road, All India Radio Staff Quarters, Vishnu Nagar, Sindhi Colony, Aurangabad, Maharashtra 431001, India",https://www.google.co.kr/maps/place/Giriraj+Hospital/data=!4m5!3m4!1s0x3bdba29dbdd6ba9f:0x8d1dd9036a0e4cc1!8m2!3d19.8760616!4d75.3428316?authuser=0&hl=en&rclk=1,19.8760616,75.3428316
Modern Clinic ( Dr. Abhyankar Hospital ),Medical Center,"Dharmapuri, Brahmanshahi, Wai, Maharashtra 412803, India",https://www.google.co.kr/maps/place/Modern+Clinic+(+Dr.+Abhyankar+Hospital+)/data=!4m5!3m4!1s0x3bc25cdf74b7abd7:0x45fdfb2812724387!8m2!3d17.954025!4d73.890384?authuser=0&hl=en&rclk=1,17.954025,73.890384
Ujwal Orthopaedic center of Excellence.,Hospital,"Plot no. 12/13, Vijay Nagar Road, Deep Nagar, opposite Aadinath Nagar, Garkheda, Aurangabad, Maharashtra 431009, India",https://www.google.co.kr/maps/place/Ujwal+Orthopaedic+center+of+Excellence./data=!4m5!3m4!1s0x3bdba29c31a0d8ab:0x4868b1b7f11e4871!8m2!3d19.8638186!4d75.3496302?authuser=0&hl=en&rclk=1,19.8638186,75.3496302
Sharada Clinic,Hospital,"408/1, Narveer Tanaji Malusare Rd, Near Near Flyover Bridge Ghorpade Peth, Near Near Ekbote Colony, Ekbote Colony, Mahatma Phule Peth, Swargate, Pune, Maharashtra 411042, India",https://www.google.co.kr/maps/place/Sharada+Clinic/data=!4m5!3m4!1s0x3bc2c03c1864980d:0xe658dbe1bfe43a1f!8m2!3d18.5012455!4d73.8662985?authuser=0&hl=en&rclk=1,18.5012455,73.8662985
Shirsikar Hospital,Hospital,"W924+R7M, Shree Society, N 9, Shivaji Nagar, Aurangabad, Maharashtra 431003, India",https://www.google.co.kr/maps/place/Shirsikar+Hospital/data=!4m5!3m4!1s0x3bdba2b18044a67b:0x75cd1ecdcb09a664!8m2!3d19.9020977!4d75.3556595?authuser=0&hl=en&rclk=1,19.9020977,75.3556595
Wockhardt Super Speciality Hospitals,Hospital,"1643 North Ambazari Road Daga College, beside Lady Amritbai, Shankar Nagar, Nagpur, Maharashtra 440033, India",https://www.google.co.kr/maps/place/Wockhardt+Super+Speciality+Hospitals/data=!4m5!3m4!1s0x3bd4c062371add07:0x799e386a8892d428!8m2!3d21.1347198!4d79.0585623?authuser=0&hl=en&rclk=1,21.1347198,79.0585623
Dnyaneshwar Clinic,Hospital,"GXG7+323, Newasa Fata, Maharashtra 414603, India",https://www.google.co.kr/maps/place/Dnyaneshwar+Clinic/data=!4m5!3m4!1s0x3bdc82a192a65bf7:0x50c4a3101c397511!8m2!3d19.52515!4d74.9625435?authuser=0&hl=en&rclk=1,19.52515,74.9625435
Agarwal Hospital,Hospital,"Unnamed Road, Prithisudhaji Nagar, Vyankatesh Nagar, Jalna, Maharashtra 431203, India",https://www.google.co.kr/maps/place/Agarwal+Hospital/data=!4m5!3m4!1s0x3bda59e8d4ac0157:0xf0bdfadf70316e3c!8m2!3d19.843194!4d75.9140653?authuser=0&hl=en&rclk=1,19.843194,75.9140653
Kodlikeri Memorial Hospital,Hospital,"8, 9 Jalna Road, Opp. Akashwani, Manjeet Nagar, Aurangabad, Maharashtra 431001, India",https://www.google.co.kr/maps/place/Kodlikeri+Memorial+Hospital/data=!4m5!3m4!1s0x3bdb9815a369bc63:0xadd7a6a03ed592a8!8m2!3d19.8780721!4d75.3448036?authuser=0&hl=en&rclk=1,19.8780721,75.3448036
DR. Gajanan Pathak,Hospital,"23, Aurangabad - Nagpur Rd, Sai Nath Nagar, Aurangabad - Nagpur Rd, Sai Nath Nagar, Shakuntala Nagar, Jalna, Maharashtra 431203, India",https://www.google.co.kr/maps/place/DR.+Gajanan+Pathak/data=!4m5!3m4!1s0x3bda59ec84aa6147:0xbce4e7a64473adb0!8m2!3d19.8441626!4d75.9209074?authuser=0&hl=en&rclk=1,19.8441626,75.9209074
alka enterprises,Surgical center,"Kailash Nagar, Mondha, Murtizapur, Maharashtra 431001, India",https://www.google.co.kr/maps/place/alka+enterprises/data=!4m5!3m4!1s0x3bdb9912ba5f7fab:0x12d23a4ab0a50667!8m2!3d19.8756639!4d75.3393162?authuser=0&hl=en&rclk=1,19.8756639,75.3393162
"Apollo Clinic - Best Clinic for General Physician, Gynaecologist, Paediatrics, ENT Specialist, Orthopaedics, Cardiologist, Dermatology, Physiotherapy Treatments in Vashi, Navi Mumbai",Medical clinic,"Plot No. 195/B, The Emerald, Sector 12 Besides Neel Siddhi Towers, Navi Mumbai, Maharashtra 400703, India","https://www.google.co.kr/maps/place/Apollo+Clinic+-+Best+Clinic+for+General+Physician,+Gynaecologist,+Paediatrics,+ENT+Specialist,+Orthopaedics,+Cardiologist,+Dermatology,+Physiotherapy+Treatments+in+Vashi,+Navi+Mumbai/data=!4m5!3m4!1s0x3be7c12ef746f601:0x25aa2c31bd1450f0!8m2!3d19.0882166!4d73.0024733?authuser=0&hl=en&rclk=1",19.0882166,73.0024733
Latpate Doctor,Doctor,"8P89+F66, Avhana, Maharashtra 431114, India",https://www.google.co.kr/maps/place/Latpate+Doctor/data=!4m5!3m4!1s0x3bda2d538a6c1689:0xe0ab8dafff3b9da4!8m2!3d20.3161734!4d75.7180256?authuser=0&hl=en&rclk=1,20.3161734,75.7180256
Surya hospital,Hospital,"Sambhajinagar, Chinchwad, Pimpri-Chinchwad, Maharashtra 411019, India",https://www.google.co.kr/maps/place/Surya+hospital/data=!4m5!3m4!1s0x3bc2b7fd6a32820d:0x437030a2a10de9d6!8m2!3d18.6574421!4d73.800734?authuser=0&hl=en&rclk=1,18.6574421,73.800734
MGM Hospital,General hospital,"Plot No.35, Atmashanti Society, Sector 3, Vashi, Navi Mumbai, Maharashtra 400703, India",https://www.google.co.kr/maps/place/MGM+Hospital/data=!4m5!3m4!1s0x3be7c6caa94cef59:0xd2977d80d17491e8!8m2!3d19.0726862!4d72.993435?authuser=0&hl=en&rclk=1,19.0726862,72.993435
Shree Hospital,Hospital,"Plot No.21-A Sector C-3, Town Center, Town Centre, N 1, Cidco, Aurangabad, Maharashtra 431003, India",https://www.google.co.kr/maps/place/Shree+Hospital/data=!4m5!3m4!1s0x3bdba2ec857b3681:0x937932d704681bfc!8m2!3d19.8792079!4d75.366861?authuser=0&hl=en&rclk=1,19.8792079,75.366861
Seven Hills Hospital,General hospital,"Marol Maroshi Rd, Mahavir Nagar, Pandit Dindayala Upadhaya Nagar, Andheri East, Mumbai, Maharashtra 400059, India",https://www.google.co.kr/maps/place/Seven+Hills+Hospital/data=!4m5!3m4!1s0x3be7c817a728ddeb:0x9599a624daf494d3!8m2!3d19.1179997!4d72.8780374?authuser=0&hl=en&rclk=1,19.1179997,72.8780374
Siddheshwar Hospital and ICU Sillod Bank Of India Near,Hospital,"Siddheshwar hospital and icu Vedant building, bank of India near, road, sillod, Jalgaon, Maharashtra, India",https://www.google.co.kr/maps/place/Siddheshwar+Hospital+and+ICU+Sillod+Bank+Of+India+Near/data=!4m5!3m4!1s0x3bdbc79fe7fda991:0x9dd6709535fb4324!8m2!3d20.1264332!4d75.481797?authuser=0&hl=en&rclk=1,20.1264332,75.481797
"Skin Solutions - Skin, Laser & Hair Clinic",Doctor,"Opp Rama International, CIDCO N3, Aurangabad, Maharashtra 431001, India","https://www.google.co.kr/maps/place/Skin+Solutions+-+Skin,+Laser+%26+Hair+Clinic/data=!4m5!3m4!1s0x3bdb986a50000001:0x7eecb07a934f2ad9!8m2!3d19.874338!4d75.3600956?authuser=0&hl=en&rclk=1",19.874338,75.3600956
"Ruby Hall Clinic, Hinjawadi",General hospital,"Rajeev Gandhi Infotech Park, MIDC Phase No 1, Plot No, P-33, Hinjawadi, Pune, Maharashtra 411057, India","https://www.google.co.kr/maps/place/Ruby+Hall+Clinic,+Hinjawadi/data=!4m5!3m4!1s0x3bc2bbc313557353:0xd6e203ef53147b33!8m2!3d18.5926118!4d73.7340624?authuser=0&hl=en&rclk=1",18.5926118,73.7340624
Abhay Clinic,Medical clinic,"Audumbar Nagar, Sumitra Nagar Colony, India",https://www.google.co.kr/maps/place/Abhay+Clinic/data=!4m5!3m4!1s0x3bc4750039688587:0x232721e66e5f7fbc!8m2!3d17.8854342!4d75.0132385?authuser=0&hl=en&rclk=1,17.8854342,75.0132385
Masina Hospital Trust,Hospital,"Masina Hospital, Sant Savata Mali Marg, near Gloria Church, Mumbai, Maharashtra 400027, India",https://www.google.co.kr/maps/place/Masina+Hospital+Trust/data=!4m5!3m4!1s0x3be7ce44f629f0db:0xfe574b73c5e89fbf!8m2!3d18.9742564!4d72.8361778?authuser=0&hl=en&rclk=1,18.9742564,72.8361778
"Fortis Hospital, Kalyan, Mumbai",Specialized hospital,"Shill Road, Bhanunagar Kalyan(West), Bail Bazar, Bhoiwada, Kalyan, Maharashtra 421301, India","https://www.google.co.kr/maps/place/Fortis+Hospital,+Kalyan,+Mumbai/data=!4m5!3m4!1s0x3be795d0794129ed:0x71b95313c464b833!8m2!3d19.2374239!4d73.1235197?authuser=0&hl=en&rclk=1",19.2374239,73.1235197
adinath hospital,Hospital,"7Q49+2V8, Bhokardan, Maharashtra 431114, India",https://www.google.co.kr/maps/place/adinath+hospital/data=!4m5!3m4!1s0x3bda33a50d2d1953:0x7b62de84975611b8!8m2!3d20.2550329!4d75.7697067?authuser=0&hl=en&rclk=1,20.2550329,75.7697067
North Bombay Clinic,Hospital,"Door No. 185/ B, 1st Floor, Dinath, Opposite Citylight Cinema, Lady Jamshedji Rd, Mahim, Mumbai, Maharashtra 400016, India",https://www.google.co.kr/maps/place/North+Bombay+Clinic/data=!4m5!3m4!1s0x3be7c92d07d0186d:0xff8c102f4ffcf3c2!8m2!3d19.030395!4d72.8419736?authuser=0&hl=en&rclk=1,19.030395,72.8419736
Lilavati Hospital And Research Centre,Private hospital,"A-791, Bandra Reclamation Rd, General Arunkumar Vaidya Nagar, Bandra West, Mumbai, Maharashtra 400050, India",https://www.google.co.kr/maps/place/Lilavati+Hospital+And+Research+Centre/data=!4m5!3m4!1s0x3be7c938c9dfd491:0x88790013d219e1cc!8m2!3d19.050972!4d72.8290192?authuser=0&hl=en&rclk=1,19.050972,72.8290192
Dr Sandeep Morkhandikar Nephrologist & Renal Transplant Physician at Ruby Hall Clinic Pune Maharashtra India,Nephrologist,"40, Sasoon Rd, Sangamvadi, Pune, Maharashtra 411001, India",https://www.google.co.kr/maps/place/Dr+Sandeep+Morkhandikar+Nephrologist+%26+Renal+Transplant+Physician+at+Ruby+Hall+Clinic+Pune+Maharashtra+India/data=!4m5!3m4!1s0x3bc2c1ebd529b973:0x1ce7ff97aada4ce3!8m2!3d18.5336133!4d73.877178?authuser=0&hl=en&rclk=1,18.5336133,73.877178
Dr. Deshmukh Shree Clinic Nursing Home,Doctor,"16, Gopal Nagar Main Rd, Friends Cooperative Housing Society Layout, Gayatri Nagar, Swavalambi Nagar, Nagpur, Maharashtra 440022, India",https://www.google.co.kr/maps/place/Dr.+Deshmukh+Shree+Clinic+Nursing+Home/data=!4m5!3m4!1s0x3bd4bf8dd0000001:0x7d23e5a18cf1fa50!8m2!3d21.1133001!4d79.0488919?authuser=0&hl=en&rclk=1,21.1133001,79.0488919
Jan Sewaa Hospital Ambad,Hospital,"Court Rd, Ambad, Maharashtra 431204, India",https://www.google.co.kr/maps/place/Jan+Sewaa+Hospital+Ambad/data=!4m5!3m4!1s0x3bdafc887a0c0c41:0x9d760a27b34f6b90!8m2!3d19.6162054!4d75.794848?authuser=0&hl=en&rclk=1,19.6162054,75.794848
Ekveera Hospital,Hospital,"Ekveera Hospital, behind Sohamm motors, D -23,, Jalna Road, N 2, Cidco, Aurangabad, Maharashtra 431007, India",https://www.google.co.kr/maps/place/Ekveera+Hospital/data=!4m5!3m4!1s0x3bdb9815a369bc63:0x8c86e9ee542f7eb4!8m2!3d19.870233!4d75.374515?authuser=0&hl=en&rclk=1,19.870233,75.374515
Saptashrungi Hospital,Hospital,"Floor No. 4/5, Surya Avenue, Pathardi Rd, above State Bank of India, Dnyaneshwar Nagar, Pathardi Phata, Nashik, Maharashtra 422010, India",https://www.google.co.kr/maps/place/Saptashrungi+Hospital/data=!4m5!3m4!1s0x3bddeb4c563c4a5b:0xae9921cc840b53ac!8m2!3d19.9554234!4d73.762875?authuser=0&hl=en&rclk=1,19.9554234,73.762875
Shraddha clinic & hospital,Hospital,"M6WV+V83, S.T.Colony, Mahalaxminagar, Rajarampuri, Kolhapur, Maharashtra 416001, India",https://www.google.co.kr/maps/place/Shraddha+clinic+%26+hospital/data=!4m5!3m4!1s0x3bc1003e4c64f0bf:0xa94488fc0b53336f!8m2!3d16.6971305!4d74.2432988?authuser=0&hl=en&rclk=1,16.6971305,74.2432988
Jhawar Hospital,Hospital,"Amba - Apsara Cinema Rd, Opp. Anjali Cinema, Khadkeshwar, Aurangabad, Maharashtra 431001, India",https://www.google.co.kr/maps/place/Jhawar+Hospital/data=!4m5!3m4!1s0x3bdb9814929072f3:0xd7a6f6b3bf4d496b!8m2!3d19.8841173!4d75.3223992?authuser=0&hl=en&rclk=1,19.8841173,75.3223992
Mangeshkar Hospital,Hospital,"Main Building, Deenanath Mangeshkar Hospital Road, Vakil Nagar, Erandwane, Pune, Maharashtra 411004, India",https://www.google.co.kr/maps/place/Mangeshkar+Hospital/data=!4m5!3m4!1s0x3bc2bf6d449ff2e3:0x828306f1ffca74eb!8m2!3d18.5017705!4d73.832506?authuser=0&hl=en&rclk=1,18.5017705,73.832506
Niramaya Hospital,Hospital,"Sector 4, Kharghar, Navi Mumbai, Maharashtra 410210, India",https://www.google.co.kr/maps/place/Niramaya+Hospital/data=!4m5!3m4!1s0x3be7c3f1bdd13d29:0xe9a5765980b2434b!8m2!3d19.0342763!4d73.0628713?authuser=0&hl=en&rclk=1,19.0342763,73.0628713
Dr Lohiya Acupuncture Centre,Hospital,"Jalna - Aurangabad Rd, Kamgar Chowk, Maya Nagar, N 2, Cidco, Aurangabad, Maharashtra 431007, India",https://www.google.co.kr/maps/place/Dr+Lohiya+Acupuncture+Centre/data=!4m5!3m4!1s0x3bdba2f2974cb07d:0x245174890084c309!8m2!3d19.8731!4d75.3682687?authuser=0&hl=en&rclk=1,19.8731,75.3682687
The Pacific Hospital,Hospital,"Plot No.16, N/12, Sector F, Near SBH Bank, Himayat Bagh, Cidco, Aurangabad, Maharashtra 431001, India",https://www.google.co.kr/maps/place/The+Pacific+Hospital/data=!4m5!3m4!1s0x3bdba2aa7db82a1b:0x1d9e59507f8ca57a!8m2!3d19.9036617!4d75.3418075?authuser=0&hl=en&rclk=1,19.9036617,75.3418075
Apollo Hospitals,General hospital,"Plot No. 1, Swaminarayan Nagar, New Adgaon Naka, Panchavati, near Lunge Mangal Karyalay, Nashik, Maharashtra 422003, India",https://www.google.co.kr/maps/place/Apollo+Hospitals/data=!4m5!3m4!1s0x3bddea5da8885727:0xb6b925ce4a02d5d2!8m2!3d20.0121955!4d73.8160368?authuser=0&hl=en&rclk=1,20.0121955,73.8160368
Varad Hospital,Hospital,"JQ8W+98P, Ambad, Maharashtra 431204, India",https://www.google.co.kr/maps/place/Varad+Hospital/data=!4m5!3m4!1s0x3bdafc87d1803b01:0x5d58fab3540d95ed!8m2!3d19.615953!4d75.7958324?authuser=0&hl=en&rclk=1,19.615953,75.7958324
SRV Hospital - Goregaon,General hospital,"179, Kamal Charan Building, 180, Rd Number 2, Jawahar Nagar, Goregaon West, Mumbai, Maharashtra 400062, India",https://www.google.co.kr/maps/place/SRV+Hospital+-+Goregaon/data=!4m5!3m4!1s0x3be7b64cf13aa0d1:0x27b73edc28190d2d!8m2!3d19.1589708!4d72.8492072?authuser=0&hl=en&rclk=1,19.1589708,72.8492072
Maghade hospital,Hospital,"7Q98+XR6, Shastri Nagar, Parbhani, Maharashtra 431401, India",https://www.google.co.kr/maps/place/Maghade+hospital/data=!4m5!3m4!1s0x3bd0190667c6cc4f:0xa15be48f86b888a5!8m2!3d19.2699087!4d76.7670221?authuser=0&hl=en&rclk=1,19.2699087,76.7670221
D M Hospital,Hospital,"31, Dr.Ambedkar Society, New Mankapur, Nagpur, Maharashtra 440030, India",https://www.google.co.kr/maps/place/D+M+Hospital/data=!4m5!3m4!1s0x3bd4c117391211c9:0xff37dc053329d95d!8m2!3d21.181686!4d79.082382?authuser=0&hl=en&rclk=1,21.181686,79.082382
Rural Health Center,Medical Center,"HXRM+9H6, Guru Pimpari, Maharashtra 431207, India",https://www.google.co.kr/maps/place/Rural+Health+Center/data=!4m5!3m4!1s0x3bdaf1fcf6897491:0xb1cdb74e7e63d57a!8m2!3d19.5909034!4d75.9838809?authuser=0&hl=en&rclk=1,19.5909034,75.9838809
Nakshtra Hospital,Government hospital,"PPX8+GPF, Badapur, Maharashtra 431202, India",https://www.google.co.kr/maps/place/Nakshtra+Hospital/data=!4m5!3m4!1s0x3bdafffeffffffff:0xf026828340630e00!8m2!3d19.7488072!4d75.7167962?authuser=0&hl=en&rclk=1,19.7488072,75.7167962
DR.Y. C. PATHAN,Doctor,"Abdi Mandi Bus Stop, National HIghway 211, Daulatabad, Maharashtra 431002, India",https://www.google.co.kr/maps/place/DR.Y.+C.+PATHAN/data=!4m5!3m4!1s0x3bdb91a570e958bb:0xd3578b858b27b23a!8m2!3d19.9372053!4d75.2259675?authuser=0&hl=en&rclk=1,19.9372053,75.2259675
Express Clinics,Wellness center,"1. Kandivalli Express Clinics Pvt Ltd, Shop No 5, SVIT Land, Opp V Mall,, , Thakur Complex, Kandivali East,, Mumbai, Maharashtra 400706, India",https://www.google.co.kr/maps/place/Express+Clinics/data=!4m5!3m4!1s0x3be7b737f4b5dd35:0x5470291131e52feb!8m2!3d19.2114947!4d72.8737936?authuser=0&hl=en&rclk=1,19.2114947,72.8737936
Bhise Hospital,Hospital,"JQ6W+73H, Ambad, Maharashtra 431204, India",https://www.google.co.kr/maps/place/Bhise+Hospital/data=!4m5!3m4!1s0x3bdafc8f6271fdc1:0xad018107e3f125!8m2!3d19.6106933!4d75.795239?authuser=0&hl=en&rclk=1,19.6106933,75.795239
Matoshree Hospital Dr.KAD R.R.,Hospital,"Co.-Op Bank,, Bhokardan, Maharashtra, India",https://www.google.co.kr/maps/place/Matoshree+Hospital+Dr.KAD+R.R./data=!4m5!3m4!1s0x3bda33a4c5533afb:0xab78e0307f152532!8m2!3d20.2529824!4d75.7712755?authuser=0&hl=en&rclk=1,20.2529824,75.7712755
V N Desai Hospital,Government hospital,"Rd Number 11, Golibar, Santacruz East, Mumbai, Maharashtra 400055, India",https://www.google.co.kr/maps/place/V+N+Desai+Hospital/data=!4m5!3m4!1s0x3be7c906d0d0ee1d:0x7a0621ae119af36b!8m2!3d19.0788205!4d72.8450327?authuser=0&hl=en&rclk=1,19.0788205,72.8450327
sanap hospital,Hospital,"Maharashtra, Mantha, Maharashtra 431504, India",https://www.google.co.kr/maps/place/sanap+hospital/data=!4m5!3m4!1s0x3bda8312bc0bcd97:0x54bca4dc3232ba1a!8m2!3d19.6506049!4d76.387971?authuser=0&hl=en&rclk=1,19.6506049,76.387971
Bajaj Hospital Aurangabad main gate,Hospital,"Sudhakar Nagar Rd, Satara Parisar, Aurangabad, Maharashtra 431005, India",https://www.google.co.kr/maps/place/Bajaj+Hospital+Aurangabad+main+gate/data=!4m5!3m4!1s0x3bdb99f755a8d7b1:0xc8dac08a1d20f269!8m2!3d19.8522676!4d75.3148869?authuser=0&hl=en&rclk=1,19.8522676,75.3148869
Dr. Sable prayag Hospital,Hospital,"Railway Station Rd, Nariman Nagar, Jalna, Maharashtra 431213, India",https://www.google.co.kr/maps/place/Dr.+Sable+prayag+Hospital/data=!4m5!3m4!1s0x3bda57131cc8e895:0xa7e41d161a70ef66!8m2!3d19.8338311!4d75.8918982?authuser=0&hl=en&rclk=1,19.8338311,75.8918982
Advanced E.N.T & Multispeciality Hospital Pvt. Ltd.,Hospital,"29, Sarang Housings Society, Gajanan Mandir to Reliance Mall, Road, Garkheda, Aurangabad, Maharashtra 431005, India",https://www.google.co.kr/maps/place/Advanced+E.N.T+%26+Multispeciality+Hospital+Pvt.+Ltd./data=!4m5!3m4!1s0x3bdba285f0b92a8b:0xa41ad77674f0a0b4!8m2!3d19.8679092!4d75.3524754?authuser=0&hl=en&rclk=1,19.8679092,75.3524754
Dr L H Hiranandani Hospital Laboratory Collection Centre,,"Shop No. 20, Ground Floor, Poonam Vihar, 'B' Co-operative Housing Society, Plot No. 190, Majas Village, Andheri East, Mumbai, Maharashtra 400093, India",https://www.google.co.kr/maps/place/Dr+L+H+Hiranandani+Hospital+Laboratory+Collection+Centre/data=!4m5!3m4!1s0x3be7b7dc12d38fab:0xe9650aec7dd4a284!8m2!3d19.137521!4d72.8701689?authuser=0&hl=en&rclk=1,19.137521,72.8701689
Kausar clinic,Hospital,"V844+J6R, Silk Mill Colony, Aurangabad, Maharashtra 431005, India",https://www.google.co.kr/maps/place/Kausar+clinic/data=!4m5!3m4!1s0x3bdb997d435d1ae3:0xfbd669c3616b86dd!8m2!3d19.8566167!4d75.3055036?authuser=0&hl=en&rclk=1,19.8566167,75.3055036
Pandurang Hospital,Hospital,"Unnamed Rd, Tirthpuri, 431209, India",https://www.google.co.kr/maps/place/Pandurang+Hospital/data=!4m5!3m4!1s0x3bdae86065d964c1:0xc6bb7162b85c38ef!8m2!3d19.4400826!4d75.9220297?authuser=0&hl=en&rclk=1,19.4400826,75.9220297
Hiranandani Hospital,Hospital,"Hamilton B, Regency Street Hiranandani Estate, Off Ghodbunder Road, Patlipada, Thane West, Thane, Maharashtra 400607, India",https://www.google.co.kr/maps/place/Hiranandani+Hospital/data=!4m5!3m4!1s0x3be7bbf2035c2d17:0xb41727d44d8f9ef7!8m2!3d19.252558!4d72.9801821?authuser=0&hl=en&rclk=1,19.252558,72.9801821
Ruby hall,Hospital,"Saishwar Apartment, Chhatrapati Shivaji Maharaj Rd, Bhavani Peth, Shobhapur, Kasba Peth, Pune, Maharashtra 411011, India",https://www.google.co.kr/maps/place/Ruby+hall/data=!4m5!3m4!1s0x3bc2c065a7c56561:0xdd55f70ffa62ef43!8m2!3d18.5204303!4d73.8567437?authuser=0&hl=en&rclk=1,18.5204303,73.8567437
Dr. Hedgewar Rugnalaya,Specialized hospital,"Near Gajanand Maharaj Mandir, Jawahar Colony Rd, Garkheda, Aurangabad, Maharashtra 431005, India",https://www.google.co.kr/maps/place/Dr.+Hedgewar+Rugnalaya/data=!4m5!3m4!1s0x3bdba28464eee089:0x657bb13ef3cfb849!8m2!3d19.8692712!4d75.3478556?authuser=0&hl=en&rclk=1,19.8692712,75.3478556
Hinduja Hospital,Hospital,"Shop no 2 R-6 sai siddhi complex, next to Hindu balasaheb thakre hospital, Mumbai, Maharashtra 400060, India",https://www.google.co.kr/maps/place/Hinduja+Hospital/data=!4m5!3m4!1s0x3be7b7c5dfdd1aeb:0x2e7c91bb56c00062!8m2!3d19.1410465!4d72.8541015?authuser=0&hl=en&rclk=1,19.1410465,72.8541015
Apollo hospital,,"Apollo Sugar Clinic Swargate, Saras Baug, Saras Baug Muncipal Colony, Pune, Maharashtra 411030, India",https://www.google.co.kr/maps/place/Apollo+hospital/data=!4m5!3m4!1s0x3bc2c1f90a4d5139:0xd1919aa77c3cc644!8m2!3d18.499207!4d73.85316?authuser=0&hl=en&rclk=1,18.499207,73.85316
Alexis Multispecialty Hospital,Hospital,"232, Mankapur, Koradi Rd, Byramji Town, Nagpur, Maharashtra 440030, India",https://www.google.co.kr/maps/place/Alexis+Multispecialty+Hospital/data=!4m5!3m4!1s0x3bd4c113d847dcbf:0x7fd062d82b6be17c!8m2!3d21.1857573!4d79.0795349?authuser=0&hl=en&rclk=1,21.1857573,79.0795349
Dr Lahane Vikas Vitthalrao,Doctor,"Palshi Road, Near Bus Stand, Palsi, Palshi Road, Aurangabad, Maharashtra 431119, India",https://www.google.co.kr/maps/place/Dr+Lahane+Vikas+Vitthalrao/data=!4m5!3m4!1s0x3bdb9815a369bc63:0xf7faa5d62f3b8897!8m2!3d19.9329424!4d75.419177?authuser=0&hl=en&rclk=1,19.9329424,75.419177
Asian Citicare Superspeciality Hospital,Hospital,"Motiwala Square, Jalna Road, Akashwani Chowk, Aurangabad, Maharashtra 431001, India",https://www.google.co.kr/maps/place/Asian+Citicare+Superspeciality+Hospital/data=!4m5!3m4!1s0x3bdb986ffebad26b:0xaee17c6ce1a7477!8m2!3d19.8712716!4d75.3292483?authuser=0&hl=en&rclk=1,19.8712716,75.3292483
Veena Clinic-Maternity and Surgical Nursing Home,Maternity hospital,"Plot No, Swaroop Bhavan, 38, Tarun Bharat Rd, Chakala, Andheri East, Mumbai, Maharashtra 400099, India",https://www.google.co.kr/maps/place/Veena+Clinic-Maternity+and+Surgical+Nursing+Home/data=!4m5!3m4!1s0x3be7c837982cb4cb:0xe7fb2a65615b4faa!8m2!3d19.107732!4d72.8625476?authuser=0&hl=en&rclk=1,19.107732,72.8625476
Janseva Clinic (Wakodkar Hospital),Hospital,"7W6G+VX4, Mahora, Maharashtra 431206, India",https://www.google.co.kr/maps/place/Janseva+Clinic+(Wakodkar+Hospital)/data=!4m5!3m4!1s0x3bda3a413fffffff:0xb355f9b443f4f793!8m2!3d20.2621363!4d75.9274529?authuser=0&hl=en&rclk=1,20.2621363,75.9274529
Dr Parijat Gupte,Hospital department,"Eastern Express Hwy, Near Viviana Mall, Laxmi Nagar, Thane West, Thane, Maharashtra 400601, India",https://www.google.co.kr/maps/place/Dr+Parijat+Gupte/data=!4m5!3m4!1s0x3be7b93f7ff93aa3:0xabfa9b302f9fc12a!8m2!3d19.209706!4d72.97243?authuser=0&hl=en&rclk=1,19.209706,72.97243
"CT ,MRI Center Government Medical College Hospital Aurangabad",Hospital,"Government Medical College and Hospital - Medicine Department, Naralibag, Aurangabad, Maharashtra 431004, India","https://www.google.co.kr/maps/place/CT+,MRI+Center+Government+Medical+College+Hospital+Aurangabad/data=!4m5!3m4!1s0x3bdb99a822e9a40f:0x8f46c15452632c87!8m2!3d19.8896914!4d75.3190215?authuser=0&hl=en&rclk=1",19.8896914,75.3190215
The Total Health Care,Linens store,"G-8/G-16, Anand Plaza,Doodh Diary Signal opposite Hotel Amarpreet, Aurangabad, Maharashtra 431005, India",https://www.google.co.kr/maps/place/The+Total+Health+Care/data=!4m5!3m4!1s0x3bdb9870e02bd291:0xc0fa35de8876dec8!8m2!3d19.874737!4d75.333833?authuser=0&hl=en&rclk=1,19.874737,75.333833
SUNSHINE HOSPITAL,Hospital,"Patel Plaza, Oppsite Patel Lawns, Beed Bypass Rd, Aurangabad, Maharashtra 431001, India",https://www.google.co.kr/maps/place/SUNSHINE+HOSPITAL/data=!4m5!3m4!1s0x3bdba3850f895847:0x55cc59a0382a7b29!8m2!3d19.8531036!4d75.3098178?authuser=0&hl=en&rclk=1,19.8531036,75.3098178
Primary Health Centre,Government hospital,"Sillod - Jalna Rd, Rajur, Maharashtra 431206, India",https://www.google.co.kr/maps/place/Primary+Health+Centre/data=!4m5!3m4!1s0x3bda4920adfca0df:0xe0622ace2cad1fe9!8m2!3d20.0598542!4d75.85271?authuser=0&hl=en&rclk=1,20.0598542,75.85271
Gopanpallikar Gastroenterology & Eye Hospital,Endoscopist,"Plot No. 62 Garkheda Rd Saranag Society, Behind Swagat Hall, Near Gajanan Maharaj Mandir, Ashok Nagar, Garkheda, Aurangabad, Maharashtra 431001, India",https://www.google.co.kr/maps/place/Gopanpallikar+Gastroenterology+%26+Eye+Hospital/data=!4m5!3m4!1s0x3bdba2842a3b5cc1:0xc12457a01bc96a4b!8m2!3d19.867839!4d75.349768?authuser=0&hl=en&rclk=1,19.867839,75.349768
"Doctor Chaudhari's Swapnadeep Ayurveda clinic . India's 1st NABH acrrediated Panchakarma kharghar ,Navi mumbai , Mumbai.",Doctor,"C - 11 sector 12 opposite gokhale school, kharghar. Navi Mumbai . Dist- Raigad, kharghar, Maharashtra 410210, India","https://www.google.co.kr/maps/place/Doctor+Chaudhari's+Swapnadeep+Ayurveda+clinic+.+India's+1st+NABH+acrrediated+Panchakarma+kharghar+,Navi+mumbai+,+Mumbai./data=!4m5!3m4!1s0x3be7c21641c4f239:0x2e7234d1b131e5b!8m2!3d19.041156!4d73.065914?authuser=0&hl=en&rclk=1",19.041156,73.065914
United CIIGMA Hospital,Specialized hospital,"Plot no 6, 7, Darga Rd, Shahnoorwadi, Aurangabad, Maharashtra 431005, India",https://www.google.co.kr/maps/place/United+CIIGMA+Hospital/data=!4m5!3m4!1s0x3bdb9880a5000001:0xb220728829833101!8m2!3d19.8593755!4d75.3362985?authuser=0&hl=en&rclk=1,19.8593755,75.3362985
Sushrut Ayurvedic Hospital,Hospital,"Church Layout, Chaitanyawadi, Buldana, Maharashtra 443001, India",https://www.google.co.kr/maps/place/Sushrut+Ayurvedic+Hospital/data=!4m5!3m4!1s0x3bda1d5965555e77:0xe901bc8276a338f8!8m2!3d20.5332604!4d76.184402?authuser=0&hl=en&rclk=1,20.5332604,76.184402
Sujata Medicare,Fertility clinic,"Versova Marg, Dhake Colony, Azad Nagar, Andheri West, Mumbai, Maharashtra 400058, India",https://www.google.co.kr/maps/place/Sujata+Medicare/data=!4m5!3m4!1s0x3be7b620b16ac97b:0x8c4d1e38cd3c54c3!8m2!3d19.1278154!4d72.8333634?authuser=0&hl=en&rclk=1,19.1278154,72.8333634
Tamhankar Hospital,Hospital,"1498 gulab galli, Rd, Kalamba, Kolhapur, Maharashtra 416012, India",https://www.google.co.kr/maps/place/Tamhankar+Hospital/data=!4m5!3m4!1s0x3bc0ffff8e9924cf:0x90a34f58c7ac61f5!8m2!3d16.6898559!4d74.2248297?authuser=0&hl=en&rclk=1,16.6898559,74.2248297
Janaki Hospital,Hospital,"136, 1st Floor, Samarth Nagar, Aurangabad, Maharashtra 431001, India",https://www.google.co.kr/maps/place/Janaki+Hospital/data=!4m5!3m4!1s0x3bdb986bbb7b3cc5:0x9a4d3e937121ebef!8m2!3d19.8781809!4d75.321873?authuser=0&hl=en&rclk=1,19.8781809,75.321873
Axon Brain Hospital Jalgaon,Neurologist,"Infront Of MJ College Ground, GJ SH 6, Hareshwar Nagar, Ganesh Colony, Jalgaon, Maharashtra 425001, India",https://www.google.co.kr/maps/place/Axon+Brain+Hospital+Jalgaon/data=!4m5!3m4!1s0x3bd90fb22e3f728d:0x9ccc1f38395898a9!8m2!3d21.0028925!4d75.5559336?authuser=0&hl=en&rclk=1,21.0028925,75.5559336
Avishkar Hospital Buldana,Hospital,"Unnamed Road, Muthe Layout, VISHNUWADI, Buldana, Maharashtra 443001, India",https://www.google.co.kr/maps/place/Avishkar+Hospital+Buldana/data=!4m5!3m4!1s0x3bda1fc1ca29e2b5:0x9920ebd30edcbe74!8m2!3d20.5333464!4d76.1722715?authuser=0&hl=en&rclk=1,20.5333464,76.1722715
Aditya Dental Clinic,Hospital,"GX69+6JQ, Ahmednagar, Maharashtra 414603, India",https://www.google.co.kr/maps/place/Aditya+Dental+Clinic/data=!4m5!3m4!1s0x3bdb7d566d4cf0b5:0x1e6608ca74698f17!8m2!3d19.5105879!4d74.9691075?authuser=0&hl=en&rclk=1,19.5105879,74.9691075
Gandhe Hospital,Doctor,"Dhanwantari Chowk, Jakhangaon, Maharashtra 414103, India",https://www.google.co.kr/maps/place/Gandhe+Hospital/data=!4m5!3m4!1s0x3bdcb8283c269a97:0x7c3cc43e5757e2e4!8m2!3d19.1052677!4d74.6300357?authuser=0&hl=en&rclk=1,19.1052677,74.6300357
Dr Dahiphale Urology Hospital,Hospital,"Plot No 11, ,Adalat Road, opposite District court, near Baba Petrol Pump, Aurangabad, Maharashtra 431001, India",https://www.google.co.kr/maps/place/Dr+Dahiphale+Urology+Hospital/data=!4m5!3m4!1s0x3bdb986a50000001:0xd4a8ec104067b036!8m2!3d19.8756639!4d75.3393162?authuser=0&hl=en&rclk=1,19.8756639,75.3393162
father hospital,Hospital,"V8FX+5H8, Nyay Nagar, Aurangabad, Maharashtra 431001, India",https://www.google.co.kr/maps/place/father+hospital/data=!4m5!3m4!1s0x3bdba35f246f7a4b:0x43c72322a50beb5c!8m2!3d19.8729155!4d75.34896?authuser=0&hl=en&rclk=1,19.8729155,75.34896
Shinde Children's Hospital,Children's hospital,"VV4Q+J75, Jai Shankar Nagar, Shree Krishna Nagar, Jalna, Maharashtra 431203, India",https://www.google.co.kr/maps/place/Shinde+Children's+Hospital/data=!4m5!3m4!1s0x3bda574d62a6ad8d:0xa44f139599470968!8m2!3d19.8565205!4d75.8882308?authuser=0&hl=en&rclk=1,19.8565205,75.8882308
Shama Hospital,Hospital,"Khokadpura, Opposite Ajanta Press, Near Shivaji High School, Khokadpura, Aurangabad, Maharashtra 431001, India",https://www.google.co.kr/maps/place/Shama+Hospital/data=!4m5!3m4!1s0x3bdb987261000001:0xd23546c1a6c77af4!8m2!3d19.8796167!4d75.3308324?authuser=0&hl=en&rclk=1,19.8796167,75.3308324
St. Elizabeth's Hospital,Private hospital,"Jamanadas Mehta Rd, Teen Batti, Malabar Hill, Mumbai, Maharashtra 400006, India",https://www.google.co.kr/maps/place/St.+Elizabeth's+Hospital/data=!4m5!3m4!1s0x3be7cdfb02bc0f7f:0xcf4e90826f42d99d!8m2!3d18.948757!4d72.7954514?authuser=0&hl=en&rclk=1,18.948757,72.7954514
SURYA HOSPITAL,Hospital,"OM SAI MARKET B WIING, Krishna Nagar, Sector No. 20, Pimpri-Chinchwad, 19, India",https://www.google.co.kr/maps/place/SURYA+HOSPITAL/data=!4m5!3m4!1s0x3bc2b74af71a5cc9:0x58916cfd84f32b09!8m2!3d18.6682945!4d73.7969468?authuser=0&hl=en&rclk=1,18.6682945,73.7969468
Parakh Hospital : Multispeciality Hospital | Hospital Ghatkopar | Private Hospital | Specialist Hospital | 24 Hours Hospital | Transplant Center | Dialysis Center & Hospital Ghatkopar | Nephrology Hospital | Kidney Hospital | Dr. Narendra Dedhia in Ghatkopar,Private hospital,"Khokani Lane, Opp. Ghatkopar Railway Station, Ghatkopar East, Mumbai, Maharashtra 400077, India",https://www.google.co.kr/maps/place/Parakh+Hospital+:+Multispeciality+Hospital+%7C+Hospital+Ghatkopar+%7C+Private+Hospital+%7C+Specialist+Hospital+%7C+24+Hours+Hospital+%7C+Transplant+Center+%7C+Dialysis+Center+%26+Hospital+Ghatkopar+%7C+Nephrology+Hospital+%7C+Kidney+Hospital+%7C+Dr.+Narendra+Dedhia+in+Ghatkopar/data=!4m5!3m4!1s0x3be7c62c48cf4c07:0x84cd678b671b2c74!8m2!3d19.0844141!4d72.9074531?authuser=0&hl=en&rclk=1,19.0844141,72.9074531
National Hospital,Private hospital,"1st Floor, MatruAshish Building, Next To Madhav Hall, Mahatma Gandhi Road, Borivali East, Mumbai, Maharashtra 400066, India",https://www.google.co.kr/maps/place/National+Hospital/data=!4m5!3m4!1s0x3be7b0d0450893f1:0xbb1e7261b679f96!8m2!3d19.2312884!4d72.8615315?authuser=0&hl=en&rclk=1,19.2312884,72.8615315
Guru Nanak Hospital And Critical Care,Hospital,"3, Post Office Road, Bhumika, Karwa Nagar, Jalna, Maharashtra 431203, India",https://www.google.co.kr/maps/place/Guru+Nanak+Hospital+And+Critical+Care/data=!4m5!3m4!1s0x3bda59e3569b728d:0x93d280933bbec7b6!8m2!3d19.847989!4d75.9054369?authuser=0&hl=en&rclk=1,19.847989,75.9054369
Sahyadri Super Specialty Hospital,Hospital,"SN 163, Bhosale Garden Rd, beside Bhosale Nagar, Hadapsar, Pune, Maharashtra 411028, India",https://www.google.co.kr/maps/place/Sahyadri+Super+Specialty+Hospital/data=!4m5!3m4!1s0x3bc2c1f76ced78d7:0xeffa72af5128eaab!8m2!3d18.5030328!4d73.9321202?authuser=0&hl=en&rclk=1,18.5030328,73.9321202
Dr L H Hiranandani Hospital,Hospital,"Hillside Rd, Hiranandani Gardens, Ramabai Ambedkar Nagar, Powai, Mumbai, Maharashtra 400076, India",https://www.google.co.kr/maps/place/Dr+L+H+Hiranandani+Hospital/data=!4m5!3m4!1s0x3be7c7ec2c621fe9:0x7a2f670986656834!8m2!3d19.1202508!4d72.9169648?authuser=0&hl=en&rclk=1,19.1202508,72.9169648
Reynolds Memorial Hospital,Hospital,"MH SH 193, Dhad, Maharashtra 443106, India",https://www.google.co.kr/maps/place/Reynolds+Memorial+Hospital/data=!4m5!3m4!1s0x3bda23928e5d84cf:0x50ff9061b8762ec9!8m2!3d20.4016858!4d76.0053958?authuser=0&hl=en&rclk=1,20.4016858,76.0053958
Surya Hospital,Maternity hospital,"Lallubhai Park Rd, Near Sai Jyote Building, Navpada, T E Colony, Andheri West, Mumbai, Maharashtra 400056, India",https://www.google.co.kr/maps/place/Surya+Hospital/data=!4m5!3m4!1s0x3be7c9b59285170f:0xba64a079086b7ad7!8m2!3d19.1109908!4d72.8433986?authuser=0&hl=en&rclk=1,19.1109908,72.8433986
"Hazari Nursing Home, Eye Hospital",Ophthalmologist,"Beside Vivekanand College, Samarth Nagar, Aurangabad, Maharashtra 431001, India","https://www.google.co.kr/maps/place/Hazari+Nursing+Home,+Eye+Hospital/data=!4m5!3m4!1s0x3bdb986a50000001:0x14636336e47efc5e!8m2!3d19.87424!4d75.322391?authuser=0&hl=en&rclk=1",19.87424,75.322391
Kokilaben Dhirubhai Ambani Hospital and Medical Research Institute,Hospital,"Rao Saheb, Achutrao Patwardhan Marg, Four Bungalows, Andheri West, Mumbai, Maharashtra 400053, India",https://www.google.co.kr/maps/place/Kokilaben+Dhirubhai+Ambani+Hospital+and+Medical+Research+Institute/data=!4m5!3m4!1s0x3be7b61ed7e04c69:0x3860c51257a72c24!8m2!3d19.1312542!4d72.8250636?authuser=0&hl=en&rclk=1,19.1312542,72.8250636
"Jupiter Hospital, Thane",Hospital,"Service Rd, Eastern Express Hwy, Next to Viviana Mall, Thane, Maharashtra 400601, India","https://www.google.co.kr/maps/place/Jupiter+Hospital,+Thane/data=!4m5!3m4!1s0x3be7b91fc57eeea5:0x2b8143e0b0d4a0ef!8m2!3d19.2097096!4d72.9723931?authuser=0&hl=en&rclk=1",19.2097096,72.9723931
Jalna Mission Hospital,Hospital,"Jalna Rd, Gajanan Colony, Gyatri Nagar, Jalna, Maharashtra 431203, India",https://www.google.co.kr/maps/place/Jalna+Mission+Hospital/data=!4m5!3m4!1s0x3bda59fca80cac31:0xf1595486ebfa044!8m2!3d19.8490946!4d75.9054844?authuser=0&hl=en&rclk=1,19.8490946,75.9054844
Vedant Bal Rugnalay,Children's hospital,"Infront of Indian Oil Petrol Pump, Shivaji Nagar Rd, near Sutgirni Chowk, Aurangabad, Maharashtra 431009, India",https://www.google.co.kr/maps/place/Vedant+Bal+Rugnalay/data=!4m5!3m4!1s0x3bdba3497718c9f7:0x470d739220d4c732!8m2!3d19.859153!4d75.3484752?authuser=0&hl=en&rclk=1,19.859153,75.3484752
Vertigo Hospital,Hospital,"New Usmanpura, Aurangabad, Maharashtra 431005, India",https://www.google.co.kr/maps/place/Vertigo+Hospital/data=!4m5!3m4!1s0x3bdb9865457ab187:0x98614c0f9110af34!8m2!3d19.8701717!4d75.3287753?authuser=0&hl=en&rclk=1,19.8701717,75.3287753
"Porez Bone and Joint Clinic- Best Orthopedic Surgeon in Aurangabad | Best Rheumatologist, Joint Replacement, Knee and Hip Surgeon in Aurangabad | Knee Pain, Hip Pain, Shoulder pain, Back pain, and Bone fracture Doctor in Aurangabad",Orthopedic surgeon,"38 Darshan Plaza, Manjit Nagar, Akashwani Chowk, Jalna Road, Aurangabad, Maharashtra 431001, India","https://www.google.co.kr/maps/place/Porez+Bone+and+Joint+Clinic-+Best+Orthopedic+Surgeon+in+Aurangabad+%7C+Best+Rheumatologist,+Joint+Replacement,+Knee+and+Hip+Surgeon+in+Aurangabad+%7C+Knee+Pain,+Hip+Pain,+Shoulder+pain,+Back+pain,+and+Bone+fracture+Doctor+in+Aurangabad/data=!4m5!3m4!1s0x3bdba326c6132acb:0xfd8d177b4da56437!8m2!3d19.8771002!4d75.344429?authuser=0&hl=en&rclk=1",19.8771002,75.344429
Applo Hospital,General hospital,"Parsik Hill Rd, Sector 23, CBD Belapur, Navi Mumbai, Maharashtra 400614, India",https://www.google.co.kr/maps/place/Applo+Hospital/data=!4m5!3m4!1s0x3be7c21470ac3397:0x2994c3279b08e083!8m2!3d19.0378551!4d73.0696542?authuser=0&hl=en&rclk=1,19.0378551,73.0696542
jaware hospital,Hospital,"G5MC+FVH, Muthe Layout, VISHNUWADI, Buldana, Maharashtra 443001, India",https://www.google.co.kr/maps/place/jaware+hospital/data=!4m5!3m4!1s0x3bda1f3a499ff103:0x35caa37aa1dbc19d!8m2!3d20.5336957!4d76.1722208?authuser=0&hl=en&rclk=1,20.5336957,76.1722208
City Hospital (Rainbow),Hospital,"Jambhrun Rd, VISHNUWADI, Buldana, Maharashtra 443001, India",https://www.google.co.kr/maps/place/City+Hospital+(Rainbow)/data=!4m5!3m4!1s0x3bda1fc414e92001:0xcd95381a85ff98e7!8m2!3d20.5340535!4d76.1734824?authuser=0&hl=en&rclk=1,20.5340535,76.1734824
"Jupiter Netralay, Jupiter Hospital",Ophthalmology clinic,"6X5C+XRM, Laxmi Nagar, Thane West, Thane, Maharashtra 400606, India","https://www.google.co.kr/maps/place/Jupiter+Netralay,+Jupiter+Hospital/data=!4m5!3m4!1s0x3be7b9a2b821662d:0xef29a23969e51391!8m2!3d19.2099703!4d72.9720612?authuser=0&hl=en&rclk=1",19.2099703,72.9720612
Maharashtra Medical Council,Medical group,"First Anand Complex, Arthur Road, 189 A, Sane Guruji Marg, Chinchpokali West, Naka, Mumbai, Maharashtra 400011, India",https://www.google.co.kr/maps/place/Maharashtra+Medical+Council/data=!4m5!3m4!1s0x3be7af9f97d8bb63:0x90f17f565a332342!8m2!3d18.9856758!4d72.8313439?authuser=0&hl=en&rclk=1,18.9856758,72.8313439
Conwest And Manjula S. Badani Jain Hospital,General hospital,"8/10, S.V. Somani Path, SV Sovani Path, Nikadwari Ln, Kandawadi, Girgaon, Mumbai, Maharashtra 400004, India",https://www.google.co.kr/maps/place/Conwest+And+Manjula+S.+Badani+Jain+Hospital/data=!4m5!3m4!1s0x3be7ce113fffffff:0x7d1ec570bcb8709d!8m2!3d18.9548031!4d72.8210363?authuser=0&hl=en&rclk=1,18.9548031,72.8210363
Budget Hospital,Hospital,"Budget Health care Near Hotel VIP maratha cannod area, Aurangabad, Maharashtra 431001, India",https://www.google.co.kr/maps/place/Budget+Hospital/data=!4m5!3m4!1s0x3bdb99be8ed2a09f:0x5e2f57021c1112fc!8m2!3d19.8799355!4d75.3324723?authuser=0&hl=en&rclk=1,19.8799355,75.3324723
THE SPINE CLINIC www.thespine.in,Orthopedic surgeon,"THE SPINE CLINIC HIRANANDANI HOSPITAL HIRANANDAI GARDENS, Hillside Rd, Powai, Mumbai, Maharashtra 400076, India",https://www.google.co.kr/maps/place/THE+SPINE+CLINIC+www.thespine.in/data=!4m5!3m4!1s0x3be7c7ec2de3030f:0x64f76906ec64574!8m2!3d19.120349!4d72.9169421?authuser=0&hl=en&rclk=1,19.120349,72.9169421
Dr. Rajeev Nerurkar,Doctor,"133, 1st Floor, MIRC Building, Bombay Hospital, Near Metro Cinema, Marine Drive, Mumbai, Maharashtra 400020, India",https://www.google.co.kr/maps/place/Dr.+Rajeev+Nerurkar/data=!4m5!3m4!1s0x3be7ce1e186fe84f:0x49ccdbca7264c4b0!8m2!3d18.9352611!4d72.8259553?authuser=0&hl=en&rclk=1,18.9352611,72.8259553
Tata Memorial Hospital,Hospital,"XRXQ+328, Parel East, Parel, Mumbai, Maharashtra 400012, India",https://www.google.co.kr/maps/place/Tata+Memorial+Hospital/data=!4m5!3m4!1s0x3be7cf5cb4cef931:0xa39dd0076d8dbb5e!8m2!3d18.9976573!4d72.8375932?authuser=0&hl=en&rclk=1,18.9976573,72.8375932
Shree Varad Clinic,,"N-11, B73/2, Hudco Tv Centre, Samarth Nagar, Samarth Nagar, Aurangabad, Maharashtra 431001, India",https://www.google.co.kr/maps/place/Shree+Varad+Clinic/data=!4m5!3m4!1s0x3bdb986a50000001:0x7e58291d82a863ad!8m2!3d19.8781718!4d75.3200819?authuser=0&hl=en&rclk=1,19.8781718,75.3200819
sancheti hospital,Hospital,"Shambhu Vihar Society, Baner Chs, Aundh, Pune, Maharashtra 411007, India",https://www.google.co.kr/maps/place/sancheti+hospital/data=!4m5!3m4!1s0x3bc2bf72b08a6f99:0xc75c947fc99310c7!8m2!3d18.5590696!4d73.802849?authuser=0&hl=en&rclk=1,18.5590696,73.802849
Apex Medical,Hospital,"Aurangabad Rd, National Nagar, Maheshwari Twp, Jalna, Maharashtra 431213, India",https://www.google.co.kr/maps/place/Apex+Medical/data=!4m5!3m4!1s0x3bda57342eaaaaab:0xf818e290b0410625!8m2!3d19.8515752!4d75.8725541?authuser=0&hl=en&rclk=1,19.8515752,75.8725541
Asthma Allergy Clinic,Allergist,"101,A wing,Twinkle Building Lion SOL marg,Near Highland park Lokhandwala,Andheri W, Off Link Rd, Andheri West, Mumbai, Maharashtra 400053, India",https://www.google.co.kr/maps/place/Asthma+Allergy+Clinic/data=!4m5!3m4!1s0x3be7b63debfff779:0xe8d90b36932195a0!8m2!3d19.1425552!4d72.829005?authuser=0&hl=en&rclk=1,19.1425552,72.829005
Hayat Childrens Hospital,Children's hospital,"Bashir Ganj Road Kausar Plaza, Bir, Beed, Maharashtra 431122, India",https://www.google.co.kr/maps/place/Hayat+Childrens+Hospital/data=!4m5!3m4!1s0x3bc52ade6a48ba77:0x441dd28a14b2b8b6!8m2!3d18.9893703!4d75.7559054?authuser=0&hl=en&rclk=1,18.9893703,75.7559054
Shinde Hospital,Hospital,"Adarsh Nagar Rd, Adarsh Nagar, Jafrabad, Maharashtra 431206, India",https://www.google.co.kr/maps/place/Shinde+Hospital/data=!4m5!3m4!1s0x3bda3edc200e037d:0xfed3b13216044a37!8m2!3d20.2005593!4d76.0116933?authuser=0&hl=en&rclk=1,20.2005593,76.0116933
TIRUMALA HOSPITAL,Hospital,"Ring road ;, near Chatrapati Chouk, Maharashtra, India",https://www.google.co.kr/maps/place/TIRUMALA+HOSPITAL/data=!4m5!3m4!1s0x3bd1d72bc4468941:0x32be9ddde54d7db7!8m2!3d19.1526978!4d77.3147442?authuser=0&hl=en&rclk=1,19.1526978,77.3147442
Bombay hospital,Hospital,"Bombay Hospital Ave, Dhobi Talao, Chhatrapati Shivaji Terminus Area, Fort, Mumbai, Maharashtra 400020, India",https://www.google.co.kr/maps/place/Bombay+hospital/data=!4m5!3m4!1s0x3be7d104e196ed13:0xffa3b3a2b967f1a5!8m2!3d18.9415016!4d72.8285039?authuser=0&hl=en&rclk=1,18.9415016,72.8285039
SHIFA HOSPITAL,Hospital,"EAST, Chalisgaon Rd, Hudco Colony, Dhule, Maharashtra 424001, India",https://www.google.co.kr/maps/place/SHIFA+HOSPITAL/data=!4m5!3m4!1s0x3bd9596570cf4e87:0xc2e7e6dc7cd6acc1!8m2!3d20.542153!4d75.1638895?authuser=0&hl=en&rclk=1,20.542153,75.1638895
Hinduja Hospital OPD Building,General hospital,"8-12, SVS Rd, Mahim West, Mahim, Mumbai, Maharashtra 400016, India",https://www.google.co.kr/maps/place/Hinduja+Hospital+OPD+Building/data=!4m5!3m4!1s0x3be7cecd7ac1a085:0xf73352cc410cb205!8m2!3d19.0331962!4d72.839102?authuser=0&hl=en&rclk=1,19.0331962,72.839102
Mgm new bombay hospital vashi,Hospital,"2WQX+HWP, Shahaji Nagar, Trombay, Mumbai, Maharashtra 400088, India",https://www.google.co.kr/maps/place/Mgm+new+bombay+hospital+vashi/data=!4m5!3m4!1s0x3be7c54ab66cbfc5:0x720dc3394a71b36a!8m2!3d19.0389632!4d72.9498179?authuser=0&hl=en&rclk=1,19.0389632,72.9498179
Hospital,Hospital,"M378+4F3, Karadgaon, Maharashtra 431207, India",https://www.google.co.kr/maps/place/Hospital/data=!4m5!3m4!1s0x3bdaf33f648b54ff:0xcd6cc0df02541e17!8m2!3d19.6627562!4d76.0661821?authuser=0&hl=en&rclk=1,19.6627562,76.0661821
Sanap Hospital,Hospital,"Opposit, Civil Hospital Rd, Beed, Maharashtra 431122, India",https://www.google.co.kr/maps/place/Sanap+Hospital/data=!4m5!3m4!1s0x3bc52ae77b64edd1:0xfa7cd897c3d0e468!8m2!3d18.9871271!4d75.7525298?authuser=0&hl=en&rclk=1,18.9871271,75.7525298
DNA Labs India,Paternity testing service,"Plot no 66 Kausar Park Near GaonMain Road Naregaon, Aurangabad, Maharashtra 431001, India",https://www.google.co.kr/maps/place/DNA+Labs+India/data=!4m5!3m4!1s0x3bdba320cabd6b93:0xcfaf47c385255e13!8m2!3d19.893319!4d75.389362?authuser=0&hl=en&rclk=1,19.893319,75.389362
Mahatma Gandhi Mission Hospital,Hospital,"Sector 4E, Kalamboli, Panvel, Navi Mumbai, Maharashtra 410218, India",https://www.google.co.kr/maps/place/Mahatma+Gandhi+Mission+Hospital/data=!4m5!3m4!1s0x3be7e9c4f6b71617:0x950b5d11dc87cb2d!8m2!3d19.029617!4d73.102204?authuser=0&hl=en&rclk=1,19.029617,73.102204
Mundada Urology Hospital Aurangabad,Urologist,"6, Mundada Urology Hospital, Kranti Chowk Police Station Rd, Nutan Colony, Deogiri Colony, Aurangabad, Maharashtra 431001, India",https://www.google.co.kr/maps/place/Mundada+Urology+Hospital+Aurangabad/data=!4m5!3m4!1s0x3bdb987136235547:0x63e3cc5cbe724fb7!8m2!3d19.8760914!4d75.3255869?authuser=0&hl=en&rclk=1,19.8760914,75.3255869
Ikon Multispeciality Hospital,Hospital,"Rose Park, Majnu Hill Rd, opp. Ganesh Colony, TV Centre Rd, Cidco, Aurangabad, Maharashtra 431001, India",https://www.google.co.kr/maps/place/Ikon+Multispeciality+Hospital/data=!4m5!3m4!1s0x3bdba2a87977b711:0xb39ec5e695b97040!8m2!3d19.8956548!4d75.3436381?authuser=0&hl=en&rclk=1,19.8956548,75.3436381
Totla Hospital,Hospital,"29 Venkatesh Nagar, Jalna Road, Opposite St. Francis School, Aurangabad, Maharashtra 431001, India",https://www.google.co.kr/maps/place/Totla+Hospital/data=!4m5!3m4!1s0x3bdba29c1aaaaaab:0xf5f0eab8e43d86be!8m2!3d19.8786736!4d75.347379?authuser=0&hl=en&rclk=1,19.8786736,75.347379
Dr Hemant Patankar Hand Surgeon,Hospital,"9, DK Sandu Marg, Chembur Gaothan, Chembur, Mumbai, Maharashtra 400071, India",https://www.google.co.kr/maps/place/Dr+Hemant+Patankar+Hand+Surgeon/data=!4m5!3m4!1s0x3be7c9e24ee13501:0xc3a907f79e0cd4ee!8m2!3d19.060852!4d72.898561?authuser=0&hl=en&rclk=1,19.060852,72.898561
S L Raheja Hospital - Fortis associate,Hospital,"Raheja Rugnalaya Marg, Mahim West, Mahim, Mumbai, Maharashtra 400016, India",https://www.google.co.kr/maps/place/S+L+Raheja+Hospital+-+Fortis+associate/data=!4m5!3m4!1s0x3be7c92f84c13ec9:0x807c1cbf1b5e8536!8m2!3d19.0462839!4d72.8426792?authuser=0&hl=en&rclk=1,19.0462839,72.8426792
acupressure health care system,Acupuncture clinic,"1st Floor, Jawahar Colony Rd, opp. Vishwashankar Mangal Karyalya, Bhanudas Nagar, Nyay Nagar, Aurangabad, Maharashtra 431005, India",https://www.google.co.kr/maps/place/acupressure+health+care+system/data=!4m5!3m4!1s0x3bdba29cc87c31bd:0x3dd21b9a570ba9d5!8m2!3d19.8731877!4d75.3452578?authuser=0&hl=en&rclk=1,19.8731877,75.3452578
Nilkanth Hospital,Hospital,"V9CP+989, Sadashiv Nagar, Ram Nagar, N 2, Cidco, Aurangabad, Maharashtra 431007, India",https://www.google.co.kr/maps/place/Nilkanth+Hospital/data=!4m5!3m4!1s0x3bdba2fdc5d2c8d7:0xf74b3b5e00d3f414!8m2!3d19.8709181!4d75.3858467?authuser=0&hl=en&rclk=1,19.8709181,75.3858467
Alibag Civil Hospital,Government hospital,"Alibag Beach Rd, Limaye Wadi, Alibag, Maharashtra 402201, India",https://www.google.co.kr/maps/place/Alibag+Civil+Hospital/data=!4m5!3m4!1s0x3be87a43c9d75609:0xac57c6157e87ba8!8m2!3d18.6408544!4d72.8718702?authuser=0&hl=en&rclk=1,18.6408544,72.8718702
Shah Piles Hospital,Hospital,"Markaz View Building, 110/111, 1st Floor, Swami Vivekananda Rd, next to Millat School, Jogeshwari West, W, 400102, India",https://www.google.co.kr/maps/place/Shah+Piles+Hospital/data=!4m5!3m4!1s0x3be7b630ffffffff:0x9d8f73e6973264ac!8m2!3d19.1396888!4d72.8435859?authuser=0&hl=en&rclk=1,19.1396888,72.8435859
Devgiri Hospital,Hospital,"3CM7+PPC, Phulambri, Maharashtra 431111, India",https://www.google.co.kr/maps/place/Devgiri+Hospital/data=!4m5!3m4!1s0x3bdbbf4288465475:0xbc8e37bd17d98450!8m2!3d20.0843087!4d75.4142568?authuser=0&hl=en&rclk=1,20.0843087,75.4142568
Noor clinic & unani research center,Public health department,"Jaama masjid chowk,main road shivna talukka sillod, Shivna, Maharashtra 431132, India",https://www.google.co.kr/maps/place/Noor+clinic+%26+unani+research+center/data=!4m5!3m4!1s0x3bda2bc1559b2a5f:0x18a7a7d05b4f4751!8m2!3d20.4752453!4d75.8033538?authuser=0&hl=en&rclk=1,20.4752453,75.8033538
"Women Hospital, Nanded",Government hospital,"College Road, Harsha Nagar, Shyam Nagar, Nanded, Maharashtra 431605, India","https://www.google.co.kr/maps/place/Women+Hospital,+Nanded/data=!4m5!3m4!1s0x3bd1d68b2c23047d:0x40d6a858fa45184f!8m2!3d19.1757506!4d77.309127?authuser=0&hl=en&rclk=1",19.1757506,77.309127
CGHS MUMBAI,Hospital,"25C, Chandani Road, opp. flora hotel, Worli Sea Face, Worli, Mumbai, Maharashtra 400030, India",https://www.google.co.kr/maps/place/CGHS+MUMBAI/data=!4m5!3m4!1s0x3be7cfa0b6fb6ca3:0xee9808165a1f427e!8m2!3d19.0091432!4d72.8157283?authuser=0&hl=en&rclk=1,19.0091432,72.8157283
mote hospital,Hospital,"3Q6X+8RM, Vairag, Maharashtra 413402, India",https://www.google.co.kr/maps/place/mote+hospital/data=!4m5!3m4!1s0x3bc5b3494bb8d71d:0x14872a8e9bf45e8d!8m2!3d18.0608362!4d75.799552?authuser=0&hl=en&rclk=1,18.0608362,75.799552
Drushti Netralaya,Hospital,"XQV3+QQH, Beed, Maharashtra 431122, India",https://www.google.co.kr/maps/place/Drushti+Netralaya/data=!4m5!3m4!1s0x3bc52adbe228e1c3:0x6f0d8cadff016fea!8m2!3d18.9944275!4d75.7544741?authuser=0&hl=en&rclk=1,18.9944275,75.7544741
"Dr Nikhil Parchure, Cardiologist",Hospital,"Apollo Hospitals, Sector 23, CBD Belapur, Navi Mumbai, Maharashtra 400614, India","https://www.google.co.kr/maps/place/Dr+Nikhil+Parchure,+Cardiologist/data=!4m5!3m4!1s0x3be7c37d80933953:0x314339f6f11fd87a!8m2!3d19.0207181!4d73.0290389?authuser=0&hl=en&rclk=1",19.0207181,73.0290389
Raut Medical,Medical group,"Shop.no.01,h.no-18-54-2/2, Ambad,Tal-Ambad,Dist, Ambad, 431204, India",https://www.google.co.kr/maps/place/Raut+Medical/data=!4m5!3m4!1s0x3bdafd4ff9656507:0x64bf8145ac7e5750!8m2!3d19.6155816!4d75.796629?authuser=0&hl=en&rclk=1,19.6155816,75.796629
Bhabha Hospital,Hospital,"Waterfield Road, Bandra West, Mumbai, Maharashtra 400050, India",https://www.google.co.kr/maps/place/Bhabha+Hospital/data=!4m5!3m4!1s0x3be7c93faccf388f:0xa6d450ea30f8a26f!8m2!3d19.0574544!4d72.833645?authuser=0&hl=en&rclk=1,19.0574544,72.833645
Ghati Hospital,Hospital,"Unnamed Road, Navkhanda, Aurangabad, Maharashtra 431001, India",https://www.google.co.kr/maps/place/Ghati+Hospital/data=!4m5!3m4!1s0x3bdb983d87fcbb9b:0x6f94600cf242d094!8m2!3d19.889591!4d75.3178254?authuser=0&hl=en&rclk=1,19.889591,75.3178254
"Wockhardt Hospitals, Mumbai Central",Private hospital,"Police Station, 1877, Dr Anandrao Nair Marg, Near Agripada, Mumbai Central, Mumbai, Maharashtra 400011, India","https://www.google.co.kr/maps/place/Wockhardt+Hospitals,+Mumbai+Central/data=!4m5!3m4!1s0x3be7ce689ca59091:0x2cc84b316383c1c1!8m2!3d18.9752117!4d72.8238875?authuser=0&hl=en&rclk=1",18.9752117,72.8238875
Parvati Medical Agency Matoshree Hospital,Medical Center,"Samta Nagar, Shivaji Nagar, Mehkar, Maharashtra 443301, India",https://www.google.co.kr/maps/place/Parvati+Medical+Agency+Matoshree+Hospital/data=!4m5!3m4!1s0x3bd098e4ec33ab5d:0xaf8f405d156eb1b9!8m2!3d20.1518374!4d76.5824939?authuser=0&hl=en&rclk=1,20.1518374,76.5824939
National Doctor of pharmacy association,Association or organization,"RM-209/2, Shantaram Nagre Chowk, Bajaj Nagar, MIDC, Waluj, Aurangabad, Maharashtra 431136, India",https://www.google.co.kr/maps/place/National+Doctor+of+pharmacy+association/data=!4m5!3m4!1s0x3bdb9bce15555555:0x2498cb1c2db80394!8m2!3d19.8440943!4d75.2346224?authuser=0&hl=en&rclk=1,19.8440943,75.2346224
"Government Cancer Hospital, Aurangabad",Hospital,"Buddi Ln, near Aamkhas Maidan, Buddi lane, Naralibag, Aurangabad, Maharashtra 431005, India","https://www.google.co.kr/maps/place/Government+Cancer+Hospital,+Aurangabad/data=!4m5!3m4!1s0x3bdb981025852a41:0x422b3b3c4716313a!8m2!3d19.8920396!4d75.3290449?authuser=0&hl=en&rclk=1",19.8920396,75.3290449
Deepak Hospital,General hospital,"Town Hall, Millat Nagar, Old Jalna, Jalna, Maharashtra 431213, India",https://www.google.co.kr/maps/place/Deepak+Hospital/data=!4m5!3m4!1s0x3bda574499ed9b71:0xa75ec0ad6bad4560!8m2!3d19.8416376!4d75.8863644?authuser=0&hl=en&rclk=1,19.8416376,75.8863644
Adhar hospital,Hospital,"7P9X+P9H, Sanjay Nagar, Georai, Maharashtra 431127, India",https://www.google.co.kr/maps/place/Adhar+hospital/data=!4m5!3m4!1s0x3bdad9b741707a1d:0x2ea35009f59912b5!8m2!3d19.2693241!4d75.7484847?authuser=0&hl=en&rclk=1,19.2693241,75.7484847
Khushi Hospital Bhokardan,Hospital,"Khushi hospital, near police stations, Bhokardan, Maharashtra 431114, India",https://www.google.co.kr/maps/place/Khushi+Hospital+Bhokardan/data=!4m5!3m4!1s0x3bda335113a264db:0x407a6ae86313372d!8m2!3d20.2567309!4d75.7711658?authuser=0&hl=en&rclk=1,20.2567309,75.7711658
Gayatri Maternity,Hospital,"13/ 14, Charkop Market, Parvati Chs, 243, Sector 3, Kandivali West, Mumbai - 400067, India",https://www.google.co.kr/maps/place/Gayatri+Maternity/data=!4m5!3m4!1s0x3be7b6c4ffffffff:0xaa3302fd805827d!8m2!3d19.2158527!4d72.8287446?authuser=0&hl=en&rclk=1,19.2158527,72.8287446
Dr. Dinshaw Pardiwala - Kokilaben Hospital,Orthopedic surgeon,"Kokilaben Hospital, Lokhandwala Complex Rd, Mudran Press Colony, Andheri West, Mumbai, Maharashtra 400053, India",https://www.google.co.kr/maps/place/Dr.+Dinshaw+Pardiwala+-+Kokilaben+Hospital/data=!4m5!3m4!1s0x3be7b7c632130b99:0x7ab42ff69b77a674!8m2!3d19.1312095!4d72.8249876?authuser=0&hl=en&rclk=1,19.1312095,72.8249876
Masina Hospital,Hospital,"Sant Savata Mali Marg, near Byculla, Naralwadi, Sewri, Mumbai, Maharashtra 400027, India",https://www.google.co.kr/maps/place/Masina+Hospital/data=!4m5!3m4!1s0x3be7cfb6e5750bff:0x78ec49618d6367fb!8m2!3d18.9763261!4d72.841545?authuser=0&hl=en&rclk=1,18.9763261,72.841545
Uttam Hospital,Hospital,"Unnamed Road, Vaijapur, Maharashtra 423701, India",https://www.google.co.kr/maps/place/Uttam+Hospital/data=!4m5!3m4!1s0x3bdc6e8be67cc097:0x1d881ce1cb33b4d1!8m2!3d19.9292991!4d74.7289928?authuser=0&hl=en&rclk=1,19.9292991,74.7289928
Rajeev G Kulkarni,Doctor,"N-4, F-8, C I D C O, C I D C O, Aurangabad, Maharashtra 431003, India",https://www.google.co.kr/maps/place/Rajeev+G+Kulkarni/data=!4m5!3m4!1s0x3bdb9815a369bc63:0x9bca25a910e8123c!8m2!3d19.8801602!4d75.3663814?authuser=0&hl=en&rclk=1,19.8801602,75.3663814
Surya Eva - Advanced Endoscopy Centre,Hospital department,"Hasmukh Nagar, Santacruz West, Mumbai, Maharashtra 400047, India",https://www.google.co.kr/maps/place/Surya+Eva+-+Advanced+Endoscopy+Centre/data=!4m5!3m4!1s0x3be7c9a66a052b79:0x73f9866d49901842!8m2!3d19.0856464!4d72.8379026?authuser=0&hl=en&rclk=1,19.0856464,72.8379026
Jupiter Dialysis Clinic Pathology,Dialysis center,"Jarvari Rd, Pimple Saudagar, Pimpri-Chinchwad, Maharashtra 411027, India",https://www.google.co.kr/maps/place/Jupiter+Dialysis+Clinic+Pathology/data=!4m5!3m4!1s0x3bc2b9ce8371a683:0x8a6fdfed015ec7a5!8m2!3d18.5974768!4d73.7975418?authuser=0&hl=en&rclk=1,18.5974768,73.7975418
Dr. Dasmit Singh,Children's hospital,"Sukhwani Chambers, Station Road, Pimpri Colony, Pimpri-Chinchwad, Maharashtra 411018, India",https://www.google.co.kr/maps/place/Dr.+Dasmit+Singh/data=!4m5!3m4!1s0x3bc2b8508d2b77c5:0x411f5309a0d53f0!8m2!3d18.625584!4d73.805157?authuser=0&hl=en&rclk=1,18.625584,73.805157
Dr. Shailesh Puntambekar,Surgeon,"25-A, Ayurvedic Rasashala Premises,, Karve Road, opposite Garware College, Pune, Maharashtra 411004, India",https://www.google.co.kr/maps/place/Dr.+Shailesh+Puntambekar/data=!4m5!3m4!1s0x3bc2bf895c3bb9c9:0x340d825c59aa19f0!8m2!3d18.511284!4d73.837251?authuser=0&hl=en&rclk=1,18.511284,73.837251
pooja hospital,Hospital,"Nagar Rd, Kada, Maharashtra 414202, India",https://www.google.co.kr/maps/place/pooja+hospital/data=!4m5!3m4!1s0x3bc4adad3bf1d4dd:0xcd0ed6a544e91c87!8m2!3d18.8919493!4d75.0791834?authuser=0&hl=en&rclk=1,18.8919493,75.0791834
Unity Hospital,Hospital,"JMC6+49X, Shrirampur, Maharashtra 413709, India",https://www.google.co.kr/maps/place/Unity+Hospital/data=!4m5!3m4!1s0x3bdc8a4a4e1f9907:0x20faca077b2fe3ab!8m2!3d19.6203621!4d74.6609891?authuser=0&hl=en&rclk=1,19.6203621,74.6609891
Fortis Hospital Maintenance Department,Hospital department,"104, Mulund Goregaon Link Rd, Industrial Area, Bhandup West, Mumbai, Maharashtra 400078, India",https://www.google.co.kr/maps/place/Fortis+Hospital+Maintenance+Department/data=!4m5!3m4!1s0x3be7b85e138a846d:0xa31cb1d96ded996f!8m2!3d19.1612989!4d72.9412566?authuser=0&hl=en&rclk=1,19.1612989,72.9412566
Shirur Civil Hospital,Government hospital,"Shirur Kasar, Maharashtra 413249, India",https://www.google.co.kr/maps/place/Shirur+Civil+Hospital/data=!4m5!3m4!1s0x3bdb34109a72c973:0x57e1cf3dfd9be41c!8m2!3d19.0647645!4d75.4189056?authuser=0&hl=en&rclk=1,19.0647645,75.4189056
Ear Hospital,Hospital,"2H57+336, Pratap Nagar, Jalgaon, Maharashtra 425001, India",https://www.google.co.kr/maps/place/Ear+Hospital/data=!4m5!3m4!1s0x3bd90f1a8eb9111d:0xe4fcc45f04c119b!8m2!3d21.0076724!4d75.5626404?authuser=0&hl=en&rclk=1,21.0076724,75.5626404
Cigma Hospital,Hospital,"V8GX+J5X, Raghuveer Nagar, Venkatesh Nagar, M G M, Aurangabad, Maharashtra 431003, India",https://www.google.co.kr/maps/place/Cigma+Hospital/data=!4m5!3m4!1s0x3bdba29ccf5b6a01:0x8884edbe1c3ac06f!8m2!3d19.8766066!4d75.347979?authuser=0&hl=en&rclk=1,19.8766066,75.347979
Yogeshwar Nursing Home,Nursing home,"2nd Lane Khetwadi, Charni Road East, Grant Road East, Khetwadi, Grant Road, Mumbai, Maharashtra 400004, India",https://www.google.co.kr/maps/place/Yogeshwar+Nursing+Home/data=!4m5!3m4!1s0x3be7ce16f7ca3e29:0x3e3407a13a5f3aa7!8m2!3d18.9573916!4d72.8248742?authuser=0&hl=en&rclk=1,18.9573916,72.8248742
Dr. Sanjay Gupte,Obstetrician-gynecologist,"Sule Path Bhandarkar Rd Number 3, Ganeshwadi, Deccan Gymkhana, Pune, Maharashtra 411004, India",https://www.google.co.kr/maps/place/Dr.+Sanjay+Gupte/data=!4m5!3m4!1s0x3bc2bf86748380d5:0x58017144ed5d6c5e!8m2!3d18.5191256!4d73.8399431?authuser=0&hl=en&rclk=1,18.5191256,73.8399431
Dr Avi shah - Paediatric Orthopedic Surgeon | Child Orthopedic | Child Trauma & Bone Specialist | Paediatric Trauma Specialist | Cerebral Palsy Specialist | Clubfoot Treatment in Mumbai,Orthopedic surgeon,"1A, Haji Ali Park, Anandilal P Marg, Mahalakshmi, Mumbai, Maharashtra 400034, India",https://www.google.co.kr/maps/place/Dr+Avi+shah+-+Paediatric+Orthopedic+Surgeon+%7C+Child+Orthopedic+%7C+Child+Trauma+%26+Bone+Specialist+%7C+Paediatric+Trauma+Specialist+%7C+Cerebral+Palsy+Specialist+%7C+Clubfoot+Treatment+in+Mumbai/data=!4m5!3m4!1s0x3be7cf0b8a879d89:0xf2e11b823bc30fd5!8m2!3d18.9790741!4d72.8126329?authuser=0&hl=en&rclk=1,18.9790741,72.8126329
Dr. Prakash Chandra Shetty,Urologist,"Hiranandani Hospital Road, Hill Side Avenue, Hiranandani Gardens, Powai, Mumbai, Maharashtra 400076, India",https://www.google.co.kr/maps/place/Dr.+Prakash+Chandra+Shetty/data=!4m5!3m4!1s0x3be7c7ec2c5ec2a9:0xf76d9158cc5a04d3!8m2!3d19.1203481!4d72.9169881?authuser=0&hl=en&rclk=1,19.1203481,72.9169881
VR SPEECH AND HEARING CLINIC,Hearing aid store,"Kailash Nagar, Mondha, Aurangabad, Maharashtra 431001, India",https://www.google.co.kr/maps/place/VR+SPEECH+AND+HEARING+CLINIC/data=!4m5!3m4!1s0x3bdba29db9f2ac5d:0x655b4056ffbb61f7!8m2!3d19.8761653!4d75.3433139?authuser=0&hl=en&rclk=1,19.8761653,75.3433139
YMT Ayurvedic Medical College & Hospital. P.G.Institute,College,"23J7+929, Sector 4, Kharghar, Navi Mumbai, Maharashtra 410210, India",https://www.google.co.kr/maps/place/YMT+Ayurvedic+Medical+College+%26+Hospital.+P.G.Institute/data=!4m5!3m4!1s0x3be7c2404ea5525b:0xd3ca02ae74dd5796!8m2!3d19.0309053!4d73.0626195?authuser=0&hl=en&rclk=1,19.0309053,73.0626195
"Shalby Hospital, Vapi",Hospital,"Near Chandralok Building Chanod, Silvasa Rd, Vapi, Gujarat 396195, India","https://www.google.co.kr/maps/place/Shalby+Hospital,+Vapi/data=!4m5!3m4!1s0x3be0ce6971c092a7:0xb8e68c4332a745d2!8m2!3d20.3537209!4d72.929081?authuser=0&hl=en&rclk=1",20.3537209,72.929081
Dr. Rakeshsingh Singh,Neurologist,"Ranade Rd, Dadar West, Dadar, Mumbai, Maharashtra 400028, India",https://www.google.co.kr/maps/place/Dr.+Rakeshsingh+Singh/data=!4m5!3m4!1s0x3be7cec5638fc409:0x677dfd15d1d09078!8m2!3d19.0234538!4d72.8377344?authuser=0&hl=en&rclk=1,19.0234538,72.8377344
Microclinic India Pvt. Ltd,Electronics store,"Laxmi Plaza, 208, SAB TV Rd, Laxmi Industrial Estate, Suresh Nagar, Andheri West, Mumbai, Maharashtra 400102, India",https://www.google.co.kr/maps/place/Microclinic+India+Pvt.+Ltd/data=!4m5!3m4!1s0x3be7b622933fffff:0xe3f72243e20193fa!8m2!3d19.1360545!4d72.8292998?authuser=0&hl=en&rclk=1,19.1360545,72.8292998
"Shalby Hospital, Surat",Hospital,"Nr. Navyug College, Rander Rd, Adajan, Surat, Gujarat 395009, India","https://www.google.co.kr/maps/place/Shalby+Hospital,+Surat/data=!4m5!3m4!1s0x3be04c2bd38b220d:0xfd16cdc3f794f73b!8m2!3d21.2023112!4d72.8009972?authuser=0&hl=en&rclk=1",21.2023112,72.8009972
Radiant Life Care Private Limited,Back office,"Ground Floor, Hoechst House, Opp. Oberai Towers, Nariman Point, Mumbai, Maharashtra 400021, India",https://www.google.co.kr/maps/place/Radiant+Life+Care+Private+Limited/data=!4m5!3m4!1s0x3be7d1e970000007:0x2c6c740a833e081f!8m2!3d19.0958038!4d72.8401591?authuser=0&hl=en&rclk=1,19.0958038,72.8401591
Paradise Placement Consultancy,Employment agency,"“Sheetal Capital” Second Floor, Shop.No.11,, Chistiya Chowk, Cidco N-5,, opp. YSK Hospital, Aurangabad, Maharashtra 431003, India",https://www.google.co.kr/maps/place/Paradise+Placement+Consultancy/data=!4m5!3m4!1s0x3bdba2f4586e2657:0xafff78886bb876b3!8m2!3d19.879059!4d75.360521?authuser=0&hl=en&rclk=1,19.879059,75.360521
Wockhardt Limited,Pharmaceutical company,"Wockhardt Towers Bandra Kurla Complex, Bandra (East), mumbai, Maharashtra 400051, India",https://www.google.co.kr/maps/place/Wockhardt+Limited/data=!4m5!3m4!1s0x3bdb000000000001:0x996895c0c0592d8a!8m2!3d19.7514798!4d75.7138884?authuser=0&hl=en&rclk=1,19.7514798,75.7138884
India Post Aurangabad,Post office,"Dr Bhapkar Marg, Inside Railway Station, Padampani Colony, MIDC, Aurangabad, Maharashtra 431005, India",https://www.google.co.kr/maps/place/India+Post+Aurangabad/data=!4m5!3m4!1s0x3bdb9858fb26513f:0x998ce32e8cbc8b0!8m2!3d19.8600779!4d75.309822?authuser=0&hl=en&rclk=1,19.8600779,75.309822
AMC Cookware India Private Limited,Appliance store,"14/15, Gala Number 1, Sourabh, Girni Road, Shri Nagar, Society Sut, Near Samarth Hospital, Kasliwal Nagar, Garkheda, Aurangabad, Maharashtra 431001, India",https://www.google.co.kr/maps/place/AMC+Cookware+India+Private+Limited/data=!4m5!3m4!1s0x3bdba287532ba055:0x8a1f3caf4eebd36f!8m2!3d19.861348!4d75.34706?authuser=0&hl=en&rclk=1,19.861348,75.34706
GRV India Solutions,Software company,"Plot No. 42, Vijay Nagar, 7 Hill, near Sai Urology Hospital, Aurangabad, Maharashtra 431004, India",https://www.google.co.kr/maps/place/GRV+India+Solutions/data=!4m5!3m4!1s0x3bdba29007fffcbf:0x85c996007272bcbe!8m2!3d19.8714909!4d75.3528095?authuser=0&hl=en&rclk=1,19.8714909,75.3528095
