Company_Name,Category,Address,Url,Latitude,Longitude,State
Neelkanth Fertility And Women Care Hospital,Hospital,"10-11, Swami Nagar, Doctor's Lane Near RSEB Office, Bhuwana, Udaipur, Rajasthan 313001, India",https://www.google.co.kr/maps/place/Neelkanth+Fertility+And+Women+Care+Hospital/data=!4m5!3m4!1s0x3967e5a55b07c99f:0x93a6a85c96f86952!8m2!3d24.6139794!4d73.7073783?authuser=0&hl=en&rclk=1,24.6139794,73.7073783,Rajasthan
Janta Clinics,Medical clinic,"Goverdhan Nagar, Tonk Road, Jaipur, Rajasthan 302018, India",https://www.google.co.kr/maps/place/Janta+Clinics/data=!4m5!3m4!1s0x396dc98523e36887:0xf9bda3c584aafbad!8m2!3d26.79168!4d75.81739?authuser=0&hl=en&rclk=1,26.79168,75.81739,Rajasthan
Neo Clinic - NICU & PICU | Child hospital in Jaipur,Hospital,"3&4, Pandit TN Mishra Marg, Everest Vihar, Padmavti Colony, Nirman Nagar, Ranisati Nagar, Jaipur, Rajasthan 302019, India",https://www.google.co.kr/maps/place/Neo+Clinic+-+NICU+%26+PICU+%7C+Child+hospital+in+Jaipur/data=!4m5!3m4!1s0x396db45bc4a47bb3:0x92c2e9b94a92c00c!8m2!3d26.8828434!4d75.7553268?authuser=0&hl=en&rclk=1,26.8828434,75.7553268,Rajasthan
Rekha Clinic,Medical clinic,"36, Hari Ram Market, Sector 2A, U.I.T., Bhiwadi, Rajasthan 301019, India",https://www.google.co.kr/maps/place/Rekha+Clinic/data=!4m5!3m4!1s0x390d3727eaa75f1b:0xb0cc5159cbc8d40a!8m2!3d28.2014537!4d76.8342298?authuser=0&hl=en&rclk=1,28.2014537,76.8342298,Rajasthan
Rungta Hospital Jaipur (NABH Certified) 24x7 Emergency & Trauma Services,General hospital,"Calgiri Marg, near Police Station, Jhalana Gram, Malviya Nagar, Jaipur, Rajasthan 302017, India",https://www.google.co.kr/maps/place/Rungta+Hospital+Jaipur+(NABH+Certified)+24x7+Emergency+%26+Trauma+Services/data=!4m5!3m4!1s0x396db67400000001:0x7b8ae3e01435dd92!8m2!3d26.8576515!4d75.8153001?authuser=0&hl=en&rclk=1,26.8576515,75.8153001,Rajasthan
Apex Hospitals,General hospital,"SP-4 & 6, Central Road, Malviya Nagar Industrial Area, Malviya Nagar, Jaipur, Rajasthan 302017, India",https://www.google.co.kr/maps/place/Apex+Hospitals/data=!4m5!3m4!1s0x396db66b6d706811:0xcd772b82cdece6c4!8m2!3d26.8547999!4d75.8250586?authuser=0&hl=en&rclk=1,26.8547999,75.8250586,Rajasthan
Bajaj Clinic,Medical clinic,"jhawar road,naya bass, Sujangarh, Rajasthan, India",https://www.google.co.kr/maps/place/Bajaj+Clinic/data=!4m5!3m4!1s0x396b33d87890adf7:0x6edf71985f1b6a8a!8m2!3d27.6933703!4d74.4667348?authuser=0&hl=en&rclk=1,27.6933703,74.4667348,Rajasthan
Clinic,Medical clinic,"Q68F+V5C, Ajmer, Rajasthan 305407, India",https://www.google.co.kr/maps/place/Clinic/data=!4m5!3m4!1s0x396edbc243a9afa5:0x2ee65de64c0db3e4!8m2!3d25.7671821!4d75.2228965?authuser=0&hl=en&rclk=1,25.7671821,75.2228965,Rajasthan
Clinic,Medical clinic,"J3GG+FHP, Untalad, Rajasthan 331517, India",https://www.google.co.kr/maps/place/Clinic/data=!4m5!3m4!1s0x396ad100ce9b1673:0xf6977a99d695230a!8m2!3d27.6262222!4d74.0764567?authuser=0&hl=en&rclk=1,27.6262222,74.0764567,Rajasthan
Rajasthan Hospital,General hospital,"Udyog Nagar Rd, Shri Niwas Nagar, Vishwakarma Industrial Area, Murlipura, Jaipur, Rajasthan 302013, India",https://www.google.co.kr/maps/place/Rajasthan+Hospital/data=!4m5!3m4!1s0x396db25d45f9ff89:0x3424c95182206bdf!8m2!3d26.9843422!4d75.7712369?authuser=0&hl=en&rclk=1,26.9843422,75.7712369,Rajasthan
Kyuro Will Clinic,Medical clinic,"Pinck City, Kanwar Nagar, near Radha Mandir, Jaipur, Rajasthan 302003, India",https://www.google.co.kr/maps/place/Kyuro+Will+Clinic/data=!4m5!3m4!1s0x396db131403cd1e1:0xbce98fee0f14d918!8m2!3d26.93014!4d75.83737?authuser=0&hl=en&rclk=1,26.93014,75.83737,Rajasthan
Welfare Clinic,Medical clinic,"15-16, Ajmer Rd, Devi Niketan Compound, J.D.A. Market, Hathroi, Jaipur, Rajasthan 302001, India",https://www.google.co.kr/maps/place/Welfare+Clinic/data=!4m5!3m4!1s0x396db4089703c8a7:0xd24bbf6f458b6063!8m2!3d26.914893!4d75.795768?authuser=0&hl=en&rclk=1,26.914893,75.795768,Rajasthan
"Fortis Escorts Hospital, Jaipur",Hospital,"Jawahar Lal Nehru Marg, Sector 5, Malviya Nagar, Jaipur, Rajasthan 302017, India","https://www.google.co.kr/maps/place/Fortis+Escorts+Hospital,+Jaipur/data=!4m5!3m4!1s0x396db5e10592b4d5:0xa3d690090ae7b75d!8m2!3d26.8462877!4d75.8033762?authuser=0&hl=en&rclk=1",26.8462877,75.8033762,Rajasthan
Rajasthan Clinic,Hospital,"Rampura Circle, Eklavya Colony, Udaipur, Rajasthan 313001, India",https://www.google.co.kr/maps/place/Rajasthan+Clinic/data=!4m5!3m4!1s0x3967fbd9d7b9d57f:0xfb2614c94a338045!8m2!3d24.5837595!4d73.6519965?authuser=0&hl=en&rclk=1,24.5837595,73.6519965,Rajasthan
Sharma Clinic,Medical clinic,"Jaipur Road, opposite Tb Hospital, Ajmer, Rajasthan 305001, India",https://www.google.co.kr/maps/place/Sharma+Clinic/data=!4m5!3m4!1s0x396be6f7f37644a5:0x64a772c5dc2ac288!8m2!3d26.4740282!4d74.6521813?authuser=0&hl=en&rclk=1,26.4740282,74.6521813,Rajasthan
Getwell Poly Clinic & Hospital,Diagnostic center,"Jawahar Lal Nehru Marg, opp. JK Lon Hospital, Dusadon Ka Bagh, Rambagh, Jaipur, Rajasthan 302004, India",https://www.google.co.kr/maps/place/Getwell+Poly+Clinic+%26+Hospital/data=!4m5!3m4!1s0x396db6a314b9ac53:0x45f0aeba99dd3622!8m2!3d26.9022194!4d75.8167409?authuser=0&hl=en&rclk=1,26.9022194,75.8167409,Rajasthan
Rajendra Clinic,Medical clinic,"Mathura Gate, Mori Char Bagh, Tara Mahendra Colony, Bharatpur, Rajasthan 321001, India",https://www.google.co.kr/maps/place/Rajendra+Clinic/data=!4m5!3m4!1s0x3973a3094350aca9:0xebfd5c24923c1bf7!8m2!3d27.2165431!4d77.4995867?authuser=0&hl=en&rclk=1,27.2165431,77.4995867,Rajasthan
Bhandari clinic,Medical clinic,"Mahatma Gandhi Hospital, Opp. Jodhpur Mahatma Gandhi Hospital, Jalori Gate Circle, Jodhpur, Rajasthan 342001, India",https://www.google.co.kr/maps/place/Bhandari+clinic/data=!4m5!3m4!1s0x39418c4a8d212067:0xf65fbc3b3dfb8867!8m2!3d26.2842253!4d73.0179483?authuser=0&hl=en&rclk=1,26.2842253,73.0179483,Rajasthan
Dr n k maheshwari,Medical clinic,"10,Pancholi Choraha, Rajasthan 305001, India",https://www.google.co.kr/maps/place/Dr+n+k+maheshwari/data=!4m5!3m4!1s0x396be7d5537985bf:0x36d7f5ac3739419c!8m2!3d26.4685598!4d74.6124973?authuser=0&hl=en&rclk=1,26.4685598,74.6124973,Rajasthan
"Dr Virendra Child Clinic & Vaccination Center-Pediatrician, Child Specialist, Pediatric Allergy/Asthma Clinic",Pediatrician,"Nihalani Medical Store, Kiran Path, near Govt. Dispensary, Mansarovar Sector 3, Chouraha, Jaipur, Rajasthan 302020, India","https://www.google.co.kr/maps/place/Dr+Virendra+Child+Clinic+%26+Vaccination+Center-Pediatrician,+Child+Specialist,+Pediatric+Allergy%2FAsthma+Clinic/data=!4m5!3m4!1s0x396db501cbce7ebf:0x96857a91df4aa594!8m2!3d26.8675066!4d75.7571933?authuser=0&hl=en&rclk=1",26.8675066,75.7571933,Rajasthan
Geetanjali Hospital Udaipur,General hospital,"Hiranmagri Extension, Manwakhera NH-8 Bypass, Near Eklingpura Chouraha, Rajasthan 313001, India",https://www.google.co.kr/maps/place/Geetanjali+Hospital+Udaipur/data=!4m5!3m4!1s0x3967e57ee3ca168f:0xa8434ae1ded1926b!8m2!3d24.5533678!4d73.7319123?authuser=0&hl=en&rclk=1,24.5533678,73.7319123,Rajasthan
Rajasthan Medicoz,Medical clinic,"GW83+JP5, Lalgarh, Rajasthan 331518, India",https://www.google.co.kr/maps/place/Rajasthan+Medicoz/data=!4m5!3m4!1s0x396ac771af78a12f:0xfd1078670e5422f4!8m2!3d27.5165195!4d73.9043606?authuser=0&hl=en&rclk=1,27.5165195,73.9043606,Rajasthan
Health Care Clinic,Hospital,"shanti nagar, hiran magari, sector 3, BSNL road, behind ranawat poultry farm, Udaipur, Rajasthan 313002, India",https://www.google.co.kr/maps/place/Health+Care+Clinic/data=!4m5!3m4!1s0x3967ef5f72aa4e4f:0x4bd78e7c23a73396!8m2!3d24.574184!4d73.727917?authuser=0&hl=en&rclk=1,24.574184,73.727917,Rajasthan
Dr.Koushal Goutam - Top Doctor For Cancer in kota |Best Cancer Surgeon in Kota | Best Cancer Specialist in Kota,Oncologist,"front of new madical collage kota 324005 Kota, Rajasthan, India 324005, Kota, Rajasthan 324010, India",https://www.google.co.kr/maps/place/Dr.Koushal+Goutam+-+Top+Doctor+For+Cancer+in+kota+%7CBest+Cancer+Surgeon+in+Kota+%7C+Best+Cancer+Specialist+in+Kota/data=!4m5!3m4!1s0x396f8502e7496bb3:0x2bb0e25f1dbbb03d!8m2!3d25.1204789!4d75.8329837?authuser=0&hl=en&rclk=1,25.1204789,75.8329837,Rajasthan
Dr N. K. Vaishnav,Orthopedic surgeon,"Plot No, 418, RTO Rd, opp. State Bank of India, ZSA, BJS Colony, Jodhpur, Rajasthan 342006, India",https://www.google.co.kr/maps/place/Dr+N.+K.+Vaishnav/data=!4m5!3m4!1s0x39418d1788def97b:0x5ba561d4e630e3ee!8m2!3d26.3037033!4d73.0624337?authuser=0&hl=en&rclk=1,26.3037033,73.0624337,Rajasthan
Dr. Anju Soni,Women's health clinic,"11, Chetak Marg, Near Police Memorial, Adarsh Nagar, Jaipur, Rajasthan 302004, India",https://www.google.co.kr/maps/place/Dr.+Anju+Soni/data=!4m5!3m4!1s0x396db6a2c86e86e9:0xf1b7b17690b6cc2d!8m2!3d26.8997365!4d75.817909?authuser=0&hl=en&rclk=1,26.8997365,75.817909,Rajasthan
GBH American Hospital Udaipur,Private hospital,"101, Kothi Bagh Bhatt Ji Ki Bari Meera Girls College Road, Kothi Bagh, Udaipur, Rajasthan 313001, India",https://www.google.co.kr/maps/place/GBH+American+Hospital+Udaipur/data=!4m5!3m4!1s0x3967e574e91f2925:0xab096d9c0153b0cf!8m2!3d24.5935621!4d73.6964309?authuser=0&hl=en&rclk=1,24.5935621,73.6964309,Rajasthan
Bhutra health care Center,Hospital,"Soni Ji Ki Badi, Sainik Basti, Nagaur, Rajasthan 341001, India",https://www.google.co.kr/maps/place/Bhutra+health+care+Center/data=!4m5!3m4!1s0x396a91733d312dbb:0xb45fc72447e48e25!8m2!3d27.2031599!4d73.7257186?authuser=0&hl=en&rclk=1,27.2031599,73.7257186,Rajasthan
BHOJWANI CLINIC,Hospital,"Padukallan, Rajasthan 341031, India",https://www.google.co.kr/maps/place/BHOJWANI+CLINIC/data=!4m5!3m4!1s0x396bca55aa0a3073:0xf25448b98350ba9!8m2!3d26.6193161!4d74.2675222?authuser=0&hl=en&rclk=1,26.6193161,74.2675222,Rajasthan
Lucky Hospital Muhana Sanganer Jaipur Rajasthan,Hospital,"Muhana, Rajasthan 302029, India",https://www.google.co.kr/maps/place/Lucky+Hospital+Muhana+Sanganer+Jaipur+Rajasthan/data=!4m5!3m4!1s0x396dcab815e8573d:0x5d375cdd8f02321f!8m2!3d26.7981844!4d75.7263884?authuser=0&hl=en&rclk=1,26.7981844,75.7263884,Rajasthan
Rathi Clinic,Medical clinic,"near Suchana Kendra, Bhopal Ganj, Bhilwara, Rajasthan 311001, India",https://www.google.co.kr/maps/place/Rathi+Clinic/data=!4m5!3m4!1s0x3968c24ada0df27d:0x4e564419f1eb69b0!8m2!3d25.3464882!4d74.6392682?authuser=0&hl=en&rclk=1,25.3464882,74.6392682,Rajasthan
Manamukendra,Hospital,"Ganesh Colony, Suraj Nagar, Jhotwara, Jaipur, Rajasthan 302012, India",https://www.google.co.kr/maps/place/Manamukendra/data=!4m5!3m4!1s0x396db30e74551c61:0x24501352262b05a5!8m2!3d26.94518!4d75.739683?authuser=0&hl=en&rclk=1,26.94518,75.739683,Rajasthan
Mera Physio - Physiotherapy & Pain Clinic,Physical therapist,"812 D/22, Vikas Vihar, Balupura Rd, Adarsh Nagar, Ajmer, Rajasthan 305002, India",https://www.google.co.kr/maps/place/Mera+Physio+-+Physiotherapy+%26+Pain+Clinic/data=!4m5!3m4!1s0x396be18ca5ff2211:0xf78405763f96b425!8m2!3d26.4234304!4d74.6570194?authuser=0&hl=en&rclk=1,26.4234304,74.6570194,Rajasthan
hospital,Hospital,"Unnamed Road, Bedawari, Rajasthan 341511, India",https://www.google.co.kr/maps/place/hospital/data=!4m5!3m4!1s0x396a45dde3ed0fbf:0x4f7c27b259312048!8m2!3d26.730316!4d74.0054901?authuser=0&hl=en&rclk=1,26.730316,74.0054901,Rajasthan
Hospital,Hospital,"P4QM+Q5C, Kilanawali, Rajasthan 335062, India",https://www.google.co.kr/maps/place/Hospital/data=!4m5!3m4!1s0x391659fc8a6a1eb5:0x5857feaa59f38169!8m2!3d29.7394355!4d74.1328917?authuser=0&hl=en&rclk=1,29.7394355,74.1328917,Rajasthan
Soni Hospital,Hospital,"Kanota Bagh, 38, Jawahar Lal Nehru Marg, Rambagh, Jaipur, Rajasthan 302004, India",https://www.google.co.kr/maps/place/Soni+Hospital/data=!4m5!3m4!1s0x396db6988073f6b5:0xbbff153c76dd72a6!8m2!3d26.8956711!4d75.8148576?authuser=0&hl=en&rclk=1,26.8956711,75.8148576,Rajasthan
Bansal Clinic & Diagnostic Centre,X-ray lab,"Papad Ke Hanumanji Rd, Sector 8, Sector 5, Vidyadhar Nagar, Jaipur, Rajasthan 302039, India",https://www.google.co.kr/maps/place/Bansal+Clinic+%26+Diagnostic+Centre/data=!4m5!3m4!1s0x396db3cc12c65e61:0xfaff58e7c36d6480!8m2!3d26.9598988!4d75.7902771?authuser=0&hl=en&rclk=1,26.9598988,75.7902771,Rajasthan
Alpine Homoeopathic Clinic,Hospital,"203,Joshi Bhawan,Alpine Public School, main street, Brahampuri, Jaipur, Rajasthan 302002, India",https://www.google.co.kr/maps/place/Alpine+Homoeopathic+Clinic/data=!4m5!3m4!1s0x396db108efc2b8cf:0x6c2902b2a77fb7!8m2!3d26.935055!4d75.8237373?authuser=0&hl=en&rclk=1,26.935055,75.8237373,Rajasthan
Dr Ranjan Roy,Medical clinic,"C-612, Makarwali Rd, C Block, Panchsheel Nagar, Ajmer, Rajasthan 305001, India",https://www.google.co.kr/maps/place/Dr+Ranjan+Roy/data=!4m5!3m4!1s0x396be7cfa6556db5:0x508fe28fb98b387e!8m2!3d26.5002992!4d74.6359132?authuser=0&hl=en&rclk=1,26.5002992,74.6359132,Rajasthan
Dr Amit Sethia: Best Orthopedic Doctor & Surgeon in Bikaner,Orthopedic surgeon,"Bhansali Market, Gangashahar, Bikaner, Rajasthan 334001, India",https://www.google.co.kr/maps/place/Dr+Amit+Sethia:+Best+Orthopedic+Doctor+%26+Surgeon+in+Bikaner/data=!4m5!3m4!1s0x393fe7e0a6bba73b:0x4707b9030a38866a!8m2!3d27.9898389!4d73.297175?authuser=0&hl=en&rclk=1,27.9898389,73.297175,Rajasthan
Shree Ganesh Medical,Medical clinic,"Bypass Puliya Road, Sujangarh, Rajasthan 331507, India",https://www.google.co.kr/maps/place/Shree+Ganesh+Medical/data=!4m5!3m4!1s0x396b317c5f8fe05d:0xe9bc884b3fc4edf6!8m2!3d27.6885437!4d74.4613101?authuser=0&hl=en&rclk=1,27.6885437,74.4613101,Rajasthan
Medipulse Hospital,General hospital,"E4, MIA , Basni II Phase,Opposite, AIIMS Link Rd, Jodhpur, Rajasthan 342005, India",https://www.google.co.kr/maps/place/Medipulse+Hospital/data=!4m5!3m4!1s0x39418bf12cf13351:0x1e4b12fd63e3bacd!8m2!3d26.233819!4d73.008562?authuser=0&hl=en&rclk=1,26.233819,73.008562,Rajasthan
Dr. Anuj Pareek,Doctor,"X45C+8PX, Chak Papariya, Rajasthan 313211, India",https://www.google.co.kr/maps/place/Dr.+Anuj+Pareek/data=!4m5!3m4!1s0x39687b23e854f283:0x16a0d872210734e!8m2!3d24.9583689!4d74.1218564?authuser=0&hl=en&rclk=1,24.9583689,74.1218564,Rajasthan
"Dr. H.N. Chaturvedi, Rama Jagdish Cheritable Clinic",Hospital,"Unnamed Road, Hathi Bhata, Ajmer, Rajasthan 305001, India","https://www.google.co.kr/maps/place/Dr.+H.N.+Chaturvedi,+Rama+Jagdish+Cheritable+Clinic/data=!4m5!3m4!1s0x396be77702de2ba7:0x2c3d4f0e2ae4d5a6!8m2!3d26.4647768!4d74.637666?authuser=0&hl=en&rclk=1",26.4647768,74.637666,Rajasthan
Metro Mas Hospital,Hospital,"Shipra Path, Near इंडस जयपुर हॉस्पिटल, Shanthi Nagar, Mansarovar, Jaipur, Rajasthan 302020, India",https://www.google.co.kr/maps/place/Metro+Mas+Hospital/data=!4m5!3m4!1s0x396db5acf0f25487:0xe0f830ecc595e65e!8m2!3d26.8681622!4d75.7683366?authuser=0&hl=en&rclk=1,26.8681622,75.7683366,Rajasthan
IndoWestern Brain & Spine Hospital,Psychoneurological specialized clinic,"C-18, Pankaj Singhvi Marg, near New Vidhan Sabha, Satya Vihar, Indra Puri, Vidhayak Nagar, Lalkothi, Jaipur, Rajasthan 302020, India",https://www.google.co.kr/maps/place/IndoWestern+Brain+%26+Spine+Hospital/data=!4m5!3m4!1s0x396db423dd4e74b7:0x2d09105fa2f7a346!8m2!3d26.8917897!4d75.8004661?authuser=0&hl=en&rclk=1,26.8917897,75.8004661,Rajasthan
Jai Clinic and Nursing Home,Doctor,"Hospital Road, Munshi Colony, Beawar, Rajasthan 305901, India",https://www.google.co.kr/maps/place/Jai+Clinic+and+Nursing+Home/data=!4m5!3m4!1s0x396971906a88ab49:0xa1692d4d6f126320!8m2!3d26.1094026!4d74.3226373?authuser=0&hl=en&rclk=1,26.1094026,74.3226373,Rajasthan
Aravali Hospital,General hospital,"332, Ambamata Scheme - A Rd, Ambamata, Udaipur, Rajasthan 313004, India",https://www.google.co.kr/maps/place/Aravali+Hospital/data=!4m5!3m4!1s0x3967e5447320b717:0x69ef793d5cdf7111!8m2!3d24.5848277!4d73.6705646?authuser=0&hl=en&rclk=1,24.5848277,73.6705646,Rajasthan
"Dr. Ajay Singh - Best Nephrologist in Jaipur, Rajasthan, Best Doctor for Nephrology in India",Nephrologist,"Shipra Path, near Technology park, Mansarovar Sector 7, Agarwal Farm, Shanthi Nagar, Mansarovar, Jaipur, Rajasthan 302020, India","https://www.google.co.kr/maps/place/Dr.+Ajay+Singh+-+Best+Nephrologist+in+Jaipur,+Rajasthan,+Best+Doctor+for+Nephrology+in+India/data=!4m5!3m4!1s0x396db56e8421e0cb:0x5900e8abd01251da!8m2!3d26.8548696!4d75.773208?authuser=0&hl=en&rclk=1",26.8548696,75.773208,Rajasthan
Shubh Hospital,General hospital,"A-35, Ajmer Rd, Purani Chungi, Vidhyut Nagar, Jaipur, Rajasthan 302021, India",https://www.google.co.kr/maps/place/Shubh+Hospital/data=!4m5!3m4!1s0x396db48e83a8a4f9:0x6c4d0114ff4773f1!8m2!3d26.8971385!4d75.7523495?authuser=0&hl=en&rclk=1,26.8971385,75.7523495,Rajasthan
Apollo Hospital Delhi,Hospital,"Delhi - Jaipur Expy, Mordha, Rajasthan 303108, India",https://www.google.co.kr/maps/place/Apollo+Hospital+Delhi/data=!4m5!3m4!1s0x396d4f935b4b23cb:0xbefa523e9d3a38de!8m2!3d27.8097967!4d76.2469032?authuser=0&hl=en&rclk=1,27.8097967,76.2469032,Rajasthan
Shree Krishna Clinic (Ayurvedic Clinic),Hospital,"38X8+F77, Janta Colony, Shahpura Mohalla, Beawar, Rajasthan 305901, India",https://www.google.co.kr/maps/place/Shree+Krishna+Clinic+(Ayurvedic+Clinic)/data=!4m5!3m4!1s0x396970b47678dbdb:0x3ad8419ee8ed46cd!8m2!3d26.0986567!4d74.3156745?authuser=0&hl=en&rclk=1,26.0986567,74.3156745,Rajasthan
KHUSHI MEDICAL,Medical clinic,"shankhala, Government Hospital Rd, Ladnun, Rajasthan 341306, India",https://www.google.co.kr/maps/place/KHUSHI+MEDICAL/data=!4m5!3m4!1s0x396b2f491522a6e1:0xc32e1c370679dcd8!8m2!3d27.635381!4d74.3940505?authuser=0&hl=en&rclk=1,27.635381,74.3940505,Rajasthan
Maa Gayatri Medical,Doctor,"2PJH+3P6, Veer Teja Colony, Makrana, Rajasthan 341505, India",https://www.google.co.kr/maps/place/Maa+Gayatri+Medical/data=!4m5!3m4!1s0x396b9c541890a0a9:0x5bdee35c2df91607!8m2!3d27.0301653!4d74.7292718?authuser=0&hl=en&rclk=1,27.0301653,74.7292718,Rajasthan
Bhanu Hospital,Hospital,"87, Mahaveer Colony, Mahaveer Colony-B, Bambala, Jaipur, Rajasthan 302022, India",https://www.google.co.kr/maps/place/Bhanu+Hospital/data=!4m5!3m4!1s0x396dc982f35362c7:0x1e000a961090e1f7!8m2!3d26.7855407!4d75.8175164?authuser=0&hl=en&rclk=1,26.7855407,75.8175164,Rajasthan
"Dr Naveen sharma Best Orthopedic, Knee ,Hip Joint Replacement, back pain & ACL ligament doctor in Jaipur Advance Hospital AOSIH",Orthopedic surgeon,"16 A, ground floor, Vivek Vihar Metro station, New Sanganer Rd, Sodala, Jaipur, Rajasthan 302019, India","https://www.google.co.kr/maps/place/Dr+Naveen+sharma+Best+Orthopedic,+Knee+,Hip+Joint+Replacement,+back+pain+%26+ACL+ligament+doctor+in+Jaipur+Advance+Hospital+AOSIH/data=!4m5!3m4!1s0x396db41ca20857a7:0xda6e4fabde5f0c4!8m2!3d26.8874675!4d75.7680414?authuser=0&hl=en&rclk=1",26.8874675,75.7680414,Rajasthan
Vaatsalya Hospital,Hospital,"Salasar - Sikar Rd, near janana HOSPITAL, Sikar, Rajasthan 332001, India",https://www.google.co.kr/maps/place/Vaatsalya+Hospital/data=!4m5!3m4!1s0x396ca4e509f1db97:0x3351cd6ad947f252!8m2!3d27.6146626!4d74.95368?authuser=0&hl=en&rclk=1,27.6146626,74.95368,Rajasthan
Yadav Hospital,Hospital,"Dayanand Colony, Ajmer, Rajasthan 305004, India",https://www.google.co.kr/maps/place/Yadav+Hospital/data=!4m5!3m4!1s0x396be701743700ed:0x2d3b7caef42f4f39!8m2!3d26.4685762!4d74.6123462?authuser=0&hl=en&rclk=1,26.4685762,74.6123462,Rajasthan
Bidang Clinic Goluwala-335802,Hospital,"J3J3+XP2, Goluwala, Rajasthan 335802, India",https://www.google.co.kr/maps/place/Bidang+Clinic+Goluwala-335802/data=!4m5!3m4!1s0x39165c97f753e263:0x5aae9fc653036ff1!8m2!3d29.6323994!4d74.0542734?authuser=0&hl=en&rclk=1,29.6323994,74.0542734,Rajasthan
Vasundhara Hospital,Hospital,"Sector 11, Nandanwan, Chopasni Housing Board, Jodhpur, Rajasthan 342001, India",https://www.google.co.kr/maps/place/Vasundhara+Hospital/data=!4m5!3m4!1s0x39418e9770000001:0xf0fd6668fddfd610!8m2!3d26.2628849!4d72.9807496?authuser=0&hl=en&rclk=1,26.2628849,72.9807496,Rajasthan
Shantiraj Hospital Private Limited,Hospital,"699, Arjun Nagar, Sector No.11, Hiran Magri, Udaipur, Rajasthan 313001, India",https://www.google.co.kr/maps/place/Shantiraj+Hospital+Private+Limited/data=!4m5!3m4!1s0x3967ef9ec02747fd:0xfca72ea18c023be9!8m2!3d24.5532257!4d73.696428?authuser=0&hl=en&rclk=1,24.5532257,73.696428,Rajasthan
Vishwas Hospital(Gynae Specialist),Hospital,"#45, Ranthambhore Circle, Sawai Madhopur, Rajasthan 322021, India",https://www.google.co.kr/maps/place/Vishwas+Hospital(Gynae+Specialist)/data=!4m5!3m4!1s0x396e242efe4ab485:0xad7517e47b746f25!8m2!3d26.011928!4d76.355226?authuser=0&hl=en&rclk=1,26.011928,76.355226,Rajasthan
Garhwal Orthopedic Hospital,Hospital,"Behind S.K. Hospital, Sikar, Rajasthan, India Pin code, 332041, India",https://www.google.co.kr/maps/place/Garhwal+Orthopedic+Hospital/data=!4m5!3m4!1s0x396ca5f1894c2a47:0x1e82480d6140c832!8m2!3d27.6094!4d75.139911?authuser=0&hl=en&rclk=1,27.6094,75.139911,Rajasthan
SR Kalla Memorial,Private hospital,"78-79, Dhuleshwar Garden, Behind HSBC Bank, Panch Batti, C Scheme, Jaipur, Rajasthan 302001, India",https://www.google.co.kr/maps/place/SR+Kalla+Memorial/data=!4m5!3m4!1s0x396db6adbe0a7c29:0xda7b9963af490350!8m2!3d26.9130368!4d75.797124?authuser=0&hl=en&rclk=1,26.9130368,75.797124,Rajasthan
PhysioPlex Physiotherapy Clinic,Physical therapy clinic,"Plot No. 54, Kings Rd, near OM Hotel, Padmavati B Colony, Padmavti Colony, Nirman Nagar, Ranisati Nagar, Jaipur, Rajasthan 302019, India",https://www.google.co.kr/maps/place/PhysioPlex+Physiotherapy+Clinic/data=!4m5!3m4!1s0x396db4f0f6d44f47:0x170d97ddd5fe0312!8m2!3d26.8817182!4d75.7520495?authuser=0&hl=en&rclk=1,26.8817182,75.7520495,Rajasthan
sdmh,Hospital,"Bhawani Singh, Circle, Marg, Rambagh, Jaipur, Rajasthan 302005, India",https://www.google.co.kr/maps/place/sdmh/data=!4m5!3m4!1s0x396db419a387c0a3:0x344aa586914aca7a!8m2!3d26.9003777!4d75.7976155?authuser=0&hl=en&rclk=1,26.9003777,75.7976155,Rajasthan
Manohar Maternity Hospital,Hospital,"50 Feet Rd, Mahadev Colony, Kankroli, Rajsamand, Rajasthan 313324, India",https://www.google.co.kr/maps/place/Manohar+Maternity+Hospital/data=!4m5!3m4!1s0x39686c81ac0abf7b:0xcdf349b9e0a190e4!8m2!3d25.05194!4d73.885712?authuser=0&hl=en&rclk=1,25.05194,73.885712,Rajasthan
"VEENARK CHILD CLINIC , Dr. Dheeraj Sharma",Pediatrician,"Gali no. 2, Jaipur Rd, near Pittie Honda, Laxmi Vihar Colony, Bikaner, Rajasthan 334001, India","https://www.google.co.kr/maps/place/VEENARK+CHILD+CLINIC+,+Dr.+Dheeraj+Sharma/data=!4m5!3m4!1s0x393fdd3056c2c4a1:0x62cc72d9ca9de913!8m2!3d28.0184858!4d73.3562949?authuser=0&hl=en&rclk=1",28.0184858,73.3562949,Rajasthan
Sarkar Clinic,Doctor,"Sarkar Clinic,Near post office,, Kishangarh, Rajasthan, India",https://www.google.co.kr/maps/place/Sarkar+Clinic/data=!4m5!3m4!1s0x396bf0d904df9b6d:0x7e38ed3154a38c94!8m2!3d26.5865855!4d74.8587926?authuser=0&hl=en&rclk=1,26.5865855,74.8587926,Rajasthan
"Narayana Multispeciality Hospital, Jaipur",General hospital,"Kumbha Marg, Rana Sanga Marg, Sector 28, Sanganer, Pratap Nagar, Jaipur, Rajasthan 302033, India","https://www.google.co.kr/maps/place/Narayana+Multispeciality+Hospital,+Jaipur/data=!4m5!3m4!1s0x396dc999fe90f309:0x91760491563438ac!8m2!3d26.7949218!4d75.8247122?authuser=0&hl=en&rclk=1",26.7949218,75.8247122,Rajasthan
Shree Charbhuja Hospital,Orthopedic clinic,"Block- C Pushkar Road Near Private Bus Stand, HBU) Nagar, Haribhau Upadhyay Nagar, Ajmer, Rajasthan 305004, India",https://www.google.co.kr/maps/place/Shree+Charbhuja+Hospital/data=!4m5!3m4!1s0x396be79013aff3c3:0x3b9f7770718198ed!8m2!3d26.4825883!4d74.6061594?authuser=0&hl=en&rclk=1,26.4825883,74.6061594,Rajasthan
Asthma bhawan,Hospital,"R3, Sector 6 Rd, Vishwakarma Industrial Area, Vidyadhar Nagar, Jaipur, Rajasthan 302023, India",https://www.google.co.kr/maps/place/Asthma+bhawan/data=!4m5!3m4!1s0x396db36f7cb43bbb:0x226cf8c8fbdaa5ce!8m2!3d26.9773241!4d75.7733109?authuser=0&hl=en&rclk=1,26.9773241,75.7733109,Rajasthan
Dr.Saini Royal Medical & Doctor Chamber Amer Jaipur Rajasthan India,Medical Center,"Dr.Saini Royal Medical & Doctor Chamber, near Picture Hall, near Police Station, Amer, Jaipur, Rajasthan 302028, India",https://www.google.co.kr/maps/place/Dr.Saini+Royal+Medical+%26+Doctor+Chamber+Amer+Jaipur+Rajasthan+India/data=!4m5!3m4!1s0x396db1e66bcbca4d:0x176d306831997be0!8m2!3d26.9884635!4d75.8590656?authuser=0&hl=en&rclk=1,26.9884635,75.8590656,Rajasthan
Apollo Hospital,Hospital,"Rawatbhada, Kota, SH-33, Kota Road, Kota, Kota, Rajasthan 324005, India",https://www.google.co.kr/maps/place/Apollo+Hospital/data=!4m5!3m4!1s0x396f837c743c555d:0xa3610ead42c5b967!8m2!3d25.1225!4d75.801357?authuser=0&hl=en&rclk=1,25.1225,75.801357,Rajasthan
Heart And General Hospital,Doctor,"7, Vivekanand Marg, Panch Batti, C Scheme, Ashok Nagar, Jaipur, Rajasthan 302001, India",https://www.google.co.kr/maps/place/Heart+And+General+Hospital/data=!4m5!3m4!1s0x396db6a620d2534f:0x7bee66342558c8d5!8m2!3d26.9086807!4d75.8109978?authuser=0&hl=en&rclk=1,26.9086807,75.8109978,Rajasthan
Vasundhara Hospital,General hospital,"Nandanvan, Sector 11, Near Central Academy School, Chopasni Housing Board, Jodhpur, Rajasthan 342008, India",https://www.google.co.kr/maps/place/Vasundhara+Hospital/data=!4m5!3m4!1s0x39418c3779f664b7:0x1df83c61fe59a5c8!8m2!3d26.2661049!4d72.9786416?authuser=0&hl=en&rclk=1,26.2661049,72.9786416,Rajasthan
Cleft Lip & Palate Care @ Neo clinic,Children's hospital,"Pandit TN Mishra Marg, Padmavti Colony, Nirman Nagar, Ranisati Nagar, Jaipur, Rajasthan 302019, India",https://www.google.co.kr/maps/place/Cleft+Lip+%26+Palate+Care+@+Neo+clinic/data=!4m5!3m4!1s0x396db563bdc1e4eb:0x9126c291313eeb2c!8m2!3d26.8827152!4d75.7556759?authuser=0&hl=en&rclk=1,26.8827152,75.7556759,Rajasthan
S M S Hospital Jaipur,Hospital,"XQMF+XGJ, Vishwakarma Industrial Area, Jaipur, Rajasthan 302032, India",https://www.google.co.kr/maps/place/S+M+S+Hospital+Jaipur/data=!4m5!3m4!1s0x396db36a7ba6d849:0xbfa9f1637abdd3ee!8m2!3d26.9849661!4d75.773777?authuser=0&hl=en&rclk=1,26.9849661,75.773777,Rajasthan
Ayurved hospital,Hospital,"HVP5+R4F, Madanganj, Kishangarh, Rajasthan 305801, India",https://www.google.co.kr/maps/place/Ayurved+hospital/data=!4m5!3m4!1s0x396bf0d8defb63d9:0x8de5efe8b53a6546!8m2!3d26.5870674!4d74.857802?authuser=0&hl=en&rclk=1,26.5870674,74.857802,Rajasthan
Dr. Namit Nitharwal,Orthopedic clinic,"Civil Lines Rd, Civil Lines, Ajmer, Rajasthan 305022, India",https://www.google.co.kr/maps/place/Dr.+Namit+Nitharwal/data=!4m5!3m4!1s0x396be7003f1dcad3:0xfe576b018d97a449!8m2!3d26.4721438!4d74.6387515?authuser=0&hl=en&rclk=1,26.4721438,74.6387515,Rajasthan
Rajdhani Hospital,General hospital,"C-30, Bhagwan Das Road, C Scheme, Panch Batti, C Scheme, Ashok Nagar, Jaipur, Rajasthan 302001, India",https://www.google.co.kr/maps/place/Rajdhani+Hospital/data=!4m5!3m4!1s0x396db6adbe0a7c29:0x33cd477dba9782ec!8m2!3d26.9117351!4d75.807102?authuser=0&hl=en&rclk=1,26.9117351,75.807102,Rajasthan
Apex Hospitals Mansarovar,General hospital,"Ward 27, 55, Rajat Path, Ward 27, Mansarovar Sector 5, Mansarovar, Jaipur, Rajasthan 302020, India",https://www.google.co.kr/maps/place/Apex+Hospitals+Mansarovar/data=!4m5!3m4!1s0x396db5a253fd9edb:0x76da252ec3e87e10!8m2!3d26.8657969!4d75.7627418?authuser=0&hl=en&rclk=1,26.8657969,75.7627418,Rajasthan
Santokba Durlabhji Memorial Hospital (SDMH),Private hospital,"Near, Bhawani Singh Rd, Rambagh, Jaipur, Rajasthan 302015, India",https://www.google.co.kr/maps/place/Santokba+Durlabhji+Memorial+Hospital+(SDMH)/data=!4m5!3m4!1s0x396db69ecfd32ee7:0x3423f6c55d37fd06!8m2!3d26.8942695!4d75.8125914?authuser=0&hl=en&rclk=1,26.8942695,75.8125914,Rajasthan
Dr. K. C. Kasliwal's ENT Centre,Medical clinic,"Panch Bati, Mani Mahal, C Scheme, Opp. Raj Mandir Cinema, Jaipur, Rajasthan 302001, India",https://www.google.co.kr/maps/place/Dr.+K.+C.+Kasliwal's+ENT+Centre/data=!4m5!3m4!1s0x396db6adbe0a7c29:0x8ed66d875653648d!8m2!3d26.9160321!4d75.8096076?authuser=0&hl=en&rclk=1,26.9160321,75.8096076,Rajasthan
Raj Hospital And Fracture Clinic,Hospital,"SH 26, Singhana, Rajasthan 333516, India",https://www.google.co.kr/maps/place/Raj+Hospital+And+Fracture+Clinic/data=!4m5!3m4!1s0x3912d094b5573ebb:0x780488c4a903fe7f!8m2!3d28.0951312!4d75.8345296?authuser=0&hl=en&rclk=1,28.0951312,75.8345296,Rajasthan
Apex Hospital Skyline Jhunjhunu,Hospital,"Piru Singh Circle, Rd Number 3, Railway Quaters, Jhunjhunu, Rajasthan 333001, India",https://www.google.co.kr/maps/place/Apex+Hospital+Skyline+Jhunjhunu/data=!4m5!3m4!1s0x391339de3a90d2bd:0x4c6f0f64f86f5b93!8m2!3d28.1120471!4d75.3933226?authuser=0&hl=en&rclk=1,28.1120471,75.3933226,Rajasthan
SAINI ZANANA HOSPITAL,Hospital,"Shrimadhopur, Rajasthan 332715, India",https://www.google.co.kr/maps/place/SAINI+ZANANA+HOSPITAL/data=!4m5!3m4!1s0x396ce6955aa0b5dd:0xb08157019b489a92!8m2!3d27.4727934!4d75.5968715?authuser=0&hl=en&rclk=1,27.4727934,75.5968715,Rajasthan
Goyal Hospital,Hospital,"961/3, Residency Road, Opp. Rotary Hall, Jodhpur, Nasirabad, Rajasthan 342003, India",https://www.google.co.kr/maps/place/Goyal+Hospital/data=!4m5!3m4!1s0x396958554d4cb48b:0xa86a27d6ebb507ce!8m2!3d26.3000903!4d74.7345027?authuser=0&hl=en&rclk=1,26.3000903,74.7345027,Rajasthan
Shankar Bhagwan Ka Dhuna( Dhan Ji Ki Dham),Doctor,"7842+JCW, Nagaur, Rajasthan 341023, India",https://www.google.co.kr/maps/place/Shankar+Bhagwan+Ka+Dhuna(+Dhan+Ji+Ki+Dham)/data=!4m5!3m4!1s0x396b1c85e2421fc9:0x21eeb97bd3ae087b!8m2!3d27.25662!4d74.3010729?authuser=0&hl=en&rclk=1,27.25662,74.3010729,Rajasthan
Eternal Multispeciality Hospital,Heart hospital,"3A, Jagatpura Rd, near Jawahar Circle, Chainpura, Malviya Nagar, Jaipur, Rajasthan 302017, India",https://www.google.co.kr/maps/place/Eternal+Multispeciality+Hospital/data=!4m5!3m4!1s0x396db5e2958ac373:0x20db688f984cae39!8m2!3d26.8405587!4d75.8057697?authuser=0&hl=en&rclk=1,26.8405587,75.8057697,Rajasthan
Bharat Hospital,Hospital,"6XJW+JRR, MIA 2nd Phase, Basni, Jodhpur, Rajasthan 342001, India",https://www.google.co.kr/maps/place/Bharat+Hospital/data=!4m5!3m4!1s0x3941f2c06f367bc5:0x621e1c9389c60af4!8m2!3d26.2316119!4d72.9970184?authuser=0&hl=en&rclk=1,26.2316119,72.9970184,Rajasthan
Shree Vaishnav Clinic Ralawata,Hospital,"MVQ4+JP4, Ralawata, Rajasthan 305801, India",https://www.google.co.kr/maps/place/Shree+Vaishnav+Clinic+Ralawata/data=!4m5!3m4!1s0x396bf37160cc49b5:0xc8a1059c6561a548!8m2!3d26.6890108!4d74.8568164?authuser=0&hl=en&rclk=1,26.6890108,74.8568164,Rajasthan
Satellite hospital,Hospital,"Burmese Colony, Jaipur, Rajasthan 302007, India",https://www.google.co.kr/maps/place/Satellite+hospital/data=!4m5!3m4!1s0x396db7dca62e7143:0x5fdba62893f08d39!8m2!3d26.9023358!4d75.8419839?authuser=0&hl=en&rclk=1,26.9023358,75.8419839,Rajasthan
Indian Spine & Bone Hospital,Private hospital,"83, Arogya Nagar, Balaji Circle, opposite Tejaji Mandir, Rangbari, Kota, Rajasthan 324005, India",https://www.google.co.kr/maps/place/Indian+Spine+%26+Bone+Hospital/data=!4m5!3m4!1s0x396f84f6a3ae738d:0xc2d6bc4d21716424!8m2!3d25.1226257!4d75.8365505?authuser=0&hl=en&rclk=1,25.1226257,75.8365505,Rajasthan
Govt.hospital,Hospital,"2HVM+C9R, Bhakrod, Rajasthan 341028, India",https://www.google.co.kr/maps/place/Govt.hospital/data=!4m5!3m4!1s0x396a84202ec44f67:0x9d2f2365285b7b52!8m2!3d27.0436238!4d73.5833972?authuser=0&hl=en&rclk=1,27.0436238,73.5833972,Rajasthan
"Dr. Sondev Bansal - Best Neuro Surgeon in Jaipur, Rajasthan, Best Doctor for Brain Tumor and Spine Surgery in india",Neurologist,"Shipra Path, near Technology park, Mansarovar Sector 7, Agarwal Farm, Shanthi Nagar, Mansarovar, Jaipur, Rajasthan 302020, India","https://www.google.co.kr/maps/place/Dr.+Sondev+Bansal+-+Best+Neuro+Surgeon+in+Jaipur,+Rajasthan,+Best+Doctor+for+Brain+Tumor+and+Spine+Surgery+in+india/data=!4m5!3m4!1s0x396db5d3e1a6cbb7:0x6174717816f4e712!8m2!3d26.8548696!4d75.773208?authuser=0&hl=en&rclk=1",26.8548696,75.773208,Rajasthan
"Government Dispencery, Clinic",Hospital,"675, Shamshan Ghat Rd, Gujar Mohalla, Ajmer, Rajasthan 305001, India","https://www.google.co.kr/maps/place/Government+Dispencery,+Clinic/data=!4m5!3m4!1s0x396be723858207d7:0x5de30e34ae607d4!8m2!3d26.4448553!4d74.6319659?authuser=0&hl=en&rclk=1",26.4448553,74.6319659,Rajasthan
Mital Hospital Ajmer,Hospital,"RH82+73F, Chitawa, Rajasthan 341512, India",https://www.google.co.kr/maps/place/Mital+Hospital+Ajmer/data=!4m5!3m4!1s0x396bbd786bb592e1:0xde878cd236c2a9ef!8m2!3d26.815697!4d74.5501637?authuser=0&hl=en&rclk=1,26.815697,74.5501637,Rajasthan
Safe and Cure Hospital (Dr. H R Kaler Hospital),Hospital,"Near Badri Vihar, Sakpura Mohlla, Sikar, Rajasthan 332001, India",https://www.google.co.kr/maps/place/Safe+and+Cure+Hospital+(Dr.+H+R+Kaler+Hospital)/data=!4m5!3m4!1s0x396ca52ac39abea3:0x43604ce122e49220!8m2!3d27.6112506!4d75.1481153?authuser=0&hl=en&rclk=1,27.6112506,75.1481153,Rajasthan
Shree Purnaram Bangra Government Hospital,Hospital,"Nagaur District, Unchaira, Rajasthan 341030, India",https://www.google.co.kr/maps/place/Shree+Purnaram+Bangra+Government+Hospital/data=!4m5!3m4!1s0x396afda3ffffffff:0xca916e8d100dcbfb!8m2!3d27.139516!4d74.1979?authuser=0&hl=en&rclk=1,27.139516,74.1979,Rajasthan
"ECHS Polyclinic,ajmer",Medical clinic,"Circular Rd, Near Military School, Paltan Bazar, Railway Colony, Ajmer, Rajasthan 305001, India","https://www.google.co.kr/maps/place/ECHS+Polyclinic,ajmer/data=!4m5!3m4!1s0x396be6fa67211d99:0x433d862332ebf078!8m2!3d26.466912!4d74.6504614?authuser=0&hl=en&rclk=1",26.466912,74.6504614,Rajasthan
Dr. Rajendra Singh Gajraj Clinic,Surgeon,"Loharu - Sikar Rd, Shiv Colony, Jhunjhunu, Rajasthan 333001, India",https://www.google.co.kr/maps/place/Dr.+Rajendra+Singh+Gajraj+Clinic/data=!4m5!3m4!1s0x391339a0a73b8b99:0xed5a021765754f94!8m2!3d28.1180571!4d75.4063623?authuser=0&hl=en&rclk=1,28.1180571,75.4063623,Rajasthan
Rathore clinic,Private hospital,"6P98+962, Rajput Colony, Nagaur, Rajasthan 341001, India",https://www.google.co.kr/maps/place/Rathore+clinic/data=!4m5!3m4!1s0x396a9122eaaaaaad:0xfb52efe868423eac!8m2!3d27.2183851!4d73.7155255?authuser=0&hl=en&rclk=1,27.2183851,73.7155255,Rajasthan
MEDINOVA SUPER SPECIALITY CLINIC,Hospital,"H7, Jan Path, Kishan Nagar, Shyam Nagar, Jaipur, Rajasthan 302019, India",https://www.google.co.kr/maps/place/MEDINOVA+SUPER+SPECIALITY+CLINIC/data=!4m5!3m4!1s0x396db45f1b09aedb:0x6a23a1346be587a1!8m2!3d26.8918338!4d75.7602352?authuser=0&hl=en&rclk=1,26.8918338,75.7602352,Rajasthan
Bhatnagar Nursing Home,Medical clinic,"5PJ5+H6J, Nai Sadak, Bilara, Rajasthan 342602, India",https://www.google.co.kr/maps/place/Bhatnagar+Nursing+Home/data=!4m5!3m4!1s0x3969f6f93d4c4879:0xa0b2a36f76a6e1be!8m2!3d26.1814508!4d73.708005?authuser=0&hl=en&rclk=1,26.1814508,73.708005,Rajasthan
Ag Hospital Jodhpur,Government hospital,"72M9+2MQ, Jaswant Sarai, Ratanada, Jodhpur, Rajasthan 342001, India",https://www.google.co.kr/maps/place/Ag+Hospital+Jodhpur/data=!4m5!3m4!1s0x39418dcec4a31215:0x2f98c0fb21837ab3!8m2!3d26.2825973!4d73.0192298?authuser=0&hl=en&rclk=1,26.2825973,73.0192298,Rajasthan
Dr. Anil K Sharma,Surgeon,"Reliance Fresh - SBI, N2, near Sigma Diagnostic Lab Infront Of, Sagar Vihar Colony, Vaishali Nagar, Ajmer, Rajasthan 305001, India",https://www.google.co.kr/maps/place/Dr.+Anil+K+Sharma/data=!4m5!3m4!1s0x396be7aa5cf3eaa3:0x355061984ea1dff1!8m2!3d26.4872494!4d74.6277587?authuser=0&hl=en&rclk=1,26.4872494,74.6277587,Rajasthan
Govt.Hospital,Hospital,"FM5J+Q2F, Madarpura, Rajasthan 305024, India",https://www.google.co.kr/maps/place/Govt.Hospital/data=!4m5!3m4!1s0x396be6993919b061:0xe21cd334f5157ecc!8m2!3d26.4594279!4d74.6800352?authuser=0&hl=en&rclk=1,26.4594279,74.6800352,Rajasthan
"Paras Urology & Multispeciality Hospital, Ajmer",Hospital,"Old Prbhat Cinema Rd, Dumada, Sundar Vilas, Ajmer, Rajasthan 305001, India","https://www.google.co.kr/maps/place/Paras+Urology+%26+Multispeciality+Hospital,+Ajmer/data=!4m5!3m4!1s0x396be73e8a3211ef:0x7ac5154a134f812e!8m2!3d26.4648224!4d74.6328645?authuser=0&hl=en&rclk=1",26.4648224,74.6328645,Rajasthan
AJMER PHYSIO CARE-Dr.Vishal Kalani(Physiotherapist),Physical therapist,"Mahaveer Udhyan, Sector-3 Front of, Vaishali Nagar, Ajmer, Rajasthan 305004, India",https://www.google.co.kr/maps/place/AJMER+PHYSIO+CARE-Dr.Vishal+Kalani(Physiotherapist)/data=!4m5!3m4!1s0x396be7dd429c308f:0xdec65b624ebe6888!8m2!3d26.4887952!4d74.6240768?authuser=0&hl=en&rclk=1,26.4887952,74.6240768,Rajasthan
Gotam Ele. Hospital 🏥,Hospital,"CH2C+RFC, Lalbagh Colony, Adarsh Nagar, Didwana, Rajasthan 341303, India",https://www.google.co.kr/maps/place/Gotam+Ele.+Hospital+%F0%9F%8F%A5/data=!4m5!3m4!1s0x396b153e0ac2baa5:0x19e1caa353ab76f0!8m2!3d27.4020537!4d74.5711378?authuser=0&hl=en&rclk=1,27.4020537,74.5711378,Rajasthan
Saket Hospital,General hospital,"Sector 10, Meera Marg, Ward Number 43, Agarwal Farm, Mansarovar, Jaipur, Rajasthan 302020, India",https://www.google.co.kr/maps/place/Saket+Hospital/data=!4m5!3m4!1s0x396db5a19b43fe4b:0x65132521df20778c!8m2!3d26.8490822!4d75.765205?authuser=0&hl=en&rclk=1,26.8490822,75.765205,Rajasthan
SDMH Hospital,Hospital,"Bhawani Singh Rd, Rambagh, Jaipur, Rajasthan 302007, India",https://www.google.co.kr/maps/place/SDMH+Hospital/data=!4m5!3m4!1s0x396db698d1075fa5:0xe2debe00666af291!8m2!3d26.8935728!4d75.8122663?authuser=0&hl=en&rclk=1,26.8935728,75.8122663,Rajasthan
Sheela Hospital,Private hospital,"Naya Bass, Churu, Rajasthan 331001, India",https://www.google.co.kr/maps/place/Sheela+Hospital/data=!4m5!3m4!1s0x391361fdd6aa2c5d:0xd7e6a1a216346ecc!8m2!3d28.2926729!4d74.9701476?authuser=0&hl=en&rclk=1,28.2926729,74.9701476,Rajasthan
GEETANJALI HOSPITAL,Hospital,"Hiranmagri Extension, Manwakhera NH-8 Bypass, Near Eklingpura, Chouraha, Udaipur, Rajasthan 313002, India",https://www.google.co.kr/maps/place/GEETANJALI+HOSPITAL/data=!4m5!3m4!1s0x3967ef3640000001:0xb46fd74030794182!8m2!3d24.5524704!4d73.7404306?authuser=0&hl=en&rclk=1,24.5524704,73.7404306,Rajasthan
City Hospital,Hospital,"Shopping Complex, Near Ana Sagar Chowpati, Ana Sagar Link Road, Ajmer, Rajasthan 305001, India",https://www.google.co.kr/maps/place/City+Hospital/data=!4m5!3m4!1s0x396be7075a547f87:0xa071d1811d844004!8m2!3d26.4727069!4d74.6332846?authuser=0&hl=en&rclk=1,26.4727069,74.6332846,Rajasthan
Uphar Clinic & Nursing Home,Hospital,"Ghee Walo Ka Rasta, 5th Crossing, Pink City, Jaipur, Rajasthan 302007, India",https://www.google.co.kr/maps/place/Uphar+Clinic+%26+Nursing+Home/data=!4m5!3m4!1s0x396db728b327b43d:0x20a828d7493e03ed!8m2!3d26.9189865!4d75.8299744?authuser=0&hl=en&rclk=1,26.9189865,75.8299744,Rajasthan
Kardum Hospital,Hospital,"V6CM+2XW, Phulera, Rajasthan 303338, India",https://www.google.co.kr/maps/place/Kardum+Hospital/data=!4m5!3m4!1s0x396c6ea56b772479:0x8ab15df66596a36e!8m2!3d26.8701189!4d75.2349433?authuser=0&hl=en&rclk=1,26.8701189,75.2349433,Rajasthan
Modi Hospital,Hospital,"Teliwara - Shardapuram Rd, Karni Colony, Nagaur, Rajasthan 341001, India",https://www.google.co.kr/maps/place/Modi+Hospital/data=!4m5!3m4!1s0x396a918986132e83:0xd7c9a6b9138fae1a!8m2!3d27.2066203!4d73.732059?authuser=0&hl=en&rclk=1,27.2066203,73.732059,Rajasthan
Hospital Borwa,Hospital,"3XG7+84M, Borwa, Rajasthan 341024, India",https://www.google.co.kr/maps/place/Hospital+Borwa/data=!4m5!3m4!1s0x396af6c88b7cd52f:0x9c37213aca67dc77!8m2!3d27.0758269!4d73.962788?authuser=0&hl=en&rclk=1,27.0758269,73.962788,Rajasthan
"Narayana Multispeciality Hospital, Jaipur",Hospital,"28, Kumbha Marg, Pratap Nagar, Sanganer, Sector 6, Pratap Nagar, Jaipur, Rajasthan 302033, India","https://www.google.co.kr/maps/place/Narayana+Multispeciality+Hospital,+Jaipur/data=!4m5!3m4!1s0x396dc993a350b54b:0x5fab79ac66801f3b!8m2!3d26.7949768!4d75.8246893?authuser=0&hl=en&rclk=1",26.7949768,75.8246893,Rajasthan
"Govt Primary Health Center Gate, Nimod, Nagaur, Rajasthan, India",Government hospital,"7Q2H+5WV, Nimod, Rajasthan 341506, India","https://www.google.co.kr/maps/place/Govt+Primary+Health+Center+Gate,+Nimod,+Nagaur,+Rajasthan,+India/data=!4m5!3m4!1s0x396b718050044e9b:0xe86c0211d92a1fa3!8m2!3d27.2504803!4d74.7797842?authuser=0&hl=en&rclk=1",27.2504803,74.7797842,Rajasthan
Rathi Hospital,Hospital,"Sewa Sadan Rd, Sindhu Nagar, Shastri Nagar, Bhilwara, Rajasthan 311001, India",https://www.google.co.kr/maps/place/Rathi+Hospital/data=!4m5!3m4!1s0x3968c3b4af7e14b1:0xab1f986102df584!8m2!3d25.3494458!4d74.6407696?authuser=0&hl=en&rclk=1,25.3494458,74.6407696,Rajasthan
Pulse hospital,Hospital,"Mundra circle dak bangle k samne, Jodhpur - Shankhwas Rd, Piparcity, Rajasthan 342601, India",https://www.google.co.kr/maps/place/Pulse+hospital/data=!4m5!3m4!1s0x396a09a249b3dbdf:0x8116fc393e24180d!8m2!3d26.4019535!4d73.5319921?authuser=0&hl=en&rclk=1,26.4019535,73.5319921,Rajasthan
Dr. Anita Bhandari's Vertigo and Ear Clinic,Otolaryngologist,"S-271 Mahaveer Nagar, Jaipur, Rajasthan 302018, India",https://www.google.co.kr/maps/place/Dr.+Anita+Bhandari's+Vertigo+and+Ear+Clinic/data=!4m5!3m4!1s0x396db5c4d130555f:0x9c7074dc700ae329!8m2!3d26.8575119!4d75.7924772?authuser=0&hl=en&rclk=1,26.8575119,75.7924772,Rajasthan
Jain MM Emitra,Hospital,"Shop.44 Jain M M Emitra, near Sawai Mansing Hospital ke Bhar, Jaipur, Rajasthan 302004, India",https://www.google.co.kr/maps/place/Jain+MM+Emitra/data=!4m5!3m4!1s0x396db6a458921159:0x8b4d8236456e6f3a!8m2!3d26.9060665!4d75.8151019?authuser=0&hl=en&rclk=1,26.9060665,75.8151019,Rajasthan
Shukla Clinic,Hospital,"7VMJ+C68, Ramsar, Rajasthan 305402, India",https://www.google.co.kr/maps/place/Shukla+Clinic/data=!4m5!3m4!1s0x396955c2c8a528d1:0x6d7787b47ff07a78!8m2!3d26.2835313!4d74.8805799?authuser=0&hl=en&rclk=1,26.2835313,74.8805799,Rajasthan
FRHS India Ajmer,Hospital,"Rd Number 8, Adarsh Nagar, Ajmer, Rajasthan 305002, India",https://www.google.co.kr/maps/place/FRHS+India+Ajmer/data=!4m5!3m4!1s0x396be1dc1ef1db29:0x8317d2231e35cddf!8m2!3d26.4189614!4d74.6539955?authuser=0&hl=en&rclk=1,26.4189614,74.6539955,Rajasthan
Dr.Manoj Dulara(physiotherapist),Children's hospital,"J.K Lon Hospital, Jawahar Lal Nehru Marg, Near Trimurti Circle, Gangawal Park, Adarsh Nagar, Jaipur, Rajasthan 302004, India",https://www.google.co.kr/maps/place/Dr.Manoj+Dulara(physiotherapist)/data=!4m5!3m4!1s0x396db6a32e6f3a87:0x3ead3287f6fbbfb0!8m2!3d26.9013604!4d75.8178547?authuser=0&hl=en&rclk=1,26.9013604,75.8178547,Rajasthan
Dadhich Medical Opp govt Hospital Makrana,Hospital,"City Council Rd, Adarsh Nagar, Makrana, Rajasthan 341505, India",https://www.google.co.kr/maps/place/Dadhich+Medical+Opp+govt+Hospital+Makrana/data=!4m5!3m4!1s0x396b9dab4944f2f3:0x9ceb44f127aae947!8m2!3d27.0358141!4d74.729014?authuser=0&hl=en&rclk=1,27.0358141,74.729014,Rajasthan
Dr. Manish Sharma- Best Ortho Surgeon | Arthroscopic & Joint Replacement Hand Surgeon In Ajmer India,Orthopedic surgeon,"Medical College, Vinayak Medicos, Kala bagh, near JLN, Ajmer, Rajasthan 305001, India",https://www.google.co.kr/maps/place/Dr.+Manish+Sharma-+Best+Ortho+Surgeon+%7C+Arthroscopic+%26+Joint+Replacement+Hand+Surgeon+In+Ajmer+India/data=!4m5!3m4!1s0x396be70134bb5663:0x978cea9911076c5e!8m2!3d26.469329!4d74.6342555?authuser=0&hl=en&rclk=1,26.469329,74.6342555,Rajasthan
"Govt. Unani Hospital Gandhinagar, Madanganj-Kishangarh, Ajmer, Rajasthan, India",Government hospital,"Govt. Unani Hospital, Gandhinagar, Madanganj, Kishangarh, Rajasthan 305802, India","https://www.google.co.kr/maps/place/Govt.+Unani+Hospital+Gandhinagar,+Madanganj-Kishangarh,+Ajmer,+Rajasthan,+India/data=!4m5!3m4!1s0x396bf16256d7e49f:0xa6e25433b010a27e!8m2!3d26.5898062!4d74.8513395?authuser=0&hl=en&rclk=1",26.5898062,74.8513395,Rajasthan
GARG Hospital Dr SURESH GOYAL,Hospital,"2 A 15 jawahr nagar, Sri Ganganagar, Rajasthan 335001, India",https://www.google.co.kr/maps/place/GARG+Hospital+Dr+SURESH+GOYAL/data=!4m5!3m4!1s0x3917b56b7daedb53:0x458df6a3b3e89382!8m2!3d29.9187304!4d73.8824914?authuser=0&hl=en&rclk=1,29.9187304,73.8824914,Rajasthan
Jain ENT Hospital Jaipur,Hospital,"XGJ6+F3H, Jaipur, Rajasthan 303706, India",https://www.google.co.kr/maps/place/Jain+ENT+Hospital+Jaipur/data=!4m5!3m4!1s0x396c454caa74038d:0x8c6b2f3331d2b559!8m2!3d26.9811889!4d75.5102208?authuser=0&hl=en&rclk=1,26.9811889,75.5102208,Rajasthan
"Government Primary Satellite Hospital , Ramnagar, Ajmer",Hospital,"FJ95+V2G, Gyan Vihar Colony, Ajmer, Rajasthan 305004, India","https://www.google.co.kr/maps/place/Government+Primary+Satellite+Hospital+,+Ramnagar,+Ajmer/data=!4m5!3m4!1s0x396be71c181d898d:0x525a12fbf12d7af1!8m2!3d26.4696906!4d74.6075676?authuser=0&hl=en&rclk=1",26.4696906,74.6075676,Rajasthan
Geetanjali Multispeciality Hospital,Hospital,"Chomu Bypass Rd, opp. petrol pump, Ajeetgarh, Rajasthan 332701, India",https://www.google.co.kr/maps/place/Geetanjali+Multispeciality+Hospital/data=!4m5!3m4!1s0x396d1b20dcb15cbd:0xd69b7003eecef695!8m2!3d27.4139983!4d75.813106?authuser=0&hl=en&rclk=1,27.4139983,75.813106,Rajasthan
KATARA HOSPITAL,Hospital,"Naveen Hotel ki gali, Rajasthan, India",https://www.google.co.kr/maps/place/KATARA+HOSPITAL/data=!4m5!3m4!1s0x391339f75863bb4b:0xc407a0cd91f523cb!8m2!3d28.128887!4d75.3995035?authuser=0&hl=en&rclk=1,28.128887,75.3995035,Rajasthan
Urmila hospital,Hospital,"Bad ke Balaji, Sarangpura, Rajasthan 302026, India",https://www.google.co.kr/maps/place/Urmila+hospital/data=!4m5!3m4!1s0x396c4b45176c11ed:0x4dc83adacb832bc5!8m2!3d26.849192!4d75.6353595?authuser=0&hl=en&rclk=1,26.849192,75.6353595,Rajasthan
Hospital,Hospital,"Karlu - Thirod Rd, Karlu, Rajasthan 341026, India",https://www.google.co.kr/maps/place/Hospital/data=!4m5!3m4!1s0x396a88542dd1dee7:0xf8f0595c05e6df12!8m2!3d27.0056261!4d73.6954049?authuser=0&hl=en&rclk=1,27.0056261,73.6954049,Rajasthan
Jain ENT Hospital,Otolaryngologist,"23-24, Pankaj Singhvi Marg, Satya Vihar, Indra Puri, Vidhayak Nagar, Lalkothi, Jaipur, Rajasthan 302015, India",https://www.google.co.kr/maps/place/Jain+ENT+Hospital/data=!4m5!3m4!1s0x396db429bfffffff:0x14f733dd465f6ce0!8m2!3d26.8915438!4d75.8003047?authuser=0&hl=en&rclk=1,26.8915438,75.8003047,Rajasthan
"DR SAMAY SINGH M.B.B.S MS ,GENERAL AND LAPROSCOPIC SURGEON",Doctor,"2 ch 12, behind Badhir vidyalaya, Vaishali Nagar, Ajmer, Rajasthan 305004, India","https://www.google.co.kr/maps/place/DR+SAMAY+SINGH+M.B.B.S+MS+,GENERAL+AND+LAPROSCOPIC+SURGEON/data=!4m5!3m4!1s0x396be7a1b3ef25e7:0x54e0b586eda3f477!8m2!3d26.4893661!4d74.6240411?authuser=0&hl=en&rclk=1",26.4893661,74.6240411,Rajasthan
AARUNI MULTISPECIALITY HOSPITAL,Hospital,"1-194, RJ SH 37, Housing Board Colony, Basant Vihar, Jhunjhunu, Rajasthan 333001, India",https://www.google.co.kr/maps/place/AARUNI+MULTISPECIALITY+HOSPITAL/data=!4m5!3m4!1s0x391339653679b613:0xa5389975a1a07332!8m2!3d28.120736!4d75.3823559?authuser=0&hl=en&rclk=1,28.120736,75.3823559,Rajasthan
Dr.Kamal Upadhyay,Hospital,"chungi Naka, Nagaur - Didwana Rd, Nagaur, Rajasthan, India",https://www.google.co.kr/maps/place/Dr.Kamal+Upadhyay/data=!4m5!3m4!1s0x396a9318cd2d03f1:0x2aea971f95bbe913!8m2!3d27.1965779!4d73.7565743?authuser=0&hl=en&rclk=1,27.1965779,73.7565743,Rajasthan
Govt. Hospital Tehla,Hospital,"H98R+R8X, Tehla, Rajasthan 341031, India",https://www.google.co.kr/maps/place/Govt.+Hospital+Tehla/data=!4m5!3m4!1s0x396bcf447f87684f:0x85082a5ad8aec874!8m2!3d26.5671106!4d74.3908478?authuser=0&hl=en&rclk=1,26.5671106,74.3908478,Rajasthan
Fortis Hospital,Hospital,"HPV8+27J, Mount Abu, Rajasthan 307501, India",https://www.google.co.kr/maps/place/Fortis+Hospital/data=!4m5!3m4!1s0x395d2a7c00000001:0x3f30f231c6eebae5!8m2!3d24.5925909!4d72.7156274?authuser=0&hl=en&rclk=1,24.5925909,72.7156274,Rajasthan
Govt Hospital Jochina,Hospital,"Jocheena, Rajasthan 341023, India",https://www.google.co.kr/maps/place/Govt+Hospital+Jochina/data=!4m5!3m4!1s0x396b1c439cdce14f:0x9c3be5bac1280750!8m2!3d27.2749347!4d74.2832986?authuser=0&hl=en&rclk=1,27.2749347,74.2832986,Rajasthan
Hospital Gogour,Hospital,"4X9J+6JV, Gogaur, Rajasthan 341509, India",https://www.google.co.kr/maps/place/Hospital+Gogour/data=!4m5!3m4!1s0x396c800faf6728eb:0x809f669f981ce8a9!8m2!3d27.1181038!4d74.9815409?authuser=0&hl=en&rclk=1,27.1181038,74.9815409,Rajasthan
Arogya Hospital,General hospital,"Gandhi Path, Guru Jhambeshwar Nagar A, Vaishali Nagar, Jaipur, Rajasthan 302021, India",https://www.google.co.kr/maps/place/Arogya+Hospital/data=!4m5!3m4!1s0x396db49916976c4b:0x93ac88ccb8e1fcd0!8m2!3d26.9056414!4d75.7493893?authuser=0&hl=en&rclk=1,26.9056414,75.7493893,Rajasthan
Apex Ranthambore Sevika Hospital,Private hospital,"Vinayak Nagar, Housing Board, Sawai Madhopur, Rajasthan 322021, India",https://www.google.co.kr/maps/place/Apex+Ranthambore+Sevika+Hospital/data=!4m5!3m4!1s0x396e25d429b436bf:0x5e509b62c0326d95!8m2!3d25.9981047!4d76.3603097?authuser=0&hl=en&rclk=1,25.9981047,76.3603097,Rajasthan
Soni Hospital,Hospital,"Unnamed Road, Rajasthan 303007, India",https://www.google.co.kr/maps/place/Soni+Hospital/data=!4m5!3m4!1s0x396c482ce832da29:0x55fe5a7facca1e46!8m2!3d26.8114062!4d75.572736?authuser=0&hl=en&rclk=1,26.8114062,75.572736,Rajasthan
Government Hospital Reengus,Government hospital,"MDR46, Baleshwar Mohalla, Ward Number 14, Reengus, Rajasthan 332404, India",https://www.google.co.kr/maps/place/Government+Hospital+Reengus/data=!4m5!3m4!1s0x396ce5251223ca4d:0xed2a75fd2da844cc!8m2!3d27.3684897!4d75.5646837?authuser=0&hl=en&rclk=1,27.3684897,75.5646837,Rajasthan
Geetanjali cancer centre,Hospital,"HP2J+XRV, Manva Kheda, Eklingpura, Rajasthan 313001, India",https://www.google.co.kr/maps/place/Geetanjali+cancer+centre/data=!4m5!3m4!1s0x3967ef0ec56ae385:0x6684b68835abca63!8m2!3d24.55249!4d73.7320349?authuser=0&hl=en&rclk=1,24.55249,73.7320349,Rajasthan
"Best gynaecologist clinic in Kota,स्त्री एवं प्रसूति रोग विशेषज्ञ,Rajasthan",Obstetrician-gynecologist,"3 F 21 Opera Road, Talwandi, Kota, Rajasthan 324005, India","https://www.google.co.kr/maps/place/Best+gynaecologist+clinic+in+Kota,%E0%A4%B8%E0%A5%8D%E0%A4%A4%E0%A5%8D%E0%A4%B0%E0%A5%80+%E0%A4%8F%E0%A4%B5%E0%A4%82+%E0%A4%AA%E0%A5%8D%E0%A4%B0%E0%A4%B8%E0%A5%82%E0%A4%A4%E0%A4%BF+%E0%A4%B0%E0%A5%8B%E0%A4%97+%E0%A4%B5%E0%A4%BF%E0%A4%B6%E0%A5%87%E0%A4%B7%E0%A4%9C%E0%A5%8D%E0%A4%9E,Rajasthan/data=!4m5!3m4!1s0x396f84c2cbce56a1:0xf9949a482a0f03a5!8m2!3d25.1437575!4d75.8413662?authuser=0&hl=en&rclk=1",25.1437575,75.8413662,Rajasthan
Government Hospital,Hospital,"top chowk Loharpura nagaur, India",https://www.google.co.kr/maps/place/Government+Hospital/data=!4m5!3m4!1s0x396a917ab45eff63:0x85659f1aa464fb35!8m2!3d27.2079842!4d73.7372243?authuser=0&hl=en&rclk=1,27.2079842,73.7372243,Rajasthan
"115/10Civil lines,Near Mewar hospital Ajmer",Otolaryngologist,"near Mewar hospital, Civil Lines, Ajmer, Rajasthan 305001, India","https://www.google.co.kr/maps/place/115%2F10Civil+lines,Near+Mewar+hospital+Ajmer/data=!4m5!3m4!1s0x396970ac2e8cf2a3:0x96873be53a24a607!8m2!3d26.4729212!4d74.6374525?authuser=0&hl=en&rclk=1",26.4729212,74.6374525,Rajasthan
Masti Pir Baba Dargah,Doctor,"hathi gate, Borawar-Bidiyad Rd, Borawar, Rajasthan, India",https://www.google.co.kr/maps/place/Masti+Pir+Baba+Dargah/data=!4m5!3m4!1s0x396b9e82579d38f1:0xd2fa3d98f0e756b1!8m2!3d27.0220532!4d74.6846368?authuser=0&hl=en&rclk=1,27.0220532,74.6846368,Rajasthan
Saxena Hospital Sujangarh,Hospital,"Naya Bazar chok, near, peepal gatta, Sujangarh, Rajasthan 331507, India",https://www.google.co.kr/maps/place/Saxena+Hospital+Sujangarh/data=!4m5!3m4!1s0x396b33dc09c888d1:0xea2a8086cb90edbe!8m2!3d27.7003125!4d74.4702777?authuser=0&hl=en&rclk=1,27.7003125,74.4702777,Rajasthan
Nahar Hospital And Reserch Center,General hospital,"X7W7+QCJ, Bhinmal, Rajasthan 343029, India",https://www.google.co.kr/maps/place/Nahar+Hospital+And+Reserch+Center/data=!4m5!3m4!1s0x39436a497bb110f3:0xa79fb4ba78e6e85!8m2!3d24.9969587!4d72.2635197?authuser=0&hl=en&rclk=1,24.9969587,72.2635197,Rajasthan
Inderlal Derewala Urology Lithotripsy Center इन्दरलाल डेरेवाला यूरोलॉजी लिथोट्रिप्सी केंद्र,Urology clinic,"WR48+Q5F, Ashok Nagar, Jaipur, Rajasthan 302007, India",https://www.google.co.kr/maps/place/Inderlal+Derewala+Urology+Lithotripsy+Center+%E0%A4%87%E0%A4%A8%E0%A5%8D%E0%A4%A6%E0%A4%B0%E0%A4%B2%E0%A4%BE%E0%A4%B2+%E0%A4%A1%E0%A5%87%E0%A4%B0%E0%A5%87%E0%A4%B5%E0%A4%BE%E0%A4%B2%E0%A4%BE+%E0%A4%AF%E0%A5%82%E0%A4%B0%E0%A5%8B%E0%A4%B2%E0%A5%89%E0%A4%9C%E0%A5%80+%E0%A4%B2%E0%A4%BF%E0%A4%A5%E0%A5%8B%E0%A4%9F%E0%A5%8D%E0%A4%B0%E0%A4%BF%E0%A4%AA%E0%A5%8D%E0%A4%B8%E0%A5%80+%E0%A4%95%E0%A5%87%E0%A4%82%E0%A4%A6%E0%A5%8D%E0%A4%B0/data=!4m5!3m4!1s0x396db721e38f0703:0x99aa25791d0ad270!8m2!3d26.9069437!4d75.8154142?authuser=0&hl=en&rclk=1,26.9069437,75.8154142,Rajasthan
PHC SHERANI ABAD,Hospital,"58VP+22J, Sherani Abad, Rajasthan 341302, India",https://www.google.co.kr/maps/place/PHC+SHERANI+ABAD/data=!4m5!3m4!1s0x396b0494adf54339:0x8d3baca7450e350e!8m2!3d27.1925783!4d74.3350062?authuser=0&hl=en&rclk=1,27.1925783,74.3350062,Rajasthan
Sdmh Icu Attendant Waiting Room,Hospital,"VRV7+F26, Rambagh, Jaipur, Rajasthan 302007, India",https://www.google.co.kr/maps/place/Sdmh+Icu+Attendant+Waiting+Room/data=!4m5!3m4!1s0x396db69ecdb23845:0x3ec0fe766e5b9690!8m2!3d26.8936669!4d75.8125244?authuser=0&hl=en&rclk=1,26.8936669,75.8125244,Rajasthan
"Dr. Ritu Dhand, Zanana Hospital",Doctor,"307, New Sanganer Rd, Katewa Nagar, Devi Nagar, Mansarovar, Jaipur, Rajasthan 302019, India","https://www.google.co.kr/maps/place/Dr.+Ritu+Dhand,+Zanana+Hospital/data=!4m5!3m4!1s0x396db458da2174df:0xfcee3fa915e01f07!8m2!3d26.8858434!4d75.7629132?authuser=0&hl=en&rclk=1",26.8858434,75.7629132,Rajasthan
Tilak hospital,Hospital,"VVGR+74C, Paldi Meena, Jaipur, Rajasthan 303012, India",https://www.google.co.kr/maps/place/Tilak+hospital/data=!4m5!3m4!1s0x396db77f87ee9fab:0xe5fbca766beb6a20!8m2!3d26.8756854!4d75.8902807?authuser=0&hl=en&rclk=1,26.8756854,75.8902807,Rajasthan
"Dr RUDRADEV PANDEY-Expert Complex Angioplasty, Heart Valves-#TAVR/TAVI, Pacemaker CRT, AICD) India",Cardiologist,"C K BIRLA HOSPITAL/RBH, NEAR TRIVENI FLYOVER, Gopalpura Bypass Rd, Jaipur, Rajasthan 302018, India","https://www.google.co.kr/maps/place/Dr+RUDRADEV+PANDEY-Expert+Complex+Angioplasty,+Heart+Valves-%23TAVR%2FTAVI,+Pacemaker+CRT,+AICD)+India/data=!4m5!3m4!1s0x396db5fb58b50c1f:0x5a012f314c60c93e!8m2!3d26.8624218!4d75.7856887?authuser=0&hl=en&rclk=1",26.8624218,75.7856887,Rajasthan
Govt. Hospital Neniya,Hospital,"RJMM+QWM, Thikana Neniya, Rajasthan 341512, India",https://www.google.co.kr/maps/place/Govt.+Hospital+Neniya/data=!4m5!3m4!1s0x396b9656b0c58aff:0x28a8311b5b3384d6!8m2!3d26.8344726!4d74.6347987?authuser=0&hl=en&rclk=1,26.8344726,74.6347987,Rajasthan
Soni Hospital,Hospital,"5V24+VGF, 1 gh, Vigyan Nagar, Kota, Rajasthan 324005, India",https://www.google.co.kr/maps/place/Soni+Hospital/data=!4m5!3m4!1s0x396f8526ffffffff:0x6c3f42f7deb637f5!8m2!3d25.1521808!4d75.8563008?authuser=0&hl=en&rclk=1,25.1521808,75.8563008,Rajasthan
Army Hospital Nagaur,Hospital,"Sanjay Colony, Nagaur, Rajasthan 341001, India",https://www.google.co.kr/maps/place/Army+Hospital+Nagaur/data=!4m5!3m4!1s0x396a910e92eece79:0xf7b991e4a2dabf02!8m2!3d27.2020837!4d73.7170091?authuser=0&hl=en&rclk=1,27.2020837,73.7170091,Rajasthan
RHL - Rajasthan Hospital,Hospital,"Hospital Rd, opp. Jaipuria Hospital, Kailash Puri Colony, Milap Nagar, Jaipur, Rajasthan 302018, India",https://www.google.co.kr/maps/place/RHL+-+Rajasthan+Hospital/data=!4m5!3m4!1s0x396db5d959acfaab:0xc1f9740077a2f97f!8m2!3d26.8555227!4d75.8019039?authuser=0&hl=en&rclk=1,26.8555227,75.8019039,Rajasthan
Vandana Hospital And Fracture Clinic,Hospital,"Bharatpur Rd, Jawahar Nagar, Bharatpur, Rajasthan 321001, India",https://www.google.co.kr/maps/place/Vandana+Hospital+And+Fracture+Clinic/data=!4m5!3m4!1s0x3973a31a10586321:0xe890c3be9e7ab7aa!8m2!3d27.2049609!4d77.5049772?authuser=0&hl=en&rclk=1,27.2049609,77.5049772,Rajasthan
J B Hospital,Hospital,"Behind Power House, Jeenmatha, Bypass Road, Danta, Rajasthan 332702, India",https://www.google.co.kr/maps/place/J+B+Hospital/data=!4m5!3m4!1s0x396c8fac2c97d7f7:0x45ce990b14567fd9!8m2!3d27.2924665!4d75.1837553?authuser=0&hl=en&rclk=1,27.2924665,75.1837553,Rajasthan
Railway Hospital OT,Hospital,"Isai Mohalla, Ajmer, Rajasthan 305001, India",https://www.google.co.kr/maps/place/Railway+Hospital+OT/data=!4m5!3m4!1s0x396be727ecfdb5a5:0x9cb1628afbeaad35!8m2!3d26.440617!4d74.6391988?authuser=0&hl=en&rclk=1,26.440617,74.6391988,Rajasthan
Fortis DTM Hospital,Hospital,"Sharma Colony, Rani Bazar, Bikaner, Rajasthan 334001, India",https://www.google.co.kr/maps/place/Fortis+DTM+Hospital/data=!4m5!3m4!1s0x393fe7b25e1c46ff:0xde68e564f5bc8949!8m2!3d28.005634!4d73.3189113?authuser=0&hl=en&rclk=1,28.005634,73.3189113,Rajasthan
Indian Military Hospital,Hospital,"Cantonment, Bikaner, Rajasthan 334001, India",https://www.google.co.kr/maps/place/Indian+Military+Hospital/data=!4m5!3m4!1s0x393fddc710f6720d:0x83f1450d803679a5!8m2!3d28.0465877!4d73.3493829?authuser=0&hl=en&rclk=1,28.0465877,73.3493829,Rajasthan
Sant Shree Likhma Baba Hospital,Hospital,"Khajwana, Nagaur, SH-63, Nagour Road, Kuchera, Kuchera, Rajasthan 341510, India",https://www.google.co.kr/maps/place/Sant+Shree+Likhma+Baba+Hospital/data=!4m5!3m4!1s0x396a60a09840fb67:0x85923b3e5e47c138!8m2!3d26.907306!4d73.841273?authuser=0&hl=en&rclk=1,26.907306,73.841273,Rajasthan
Govt Hospital,Government hospital,"GQ8W+JPR, Shahpura, Rajasthan 332026, India",https://www.google.co.kr/maps/place/Govt+Hospital/data=!4m5!3m4!1s0x396b5cc467b5f4f5:0xf5394dbbd68d9c8b!8m2!3d27.5166088!4d74.7967729?authuser=0&hl=en&rclk=1,27.5166088,74.7967729,Rajasthan
Bombay Hospital,Hospital,"Hanumangarh-Sardarshahar Road, Ward No. 34, Near Hanuman Garh Junction, Hanumangarh, Rajasthan 335512, India",https://www.google.co.kr/maps/place/Bombay+Hospital/data=!4m5!3m4!1s0x3916f4970846d78f:0x3f2dd3b987ffa281!8m2!3d29.608664!4d74.2983436?authuser=0&hl=en&rclk=1,29.608664,74.2983436,Rajasthan
Asthma Bhawan,Hospital,"R-3, Vidhyadhar Nagar Marg, Sector 6, Shastri Nagar, Jaipur, Rajasthan 302039, India",https://www.google.co.kr/maps/place/Asthma+Bhawan/data=!4m5!3m4!1s0x396db3ad859c2695:0x5d91bc40157d873f!8m2!3d26.9401426!4d75.8013509?authuser=0&hl=en&rclk=1,26.9401426,75.8013509,Rajasthan
Kumawat Hospital,Hospital,"Geeta Bhawan Rd, Jaitaran, Rajasthan 306302, India",https://www.google.co.kr/maps/place/Kumawat+Hospital/data=!4m5!3m4!1s0x39698bd51ae2d81f:0xc7726f5dbd3666ab!8m2!3d26.2089604!4d73.9336052?authuser=0&hl=en&rclk=1,26.2089604,73.9336052,Rajasthan
"Urology Department, JLN Hospital",Hospital,"JLN, Jln Hospital Rd, Ajmer, Rajasthan 305001, India","https://www.google.co.kr/maps/place/Urology+Department,+JLN+Hospital/data=!4m5!3m4!1s0x396be703fef6fb61:0x253902d4fcea2f80!8m2!3d26.4674295!4d74.6344171?authuser=0&hl=en&rclk=1",26.4674295,74.6344171,Rajasthan
"Dr mukesh kalla SR Kalla hospital , jaipur",Hospital,"Dhuleshwar Garden, Devi Niketan Compound, Dhuleshwar Garden, Hathroi, Jaipur, Rajasthan 302001, India","https://www.google.co.kr/maps/place/Dr+mukesh+kalla+SR+Kalla+hospital+,+jaipur/data=!4m5!3m4!1s0x396db405d8ce062f:0x7f1b38769c11ef05!8m2!3d26.9130392!4d75.7971239?authuser=0&hl=en&rclk=1",26.9130392,75.7971239,Rajasthan
Divyajyoti Hospital Didwana,Hospital,"opp. Govt Bangur hospital, Adarsh Nagar, Didwana, Rajasthan 341303, India",https://www.google.co.kr/maps/place/Divyajyoti+Hospital+Didwana/data=!4m5!3m4!1s0x396b15389e7b6545:0xe11a2018777c4917!8m2!3d27.4011476!4d74.5637865?authuser=0&hl=en&rclk=1,27.4011476,74.5637865,Rajasthan
"Primary Health Centre, Ren",Government hospital,"Q3MJ+552, Ren, Rajasthan 341514, India","https://www.google.co.kr/maps/place/Primary+Health+Centre,+Ren/data=!4m5!3m4!1s0x396a4e545dca252f:0x15f38131ca750c0f!8m2!3d26.7828983!4d74.0803978?authuser=0&hl=en&rclk=1",26.7828983,74.0803978,Rajasthan
Prathamik Svasthya Kendra,Hospital,"341301, Kutiyasani - Nosariya Rd, Kutiyasani Khurd, Rajasthan, India",https://www.google.co.kr/maps/place/Prathamik+Svasthya+Kendra/data=!4m5!3m4!1s0x396ba995aefebf17:0xa639e3525fe8722f!8m2!3d27.0105883!4d74.3328846?authuser=0&hl=en&rclk=1,27.0105883,74.3328846,Rajasthan
Dr Rajeev Bhargav,Hospital,"140, Tonk Rd, Himmat Nagar, Bajaj Nagar, Jaipur, Rajasthan 302015, India",https://www.google.co.kr/maps/place/Dr+Rajeev+Bhargav/data=!4m5!3m4!1s0x396db5c4a1b0a0ed:0x5877ccccffcb5223!8m2!3d26.863884!4d75.798703?authuser=0&hl=en&rclk=1,26.863884,75.798703,Rajasthan
AMR HOSPITAL,Hospital,"RQRR+5VQ, Run, Rajasthan 341028, India",https://www.google.co.kr/maps/place/AMR+HOSPITAL/data=!4m5!3m4!1s0x396a670b0a854d63:0x61bc435e8e363848!8m2!3d26.840463!4d73.792244?authuser=0&hl=en&rclk=1,26.840463,73.792244,Rajasthan
Dr. Anand Agarwal,Cardiologist,"16, Gokhale Ln, Onkar Nagar, Basant Vihar, Ajmer, Rajasthan 305001, India",https://www.google.co.kr/maps/place/Dr.+Anand+Agarwal/data=!4m5!3m4!1s0x396be701c42aa875:0x372213355a22e91c!8m2!3d26.478801!4d74.643657?authuser=0&hl=en&rclk=1,26.478801,74.643657,Rajasthan
Noble Care Hospital,Private hospital,"Mandir, Sikar-Jaipur Road Bus Depot Road near Gogamedi, Tiraha, Sikar, Rajasthan 332001, India",https://www.google.co.kr/maps/place/Noble+Care+Hospital/data=!4m5!3m4!1s0x396ca4b3f3651f63:0xf5cc2f64ba6ff414!8m2!3d27.6026026!4d75.152798?authuser=0&hl=en&rclk=1,27.6026026,75.152798,Rajasthan
SMS Hospital Jaipur,Hospital,"VPPH+3MQ, Govind Nagar, Heerawala, Jaipur, Rajasthan 302024, India",https://www.google.co.kr/maps/place/SMS+Hospital+Jaipur/data=!4m5!3m4!1s0x396db53cdad9ab25:0xd11910116efe1e46!8m2!3d26.8852187!4d75.7292217?authuser=0&hl=en&rclk=1,26.8852187,75.7292217,Rajasthan
Teja Mandir,Hospital,"R927+94C, Pundlota, Rajasthan 341503, India",https://www.google.co.kr/maps/place/Teja+Mandir/data=!4m5!3m4!1s0x396bb0fce98f4f6d:0x7b03119aa8afc0c2!8m2!3d26.8009496!4d74.362754?authuser=0&hl=en&rclk=1,26.8009496,74.362754,Rajasthan
Janana Hospital Ajmer,Hospital,"janana hospital, Pushkar Bypass, Rd, Ajmer, Rajasthan, India",https://www.google.co.kr/maps/place/Janana+Hospital+Ajmer/data=!4m5!3m4!1s0x396be89fb7a880a5:0x7c8e4ec325525bf!8m2!3d26.5245433!4d74.6619956?authuser=0&hl=en&rclk=1,26.5245433,74.6619956,Rajasthan
Pulse hospital,Hospital,"9GQH+5XW, Piparcity, Rajasthan 342601, India",https://www.google.co.kr/maps/place/Pulse+hospital/data=!4m5!3m4!1s0x396a0703987f93bd:0x50de71f0ecd248af!8m2!3d26.3879908!4d73.529964?authuser=0&hl=en&rclk=1,26.3879908,73.529964,Rajasthan
Marble City Heart Center,Hospital,"RICCO Industrial Area, Kishangarh, Rajasthan 305801, India",https://www.google.co.kr/maps/place/Marble+City+Heart+Center/data=!4m5!3m4!1s0x396bf12f8bd2b4bb:0xdc6b3ba6e14b3d19!8m2!3d26.6000948!4d74.8628696?authuser=0&hl=en&rclk=1,26.6000948,74.8628696,Rajasthan
Dr Sachin Jhawar,Doctor,"Sp 6, Malviya Nagar, Malviya Nagar, Jaipur, Rajasthan 302002, India",https://www.google.co.kr/maps/place/Dr+Sachin+Jhawar/data=!4m5!3m4!1s0x396db67400000001:0xa8daa6614674ade2!8m2!3d26.8571917!4d75.8126972?authuser=0&hl=en&rclk=1,26.8571917,75.8126972,Rajasthan
"CMHO OFFICE, RATANGARH, CHURU",Hospital,"3JCF+373, Ratangarh, Rajasthan 331022, India","https://www.google.co.kr/maps/place/CMHO+OFFICE,+RATANGARH,+CHURU/data=!4m5!3m4!1s0x3914b9df6e1f3f71:0x35cf36b839afcc8c!8m2!3d28.0701254!4d74.6231689?authuser=0&hl=en&rclk=1",28.0701254,74.6231689,Rajasthan
Zanana Hospital,Government hospital,"Chand-Pole Gate, Station Staion, Station Rd, Reserve Police Line, Sindhi Camp, Jaipur, Rajasthan 302016, India",https://www.google.co.kr/maps/place/Zanana+Hospital/data=!4m5!3m4!1s0x396db156022dbaab:0x72312d8c22943168!8m2!3d26.9263205!4d75.8067265?authuser=0&hl=en&rclk=1,26.9263205,75.8067265,Rajasthan
Sradna hospital,Hospital,"Ajmer, National Highway 8, Saradhana, 305206, India",https://www.google.co.kr/maps/place/Sradna+hospital/data=!4m5!3m4!1s0x396bdfec07812379:0x7ef125797c1d51a!8m2!3d26.346007!4d74.575052?authuser=0&hl=en&rclk=1,26.346007,74.575052,Rajasthan
Alakh Nayan Vision Centre,Hospital,"42QQ+9HC, Salumbar, Rajasthan 313027, India",https://www.google.co.kr/maps/place/Alakh+Nayan+Vision+Centre/data=!4m5!3m4!1s0x3967a9f02a04c33f:0x9ca247695731bfd0!8m2!3d24.1384266!4d74.038898?authuser=0&hl=en&rclk=1,24.1384266,74.038898,Rajasthan
Dr. A. K. Sharma (nNephrologist),Doctor,"Akhil Nagar Rd, Akhil Nagar, Chainpura, Jagatpura, Jaipur, Rajasthan 302017, India",https://www.google.co.kr/maps/place/Dr.+A.+K.+Sharma+(nNephrologist)/data=!4m5!3m4!1s0x396db5fde41a57fd:0xc9feb173f5f6cf6!8m2!3d26.839557!4d75.8056979?authuser=0&hl=en&rclk=1,26.839557,75.8056979,Rajasthan
Red Crescent Urology Clinic,Urologist,"70, Ajmer Rd, Subhash Nagar, Bhilwara, Rajasthan 311001, India",https://www.google.co.kr/maps/place/Red+Crescent+Urology+Clinic/data=!4m5!3m4!1s0x3968c2580adbe90d:0x2f6c250bf4837cd7!8m2!3d25.3656704!4d74.6269348?authuser=0&hl=en&rclk=1,25.3656704,74.6269348,Rajasthan
Mittal Hospital Official,Hospital department,"FJF6+RR8, Haribhau Upadhyay Nagar, Ajmer, Rajasthan 305004, India",https://www.google.co.kr/maps/place/Mittal+Hospital+Official/data=!4m5!3m4!1s0x396be74d99b80607:0xe13f0a5a4d3ada12!8m2!3d26.4745254!4d74.6120794?authuser=0&hl=en&rclk=1,26.4745254,74.6120794,Rajasthan
CT Scan Kaksha,Diagnostic center,"Data Nagar, near Ram Bhavan, Ajmer, Rajasthan 305001, India",https://www.google.co.kr/maps/place/CT+Scan+Kaksha/data=!4m5!3m4!1s0x396be7aad405b603:0x51999f942de8da0f!8m2!3d26.4764733!4d74.6397131?authuser=0&hl=en&rclk=1,26.4764733,74.6397131,Rajasthan
"Dr. Arvind Memorial, Jilova Hospital",Hospital,"Jusri Rd, Makrana, Rajasthan 341505, India","https://www.google.co.kr/maps/place/Dr.+Arvind+Memorial,+Jilova+Hospital/data=!4m5!3m4!1s0x396b9cfdddec4f1f:0xce5ac56ff12364fa!8m2!3d27.0351367!4d74.7400123?authuser=0&hl=en&rclk=1",27.0351367,74.7400123,Rajasthan
NAHAR HOSPITAL BHINMAL,Hospital,"Kirti Stambh, Bhinmal Rd, Bhinmal, Rajasthan 343029, India",https://www.google.co.kr/maps/place/NAHAR+HOSPITAL+BHINMAL/data=!4m5!3m4!1s0x39436a49791b6d4f:0x876d2e8357e6b8fb!8m2!3d24.9969811!4d72.2632897?authuser=0&hl=en&rclk=1,24.9969811,72.2632897,Rajasthan
Dr. Pankaj Saini,Neurologist,"AC III/3, Savitri Girl's College Rd, opposite RTDC Hotel Khadim, Ajmer, Rajasthan 305001, India",https://www.google.co.kr/maps/place/Dr.+Pankaj+Saini/data=!4m5!3m4!1s0x396be7edadaee7ef:0xe049d4cf5a38e631!8m2!3d26.4704482!4d74.6398539?authuser=0&hl=en&rclk=1,26.4704482,74.6398539,Rajasthan
"Sheth Shree Sohanmal Chordiya City Hospital,Kuchera",Government hospital,"XXMC+P8H, Kuchera, Rajasthan 341024, India","https://www.google.co.kr/maps/place/Sheth+Shree+Sohanmal+Chordiya+City+Hospital,Kuchera/data=!4m5!3m4!1s0x396a589aae9fa289:0x60d35398a1f9cb0c!8m2!3d26.9843183!4d73.9708722?authuser=0&hl=en&rclk=1",26.9843183,73.9708722,Rajasthan
RAFLC,Hospital department,"Bhawani Singh Rd, Rambagh, Jaipur, Rajasthan 302007, India",https://www.google.co.kr/maps/place/RAFLC/data=!4m5!3m4!1s0x396db69f2aaefbc7:0xcced62b2d5c9ce0a!8m2!3d26.8946286!4d75.8126633?authuser=0&hl=en&rclk=1,26.8946286,75.8126633,Rajasthan
Paras Sexual Health Clinic,Hospital,"No Gurgaon C- I 61, Paras Hospital, St Thomas Marg, Gurugram, Haryana 122002, India",https://www.google.co.kr/maps/place/Paras+Sexual+Health+Clinic/data=!4m5!3m4!1s0x390d18c74a321723:0x1fe56d4d45040614!8m2!3d28.4505528!4d77.0875899?authuser=0&hl=en&rclk=1,28.4505528,77.0875899,Rajasthan
"Chirag Hospital, Bharatpur, Rajasthan",Hospital,"Near M S J College, Anirudh Nagar, Bharatpur, Rajasthan 321001, India","https://www.google.co.kr/maps/place/Chirag+Hospital,+Bharatpur,+Rajasthan/data=!4m5!3m4!1s0x3973a2fd21ff959b:0x64a07d7db1feece4!8m2!3d27.21291!4d77.5184211?authuser=0&hl=en&rclk=1",27.21291,77.5184211,Rajasthan
Jain Ent Hospital,Hospital,"Unnamed Road, Vishwakarma Industrial Area, Jaipur, Rajasthan 302013, India",https://www.google.co.kr/maps/place/Jain+Ent+Hospital/data=!4m5!3m4!1s0x396db3fc6e5b1ae3:0x714e1d97a53aed80!8m2!3d26.995627!4d75.7755191?authuser=0&hl=en&rclk=1,26.995627,75.7755191,Rajasthan
Trauma Center SMS Hospital,Hospital,"11, Sawai Mansingh Rd, Panch Batti, Ashok Nagar, Jaipur, Rajasthan 302001, India",https://www.google.co.kr/maps/place/Trauma+Center+SMS+Hospital/data=!4m5!3m4!1s0x396db6a5b0871a8b:0x4c875468e9449371!8m2!3d26.9070122!4d75.8147088?authuser=0&hl=en&rclk=1,26.9070122,75.8147088,Rajasthan
"Dr Sailesh Lodha, Endocrinologist",Endocrinologist,"Plot No 759, Mahavir Nagar Ist, Gopalpura Crossing, Tonk Road, near Ram Mandir, Mahaveer Nagar-1, Durgapura, Jaipur, Rajasthan 302018, India","https://www.google.co.kr/maps/place/Dr+Sailesh+Lodha,+Endocrinologist/data=!4m5!3m4!1s0x396db69dbfffffff:0x8aa9b97c46471448!8m2!3d26.860385!4d75.789542?authuser=0&hl=en&rclk=1",26.860385,75.789542,Rajasthan
Dr. D. S. Malik,Hospital,"VQFG+HV7, Surya Nagar, Gopal Pura Mode, Jaipur, Rajasthan 302015, India",https://www.google.co.kr/maps/place/Dr.+D.+S.+Malik/data=!4m5!3m4!1s0x396db5253709d40f:0xbd728f07073eb262!8m2!3d26.8739196!4d75.7771807?authuser=0&hl=en&rclk=1,26.8739196,75.7771807,Rajasthan
KGN MEDICAL,Public medical center,"5V37+J8M, Sabalpura, Kuchaman City, Rajasthan 341508, India",https://www.google.co.kr/maps/place/KGN+MEDICAL/data=!4m5!3m4!1s0x396b79301afa0235:0xb7296920bcc4cfc8!8m2!3d27.1540948!4d74.8632994?authuser=0&hl=en&rclk=1,27.1540948,74.8632994,Rajasthan
Govt. Hospital Degana,Hospital,"Degana, Rajasthan 341503, India",https://www.google.co.kr/maps/place/Govt.+Hospital+Degana/data=!4m5!3m4!1s0x396bae7d4935ed27:0x2d360d38f283c69!8m2!3d26.8970853!4d74.3230921?authuser=0&hl=en&rclk=1,26.8970853,74.3230921,Rajasthan
HEMARAM GARWA MARG,Hospital,"V8WF+7GH, Degana, Rajasthan 341503, India",https://www.google.co.kr/maps/place/HEMARAM+GARWA+MARG/data=!4m5!3m4!1s0x396bae62d41157bf:0x344b945f5470e90b!8m2!3d26.8956896!4d74.3238522?authuser=0&hl=en&rclk=1,26.8956896,74.3238522,Rajasthan
Srijan Hospital,Hospital,"Salasar, Rajasthan 331506, India",https://www.google.co.kr/maps/place/Srijan+Hospital/data=!4m5!3m4!1s0x396b4c264b3e92f9:0x88d0f30258276f46!8m2!3d27.7250194!4d74.720282?authuser=0&hl=en&rclk=1,27.7250194,74.720282,Rajasthan
Indian Society Of Cardiology,Medical group,"Heart Center, Nr. Jawahar Rangmanch, Anasagar Link Road, Ajmer, Rajasthan 305001, India",https://www.google.co.kr/maps/place/Indian+Society+Of+Cardiology/data=!4m5!3m4!1s0x396be6d1b4306399:0x6f983c4c8791c37b!8m2!3d26.4373707!4d74.6500542?authuser=0&hl=en&rclk=1,26.4373707,74.6500542,Rajasthan
Shantiraj Hospital,Hospital,"Station Road, Mandsaur, Madhya Pradesh 221604, India",https://www.google.co.kr/maps/place/Shantiraj+Hospital/data=!4m5!3m4!1s0x39642c1d3b2ed431:0xb4c73839a6b110ca!8m2!3d24.0710849!4d75.0739251?authuser=0&hl=en&rclk=1,24.0710849,75.0739251,Rajasthan
Metropolis Healthcare Ltd,Diagnostic center,"C/O Singhvi Dental Care,D-83 Premangan,Near Sai Dham Shankar Nagar, Pal Road, Jodhpur, Rajasthan 342001, India",https://www.google.co.kr/maps/place/Metropolis+Healthcare+Ltd/data=!4m5!3m4!1s0x396bb3727df9600d:0xf560a5d7d0b156ed!8m2!3d26.772673!4d74.253542?authuser=0&hl=en&rclk=1,26.772673,74.253542,Rajasthan
Dr B K Singh,Otolaryngologist,"C -188, Makarwali Rd, C Block, C -188, Panchsheel Nagar, Ajmer, Rajasthan 305001, India",https://www.google.co.kr/maps/place/Dr+B+K+Singh/data=!4m5!3m4!1s0x396be701ed025d21:0xe217cbc0ad631a8a!8m2!3d26.5062779!4d74.6340919?authuser=0&hl=en&rclk=1,26.5062779,74.6340919,Rajasthan
Dr. Deepak Gupta,Occupational medical physician,"A-36, Sunder Singh Bhandari Nagar, Ganesh Nagar, Ramnagar, Jaipur, Rajasthan 302019, India",https://www.google.co.kr/maps/place/Dr.+Deepak+Gupta/data=!4m5!3m4!1s0x396db534d8ba5ea7:0x928312f6f8e8dce2!8m2!3d26.8923553!4d75.7721297?authuser=0&hl=en&rclk=1,26.8923553,75.7721297,Rajasthan
Jainarayan Kashiram,Medical Center,"Rajasthan State Hwy 60 - Degana- Bherunda Rd, Degana, Rajasthan 341503, India",https://www.google.co.kr/maps/place/Jainarayan+Kashiram/data=!4m5!3m4!1s0x396bae7dfae84f91:0x56d4f31b247a8b55!8m2!3d26.8970148!4d74.3182923?authuser=0&hl=en&rclk=1,26.8970148,74.3182923,Rajasthan
Dr. Dinesh Khandelwal,Neurologist,"G2, 48, Gangawal Park, Adarsh Nagar, Jaipur, Rajasthan 302004, India",https://www.google.co.kr/maps/place/Dr.+Dinesh+Khandelwal/data=!4m5!3m4!1s0x396db6bb68b9db3d:0xe8861c130ff246d4!8m2!3d26.9047867!4d75.8202811?authuser=0&hl=en&rclk=1,26.9047867,75.8202811,Rajasthan
Paras Epilepsy Clinic,Hospital,"Paras Hospitals, Room No. 101 C-1 Sushant Lok- 1, Phase- I, Sector 43, Gurugram, Haryana 122002, India",https://www.google.co.kr/maps/place/Paras+Epilepsy+Clinic/data=!4m5!3m4!1s0x390d18c75e784921:0x42311fe82d15e7d1!8m2!3d28.450766!4d77.087574?authuser=0&hl=en&rclk=1,28.450766,77.087574,Rajasthan
Dr. Ajeet Bana,Cardiologist,"Jawahar Lal Nehru Marg, Malviya Nagar, Jaipur, Rajasthan 335803, India",https://www.google.co.kr/maps/place/Dr.+Ajeet+Bana/data=!4m5!3m4!1s0x396db5df17c3f0b1:0xd396ddd0b4b394c6!8m2!3d26.8563488!4d75.8052171?authuser=0&hl=en&rclk=1,26.8563488,75.8052171,Rajasthan
Paras Hospitals,Hospital,"1, Block, Phase 1, Indian Airlines Pilots Society, Sushant Lok Phase I, Sector 43, Gurugram, Haryana 122002, India",https://www.google.co.kr/maps/place/Paras+Hospitals/data=!4m5!3m4!1s0x390d18e0987c8fd3:0x521754de967b147d!8m2!3d28.474985!4d77.075675?authuser=0&hl=en&rclk=1,28.474985,77.075675,Rajasthan
Dr Ravi Gupta,Urologist,"GA 3, near MPS School, Sector 6, Jawahar Nagar, Jaipur, Rajasthan 302004, India",https://www.google.co.kr/maps/place/Dr+Ravi+Gupta/data=!4m5!3m4!1s0x396db6ee09c6f913:0xd516ca3d2866617e!8m2!3d26.8892608!4d75.8316955?authuser=0&hl=en&rclk=1,26.8892608,75.8316955,Rajasthan
government hospital,Hospital,"Gayatri Mandir, Station Road, Bhaktiarpur, Bihar 852127, India",https://www.google.co.kr/maps/place/government+hospital/data=!4m5!3m4!1s0x396bae62cb9bda75:0x113d5331243d9775!8m2!3d26.8965274!4d74.3237687?authuser=0&hl=en&rclk=1,26.8965274,74.3237687,Rajasthan
department of neurosurgery,Hospital department,"VR42+7V6, Kailash Puri Colony, Milap Nagar, Jaipur, Rajasthan 302018, India",https://www.google.co.kr/maps/place/department+of+neurosurgery/data=!4m5!3m4!1s0x396db5627879cabd:0x637b7eea89fd534d!8m2!3d26.8556666!4d75.8021391?authuser=0&hl=en&rclk=1,26.8556666,75.8021391,Rajasthan
Paras Hospitals Pediatric Neurology Clinic,Hospital,"20, PARAS HOSPITALS, C1, Block C, Sushant Lok Phase I, Sector 43, Gurugram, Haryana 122002, India",https://www.google.co.kr/maps/place/Paras+Hospitals+Pediatric+Neurology+Clinic/data=!4m5!3m4!1s0x390d18c737be28cf:0x8de8b35e61576661!8m2!3d28.450879!4d77.087599?authuser=0&hl=en&rclk=1,28.450879,77.087599,Rajasthan
Air India Medical Clinic,Hospital,"Terminal 1C Arrival Rd, Indira Gandhi International Airport, New Delhi, Delhi 110037, India",https://www.google.co.kr/maps/place/Air+India+Medical+Clinic/data=!4m5!3m4!1s0x390d1c6174827543:0x347e24dcbea931fd!8m2!3d28.5650412!4d77.1210391?authuser=0&hl=en&rclk=1,28.5650412,77.1210391,Rajasthan
Rajasthan hospital,General hospital,"2nd floor, Guru Orthopedic hospital ke uper, S.T. bus pick up Stan ke piche, Aroma Cir, Palanpur, 385001, India",https://www.google.co.kr/maps/place/Rajasthan+hospital/data=!4m5!3m4!1s0x395ceb3892145687:0x2c8da4779be9de09!8m2!3d24.1735879!4d72.4176589?authuser=0&hl=en&rclk=1,24.1735879,72.4176589,Rajasthan
"Apollo ENT, Best ENT Specialist,Ent Surgeon,Ent Doctor,Ent Clinic,Endoscopic Sinus Surgeon",Otolaryngologist,"Indraprastha Apollo Hospitals, Chennai - Delhi Highway, Mathura Rd, Sarita Vihar, New Delhi, Delhi 110076, India","https://www.google.co.kr/maps/place/Apollo+ENT,+Best+ENT+Specialist,Ent+Surgeon,Ent+Doctor,Ent+Clinic,Endoscopic+Sinus+Surgeon/data=!4m5!3m4!1s0x390ce3f6d0dee327:0x8273dc55b29c0203!8m2!3d28.5407423!4d77.2829892?authuser=0&hl=en&rclk=1",28.5407423,77.2829892,Rajasthan
