Company_Name,Category,Address,Url,Latitude,Longitude,State
Hospital in Jabalpur MP India | Swastik Hospital,Hospital,"opp. Interstate Bus Terminal, near Deen Dayal Chowk, Jabalpur, Madhya Pradesh 482002, India",https://www.google.co.kr/maps/place/Hospital+in+Jabalpur+MP+India+%7C+Swastik+Hospital/data=!4m5!3m4!1s0x3981b1d15c274901:0xfa77fa03a829ec6e!8m2!3d23.194397!4d79.911592?authuser=0&hl=en&rclk=1,23.194397,79.911592,Madhya Pradesh
Citi Hospital,Hospital,"115, Link Road Number 2, Near State Bank, Zone II, M P Nagar, Bhopal, Madhya Pradesh 462011, India",https://www.google.co.kr/maps/place/Citi+Hospital/data=!4m5!3m4!1s0x397c425d224fffff:0xc0fc319acdd921f4!8m2!3d23.2304312!4d77.4361207?authuser=0&hl=en&rclk=1,23.2304312,77.4361207,Madhya Pradesh
National Hospital,Private hospital,"Habibganj Rd, Opp Cricket Club, E-3, Arera Colony, Bhopal, Madhya Pradesh 462016, India",https://www.google.co.kr/maps/place/National+Hospital/data=!4m5!3m4!1s0x397c424e2c2b747f:0x9e9a720a874fd95a!8m2!3d23.2169658!4d77.4361249?authuser=0&hl=en&rclk=1,23.2169658,77.4361249,Madhya Pradesh
"Shalby Hospital, Indore",Private hospital,"Part 5 & 6 R S bhandari Marg, Janjeerwala Square, Indore, Madhya Pradesh 452003, India","https://www.google.co.kr/maps/place/Shalby+Hospital,+Indore/data=!4m5!3m4!1s0x3962fd41a51a4d29:0xd3ab2459a9410cb!8m2!3d22.7292038!4d75.8791?authuser=0&hl=en&rclk=1",22.7292038,75.8791,Madhya Pradesh
Padhar Hospital,Private hospital,"Post - Padhar, Dist. Betul, Buzurg, Padhar, Madhya Pradesh 460005, India",https://www.google.co.kr/maps/place/Padhar+Hospital/data=!4m5!3m4!1s0x3bd606c680d18d15:0x29a575772f500c19!8m2!3d22.0550641!4d77.8649009?authuser=0&hl=en&rclk=1,22.0550641,77.8649009,Madhya Pradesh
Narmada Trauma Centre,Hospital,"E3/23, E-3, Arera Colony, Bhopal, Madhya Pradesh 462016, India",https://www.google.co.kr/maps/place/Narmada+Trauma+Centre/data=!4m5!3m4!1s0x397c424f03088965:0x787b88f1dfdf2e1b!8m2!3d23.2176951!4d77.439246?authuser=0&hl=en&rclk=1,23.2176951,77.439246,Madhya Pradesh
Apple Hospital,General hospital,"15/1, Bhawarkua Main Rd, Transport Nagar, Indore, Madhya Pradesh 452008, India",https://www.google.co.kr/maps/place/Apple+Hospital/data=!4m5!3m4!1s0x3962fce495ee903f:0xf0b46034bc2ce47c!8m2!3d22.6939541!4d75.8665271?authuser=0&hl=en&rclk=1,22.6939541,75.8665271,Madhya Pradesh
Medanta Super Specialty Hospital,Hospital,"Shanti Hospital, 5, Shagun Arcade, Opposite U- Turn, Vijay Nagar, Indore, Madhya Pradesh 452016, India",https://www.google.co.kr/maps/place/Medanta+Super+Specialty+Hospital/data=!4m5!3m4!1s0x3962fd5596143bb7:0xa0053666a6c0dd5f!8m2!3d22.748823!4d75.89595?authuser=0&hl=en&rclk=1,22.748823,75.89595,Madhya Pradesh
Civil Hospital Lakhnadon,General hospital,"NH 44, Pathariya, Madhya Pradesh 480886, India",https://www.google.co.kr/maps/place/Civil+Hospital+Lakhnadon/data=!4m5!3m4!1s0x398017c5c6622927:0x3517693a83470777!8m2!3d22.6055502!4d79.5865072?authuser=0&hl=en&rclk=1,22.6055502,79.5865072,Madhya Pradesh
Anant Multispecialty Hospital,General hospital,"Madan Mahal Railway Station Rd, Wright Town, Jabalpur, Madhya Pradesh 482002, India",https://www.google.co.kr/maps/place/Anant+Multispecialty+Hospital/data=!4m5!3m4!1s0x3981ae02d5920c73:0x8623eab44b5a82b8!8m2!3d23.1654784!4d79.9222821?authuser=0&hl=en&rclk=1,23.1654784,79.9222821,Madhya Pradesh
District Hospital Bhind,General hospital,"BRAJ M. S. INFRONT OF DISTRICT HOSPITAL BHIND M. P, Madhya Pradesh 477001, India",https://www.google.co.kr/maps/place/District+Hospital+Bhind/data=!4m5!3m4!1s0x39767b183c78e849:0x8f6e005f5ad0fdfe!8m2!3d26.5660079!4d78.7826842?authuser=0&hl=en&rclk=1,26.5660079,78.7826842,Madhya Pradesh
Noble Multispeciality Hospital,General hospital,"Police Station, PlOt no. , 269/1, Hoshangabad Rd, opp. Misrod, Misrod, Bhopal, Madhya Pradesh 462026, India",https://www.google.co.kr/maps/place/Noble+Multispeciality+Hospital/data=!4m5!3m4!1s0x397c46aa62f19b87:0x471bc44d1447da13!8m2!3d23.1614051!4d77.4709874?authuser=0&hl=en&rclk=1,23.1614051,77.4709874,Madhya Pradesh
Vedant Hospital,General hospital,"1, Bhawarkua Main Rd, Sindhu Nagar, Khatiwala Tank, Indore, Madhya Pradesh 452001, India",https://www.google.co.kr/maps/place/Vedant+Hospital/data=!4m5!3m4!1s0x396302b08d1fbdf5:0xf553565471a23bb6!8m2!3d22.7023993!4d75.8619983?authuser=0&hl=en&rclk=1,22.7023993,75.8619983,Madhya Pradesh
AIIMS Hospital,Hospital,"AIIMS Campus Rd, AIIMS Campus, Saket Nagar, Habib Ganj, Bhopal, Madhya Pradesh 462026, India",https://www.google.co.kr/maps/place/AIIMS+Hospital/data=!4m5!3m4!1s0x397c43cd5a97dbd7:0xdbdb9ed3ed5b48c0!8m2!3d23.2094476!4d77.4581713?authuser=0&hl=en&rclk=1,23.2094476,77.4581713,Madhya Pradesh
Bombay Hospital,Hospital,"No.94, IDA Scheme, 95, Eastern Ring Rd, Tulsi Nagar, Vijay Nagar, Indore, Madhya Pradesh 452010, India",https://www.google.co.kr/maps/place/Bombay+Hospital/data=!4m5!3m4!1s0x39631d54503f21d3:0xc114629679b13584!8m2!3d22.754501!4d75.9035451?authuser=0&hl=en&rclk=1,22.754501,75.9035451,Madhya Pradesh
LBS Hospital,General hospital,"73, Motia Talab Rd, opp. Motia Lake, Motia Talab, Kali Basti, Kohefiza, Bhopal, Madhya Pradesh 462001, India",https://www.google.co.kr/maps/place/LBS+Hospital/data=!4m5!3m4!1s0x397c68109a91cba5:0x8d8a71b0bb8d528c!8m2!3d23.2648043!4d77.3937316?authuser=0&hl=en&rclk=1,23.2648043,77.3937316,Madhya Pradesh
Gokuldas Hospital,General hospital,"11 , DR SARJU PRASAD MARG 11, DR SARJU, Jagannath Verma Marg, Indore, Madhya Pradesh 452001, India",https://www.google.co.kr/maps/place/Gokuldas+Hospital/data=!4m5!3m4!1s0x3962fd162cde2ad7:0x2079ab196bd4cb31!8m2!3d22.7165807!4d75.87606?authuser=0&hl=en&rclk=1,22.7165807,75.87606,Madhya Pradesh
Bhabha General Hospital,General hospital,"5FFC+8PM, Jatkhedi, Bhopal, Madhya Pradesh 462047, India",https://www.google.co.kr/maps/place/Bhabha+General+Hospital/data=!4m5!3m4!1s0x397c414ffd965a15:0x66533af067707308!8m2!3d23.1733451!4d77.4717936?authuser=0&hl=en&rclk=1,23.1733451,77.4717936,Madhya Pradesh
Marble City Hospital,Private hospital,"No. 321, Parsi Anjuman Complex, Bhanwartal Extension, Napier Town, near Museum, Jabalpur, Madhya Pradesh 482001, India",https://www.google.co.kr/maps/place/Marble+City+Hospital/data=!4m5!3m4!1s0x3981ae0e87bba6cd:0x9c8cf4075ec94ac4!8m2!3d23.1633579!4d79.9354791?authuser=0&hl=en&rclk=1,23.1633579,79.9354791,Madhya Pradesh
Mayank Hospital,General hospital,"11/1, Manorama Ganj, Indore, Madhya Pradesh 452001, India",https://www.google.co.kr/maps/place/Mayank+Hospital/data=!4m5!3m4!1s0x3962fd377de50f6f:0x4ae5711d9937941d!8m2!3d22.7224885!4d75.8884399?authuser=0&hl=en&rclk=1,22.7224885,75.8884399,Madhya Pradesh
Greater Kailash Hospital,Private hospital,"11, 2, near Palasia, New Palasia, Thana, Madhya Pradesh 452018, India",https://www.google.co.kr/maps/place/Greater+Kailash+Hospital/data=!4m5!3m4!1s0x3962fd37f88331d9:0x5a167afc2b234776!8m2!3d22.7251626!4d75.8894895?authuser=0&hl=en&rclk=1,22.7251626,75.8894895,Madhya Pradesh
Anant Shree Multispeciality Hospital,General hospital,"No-1, 39 Gate, 40, Raisen Rd, canara bank Sector A, Indrapuri, Bhopal, Madhya Pradesh 462022, India",https://www.google.co.kr/maps/place/Anant+Shree+Multispeciality+Hospital/data=!4m5!3m4!1s0x397c4205e2c258ed:0x273815d0cde4986b!8m2!3d23.2512748!4d77.4595242?authuser=0&hl=en&rclk=1,23.2512748,77.4595242,Madhya Pradesh
Suyash Hospital,General hospital,"5, 1, AB Rd, opposite MGM Medical College, South Tukoganj, Indore, Madhya Pradesh 452001, India",https://www.google.co.kr/maps/place/Suyash+Hospital/data=!4m5!3m4!1s0x3962fd24c94dff33:0x1921cc5ec69a838!8m2!3d22.7137987!4d75.8840006?authuser=0&hl=en&rclk=1,22.7137987,75.8840006,Madhya Pradesh
"District Hospital, Khandwa",Government hospital,"RAJWADI RASOI, hotel chandrashree k niche, opp. Main hospital, Khandwa, Madhya Pradesh 450001, India","https://www.google.co.kr/maps/place/District+Hospital,+Khandwa/data=!4m5!3m4!1s0x3bd81b6c586efcb1:0x40492c74a4dce8f7!8m2!3d21.8239162!4d76.3451079?authuser=0&hl=en&rclk=1",21.8239162,76.3451079,Madhya Pradesh
Hamidia Hospital,Hospital,"Sultania Rd, Royal Market, Medical College Campus, Kohefiza, Bhopal, Madhya Pradesh 462001, India",https://www.google.co.kr/maps/place/Hamidia+Hospital/data=!4m5!3m4!1s0x397c681b0f664c0f:0xdc8f69cc6b507b8d!8m2!3d23.2602064!4d77.3935663?authuser=0&hl=en&rclk=1,23.2602064,77.3935663,Madhya Pradesh
Curewell Hospital Pvt Ltd,General hospital,"19/1-C, Lala Banarasilal Dawar Marg, New Palasia, Indore, Madhya Pradesh 452001, India",https://www.google.co.kr/maps/place/Curewell+Hospital+Pvt+Ltd/data=!4m5!3m4!1s0x3962fd6d5c629411:0x899dd71b949d68e4!8m2!3d22.7265355!4d75.8820565?authuser=0&hl=en&rclk=1,22.7265355,75.8820565,Madhya Pradesh
Bansal Hospital Bhopal ! A Multispecialty Hospital,General hospital,"Chuna Bhatti Rd, Manisha Market, Sector C, Shahpura, Bhopal, Madhya Pradesh 462016, India",https://www.google.co.kr/maps/place/Bansal+Hospital+Bhopal+!+A+Multispecialty+Hospital/data=!4m5!3m4!1s0x397c43bc9994d78d:0x7a01333cf1304a82!8m2!3d23.1994795!4d77.4199205?authuser=0&hl=en&rclk=1,23.1994795,77.4199205,Madhya Pradesh
Batra Hospital,Hospital,"No. 17, Chetak Bridge, near Jyoti Talkies, Chetak Bridge, Zone-I, Maharana Pratap Nagar, Bhopal, Madhya Pradesh 462023, India",https://www.google.co.kr/maps/place/Batra+Hospital/data=!4m5!3m4!1s0x397c4267c6729281:0x306fe67d12538475!8m2!3d23.233795!4d77.4346617?authuser=0&hl=en&rclk=1,23.233795,77.4346617,Madhya Pradesh
Shekhar Hospital,General hospital,"Nr Loyala Ashram, A 69, Shahpura Rd, Manisha Market, Sector A, Shahpura, Bhopal, Madhya Pradesh 462016, India",https://www.google.co.kr/maps/place/Shekhar+Hospital/data=!4m5!3m4!1s0x397c43a98885567f:0x5517422d1e9e84fe!8m2!3d23.2016381!4d77.4263761?authuser=0&hl=en&rclk=1,23.2016381,77.4263761,Madhya Pradesh
Sahara Hospital,General hospital,"19 A, Vijay Nagar Extension, Basant Vihar Colony, Lashkar, Gwalior, Madhya Pradesh 474002, India",https://www.google.co.kr/maps/place/Sahara+Hospital/data=!4m5!3m4!1s0x3976c42125bbf457:0x1b107a9a53f4a79d!8m2!3d26.2082202!4d78.1775402?authuser=0&hl=en&rclk=1,26.2082202,78.1775402,Madhya Pradesh
CHL Hospital Indore,Private hospital,"AB Rd, near L.I.G Square, Rss Nagar, Indore, Madhya Pradesh 452008, India",https://www.google.co.kr/maps/place/CHL+Hospital+Indore/data=!4m5!3m4!1s0x3962fd4f4dca1777:0x62bc8f8b155a8bd8!8m2!3d22.7322578!4d75.8893409?authuser=0&hl=en&rclk=1,22.7322578,75.8893409,Madhya Pradesh
Get Well Hospital,General hospital,"147, AB Road, Chana Godam, Near Ganesh Temple, Indore, Dr. Ambedkar Nagar, Madhya Pradesh 453441, India",https://www.google.co.kr/maps/place/Get+Well+Hospital/data=!4m5!3m4!1s0x3962f9d2bf447765:0xb92b32a3df251e85!8m2!3d22.5618886!4d75.7615413?authuser=0&hl=en&rclk=1,22.5618886,75.7615413,Madhya Pradesh
"Shalby Hospital, Jabalpur",Hospital,"Plot No-5, Street No-5, Ahinsa Chowk, Kanchan Vihar, Vijay Nagar, Jabalpur, Madhya Pradesh 482002, India","https://www.google.co.kr/maps/place/Shalby+Hospital,+Jabalpur/data=!4m5!3m4!1s0x3981b1ceffffffff:0x1896beef8f76d90f!8m2!3d23.1851185!4d79.9089208?authuser=0&hl=en&rclk=1",23.1851185,79.9089208,Madhya Pradesh
Janak Hospital,General hospital,"Near, Jinsi Marg Number 3, Roxy Pul, Kampoo, Gwalior, Madhya Pradesh 474009, India",https://www.google.co.kr/maps/place/Janak+Hospital/data=!4m5!3m4!1s0x3976c5cc3344ca07:0x2a2cc5c371cf657b!8m2!3d26.1965948!4d78.1521292?authuser=0&hl=en&rclk=1,26.1965948,78.1521292,Madhya Pradesh
Sharda Hospital,General hospital,"189, Geetanjali Rd, Aradhana Nagar, Bhopal, Madhya Pradesh 462003, India",https://www.google.co.kr/maps/place/Sharda+Hospital/data=!4m5!3m4!1s0x397c42c3f49de625:0x98d2981e3b07c808!8m2!3d23.221476!4d77.3959545?authuser=0&hl=en&rclk=1,23.221476,77.3959545,Madhya Pradesh
DNS Hospitals,Hospital,"14, Anoop Nagar, LIG Square, AB Rd, Indore, Madhya Pradesh 452008, India",https://www.google.co.kr/maps/place/DNS+Hospitals/data=!4m5!3m4!1s0x3962fd4f3b52f681:0x2af13e499a8d7e4c!8m2!3d22.7332458!4d75.8904578?authuser=0&hl=en&rclk=1,22.7332458,75.8904578,Madhya Pradesh
ESIC Hospital,General hospital,"462046, Patel Nagar, Industrial Area, Mandideep, Bhopal, Madhya Pradesh 462046, India",https://www.google.co.kr/maps/place/ESIC+Hospital/data=!4m5!3m4!1s0x397c47cb0b03a291:0xd213c9af97a16c3c!8m2!3d23.0938299!4d77.51875?authuser=0&hl=en&rclk=1,23.0938299,77.51875,Madhya Pradesh
India & Bhopal Test Tube Baby Centre,Hospital,"BUS STOP E-1, 13-A, 7 Number Chouraha, Arera Colony, Bhopal, Madhya Pradesh 462016, India",https://www.google.co.kr/maps/place/India+%26+Bhopal+Test+Tube+Baby+Centre/data=!4m5!3m4!1s0x397c425a502eb403:0x42c19ba6f8c2a372!8m2!3d23.2222111!4d77.4322167?authuser=0&hl=en&rclk=1,23.2222111,77.4322167,Madhya Pradesh
Hajela Hospital,Hospital,"Aradhana Nagar, Bhopal, Madhya Pradesh 462003, India",https://www.google.co.kr/maps/place/Hajela+Hospital/data=!4m5!3m4!1s0x397c42c6fa9482f9:0x17ed9239e0b82c6d!8m2!3d23.2248865!4d77.3933363?authuser=0&hl=en&rclk=1,23.2248865,77.3933363,Madhya Pradesh
Peoples Hospital,General hospital,"Berasiya Rd, E-4, Qazi Camp, Bhopal, Madhya Pradesh 462001, India",https://www.google.co.kr/maps/place/Peoples+Hospital/data=!4m5!3m4!1s0x397c4253aaaaaaab:0x52478f00ec02fab2!8m2!3d23.2111798!4d77.4329048?authuser=0&hl=en&rclk=1,23.2111798,77.4329048,Madhya Pradesh
Apollo Hospitals - Indore,Hospital,"Sector-D, Scheme No 74C, Vijay Nagar, Indore, Madhya Pradesh 452010, India",https://www.google.co.kr/maps/place/Apollo+Hospitals+-+Indore/data=!4m5!3m4!1s0x396302a4538a04c3:0x9d14df6569217682!8m2!3d22.7576026!4d75.8851248?authuser=0&hl=en&rclk=1,22.7576026,75.8851248,Madhya Pradesh
"District Hospital, Mandla",Government hospital,"35, District Hospital Sitapur St, Complex, Mandla, Madhya Pradesh 481661, India","https://www.google.co.kr/maps/place/District+Hospital,+Mandla/data=!4m5!3m4!1s0x398096b43bc59843:0xef4a7289a1b23d40!8m2!3d22.5962799!4d80.3703887?authuser=0&hl=en&rclk=1",22.5962799,80.3703887,Madhya Pradesh
Govt. Hospital Madhav Nagar,General hospital,"76, Vikram Marg, Madhav Nagar, Ujjain, Madhya Pradesh 456001, India",https://www.google.co.kr/maps/place/Govt.+Hospital+Madhav+Nagar/data=!4m5!3m4!1s0x3963746de19a3adf:0xd0b8d95d669dd46!8m2!3d23.1781395!4d75.7941292?authuser=0&hl=en&rclk=1,23.1781395,75.7941292,Madhya Pradesh
Shri Chaitanya Hospital,Private hospital,"Tilli Rd, Sri Ram Nagar, Gopal Ganj, Sagar, Madhya Pradesh 470001, India",https://www.google.co.kr/maps/place/Shri+Chaitanya+Hospital/data=!4m5!3m4!1s0x3978d1544ba161ef:0xd14f456f0fd3beca!8m2!3d23.8288098!4d78.7516626?authuser=0&hl=en&rclk=1,23.8288098,78.7516626,Madhya Pradesh
Siddhanta Hospital,General hospital,"Plot No. 14, DK-3, 15, Kolar Bypass Road, Danish Kunj, Bhopal, Madhya Pradesh 462042, India",https://www.google.co.kr/maps/place/Siddhanta+Hospital/data=!4m5!3m4!1s0x397c4382b92bda9f:0xcffe4be639bb7f3d!8m2!3d23.1713506!4d77.4253931?authuser=0&hl=en&rclk=1,23.1713506,77.4253931,Madhya Pradesh
Mahakaushal Hospital,Hospital,"Gate No. 3, Gau Mata Chowk Opp Nehru Stadium, Wright Town, Jabalpur, Madhya Pradesh 482002, India",https://www.google.co.kr/maps/place/Mahakaushal+Hospital/data=!4m5!3m4!1s0x3981ae04bd0af817:0x5104f0b7ca518b30!8m2!3d23.1644029!4d79.9256912?authuser=0&hl=en&rclk=1,23.1644029,79.9256912,Madhya Pradesh
Narmada Apna Hospital,General hospital,"Double Phatak Harda By pass Road, Hoshangabaad, Madhya Pradesh 461001, India",https://www.google.co.kr/maps/place/Narmada+Apna+Hospital/data=!4m5!3m4!1s0x397dcff6baca2ddd:0xd113eb68658c9845!8m2!3d22.7209558!4d77.7288891?authuser=0&hl=en&rclk=1,22.7209558,77.7288891,Madhya Pradesh
Hospital,General hospital,"4PXG+VV8, Gajandohe, Madhya Pradesh 480441, India",https://www.google.co.kr/maps/place/Hospital/data=!4m5!3m4!1s0x3bd57eb8d244e43f:0x39e471c1748897d2!8m2!3d22.1496579!4d78.7271928?authuser=0&hl=en&rclk=1,22.1496579,78.7271928,Madhya Pradesh
Chandak Hospital,Hospital,"Chandak Chowk Dalal Ghanta Ghar Road katni Chandak Chowk Dalal Ghanta Ghar, Road, Katni, Madhya Pradesh 483501, India",https://www.google.co.kr/maps/place/Chandak+Hospital/data=!4m5!3m4!1s0x398161e09633a755:0xbcb35401baa759d1!8m2!3d23.8385991!4d80.3872526?authuser=0&hl=en&rclk=1,23.8385991,80.3872526,Madhya Pradesh
OM Hospital,General hospital,"R.K Plaza C-39, near Prabhat Petrol Pump, Padmanabh Nagar, Govindpura, Bhopal, Madhya Pradesh 462023, India",https://www.google.co.kr/maps/place/OM+Hospital/data=!4m5!3m4!1s0x397c427945b7236b:0xd828fe5713818d33!8m2!3d23.2507246!4d77.4306894?authuser=0&hl=en&rclk=1,23.2507246,77.4306894,Madhya Pradesh
Hospital,Hospital,"7MF8+627, Mau, Madhya Pradesh 477222, India",https://www.google.co.kr/maps/place/Hospital/data=!4m5!3m4!1s0x39765f5daf2af767:0xbc5ca1c37777e2e!8m2!3d26.2730439!4d78.6650387?authuser=0&hl=en&rclk=1,26.2730439,78.6650387,Madhya Pradesh
India Hospital Search,Hospital,"NERA BPCL COLONY, NH 12, Surendra Palace, Vidya Nagar, Bhopal, Madhya Pradesh 462026, India",https://www.google.co.kr/maps/place/India+Hospital+Search/data=!4m5!3m4!1s0x397c43c820b5f07b:0xf38952e6163d205d!8m2!3d23.1990955!4d77.4471645?authuser=0&hl=en&rclk=1,23.1990955,77.4471645,Madhya Pradesh
Government District Hospital,Government hospital,"RQF4+327, Vaishali Nagar, Sagar, Madhya Pradesh 470002, India",https://www.google.co.kr/maps/place/Government+District+Hospital/data=!4m5!3m4!1s0x3978d3fc31194557:0x3c4315e56f34ff05!8m2!3d23.8226576!4d78.7550595?authuser=0&hl=en&rclk=1,23.8226576,78.7550595,Madhya Pradesh
CHL Jain Diwakar Hospital,General hospital,"Sagod Rd, Mohan Nagar, Dongre Nagar, Ratlam, Madhya Pradesh 457001, India",https://www.google.co.kr/maps/place/CHL+Jain+Diwakar+Hospital/data=!4m5!3m4!1s0x3963fe86a65a7043:0xee16cd243899da16!8m2!3d23.3268383!4d75.0200421?authuser=0&hl=en&rclk=1,23.3268383,75.0200421,Madhya Pradesh
District Hospital,Hospital,"Indra puri, Tikamgarh NH-12A, Tikamgarh-Jhansi Rd, Marg, Tikamgarh, Madhya Pradesh 472001, India",https://www.google.co.kr/maps/place/District+Hospital/data=!4m5!3m4!1s0x39784f59f0ba9de5:0xae2f60cae962b07a!8m2!3d24.7573049!4d78.8340266?authuser=0&hl=en&rclk=1,24.7573049,78.8340266,Madhya Pradesh
"CHL Medical Center Unit of CHL Hospitals, Indore",General hospital,"Hari Phatak, Road, Nana Kheda, Pragati Vihar, Ujjain, Madhya Pradesh 456001, India","https://www.google.co.kr/maps/place/CHL+Medical+Center+Unit+of+CHL+Hospitals,+Indore/data=!4m5!3m4!1s0x396374f59e2d66dd:0xe0d05176e5765b6d!8m2!3d23.160481!4d75.778488?authuser=0&hl=en&rclk=1",23.160481,75.778488,Madhya Pradesh
Jaya Arogya Hospital Group,Government hospital,"J. A. Hospital Campus, Lashkar, Gwalior, Madhya Pradesh 474009, India",https://www.google.co.kr/maps/place/Jaya+Arogya+Hospital+Group/data=!4m5!3m4!1s0x3976c43415555555:0xbc6ead086b3923db!8m2!3d26.1916375!4d78.1607183?authuser=0&hl=en&rclk=1,26.1916375,78.1607183,Madhya Pradesh
Govt Hospital,Hospital,"JXJR+GFP, Hoshangabad, Madhya Pradesh 461661, India",https://www.google.co.kr/maps/place/Govt+Hospital/data=!4m5!3m4!1s0x397e742356e32d71:0x36106e4d053d3bcc!8m2!3d22.6313464!4d77.9912185?authuser=0&hl=en&rclk=1,22.6313464,77.9912185,Madhya Pradesh
Noble Hospital Bhopal,Hospital,"J825+V95, Happy Villa Colony, Dhar, Madhya Pradesh 454001, India",https://www.google.co.kr/maps/place/Noble+Hospital+Bhopal/data=!4m5!3m4!1s0x3962373fe8aa5eb7:0x2eee732050818adf!8m2!3d22.6021496!4d75.3084748?authuser=0&hl=en&rclk=1,22.6021496,75.3084748,Madhya Pradesh
Adarsh Hospital,Hospital,"Plot No 69, Near Police Station, Badabagh, Shahjahanabad, Bhopal, Madhya Pradesh 462001, India",https://www.google.co.kr/maps/place/Adarsh+Hospital/data=!4m5!3m4!1s0x397c681136dc281b:0xa3410716cf0e7d3b!8m2!3d23.2678426!4d77.3950275?authuser=0&hl=en&rclk=1,23.2678426,77.3950275,Madhya Pradesh
Kalyan Memorial & KDJ Hospital,General hospital,"Mall Rd, Baradari Chauraha, Chik Santar, Sardar Bazar, Morar, Gwalior, Madhya Pradesh 474006, India",https://www.google.co.kr/maps/place/Kalyan+Memorial+%26+KDJ+Hospital/data=!4m5!3m4!1s0x3976c15fab615cd1:0xf39c4f26e282805f!8m2!3d26.2189816!4d78.2222995?authuser=0&hl=en&rclk=1,26.2189816,78.2222995,Madhya Pradesh
Central India Kidney Hospital (Dr. Ashwani Pathak),Hospital,"Chanchala Bai College, Behind, Wright Town, Jabalpur, Madhya Pradesh 482002, India",https://www.google.co.kr/maps/place/Central+India+Kidney+Hospital+(Dr.+Ashwani+Pathak)/data=!4m5!3m4!1s0x3981ae1cabbfc665:0x398ba66fe9f0891c!8m2!3d23.165995!4d79.9246089?authuser=0&hl=en&rclk=1,23.165995,79.9246089,Madhya Pradesh
Hospital,Hospital,"79CJ+GGR, Idgah Hills, Bhopal, Madhya Pradesh 462001, India",https://www.google.co.kr/maps/place/Hospital/data=!4m5!3m4!1s0x397c680b00000001:0x6e42c0c6d4acf84d!8m2!3d23.2713671!4d77.3812745?authuser=0&hl=en&rclk=1,23.2713671,77.3812745,Madhya Pradesh
Bima Hospital,General hospital,"Raisen Rd, Near Bima Astal, Sonagiri, Bhopal, Madhya Pradesh 462022, India",https://www.google.co.kr/maps/place/Bima+Hospital/data=!4m5!3m4!1s0x397c420248db863f:0xca32e00b2a1b5447!8m2!3d23.2504351!4d77.4678588?authuser=0&hl=en&rclk=1,23.2504351,77.4678588,Madhya Pradesh
Hospital,Hospital,"8C3Q+2CQ, Silwani, Madhya Pradesh 464886, India",https://www.google.co.kr/maps/place/Hospital/data=!4m5!3m4!1s0x397ee84f23d8ecef:0xd00bbcf3c948a0aa!8m2!3d23.3025881!4d78.4386083?authuser=0&hl=en&rclk=1,23.3025881,78.4386083,Madhya Pradesh
Aditya Hospital,Hospital,"Napier Town, opposite little kingdom School, near to home Science College road, Jabalpur, Madhya Pradesh 482002, India",https://www.google.co.kr/maps/place/Aditya+Hospital/data=!4m5!3m4!1s0x3981ae05da6fc401:0x7d49fbb00672c4b5!8m2!3d23.1606231!4d79.9286051?authuser=0&hl=en&rclk=1,23.1606231,79.9286051,Madhya Pradesh
District Hospital,Hospital,"Bankhedi, Hoshangabad, SH-22, Hoshangabad, Hoshangabad, Madhya Pradesh 461990, India",https://www.google.co.kr/maps/place/District+Hospital/data=!4m5!3m4!1s0x397e4e2ce8044501:0xd59946e4792a0707!8m2!3d22.7677!4d78.5221?authuser=0&hl=en&rclk=1,22.7677,78.5221,Madhya Pradesh
Agrawal Hospital,Hospital,"E- 3/34, Arera Colony, Opp, Railway Crossing, Habib Ganj, Bhopal, Madhya Pradesh 462016, India",https://www.google.co.kr/maps/place/Agrawal+Hospital/data=!4m5!3m4!1s0x397c684821a25567:0xea8ec0fe7667c12a!8m2!3d23.2156538!4d77.4393889?authuser=0&hl=en&rclk=1,23.2156538,77.4393889,Madhya Pradesh
Ayushman Clinic,Hospital,"4MFM+MW9, Deori, Madhya Pradesh 464774, India",https://www.google.co.kr/maps/place/Ayushman+Clinic/data=!4m5!3m4!1s0x397f030ca55c9185:0x6185f62cdd9bc6de!8m2!3d23.1241528!4d78.6848512?authuser=0&hl=en&rclk=1,23.1241528,78.6848512,Madhya Pradesh
NTPC vindhyanagar Hospital,Hospital,"NH - 3, Dist, Vindhyanagar, Madhya Pradesh 486886, India",https://www.google.co.kr/maps/place/NTPC+vindhyanagar+Hospital/data=!4m5!3m4!1s0x398f31312e96d679:0xe47f1042d780da88!8m2!3d24.092546!4d82.6560056?authuser=0&hl=en&rclk=1,24.092546,82.6560056,Madhya Pradesh
Sagarshree Hospital,Hospital,"Sagar Rd, Shri Prabhakar Nagar, Makroniya, Madhya Pradesh 470004, India",https://www.google.co.kr/maps/place/Sagarshree+Hospital/data=!4m5!3m4!1s0x3978d1a57ea171af:0x3425205563e2fe3b!8m2!3d23.8643029!4d78.801786?authuser=0&hl=en&rclk=1,23.8643029,78.801786,Madhya Pradesh
Sanjay Gandhi Memorial Hospital,Government hospital,"College Rd, near Medical College, Sanjay Gandhi Medical Hospital, Hari Bhushan Nagar, Rewa, Madhya Pradesh 486001, India",https://www.google.co.kr/maps/place/Sanjay+Gandhi+Memorial+Hospital/data=!4m5!3m4!1s0x39845a4a98bdb30d:0x2b3a735d12fb75eb!8m2!3d24.5325992!4d81.2983064?authuser=0&hl=en&rclk=1,24.5325992,81.2983064,Madhya Pradesh
Chhoti Hospital,Hospital,"9, Nehru Marg, Chameli Chowk, Moti Nagar, Sagar, Madhya Pradesh 470002, India",https://www.google.co.kr/maps/place/Chhoti+Hospital/data=!4m5!3m4!1s0x3978d6bb18db5673:0xa4c647ac96595369!8m2!3d23.8377582!4d78.7314026?authuser=0&hl=en&rclk=1,23.8377582,78.7314026,Madhya Pradesh
नर्मदा श्री क्लीनिक,Hospital,"Barha Rd, Babai Kalan, Madhya Pradesh 487881, India",https://www.google.co.kr/maps/place/%E0%A4%A8%E0%A4%B0%E0%A5%8D%E0%A4%AE%E0%A4%A6%E0%A4%BE+%E0%A4%B6%E0%A5%8D%E0%A4%B0%E0%A5%80+%E0%A4%95%E0%A5%8D%E0%A4%B2%E0%A5%80%E0%A4%A8%E0%A4%BF%E0%A4%95/data=!4m5!3m4!1s0x397fad218b3ddf55:0x2418469dbfc9d77e!8m2!3d22.838504!4d78.7464875?authuser=0&hl=en&rclk=1,22.838504,78.7464875,Madhya Pradesh
Hospital( Dr.marabi ),Children's hospital,"W6X2+GFP, Kandeli, Madhya Pradesh 487001, India",https://www.google.co.kr/maps/place/Hospital(+Dr.marabi+)/data=!4m5!3m4!1s0x397f83333e871d13:0x27d961655a82624a!8m2!3d22.9488341!4d79.2012183?authuser=0&hl=en&rclk=1,22.9488341,79.2012183,Madhya Pradesh
Hospital,Hospital,"863R+Q59, Chhuwadei, Madhya Pradesh 480221, India",https://www.google.co.kr/maps/place/Hospital/data=!4m5!3m4!1s0x397ffd016ebaf3c1:0x7bf1ff7b64980015!8m2!3d22.3044046!4d79.2404801?authuser=0&hl=en&rclk=1,22.3044046,79.2404801,Madhya Pradesh
Esi Hospital,Hospital,"6H2P+X62, OPM Amlai, Amlai, Madhya Pradesh 484117, India",https://www.google.co.kr/maps/place/Esi+Hospital/data=!4m5!3m4!1s0x3986548a462bc64b:0x1e9c27a6cf52b54e!8m2!3d23.2023765!4d81.5855016?authuser=0&hl=en&rclk=1,23.2023765,81.5855016,Madhya Pradesh
Pushpanjali SuperSpeciality Hospital & Test Tube baby center,Hospital,"Zone 13, Ward 52, Aakriti Eco City Rd, opposite of Shubhalaya Vihar, Bawadiya Kalan, Salaiya, Bhopal, Madhya Pradesh 462039, India",https://www.google.co.kr/maps/place/Pushpanjali+SuperSpeciality+Hospital+%26+Test+Tube+baby+center/data=!4m5!3m4!1s0x397c43a461ecefd7:0xe0204283f261fc41!8m2!3d23.173959!4d77.4382783?authuser=0&hl=en&rclk=1,23.173959,77.4382783,Madhya Pradesh
Nigam orthopedic Hospital,Hospital,"Azad Marg, Pochaupati, Dhar, Madhya Pradesh 454001, India",https://www.google.co.kr/maps/place/Nigam+orthopedic+Hospital/data=!4m5!3m4!1s0x396237fe4af21ddf:0x7aeb980877b3254b!8m2!3d22.5983787!4d75.3010292?authuser=0&hl=en&rclk=1,22.5983787,75.3010292,Madhya Pradesh
Govt. Hospital,Government hospital,"3GG4+XVR, Udaipura, Madhya Pradesh 464770, India",https://www.google.co.kr/maps/place/Govt.+Hospital/data=!4m5!3m4!1s0x397efa3851ef8a5b:0x7bf63d2c852d58fc!8m2!3d23.0774766!4d78.5071532?authuser=0&hl=en&rclk=1,23.0774766,78.5071532,Madhya Pradesh
Swami Vivekanand Regional Spine Center,Hospital,"Hoshangabad Rd, next to Reserve Bank of India, Arera Hills, Bhopal, Madhya Pradesh 462011, India",https://www.google.co.kr/maps/place/Swami+Vivekanand+Regional+Spine+Center/data=!4m5!3m4!1s0x397c42648857b38b:0x828bc03f12ad5318!8m2!3d23.2404985!4d77.431236?authuser=0&hl=en&rclk=1,23.2404985,77.431236,Madhya Pradesh
Hospital,Hospital,"H8WR+M69, Begumganj, Madhya Pradesh 464881, India",https://www.google.co.kr/maps/place/Hospital/data=!4m5!3m4!1s0x397ec9783bc4b57f:0x65780670a89fdbb0!8m2!3d23.5966667!4d78.3406016?authuser=0&hl=en&rclk=1,23.5966667,78.3406016,Madhya Pradesh
Arogya Hospital,Hospital,"Nh-12, near Central Bank Of India, Mandideep, Madhya Pradesh 462046, India",https://www.google.co.kr/maps/place/Arogya+Hospital/data=!4m5!3m4!1s0x397c464b9e15bd89:0x83ade872d6741f04!8m2!3d23.102293!4d77.513137?authuser=0&hl=en&rclk=1,23.102293,77.513137,Madhya Pradesh
Govt. Hospital,Hospital,"X9W2+4HC, Untiya Kalan, Madhya Pradesh 464668, India",https://www.google.co.kr/maps/place/Govt.+Hospital/data=!4m5!3m4!1s0x397ef574f6d4c181:0xc7d9c6b2bc8e7a1f!8m2!3d22.9953117!4d78.3513929?authuser=0&hl=en&rclk=1,22.9953117,78.3513929,Madhya Pradesh
Govt Hospital,Hospital,"4W6G+RMG, Dobhi, Madhya Pradesh 487334, India",https://www.google.co.kr/maps/place/Govt+Hospital/data=!4m5!3m4!1s0x397f0e9fa4ad9fe5:0x1e75fbfd15b32351!8m2!3d23.1120534!4d78.9266915?authuser=0&hl=en&rclk=1,23.1120534,78.9266915,Madhya Pradesh
DEEP SHIKHA HOSPITAL,Hospital,"Hoshangabad Rd, Vidya Nagar, Bhopal, Madhya Pradesh 462026, India",https://www.google.co.kr/maps/place/DEEP+SHIKHA+HOSPITAL/data=!4m5!3m4!1s0x397c43c726b6f8b5:0x8f17df80f8fb9b7c!8m2!3d23.1963536!4d77.4478586?authuser=0&hl=en&rclk=1,23.1963536,77.4478586,Madhya Pradesh
Govt. Hospital Sihora,Government hospital,"WWC6+XF7, Narsinghpur, Madhya Pradesh 487441, India",https://www.google.co.kr/maps/place/Govt.+Hospital+Sihora/data=!4m5!3m4!1s0x397fa6c0b7f3f00b:0xb5c1b1a92b87537b!8m2!3d22.9224182!4d78.9111679?authuser=0&hl=en&rclk=1,22.9224182,78.9111679,Madhya Pradesh
Gov. Hospital,Hospital,"V7R5+84H, Narsinghpur, Madhya Pradesh 487001, India",https://www.google.co.kr/maps/place/Gov.+Hospital/data=!4m5!3m4!1s0x397f8444959c04f9:0xba4b802a67942e93!8m2!3d22.8908066!4d79.2578652?authuser=0&hl=en&rclk=1,22.8908066,79.2578652,Madhya Pradesh
Govt.Hospital,Hospital,"C65C+2XV, Gairatganj, Madhya Pradesh 464884, India",https://www.google.co.kr/maps/place/Govt.Hospital/data=!4m5!3m4!1s0x397ebeb5a974d735:0xf26eeb4c97d8234e!8m2!3d23.4076108!4d78.2224233?authuser=0&hl=en&rclk=1,23.4076108,78.2224233,Madhya Pradesh
Lakhnadon Christian Hospital,Hospital,"Sub, Jail Road, Lakhnadon, Madhya Pradesh 480886, India",https://www.google.co.kr/maps/place/Lakhnadon+Christian+Hospital/data=!4m5!3m4!1s0x3980174282ea44c1:0x773aee26f0cc5ed2!8m2!3d22.6050837!4d79.6099102?authuser=0&hl=en&rclk=1,22.6050837,79.6099102,Madhya Pradesh
CHC Ghoradongri,Government hospital,"Hospital, CHC Ghoradongri, Ghoradongri, Madhya Pradesh 460443, India",https://www.google.co.kr/maps/place/CHC+Ghoradongri/data=!4m5!3m4!1s0x3bd5fedfb33be07d:0xd1b74acd9791e545!8m2!3d22.1240089!4d77.9986006?authuser=0&hl=en&rclk=1,22.1240089,77.9986006,Madhya Pradesh
khan Hospital,Hospital,"J57W+83H, Sardarpur, Madhya Pradesh 464331, India",https://www.google.co.kr/maps/place/khan+Hospital/data=!4m5!3m4!1s0x397eb3f15c7cd2df:0x5e5de124d9d67c04!8m2!3d23.613313!4d78.1952277?authuser=0&hl=en&rclk=1,23.613313,78.1952277,Madhya Pradesh
Balaji Fracture & General Hospital,General hospital,"Raisen Rd, Near Piplani Petrol Pump, Sector A, Sonagiri, Bhopal, Madhya Pradesh 462021, India",https://www.google.co.kr/maps/place/Balaji+Fracture+%26+General+Hospital/data=!4m5!3m4!1s0x397c41f8f35288f9:0x9190381b65b61b57!8m2!3d23.250338!4d77.471665?authuser=0&hl=en&rclk=1,23.250338,77.471665,Madhya Pradesh
Abhay Clinic,Hospital,"428H+GW9, Lolri, Madhya Pradesh 487330, India",https://www.google.co.kr/maps/place/Abhay+Clinic/data=!4m5!3m4!1s0x397f73480df842a1:0x26a9e9625722ff2b!8m2!3d23.1162946!4d79.0298477?authuser=0&hl=en&rclk=1,23.1162946,79.0298477,Madhya Pradesh
Gajanan Clinic,Hospital,"Kanskheda Rd, Deori, Madhya Pradesh 470226, India",https://www.google.co.kr/maps/place/Gajanan+Clinic/data=!4m5!3m4!1s0x397f3ff7caeb93df:0xf1c0351364f494b8!8m2!3d23.3897525!4d79.0179902?authuser=0&hl=en&rclk=1,23.3897525,79.0179902,Madhya Pradesh
T Choithram Charitable Hospital,Hospital,"30, Risi Nagar, Godha Colony, Indore, Madhya Pradesh 452009, India",https://www.google.co.kr/maps/place/T+Choithram+Charitable+Hospital/data=!4m5!3m4!1s0x3962fd6d5c629411:0xd5b2c53cd02e57c9!8m2!3d22.7195687!4d75.8577258?authuser=0&hl=en&rclk=1,22.7195687,75.8577258,Madhya Pradesh
GCF Hospital,Hospital,"Jabalpur Rd, GCF Estate, Jabalpur, Madhya Pradesh 482011, India",https://www.google.co.kr/maps/place/GCF+Hospital/data=!4m5!3m4!1s0x3981aeec14dd4f59:0x85823c49c50a0093!8m2!3d23.18158!4d79.9706033?authuser=0&hl=en&rclk=1,23.18158,79.9706033,Madhya Pradesh
Dubey Hospital,Hospital,"Bazar Chowk, Singhpur, Madhya Pradesh 487110, India",https://www.google.co.kr/maps/place/Dubey+Hospital/data=!4m5!3m4!1s0x397f9b3a77794215:0x9ed12ca0306c5257!8m2!3d22.8864761!4d79.1865957?authuser=0&hl=en&rclk=1,22.8864761,79.1865957,Madhya Pradesh
Goverment Hospital,Hospital,"W4FF+7R9, Amla, Madhya Pradesh 460551, India",https://www.google.co.kr/maps/place/Goverment+Hospital/data=!4m5!3m4!1s0x3bd5ef42f3b9ed25:0xce34e13fa7639d46!8m2!3d21.9231708!4d78.1246001?authuser=0&hl=en&rclk=1,21.9231708,78.1246001,Madhya Pradesh
Govt. Hospital,Hospital,"JR2R+6VM, Chandon, Madhya Pradesh 461111, India",https://www.google.co.kr/maps/place/Govt.+Hospital/data=!4m5!3m4!1s0x397dde9c0b733261:0x5ea501b2591d0796!8m2!3d22.6005786!4d77.8421769?authuser=0&hl=en&rclk=1,22.6005786,77.8421769,Madhya Pradesh
Pashu Hospital Maheshwar,Hospital,"5HHP+PMV, Maheshwar, Madhya Pradesh 451224, India",https://www.google.co.kr/maps/place/Pashu+Hospital+Maheshwar/data=!4m5!3m4!1s0x396264c4b9e9bf6f:0xe3cf7c9a1f5aed1a!8m2!3d22.1793665!4d75.5866776?authuser=0&hl=en&rclk=1,22.1793665,75.5866776,Madhya Pradesh
Dr. Naveen soni Om fracture trama hospital,Hospital,"Damoh Hospital Road, Teen Gulli, Damoh, Madhya Pradesh 470661, India",https://www.google.co.kr/maps/place/Dr.+Naveen+soni+Om+fracture+trama+hospital/data=!4m5!3m4!1s0x3982018746da90ab:0x91cb8f9d283bb937!8m2!3d23.8335247!4d79.43173?authuser=0&hl=en&rclk=1,23.8335247,79.43173,Madhya Pradesh
Doctors Clinic,Hospital,"WRVC+W3R, Koudiya, Madhya Pradesh 487555, India",https://www.google.co.kr/maps/place/Doctors+Clinic/data=!4m5!3m4!1s0x397fa866b9986ccb:0x7ff1cbff00f78374!8m2!3d22.9448523!4d78.8201284?authuser=0&hl=en&rclk=1,22.9448523,78.8201284,Madhya Pradesh
General Hospital,Hospital,"Budni, Sehore, NH-69, Sehore, Sehore, Madhya Pradesh 466445, India",https://www.google.co.kr/maps/place/General+Hospital/data=!4m5!3m4!1s0x397dce9aa6ab24bf:0x907316e7f7ff670e!8m2!3d22.7954!4d77.6869?authuser=0&hl=en&rclk=1,22.7954,77.6869,Madhya Pradesh
Maharaja Yeshwantrao Hospital,Hospital,"MY Hospital Rd, CRP Line, Indore, Madhya Pradesh 452010, India",https://www.google.co.kr/maps/place/Maharaja+Yeshwantrao+Hospital/data=!4m5!3m4!1s0x3962fd6d5c629411:0x4223bd13f166339!8m2!3d22.7134701!4d75.8803582?authuser=0&hl=en&rclk=1,22.7134701,75.8803582,Madhya Pradesh
Meenakshi Hospital,Hospital,"E-5/38 Arera Colony Behind Baghira Apartment, near Bittan Market, Bhopal, Madhya Pradesh 462016, India",https://www.google.co.kr/maps/place/Meenakshi+Hospital/data=!4m5!3m4!1s0x397c42540713be0b:0xcc443a227636155f!8m2!3d23.213367!4d77.42993?authuser=0&hl=en&rclk=1,23.213367,77.42993,Madhya Pradesh
A.K. Hospital,Private hospital,"7th Block, Sanjay Complex, Main Road 2,, Mata Mandir,, Bhopal, Madhya Pradesh 462003, India",https://www.google.co.kr/maps/place/A.K.+Hospital/data=!4m5!3m4!1s0x397c42c1936a7091:0xb7d225a30b8c7f50!8m2!3d23.2241266!4d77.3998514?authuser=0&hl=en&rclk=1,23.2241266,77.3998514,Madhya Pradesh
Mount Hospital Bhopal,Hospital,"Bagmugaliya, Bhopal, Madhya Pradesh 462043, India",https://www.google.co.kr/maps/place/Mount+Hospital+Bhopal/data=!4m5!3m4!1s0x397c413262228e01:0xc4c9e190b422b33e!8m2!3d23.1942467!4d77.4738133?authuser=0&hl=en&rclk=1,23.1942467,77.4738133,Madhya Pradesh
Akshaya Heart And Multi Speciality Hospital,Heart hospital,"No.11, Link Road No.3, Rishi Nagar, opposite Ekant Park, Char Imli, Bhopal, Madhya Pradesh 462016, India",https://www.google.co.kr/maps/place/Akshaya+Heart+And+Multi+Speciality+Hospital/data=!4m5!3m4!1s0x397c4252d7743c7b:0xaa70985f86851e6a!8m2!3d23.217491!4d77.423616?authuser=0&hl=en&rclk=1,23.217491,77.423616,Madhya Pradesh
Pranju medical,Hospital,"MPEB Colony, Gayatri Nagar, Gadarwara, Madhya Pradesh 487551, India",https://www.google.co.kr/maps/place/Pranju+medical/data=!4m5!3m4!1s0x397fa9132c3275ef:0x679c6d34865b58fa!8m2!3d22.9193539!4d78.7705992?authuser=0&hl=en&rclk=1,22.9193539,78.7705992,Madhya Pradesh
Public Hospital,Hospital,"2MHJ+69P, Gouharganj, Madhya Pradesh 464990, India",https://www.google.co.kr/maps/place/Public+Hospital/data=!4m5!3m4!1s0x397c311742ef0b99:0x896df09e8a7bcca4!8m2!3d23.0280756!4d77.6809406?authuser=0&hl=en&rclk=1,23.0280756,77.6809406,Madhya Pradesh
M. Y. hospital Indore,Hospital,"Shree Nagar Ext, Shree Nagar Extension, Shree Nagar, Indore, Madhya Pradesh 452010, India",https://www.google.co.kr/maps/place/M.+Y.+hospital+Indore/data=!4m5!3m4!1s0x3962fd8099480e5b:0xc96ab08a29a7fdf8!8m2!3d22.7156511!4d75.8820024?authuser=0&hl=en&rclk=1,22.7156511,75.8820024,Madhya Pradesh
Shavitri Narshing Home,Hospital,"WQCJ+Q2P, Gadarwara, Madhya Pradesh 487551, India",https://www.google.co.kr/maps/place/Shavitri+Narshing+Home/data=!4m5!3m4!1s0x397fa9104065d16d:0x2072fa815d36cbcf!8m2!3d22.9219643!4d78.7800632?authuser=0&hl=en&rclk=1,22.9219643,78.7800632,Madhya Pradesh
"District Hospital, Panna",Hospital,"Hospital Rd, Irrigation Colony, Panna, Madhya Pradesh 488001, India","https://www.google.co.kr/maps/place/District+Hospital,+Panna/data=!4m5!3m4!1s0x3983038f5802533f:0x7b4fd892e7dd4107!8m2!3d24.7120671!4d80.1812733?authuser=0&hl=en&rclk=1",24.7120671,80.1812733,Madhya Pradesh
PHC (Hospital),Hospital,"Bhagwa Bazar Patti, Madhya Pradesh 471313, India",https://www.google.co.kr/maps/place/PHC+(Hospital)/data=!4m5!3m4!1s0x3978631b5821c43f:0xcc74489477cfa24b!8m2!3d24.5658658!4d79.1668609?authuser=0&hl=en&rclk=1,24.5658658,79.1668609,Madhya Pradesh
Narmada hospital,Hospital,"23, Habibganj Rd, E-3, Arera Colony, Bhopal, Madhya Pradesh 462016, India",https://www.google.co.kr/maps/place/Narmada+hospital/data=!4m5!3m4!1s0x397c434c2c9b6d07:0x7b110f2f94c5e78c!8m2!3d23.2177843!4d77.4392019?authuser=0&hl=en&rclk=1,23.2177843,77.4392019,Madhya Pradesh
National Hospital,Hospital,"Wright Town, Jabalpur, Madhya Pradesh 482002, India",https://www.google.co.kr/maps/place/National+Hospital/data=!4m5!3m4!1s0x3981ae1a3f01f003:0xe2ea8fac573380ab!8m2!3d23.170639!4d79.9288529?authuser=0&hl=en&rclk=1,23.170639,79.9288529,Madhya Pradesh
Govt Hospital Chhapara,Hospital,"9GRR+PX3, Chhapara, Madhya Pradesh 480884, India",https://www.google.co.kr/maps/place/Govt+Hospital+Chhapara/data=!4m5!3m4!1s0x398005e9412bd3f5:0x1b206567979a0062!8m2!3d22.3917673!4d79.5424097?authuser=0&hl=en&rclk=1,22.3917673,79.5424097,Madhya Pradesh
Government Hospital Piprai,Hospital,"GX49+CW8, Pipraigaon, Madhya Pradesh 473440, India",https://www.google.co.kr/maps/place/Government+Hospital+Piprai/data=!4m5!3m4!1s0x397980d71852be05:0x59b1a26bacf16f95!8m2!3d24.5060408!4d77.9698309?authuser=0&hl=en&rclk=1,24.5060408,77.9698309,Madhya Pradesh
"District Hospital, Indore",Hospital,"47, Dhar Rd, Sector A, Gujrati Colony, Indore, Madhya Pradesh 452002, India","https://www.google.co.kr/maps/place/District+Hospital,+Indore/data=!4m5!3m4!1s0x3962fdb7fb962a31:0x4370ce2e543b849d!8m2!3d22.7101298!4d75.8311614?authuser=0&hl=en&rclk=1",22.7101298,75.8311614,Madhya Pradesh
Narmada Health City,Hospital,"Chandpur, Dobara, Gandhi Nagar, Bhopal, Bhopal, Madhya Pradesh 462030, India",https://www.google.co.kr/maps/place/Narmada+Health+City/data=!4m5!3m4!1s0x397c66742ab80e0b:0x184451ae301caeab!8m2!3d23.338965!4d77.349758?authuser=0&hl=en&rclk=1,23.338965,77.349758,Madhya Pradesh
Government Hospital,Hospital,"Dhamnod Rd, Maheshwar, Madhya Pradesh 451224, India",https://www.google.co.kr/maps/place/Government+Hospital/data=!4m5!3m4!1s0x396264db63649db3:0x9770e3660416574b!8m2!3d22.1799341!4d75.5838346?authuser=0&hl=en&rclk=1,22.1799341,75.5838346,Madhya Pradesh
ESI Hospital,Hospital,"65CP+H4R, Railway Colony, Gwalior, Madhya Pradesh 474002, India",https://www.google.co.kr/maps/place/ESI+Hospital/data=!4m5!3m4!1s0x3976c6a47e548dd1:0x729da008ae33d1fb!8m2!3d26.2214836!4d78.1852506?authuser=0&hl=en&rclk=1,26.2214836,78.1852506,Madhya Pradesh
District Hospital Hoshangabad,Hospital,"Jagdish Pura, Hoshangabad, Madhya Pradesh 461001, India",https://www.google.co.kr/maps/place/District+Hospital+Hoshangabad/data=!4m5!3m4!1s0x397dcfb437829c11:0x3dc5b0280835dd1a!8m2!3d22.7577921!4d77.7187765?authuser=0&hl=en&rclk=1,22.7577921,77.7187765,Madhya Pradesh
Apple Hospital,Hospital,"No. 115, Link Rd Number 2, Zone-II, Maharana Pratap Nagar, Bhopal, Madhya Pradesh 462011, India",https://www.google.co.kr/maps/place/Apple+Hospital/data=!4m5!3m4!1s0x397c4258e749b185:0x7e475af0307ae27d!8m2!3d23.2237696!4d77.4267757?authuser=0&hl=en&rclk=1,23.2237696,77.4267757,Madhya Pradesh
District Hospital SIDHI- M.P,Government hospital,"Sidhi, Madhya Pradesh 486661, India",https://www.google.co.kr/maps/place/District+Hospital+SIDHI-+M.P/data=!4m5!3m4!1s0x39859611d8e57675:0x66a79876ca29fd5b!8m2!3d24.4127244!4d81.8807676?authuser=0&hl=en&rclk=1,24.4127244,81.8807676,Madhya Pradesh
Mp Heath Corporation,Government hospital,"6CQG+XVV, Arera Hills, Bhopal, Madhya Pradesh 462027, India",https://www.google.co.kr/maps/place/Mp+Heath+Corporation/data=!4m5!3m4!1s0x397c4263aaaaaaab:0x218f18aed3276e08!8m2!3d23.239979!4d77.4271665?authuser=0&hl=en&rclk=1,23.239979,77.4271665,Madhya Pradesh
Hospital,Hospital,"J449+2W2, Dhar, Madhya Pradesh 454441, India",https://www.google.co.kr/maps/place/Hospital/data=!4m5!3m4!1s0x39622d0ba2533a7d:0xe048f2a30f1adaf7!8m2!3d22.6050187!4d75.1197696?authuser=0&hl=en&rclk=1,22.6050187,75.1197696,Madhya Pradesh
JK Hospital,Hospital,"2006, Wright Town, Jabalpur, Madhya Pradesh 482002, India",https://www.google.co.kr/maps/place/JK+Hospital/data=!4m5!3m4!1s0x3981ae1b391b1f2f:0xb93320dc8fc4a45a!8m2!3d23.1668193!4d79.9264725?authuser=0&hl=en&rclk=1,23.1668193,79.9264725,Madhya Pradesh
District Hospital,Hospital,"Barwani, Madhya Pradesh 451551, India",https://www.google.co.kr/maps/place/District+Hospital/data=!4m5!3m4!1s0x3961f914f2c26889:0x81f758c115586575!8m2!3d22.0344757!4d74.8998405?authuser=0&hl=en&rclk=1,22.0344757,74.8998405,Madhya Pradesh
बवासीर का इलाज,Hospital,"M. P., India, Amer Complex, 1st floor, In Front of PNB Bank, MP Nagar, Zone – 2, Habibganj Rd, Zone-II, Maharana Pratap Nagar, Bhopal, Madhya Pradesh 462023, India",https://www.google.co.kr/maps/place/%E0%A4%AC%E0%A4%B5%E0%A4%BE%E0%A4%B8%E0%A5%80%E0%A4%B0+%E0%A4%95%E0%A4%BE+%E0%A4%87%E0%A4%B2%E0%A4%BE%E0%A4%9C/data=!4m5!3m4!1s0x397c42433b4e9191:0x757d6879053810da!8m2!3d23.2317458!4d77.4347653?authuser=0&hl=en&rclk=1,23.2317458,77.4347653,Madhya Pradesh
Bhopal memorial hospital,Hospital,"New Kabira Apartment, 7, Regiment Rd, Teela Jamalpura, Jamalpura, Bhopal, Madhya Pradesh 462001, India",https://www.google.co.kr/maps/place/Bhopal+memorial+hospital/data=!4m5!3m4!1s0x397c6930cf1ddcf5:0x8bd520e2c922807d!8m2!3d23.2780191!4d77.3964235?authuser=0&hl=en&rclk=1,23.2780191,77.3964235,Madhya Pradesh
Jai Prakash District Hospital,Government hospital,"1250, Link Road No.2 Tulsi Nagar, Shivaji Nagar, Bhopal, Madhya Pradesh 462001, India",https://www.google.co.kr/maps/place/Jai+Prakash+District+Hospital/data=!4m5!3m4!1s0x397c42f34ed7cf71:0x709bc9c2777af6a8!8m2!3d23.2299153!4d77.417545?authuser=0&hl=en&rclk=1,23.2299153,77.417545,Madhya Pradesh
District Hospital,Hospital,"f 8, Barapatthar Rd, Ekta Colony, Barapatthar, Seoni, Madhya Pradesh 480661, India",https://www.google.co.kr/maps/place/District+Hospital/data=!4m5!3m4!1s0x3a2aaffd05265449:0x12a937d46915a0a8!8m2!3d22.0956392!4d79.551266?authuser=0&hl=en&rclk=1,22.0956392,79.551266,Madhya Pradesh
District Hospital Ujjain,Government hospital,"Shrimant Maharaja, Agar Rd, Madhavrav Campus, Malipura, Ujjain, Madhya Pradesh 456006, India",https://www.google.co.kr/maps/place/District+Hospital+Ujjain/data=!4m5!3m4!1s0x3963743fd4fa3305:0xe670f42617e22844!8m2!3d23.1853644!4d75.7829783?authuser=0&hl=en&rclk=1,23.1853644,75.7829783,Madhya Pradesh
Suditi Hospital,Hospital,"6-C, Vijay Nagar, Airport Road, near Railway Crossing, Lalghati, Bhopal, Madhya Pradesh 462001, India",https://www.google.co.kr/maps/place/Suditi+Hospital/data=!4m5!3m4!1s0x397c67c6482de5c3:0xf4cb60ec1f69e3c9!8m2!3d23.2766695!4d77.3657934?authuser=0&hl=en&rclk=1,23.2766695,77.3657934,Madhya Pradesh
"District Hospital, Sehore",Hospital,"River Square, Sewan, Sehore, Madhya Pradesh 466001, India","https://www.google.co.kr/maps/place/District+Hospital,+Sehore/data=!4m5!3m4!1s0x397cf36b6ca07b31:0x95986e1bb432241e!8m2!3d23.198387!4d77.0812717?authuser=0&hl=en&rclk=1",23.198387,77.0812717,Madhya Pradesh
District Government Hospital,Hospital,"Sanawad Rd, Annapurna Nagar, Khargone, Madhya Pradesh 451001, India",https://www.google.co.kr/maps/place/District+Government+Hospital/data=!4m5!3m4!1s0x3bd8867bb368af55:0x773a25744fca8741!8m2!3d21.8319324!4d75.6286114?authuser=0&hl=en&rclk=1,21.8319324,75.6286114,Madhya Pradesh
Metro Hospital,Hospital,"Bus stand, kuchaini parisar, Damoh Naka, Nr Kchetriya, Transport Nagar, Jabalpur, Madhya Pradesh 482002, India",https://www.google.co.kr/maps/place/Metro+Hospital/data=!4m5!3m4!1s0x3981afa778449755:0xa8e6ab19d204e4d!8m2!3d23.1872387!4d79.9285197?authuser=0&hl=en&rclk=1,23.1872387,79.9285197,Madhya Pradesh
"Bhandari Polyclinic Pvt Ltd in Napier Town, Jabalpur",Hospital,"Nehru Railway Colony, Napier Town, Jabalpur, Madhya Pradesh 482001, India","https://www.google.co.kr/maps/place/Bhandari+Polyclinic+Pvt+Ltd+in+Napier+Town,+Jabalpur/data=!4m5!3m4!1s0x3981ade277a383ad:0x9d2a6f67a8125a56!8m2!3d23.1543804!4d79.9374009?authuser=0&hl=en&rclk=1",23.1543804,79.9374009,Madhya Pradesh
Hospital,Hospital,"5WGW+PF4, Anwar Ganj, Jabalpur, Madhya Pradesh 482002, India",https://www.google.co.kr/maps/place/Hospital/data=!4m5!3m4!1s0x3981aff5e0a7a20f:0x30fbbd6e898a3d84!8m2!3d23.176762!4d79.946207?authuser=0&hl=en&rclk=1,23.176762,79.946207,Madhya Pradesh
District Hospital,Hospital,"Mall Rd, Morar, Gwalior, Madhya Pradesh 474006, India",https://www.google.co.kr/maps/place/District+Hospital/data=!4m5!3m4!1s0x3976c15dbfd7e8f7:0x51408df27fd38473!8m2!3d26.2237137!4d78.2234016?authuser=0&hl=en&rclk=1,26.2237137,78.2234016,Madhya Pradesh
NEEKHRA HOSPITAL,Hospital,"W5XR+PCC, Narsinghpur, Madhya Pradesh 487001, India",https://www.google.co.kr/maps/place/NEEKHRA+HOSPITAL/data=!4m5!3m4!1s0x397f9d3e215b8b9b:0xefcc8a28d91102f9!8m2!3d22.949302!4d79.191?authuser=0&hl=en&rclk=1,22.949302,79.191,Madhya Pradesh
District Hospital,Hospital,"Emergency Room, I C U, Agar Road, Agar Road, Ujjain, Madhya Pradesh 456001, India",https://www.google.co.kr/maps/place/District+Hospital/data=!4m5!3m4!1s0x39637441f779fedd:0x22f946502be74a2d!8m2!3d23.1772545!4d75.7828188?authuser=0&hl=en&rclk=1,23.1772545,75.7828188,Madhya Pradesh
Jabalpur Hospital,Hospital,"Central Ordinance Depot Area, Jabalpur, Madhya Pradesh 482001, India",https://www.google.co.kr/maps/place/Jabalpur+Hospital/data=!4m5!3m4!1s0x3981ae9555555555:0x8703b08b0fd4ba71!8m2!3d23.181467!4d79.9864071?authuser=0&hl=en&rclk=1,23.181467,79.9864071,Madhya Pradesh
Samadhan Hospital,Children's hospital,"1625, Ima Hall Road, Wright Town, Jabalpur, Madhya Pradesh 482002, India",https://www.google.co.kr/maps/place/Samadhan+Hospital/data=!4m5!3m4!1s0x3981ae1cb4511523:0x79799b93fcb07691!8m2!3d23.1662916!4d79.9238118?authuser=0&hl=en&rclk=1,23.1662916,79.9238118,Madhya Pradesh
Hospital,Hospital,"WM73+PP9, Barkhera, Madhya Pradesh 464990, India",https://www.google.co.kr/maps/place/Hospital/data=!4m5!3m4!1s0x397c3358bcd16ab1:0xb205c776b17429a6!8m2!3d22.9142833!4d77.654355?authuser=0&hl=en&rclk=1,22.9142833,77.654355,Madhya Pradesh
Keshav Hospital,Hospital,"near indra chok, Itwara Bazar, Jagdish Pura, Hoshangabad, Madhya Pradesh 461001, India",https://www.google.co.kr/maps/place/Keshav+Hospital/data=!4m5!3m4!1s0x397dcfb47e2f2db5:0xb5b4985ae82f0d56!8m2!3d22.7585742!4d77.7165696?authuser=0&hl=en&rclk=1,22.7585742,77.7165696,Madhya Pradesh
Vinayak Hospital,Hospital,"Civil Lines Road, 7, Mendki Rd, Dewas, Madhya Pradesh 455001, India",https://www.google.co.kr/maps/place/Vinayak+Hospital/data=!4m5!3m4!1s0x3963179b9923f9b7:0xb890559e361ea404!8m2!3d22.965275!4d76.0462169?authuser=0&hl=en&rclk=1,22.965275,76.0462169,Madhya Pradesh
Aayushman Hospital,Hospital,"Shahpura, Bhopal, Madhya Pradesh 462016, India",https://www.google.co.kr/maps/place/Aayushman+Hospital/data=!4m5!3m4!1s0x397c6825f9c9853b:0xc237685119aef1a7!8m2!3d23.2599333!4d77.412615?authuser=0&hl=en&rclk=1,23.2599333,77.412615,Madhya Pradesh
Apex Hospital,Hospital,"94, Nehru Nagar, Jabalpur - Nagpur Rd, opp. Medical College, Kamla Nehru Nagar, Yadav Colony, Jabalpur, Madhya Pradesh 482003, India",https://www.google.co.kr/maps/place/Apex+Hospital/data=!4m5!3m4!1s0x3981b1e44ee8ac45:0x527dee34989ae91a!8m2!3d23.147336!4d79.882347?authuser=0&hl=en&rclk=1,23.147336,79.882347,Madhya Pradesh
Anand Hospital,Hospital,"a/m-238 m.p., H.B Colony, Ayodhya Nagar, Bhopal, Madhya Pradesh, India",https://www.google.co.kr/maps/place/Anand+Hospital/data=!4m5!3m4!1s0x3962564970000001:0xa0ce8e9622bbb5f6!8m2!3d22.5980881!4d75.6869887?authuser=0&hl=en&rclk=1,22.5980881,75.6869887,Madhya Pradesh
MOTHER TERESA HOSPITAL,Hospital,"P569+VQJ, Kunjvan, Panna, Madhya Pradesh 488001, India",https://www.google.co.kr/maps/place/MOTHER+TERESA+HOSPITAL/data=!4m5!3m4!1s0x3983032956708987:0x4d032aa3146d801b!8m2!3d24.7122166!4d80.1693915?authuser=0&hl=en&rclk=1,24.7122166,80.1693915,Madhya Pradesh
SMS- Energy Hospital,Hospital,"Parwati Parisar ' SMS - Energy Hospital , Dudhia |, Nemawar Rd, Devguradia, Indore, Madhya Pradesh 452016, India",https://www.google.co.kr/maps/place/SMS-+Energy+Hospital/data=!4m5!3m4!1s0x3962e3774c003dbd:0xc664a621fa4eb242!8m2!3d22.6738394!4d75.9412009?authuser=0&hl=en&rclk=1,22.6738394,75.9412009,Madhya Pradesh
New Pandey Hospital,Hospital,"Shanichara, Madhya Pradesh 461001, India",https://www.google.co.kr/maps/place/New+Pandey+Hospital/data=!4m5!3m4!1s0x397dcfb4f3fd1a7d:0xec014f8c6a14941f!8m2!3d22.7597207!4d77.7184812?authuser=0&hl=en&rclk=1,22.7597207,77.7184812,Madhya Pradesh
Gurjar Hospital & Endoscopy Centre Pvt Ltd,Hospital,"2-3, Scheme No. 44, Bhawarkua Square, AB Rd, Indore, Madhya Pradesh 452001, India",https://www.google.co.kr/maps/place/Gurjar+Hospital+%26+Endoscopy+Centre+Pvt+Ltd/data=!4m5!3m4!1s0x3962fce520d180b5:0xfe7b2da61f6fae92!8m2!3d22.6919473!4d75.8660795?authuser=0&hl=en&rclk=1,22.6919473,75.8660795,Madhya Pradesh
Hospital,Hospital,"QV3Q+27P, Amla, Madhya Pradesh 455332, India",https://www.google.co.kr/maps/place/Hospital/data=!4m5!3m4!1s0x397d1f2f996fd5e7:0x9b3810b12f3767fc!8m2!3d22.7525922!4d76.8882102?authuser=0&hl=en&rclk=1,22.7525922,76.8882102,Madhya Pradesh
Paliwal Hospital,Hospital,"Plot No. 26-27 ISBT Commercial Campus, Hoshangabad Rd, Bhopal, Madhya Pradesh 462024, India",https://www.google.co.kr/maps/place/Paliwal+Hospital/data=!4m5!3m4!1s0x397c4241ed00a593:0xba7f4e312178a1b!8m2!3d23.2304877!4d77.444094?authuser=0&hl=en&rclk=1,23.2304877,77.444094,Madhya Pradesh
Anushree Hospital,Hospital,"10, 20, Rd, E-4, Arera Colony, Bhopal, Madhya Pradesh 462016, India",https://www.google.co.kr/maps/place/Anushree+Hospital/data=!4m5!3m4!1s0x397c424d8ec83f7d:0x1090d33dba4c5a07!8m2!3d23.2126334!4d77.4361934?authuser=0&hl=en&rclk=1,23.2126334,77.4361934,Madhya Pradesh
Hospital,Hospital,"Unnamed Road, Morakha, Madhya Pradesh 460661, India",https://www.google.co.kr/maps/place/Hospital/data=!4m5!3m4!1s0x3bd5971296db6fd5:0x9d44cb92b2b69da8!8m2!3d21.9190484!4d78.3950298?authuser=0&hl=en&rclk=1,21.9190484,78.3950298,Madhya Pradesh
District Hospital Shivpuri,Government hospital,"Govt Hospital Shivpuri, Mahal Colony, Shivpuri, Madhya Pradesh 473551, India",https://www.google.co.kr/maps/place/District+Hospital+Shivpuri/data=!4m5!3m4!1s0x3970beaafeaaaaab:0x4325f0dc7cfae157!8m2!3d25.4248271!4d77.6513028?authuser=0&hl=en&rclk=1,25.4248271,77.6513028,Madhya Pradesh
Hospital,Hospital,"MF25+3GF, Mardanpur, Madhya Pradesh 466446, India",https://www.google.co.kr/maps/place/Hospital/data=!4m5!3m4!1s0x397dbbbd520e5f6d:0x25f6d789ef2af09a!8m2!3d22.6501915!4d77.4587846?authuser=0&hl=en&rclk=1,22.6501915,77.4587846,Madhya Pradesh
उप स्वास्थ्य केंद्र,Government hospital,"RC76+MXX, Posera, Madhya Pradesh 461775, India",https://www.google.co.kr/maps/place/%E0%A4%89%E0%A4%AA+%E0%A4%B8%E0%A5%8D%E0%A4%B5%E0%A4%BE%E0%A4%B8%E0%A5%8D%E0%A4%A5%E0%A5%8D%E0%A4%AF+%E0%A4%95%E0%A5%87%E0%A4%82%E0%A4%A6%E0%A5%8D%E0%A4%B0/data=!4m5!3m4!1s0x397e5b0a03b47d39:0xcc7deee30686168c!8m2!3d22.814248!4d78.4124708?authuser=0&hl=en&rclk=1,22.814248,78.4124708,Madhya Pradesh
Red Cross Hospital,Hospital,"Link Rd 1, Shivaji Nagar, Bhopal, Madhya Pradesh 462016, India",https://www.google.co.kr/maps/place/Red+Cross+Hospital/data=!4m5!3m4!1s0x397c436523f3fe29:0x2b14a2f32c7d8e49!8m2!3d23.2307722!4d77.4194774?authuser=0&hl=en&rclk=1,23.2307722,77.4194774,Madhya Pradesh
St.Joseph's Hospital,Hospital,"Housing Board Colony, Hoshangabad, Madhya Pradesh 461001, India",https://www.google.co.kr/maps/place/St.Joseph's+Hospital/data=!4m5!3m4!1s0x397dcfdb50fd7abd:0x861e66664ada9cff!8m2!3d22.7466543!4d77.7340024?authuser=0&hl=en&rclk=1,22.7466543,77.7340024,Madhya Pradesh
Bansal Hospital,Private hospital,"Laxmi Ganj Rd & AB Rd, Near Hanuman Chauraha, Janak Ganj, Lashkar, Gwalior, Madhya Pradesh 474001, India",https://www.google.co.kr/maps/place/Bansal+Hospital/data=!4m5!3m4!1s0x3976c5d766aa80a1:0x58ce8832fc843138!8m2!3d26.2056042!4d78.1457556?authuser=0&hl=en&rclk=1,26.2056042,78.1457556,Madhya Pradesh
Lake City Hospital,Private hospital,"B 27, Near, Chetak Bridge, Sector B, Kasturba Nagar, Bhopal, Madhya Pradesh 462023, India",https://www.google.co.kr/maps/place/Lake+City+Hospital/data=!4m5!3m4!1s0x397c4269de5329b5:0x99157f1479a85a84!8m2!3d23.2324312!4d77.4398656?authuser=0&hl=en&rclk=1,23.2324312,77.4398656,Madhya Pradesh
bansal hospital,Hospital,"Type-9 Residential Quarters, D Sector, Vaishali Nagar, Bhopal, Madhya Pradesh 462003, India",https://www.google.co.kr/maps/place/bansal+hospital/data=!4m5!3m4!1s0x397c4348d2011e93:0xee4c2fe1d8e974db!8m2!3d23.2133418!4d77.3963179?authuser=0&hl=en&rclk=1,23.2133418,77.3963179,Madhya Pradesh
"Siddhanta Red Cross Superspeciality, Kidney Transplant, Liver Transplant, Gastro Surgery & Endoscopy Hospital",Hospital,"Red Cross Campus, Link Rd 1, Shivaji Nagar, Bhopal, Madhya Pradesh 462016, India","https://www.google.co.kr/maps/place/Siddhanta+Red+Cross+Superspeciality,+Kidney+Transplant,+Liver+Transplant,+Gastro+Surgery+%26+Endoscopy+Hospital/data=!4m5!3m4!1s0x397c428b4ac46131:0xd159fd7ac487bb8e!8m2!3d23.2306742!4d77.4198711?authuser=0&hl=en&rclk=1",23.2306742,77.4198711,Madhya Pradesh
Civil Hospital Ashta,Hospital,"civil hospital,, Ashta, Madhya Pradesh 466116, India",https://www.google.co.kr/maps/place/Civil+Hospital+Ashta/data=!4m5!3m4!1s0x397cc4a50ccfcc59:0x5ebdf59e8ef68a4e!8m2!3d23.0224236!4d76.724502?authuser=0&hl=en&rclk=1,23.0224236,76.724502,Madhya Pradesh
Government Hospital,Hospital,"Kareli Main Rd, Kareli, Madhya Pradesh 487221, India",https://www.google.co.kr/maps/place/Government+Hospital/data=!4m5!3m4!1s0x397f9f1f5d61417d:0xb2e78c457aa936f!8m2!3d22.9320558!4d79.0602511?authuser=0&hl=en&rclk=1,22.9320558,79.0602511,Madhya Pradesh
District Hospital Jhabua,Government hospital,"Hospital colony, Madhya Pradesh 457661, India",https://www.google.co.kr/maps/place/District+Hospital+Jhabua/data=!4m5!3m4!1s0x39610d2b627ed4b9:0x71e7837adeab2869!8m2!3d22.7729893!4d74.5912013?authuser=0&hl=en&rclk=1,22.7729893,74.5912013,Madhya Pradesh
Red Cross Hospital,Hospital,"Railway Hospital Road, Nath Mandir Rd, Red Church Quarters, Bhopal, Madhya Pradesh 452001, India",https://www.google.co.kr/maps/place/Red+Cross+Hospital/data=!4m5!3m4!1s0x397c6825f9c9853b:0xa48f18b9acdde0f8!8m2!3d23.2599333!4d77.412615?authuser=0&hl=en&rclk=1,23.2599333,77.412615,Madhya Pradesh
Hospital,Hospital,"Unnamed Road, Hapakheda, Madhya Pradesh 455223, India",https://www.google.co.kr/maps/place/Hospital/data=!4m5!3m4!1s0x3963233b3e3eded9:0x826d731be8b90263!8m2!3d22.8927278!4d76.1414096?authuser=0&hl=en&rclk=1,22.8927278,76.1414096,Madhya Pradesh
Hospital,Hospital,"MPG6+5VM, Sheopur, Madhya Pradesh 476337, India",https://www.google.co.kr/maps/place/Hospital/data=!4m5!3m4!1s0x39703122eb76c83b:0xd4c97604232592f8!8m2!3d25.6754506!4d76.7121666?authuser=0&hl=en&rclk=1,25.6754506,76.7121666,Madhya Pradesh
BMHRC Hospital,Hospital,"Bhopal Bypass Rd, BMHRC Campus, Karond, Bhopal, Madhya Pradesh 462038, India",https://www.google.co.kr/maps/place/BMHRC+Hospital/data=!4m5!3m4!1s0x397c68565bcf464d:0x8d706301f11cb948!8m2!3d23.2988743!4d77.417614?authuser=0&hl=en&rclk=1,23.2988743,77.417614,Madhya Pradesh
Shishu Mangal Hospital,Children's hospital,"Golbazar Road, near Hotel Satya Ashoka, Wright Town, Jabalpur, Madhya Pradesh 482002, India",https://www.google.co.kr/maps/place/Shishu+Mangal+Hospital/data=!4m5!3m4!1s0x3981ae1b21021eaf:0xb2b8a9e66bbb6f33!8m2!3d23.1671758!4d79.9274836?authuser=0&hl=en&rclk=1,23.1671758,79.9274836,Madhya Pradesh
Govt Hospital Mandideep,Government hospital,"Industrial Area, Mandideep, Bhopal, Madhya Pradesh 462046, India",https://www.google.co.kr/maps/place/Govt+Hospital+Mandideep/data=!4m5!3m4!1s0x397c47b6aca39f1b:0xe69dbf8f5c271f1b!8m2!3d23.1041272!4d77.5222037?authuser=0&hl=en&rclk=1,23.1041272,77.5222037,Madhya Pradesh
Chirayu hospital,Hospital,"7/B, Laxmi Narayan Niwas, Malipura Rd, beside Chirayu Hospital, Nakkar Khana, Peer Gate, Bhopal, Madhya Pradesh 462001, India",https://www.google.co.kr/maps/place/Chirayu+hospital/data=!4m5!3m4!1s0x397c690b8c8727e1:0x7c91c8224d7cd26c!8m2!3d23.2580963!4d77.3971405?authuser=0&hl=en&rclk=1,23.2580963,77.3971405,Madhya Pradesh
Victoria Hospital,Government hospital,"Badi Omti, Ganjipura Road, Ganjipura, Jabalpur, Madhya Pradesh 482002, India",https://www.google.co.kr/maps/place/Victoria+Hospital/data=!4m5!3m4!1s0x3981ae13ff867483:0xf13fe9dd1717b301!8m2!3d23.1722013!4d79.936684?authuser=0&hl=en&rclk=1,23.1722013,79.936684,Madhya Pradesh
Chirayu Hospital,Hospital,"7894+8VJ, Bhopal, Madhya Pradesh 462030, India",https://www.google.co.kr/maps/place/Chirayu+Hospital/data=!4m5!3m4!1s0x397c673f8775574f:0x9e3f4c1bfdd1db7c!8m2!3d23.2683428!4d77.3071325?authuser=0&hl=en&rclk=1,23.2683428,77.3071325,Madhya Pradesh
Sanjeevni Hospital (PVT),Hospital,"Mattra Vihar, Katangi, Madhya Pradesh 481445, India",https://www.google.co.kr/maps/place/Sanjeevni+Hospital+(PVT)/data=!4m5!3m4!1s0x3a2ae8e5941ad3e1:0xef0caef85fee3c6c!8m2!3d21.7683894!4d79.7999493?authuser=0&hl=en&rclk=1,21.7683894,79.7999493,Madhya Pradesh
Govt Hospital Nowgong,Hospital,"3C6R+MGG, Nowgong, Madhya Pradesh 471201, India",https://www.google.co.kr/maps/place/Govt+Hospital+Nowgong/data=!4m5!3m4!1s0x3982a644bdbbe769:0x9ae73a142144ef69!8m2!3d25.061677!4d79.4413159?authuser=0&hl=en&rclk=1,25.061677,79.4413159,Madhya Pradesh
Malti Hospital & Test Tube Baby Centre,Hospital,"H/451-452, E-7, Arera Colony, Bhopal, Madhya Pradesh 462016, India",https://www.google.co.kr/maps/place/Malti+Hospital+%26+Test+Tube+Baby+Centre/data=!4m5!3m4!1s0x397c425314a74d37:0x32458a8db499823d!8m2!3d23.2099456!4d77.4315467?authuser=0&hl=en&rclk=1,23.2099456,77.4315467,Madhya Pradesh
Charak -Mother & Child Govt Hospital,Hospital,"5QPM+RC6, Malipura, Ujjain, Madhya Pradesh 456006, India",https://www.google.co.kr/maps/place/Charak+-Mother+%26+Child+Govt+Hospital/data=!4m5!3m4!1s0x3963743e208b76ab:0xfee9c16d92cca38a!8m2!3d23.1870387!4d75.7835205?authuser=0&hl=en&rclk=1,23.1870387,75.7835205,Madhya Pradesh
Government Hospital,Hospital,"Q923+QFX, Pipariya, Madhya Pradesh 461775, India",https://www.google.co.kr/maps/place/Government+Hospital/data=!4m5!3m4!1s0x397e433099f56131:0x6f647ead74a9f5b3!8m2!3d22.7519975!4d78.3537298?authuser=0&hl=en&rclk=1,22.7519975,78.3537298,Madhya Pradesh
Esi dispensary,Hospital,"Unnamed Road, New Colony, Birla Nagar, Gwalior, Madhya Pradesh 474003, India",https://www.google.co.kr/maps/place/Esi+dispensary/data=!4m5!3m4!1s0x3976c7d934eff79b:0x1763de263ca8219a!8m2!3d26.2299406!4d78.1831588?authuser=0&hl=en&rclk=1,26.2299406,78.1831588,Madhya Pradesh
Civil Hospital Mandsaur,Hospital,"civil hospital Kalakhet, Mandsaur, Madhya Pradesh, India",https://www.google.co.kr/maps/place/Civil+Hospital+Mandsaur/data=!4m5!3m4!1s0x39642c02bb10532f:0x9afec330768f3c6d!8m2!3d24.0692451!4d75.0718969?authuser=0&hl=en&rclk=1,24.0692451,75.0718969,Madhya Pradesh
Hospital 🏥,Hospital,"XPXX+652, Borkhedi, Madhya Pradesh 458888, India",https://www.google.co.kr/maps/place/Hospital+%F0%9F%8F%A5/data=!4m5!3m4!1s0x3964f740abe63bab:0xbaccf4fadf40edcc!8m2!3d23.9980202!4d75.7479016?authuser=0&hl=en&rclk=1,23.9980202,75.7479016,Madhya Pradesh
Government Hospital,Hospital,"Gadkhara, Narsimhapur, SH-22, Narsinghpur, Narsinghpur, Madhya Pradesh 487551, India",https://www.google.co.kr/maps/place/Government+Hospital/data=!4m5!3m4!1s0x397fa90f1384f501:0xff05493cd24b8264!8m2!3d22.9275!4d78.78?authuser=0&hl=en&rclk=1,22.9275,78.78,Madhya Pradesh
District Hospital and Trauma Center,Hospital,"2P4H+RM5, Kalakhet, Rajgarh, Madhya Pradesh 465661, India",https://www.google.co.kr/maps/place/District+Hospital+and+Trauma+Center/data=!4m5!3m4!1s0x397b3934eadacdd9:0xf0807540f19aed93!8m2!3d24.0070199!4d76.7292392?authuser=0&hl=en&rclk=1,24.0070199,76.7292392,Madhya Pradesh
Medi-Square Hospital & Joint Replacement centre,Hospital,"9, Vishnupuri, Bhanwarkua Square, AB Rd, Vishnupuri, Indore, Madhya Pradesh 452001, India",https://www.google.co.kr/maps/place/Medi-Square+Hospital+%26+Joint+Replacement+centre/data=!4m5!3m4!1s0x3962fce53217c673:0x24e4e099b9b088d2!8m2!3d22.6905323!4d75.86456?authuser=0&hl=en&rclk=1,22.6905323,75.86456,Madhya Pradesh
PHC Maharajpur,Government hospital,"73J5+CXJ, Maharajpur, Madhya Pradesh 470226, India",https://www.google.co.kr/maps/place/PHC+Maharajpur/data=!4m5!3m4!1s0x397f6c81760bbfab:0xe495ed6abd8f2fac!8m2!3d23.2810912!4d79.0598994?authuser=0&hl=en&rclk=1,23.2810912,79.0598994,Madhya Pradesh
Bisoniya Hospital Cosmetic and Plastic Surgery,Hospital,"348, Rohit Nagar Phase 1, E8, Bawadiya Kalan, Ext, Bhopal, Madhya Pradesh 462039, India",https://www.google.co.kr/maps/place/Bisoniya+Hospital+Cosmetic+and+Plastic+Surgery/data=!4m5!3m4!1s0x397c4397843d2b77:0xb412edc8bd487006!8m2!3d23.1826273!4d77.4369293?authuser=0&hl=en&rclk=1,23.1826273,77.4369293,Madhya Pradesh
Hospital,Hospital,"Q7RH+7MW, Nagda, Madhya Pradesh 454001, India",https://www.google.co.kr/maps/place/Hospital/data=!4m5!3m4!1s0x3963c963bb46b7af:0xc822aa34f3636b38!8m2!3d22.7907421!4d75.2791932?authuser=0&hl=en&rclk=1,22.7907421,75.2791932,Madhya Pradesh
The Recovery Hospital,Hospital,"No. 2/3, Janjeer Wala Chouraha, Near Apna Avenue Hotel, New Palasia, Indore, Madhya Pradesh 452001, India",https://www.google.co.kr/maps/place/The+Recovery+Hospital/data=!4m5!3m4!1s0x3962fd383244aeb9:0x51b85935aaad72fc!8m2!3d22.7300162!4d75.8821161?authuser=0&hl=en&rclk=1,22.7300162,75.8821161,Madhya Pradesh
Government Hospital,Hospital,"Block colony bankhedi, India",https://www.google.co.kr/maps/place/Government+Hospital/data=!4m5!3m4!1s0x397e4e24050e29e3:0x142204fc82cea57!8m2!3d22.770349!4d78.5371137?authuser=0&hl=en&rclk=1,22.770349,78.5371137,Madhya Pradesh
Government Hospital,Hospital,"MPSH 15, Seoni Malwa, Madhya Pradesh 461223, India",https://www.google.co.kr/maps/place/Government+Hospital/data=!4m5!3m4!1s0x397d9684edc7efaf:0xf3f40b1ea70ae64b!8m2!3d22.4515001!4d77.4627542?authuser=0&hl=en&rclk=1,22.4515001,77.4627542,Madhya Pradesh
Sachin Mamta Hospital,Hospital,"HIG-39A, Raisen Rd, Sonagiri Square,BHEL, Piplani, Sonagiri, Bhopal, Madhya Pradesh 462023, India",https://www.google.co.kr/maps/place/Sachin+Mamta+Hospital/data=!4m5!3m4!1s0x397c41f8f5102f13:0xfe5c4ca01d1ba6ee!8m2!3d23.2496992!4d77.4716809?authuser=0&hl=en&rclk=1,23.2496992,77.4716809,Madhya Pradesh
Goverment Hospital at babadiya bhau,Hospital,"MPSH 15, Madhya Pradesh 461223, India",https://www.google.co.kr/maps/place/Goverment+Hospital+at+babadiya+bhau/data=!4m5!3m4!1s0x397d99f1bfa66487:0xc1ba659aa6dabbff!8m2!3d22.4165431!4d77.3627508?authuser=0&hl=en&rclk=1,22.4165431,77.3627508,Madhya Pradesh
Tiwari Hospital,Hospital,"Padmakar Nagar, Sagar, NH-26A, Sagar, Sagar, Madhya Pradesh 470001, India",https://www.google.co.kr/maps/place/Tiwari+Hospital/data=!4m5!3m4!1s0x3978d1752d300c25:0x36bfd4402eeff35f!8m2!3d23.852!4d78.7907?authuser=0&hl=en&rclk=1,23.852,78.7907,Madhya Pradesh
Puneet Hospital,Hospital,"WQ8J+X3Q, Trivedi Colony, Gadarwara, Madhya Pradesh 487551, India",https://www.google.co.kr/maps/place/Puneet+Hospital/data=!4m5!3m4!1s0x397fa92df99c0371:0xb9ec05794a404d9d!8m2!3d22.9174576!4d78.7802456?authuser=0&hl=en&rclk=1,22.9174576,78.7802456,Madhya Pradesh
🏥 Hospital,Government hospital,"WXJW+379, Sankh, Madhya Pradesh 480001, India",https://www.google.co.kr/maps/place/%F0%9F%8F%A5+Hospital/data=!4m5!3m4!1s0x3bd56a4262733823:0x6dab3c576c4e2b43!8m2!3d21.930172!4d78.99572?authuser=0&hl=en&rclk=1,21.930172,78.99572,Madhya Pradesh
Hospital,Hospital,"Sannausi, Madhya Pradesh 484774, India",https://www.google.co.kr/maps/place/Hospital/data=!4m5!3m4!1s0x39842afdaaaaaaab:0xef13c60e11161275!8m2!3d23.9517558!4d81.4800746?authuser=0&hl=en&rclk=1,23.9517558,81.4800746,Madhya Pradesh
Hospital,Hospital,"R54W+5F7, Teonda, Madhya Pradesh 464331, India",https://www.google.co.kr/maps/place/Hospital/data=!4m5!3m4!1s0x39794faa57c91e87:0x758e4d2dab3e0ebc!8m2!3d23.8054027!4d78.1961748?authuser=0&hl=en&rclk=1,23.8054027,78.1961748,Madhya Pradesh
Hospital,Hospital,"VMV3+99H, Pagariya Hat, Madhya Pradesh 466120, India",https://www.google.co.kr/maps/place/Hospital/data=!4m5!3m4!1s0x397cd91835e60ae9:0xe59dc7f20498b143!8m2!3d22.8934455!4d76.6534789?authuser=0&hl=en&rclk=1,22.8934455,76.6534789,Madhya Pradesh
Jamdar Hospital Pvt. Ltd.,Private hospital,"816, jamdar hospital, Gole Bazar, Jabalpur, Madhya Pradesh 482002, India",https://www.google.co.kr/maps/place/Jamdar+Hospital+Pvt.+Ltd./data=!4m5!3m4!1s0x3981ae1a5c9a7c99:0x568b5958d5cc77ad!8m2!3d23.169331!4d79.9286109?authuser=0&hl=en&rclk=1,23.169331,79.9286109,Madhya Pradesh
"Garima Hospital,Idgah",Hospital,"Kampoo Rd, Idgah, Lashkar, Gwalior, Madhya Pradesh 474001, India","https://www.google.co.kr/maps/place/Garima+Hospital,Idgah/data=!4m5!3m4!1s0x3976c5b74fdba533:0xe8761ba44f692d62!8m2!3d26.1909076!4d78.1505135?authuser=0&hl=en&rclk=1",26.1909076,78.1505135,Madhya Pradesh
Hospital,Hospital,"2XQ8+49Q, Bijrotha, Madhya Pradesh 472118, India",https://www.google.co.kr/maps/place/Hospital/data=!4m5!3m4!1s0x39783d06b98ba357:0x6b3b59474e5a7258!8m2!3d25.0378416!4d78.9659718?authuser=0&hl=en&rclk=1,25.0378416,78.9659718,Madhya Pradesh
Govt. Hospital,Hospital,"5F79+29W, Misrod, Bhopal, Madhya Pradesh 462047, India",https://www.google.co.kr/maps/place/Govt.+Hospital/data=!4m5!3m4!1s0x397c44004138e239:0x118c544a699cd8c5!8m2!3d23.1626104!4d77.4684687?authuser=0&hl=en&rclk=1,23.1626104,77.4684687,Madhya Pradesh
Suyog Hospital,Hospital,"195, Bhanwar Kunwa Road, Near Railway Cross, Mechanic Nagar, Mechanic Nagar, Indore, Madhya Pradesh 452014, India",https://www.google.co.kr/maps/place/Suyog+Hospital/data=!4m5!3m4!1s0x3962fcfb69555555:0xb1f670fb759ea6b0!8m2!3d22.7045314!4d75.8607221?authuser=0&hl=en&rclk=1,22.7045314,75.8607221,Madhya Pradesh
Goverment Hospital,Government hospital,"H8XR+GFV, Begumganj, Madhya Pradesh 464881, India",https://www.google.co.kr/maps/place/Goverment+Hospital/data=!4m5!3m4!1s0x397ec978f935798d:0x2e16fc734dcdc4dd!8m2!3d23.5988623!4d78.3411864?authuser=0&hl=en&rclk=1,23.5988623,78.3411864,Madhya Pradesh
Nagpur Hospital,Hospital,"F-58, Raisen Rd, Patel Nagar, Bhopal, Madhya Pradesh 462022, India",https://www.google.co.kr/maps/place/Nagpur+Hospital/data=!4m5!3m4!1s0x397c418b5117577b:0x5cfe3f03f86102e!8m2!3d23.2517341!4d77.5032177?authuser=0&hl=en&rclk=1,23.2517341,77.5032177,Madhya Pradesh
Jawaharlal Nehru Hospital,Hospital,"Dig Bunglow, Berasia Rd, JP Nagar, Bhopal, Madhya Pradesh 462001, India",https://www.google.co.kr/maps/place/Jawaharlal+Nehru+Hospital/data=!4m5!3m4!1s0x397c683fa6492c9b:0x64b6731db33906f1!8m2!3d23.2791997!4d77.4030032?authuser=0&hl=en&rclk=1,23.2791997,77.4030032,Madhya Pradesh
City Hospital,Hospital,"Q923+WMG, Pipariya, Madhya Pradesh 461775, India",https://www.google.co.kr/maps/place/City+Hospital/data=!4m5!3m4!1s0x397e433098512adf:0x532569c9a857692!8m2!3d22.7523202!4d78.3542099?authuser=0&hl=en&rclk=1,22.7523202,78.3542099,Madhya Pradesh
Shivam Hospital,Private hospital,"B70, Chetak Bridge, Gautam Nagar, Housing Board Colony, Bhopal, Madhya Pradesh 462023, India",https://www.google.co.kr/maps/place/Shivam+Hospital/data=!4m5!3m4!1s0x397c426982134079:0x3e70f9ca0c10835d!8m2!3d23.2352779!4d77.4410977?authuser=0&hl=en&rclk=1,23.2352779,77.4410977,Madhya Pradesh
NAV ENT & Cancer Hospital,Hospital,"Ukhari Chowk, MR-4 Rd, Jabalpur, Madhya Pradesh 482002, India",https://www.google.co.kr/maps/place/NAV+ENT+%26+Cancer+Hospital/data=!4m5!3m4!1s0x3981b1dd73403299:0xde3d68402bb25ab1!8m2!3d23.1784122!4d79.9106081?authuser=0&hl=en&rclk=1,23.1784122,79.9106081,Madhya Pradesh
Prakashchandra Sethi Hospital,Government hospital,"A B Road, G P O Choraha, Sanyogita Ganj, Indore, Madhya Pradesh 452002, India",https://www.google.co.kr/maps/place/Prakashchandra+Sethi+Hospital/data=!4m5!3m4!1s0x3962fd6d5c629411:0xbf18ce2622f685eb!8m2!3d22.7084495!4d75.8786346?authuser=0&hl=en&rclk=1,22.7084495,75.8786346,Madhya Pradesh
Hospital,Hospital,"7WH8+R7M, Batawada, Madhya Pradesh 473118, India",https://www.google.co.kr/maps/place/Hospital/data=!4m5!3m4!1s0x397b1e8235e16f59:0x1ee64b526e8382b5!8m2!3d24.2795776!4d76.9156731?authuser=0&hl=en&rclk=1,24.2795776,76.9156731,Madhya Pradesh
Dr.Gaurav Sharma,Hospital,"ayushman clinic, Deori, Madhya Pradesh, India",https://www.google.co.kr/maps/place/Dr.Gaurav+Sharma/data=!4m5!3m4!1s0x397f030429e3a467:0x55d1989981fea45d!8m2!3d23.1239009!4d78.684935?authuser=0&hl=en&rclk=1,23.1239009,78.684935,Madhya Pradesh
Hospital,Hospital,"J3WQ+HF3, Tinduwa, Madhya Pradesh 480997, India",https://www.google.co.kr/maps/place/Hospital/data=!4m5!3m4!1s0x3980615e005ed5bd:0xe8d18772a564acb3!8m2!3d22.6463828!4d80.088661?authuser=0&hl=en&rclk=1,22.6463828,80.088661,Madhya Pradesh
Hospital,Hospital,"P43J+263, Double chowki, Madhya Pradesh 455221, India",https://www.google.co.kr/maps/place/Hospital/data=!4m5!3m4!1s0x3962df3c5c98f66f:0xa66acacbadf9caf0!8m2!3d22.7025136!4d76.1305457?authuser=0&hl=en&rclk=1,22.7025136,76.1305457,Madhya Pradesh
AFS Hospital,Hospital,"W4P2+Q5W, Amla, Madhya Pradesh 460553, India",https://www.google.co.kr/maps/place/AFS+Hospital/data=!4m5!3m4!1s0x3bd5e5853b4336c9:0x434c53b20552a3c0!8m2!3d21.9369948!4d78.1004441?authuser=0&hl=en&rclk=1,21.9369948,78.1004441,Madhya Pradesh
Hospital,Hospital,"4RCV+Q27, kanapur, Madhya Pradesh 451113, India",https://www.google.co.kr/maps/place/Hospital/data=!4m5!3m4!1s0x3962852682de3313:0xefcb1b51fdd6e162!8m2!3d22.121922!4d75.8425431?authuser=0&hl=en&rclk=1,22.121922,75.8425431,Madhya Pradesh
JK Hospital,Hospital,"Indus Empire, Shahpura, Shirdipuram, Kolar Rd, Bhopal, Madhya Pradesh 462016, India",https://www.google.co.kr/maps/place/JK+Hospital/data=!4m5!3m4!1s0x397c4309befffffb:0xa733aba588ebbdb!8m2!3d23.1713089!4d77.4254843?authuser=0&hl=en&rclk=1,23.1713089,77.4254843,Madhya Pradesh
Hospital,Hospital,"9HPG+35W, Risewada, Madhya Pradesh 481222, India",https://www.google.co.kr/maps/place/Hospital/data=!4m5!3m4!1s0x3a2bc57adf4fcbaf:0xeaf1e7eee11c1da1!8m2!3d21.3852328!4d80.5754441?authuser=0&hl=en&rclk=1,21.3852328,80.5754441,Madhya Pradesh
Divisional Veterinary Hospital,Hospital,"PVH9+C6C, Snehlataganj, Indore, Madhya Pradesh 452001, India",https://www.google.co.kr/maps/place/Divisional+Veterinary+Hospital/data=!4m5!3m4!1s0x3962fd6c4b1f215d:0x738772d19b683486!8m2!3d22.72856!4d75.8680204?authuser=0&hl=en&rclk=1,22.72856,75.8680204,Madhya Pradesh
Government Hospital,Hospital,"28J8+JFP, Khurai, Madhya Pradesh 470117, India",https://www.google.co.kr/maps/place/Government+Hospital/data=!4m5!3m4!1s0x39793fb01349e2ed:0x5fe976488a50dda4!8m2!3d24.0315847!4d78.3162063?authuser=0&hl=en&rclk=1,24.0315847,78.3162063,Madhya Pradesh
Hospital,Hospital,"dadori road, Mohana, Madhya Pradesh, India",https://www.google.co.kr/maps/place/Hospital/data=!4m5!3m4!1s0x3970d71683d2fdb5:0xe1e894143fdaa153!8m2!3d25.8990168!4d77.7799278?authuser=0&hl=en&rclk=1,25.8990168,77.7799278,Madhya Pradesh
Infinity Heart Institute,Heart hospital,"Dixit Pride,2nd & 3rd Floor, Near Taiyabali Petrol Pump, Napier Town, Jabalpur, Madhya Pradesh 482001, India",https://www.google.co.kr/maps/place/Infinity+Heart+Institute/data=!4m5!3m4!1s0x3981ae0d82eb366f:0xc857ed27a26cf102!8m2!3d23.1658809!4d79.9390139?authuser=0&hl=en&rclk=1,23.1658809,79.9390139,Madhya Pradesh
Esi Dispensary,Hospital,"P9CC+77C, Pahadi, Madhya Pradesh 483442, India",https://www.google.co.kr/maps/place/Esi+Dispensary/data=!4m5!3m4!1s0x39816766d0ca9c65:0x489629a24662b5d8!8m2!3d23.7206964!4d80.3706427?authuser=0&hl=en&rclk=1,23.7206964,80.3706427,Madhya Pradesh
Dr Deepa Tiwari Antenatal Yoga Classes (Yoga Classes for Pregnant Women),Hospital,"Napier Town, Jabalpur, Madhya Pradesh 482001, India",https://www.google.co.kr/maps/place/Dr+Deepa+Tiwari+Antenatal+Yoga+Classes+(Yoga+Classes+for+Pregnant+Women)/data=!4m5!3m4!1s0x3981ae0c21cb62c5:0x839a00a4b7f8241f!8m2!3d23.1621262!4d79.9362421?authuser=0&hl=en&rclk=1,23.1621262,79.9362421,Madhya Pradesh
Dr Mukesh Khare,Children's hospital,"Besides Petrol Pump, BeoharBagh, Ghamapur, Jabalpur, Madhya Pradesh 482001, India",https://www.google.co.kr/maps/place/Dr+Mukesh+Khare/data=!4m5!3m4!1s0x3981ae6958d1ada7:0x92041e9b28cf5140!8m2!3d23.1741499!4d79.94739?authuser=0&hl=en&rclk=1,23.1741499,79.94739,Madhya Pradesh
Military Hospital,Military hospital,"Cantt, Jabalpur, Madhya Pradesh 482001, India",https://www.google.co.kr/maps/place/Military+Hospital/data=!4m5!3m4!1s0x3981ade425505777:0x4c6ec2a299fe3a32!8m2!3d23.1427388!4d79.9539635?authuser=0&hl=en&rclk=1,23.1427388,79.9539635,Madhya Pradesh
Hospital,Hospital,"2WQH+8M3, Kachnariya (JHALA), Madhya Pradesh 456664, India",https://www.google.co.kr/maps/place/Hospital/data=!4m5!3m4!1s0x39631346348486e3:0x308b07ecced3a933!8m2!3d23.0382592!4d75.9291748?authuser=0&hl=en&rclk=1,23.0382592,75.9291748,Madhya Pradesh
Goverment Hospital,Government hospital,"Patan, Madhya Pradesh 483113, India",https://www.google.co.kr/maps/place/Goverment+Hospital/data=!4m5!3m4!1s0x3981c6fe2ede939b:0x9b68eb40beefa4d4!8m2!3d23.2837576!4d79.6946868?authuser=0&hl=en&rclk=1,23.2837576,79.6946868,Madhya Pradesh
Clinic,Hospital,"279F+XHH, Sadikheda, Madhya Pradesh 455118, India",https://www.google.co.kr/maps/place/Clinic/data=!4m5!3m4!1s0x396331901bc94b19:0x7be1a064da5ed80c!8m2!3d23.0199451!4d76.2739795?authuser=0&hl=en&rclk=1,23.0199451,76.2739795,Madhya Pradesh
Hospital,Hospital,"JW9V+36C, Ajnaur Khas, Madhya Pradesh 472010, India",https://www.google.co.kr/maps/place/Hospital/data=!4m5!3m4!1s0x39785c6c4d25760f:0xc683bdf2f4461c6d!8m2!3d24.6176834!4d78.9430148?authuser=0&hl=en&rclk=1,24.6176834,78.9430148,Madhya Pradesh
Hospital,Hospital,"Jasmat, Madhya Pradesh 466120, India",https://www.google.co.kr/maps/place/Hospital/data=!4m5!3m4!1s0x397cd954ded5a337:0xcebb965ca38b4060!8m2!3d22.8752364!4d76.6506886?authuser=0&hl=en&rclk=1,22.8752364,76.6506886,Madhya Pradesh
अस्पताल,Hospital,"J698+VCJ, Balagaon, Madhya Pradesh 466331, India",https://www.google.co.kr/maps/place/%E0%A4%85%E0%A4%B8%E0%A5%8D%E0%A4%AA%E0%A4%A4%E0%A4%BE%E0%A4%B2/data=!4m5!3m4!1s0x397da7d9ede3f997:0xf031d5d08532c3d1!8m2!3d22.6197068!4d77.2160034?authuser=0&hl=en&rclk=1,22.6197068,77.2160034,Madhya Pradesh
P C sethi hospital,Hospital,"15, Ushaganj, Chhawni, Indore, Madhya Pradesh 452001, India",https://www.google.co.kr/maps/place/P+C+sethi+hospital/data=!4m5!3m4!1s0x3962fd6e95dc0e8d:0xca0a3c5764169cd0!8m2!3d22.7091766!4d75.8785544?authuser=0&hl=en&rclk=1,22.7091766,75.8785544,Madhya Pradesh
Hospital,Hospital,"Unnamed Road, Budhni, Madhya Pradesh 466445, India",https://www.google.co.kr/maps/place/Hospital/data=!4m5!3m4!1s0x397dcfc0f5321a7d:0xa610041c745e73bf!8m2!3d22.7841377!4d77.6782956?authuser=0&hl=en&rclk=1,22.7841377,77.6782956,Madhya Pradesh
Hospital,Hospital,"Chhulla Rd, Kumrai, Madhya Pradesh 470229, India",https://www.google.co.kr/maps/place/Hospital/data=!4m5!3m4!1s0x3978ad5ee4b8e3a7:0xe803b1d5dc276609!8m2!3d23.7669813!4d79.2192642?authuser=0&hl=en&rclk=1,23.7669813,79.2192642,Madhya Pradesh
Hospital,Hospital,"VRW9+GJ3, Kumhari, Madhya Pradesh 470664, India",https://www.google.co.kr/maps/place/Hospital/data=!4m5!3m4!1s0x39822157664359b3:0x67685f2249bbcf21!8m2!3d23.8962742!4d79.8190407?authuser=0&hl=en&rclk=1,23.8962742,79.8190407,Madhya Pradesh
Hospital,Hospital,"Khapa, Madhya Pradesh 480661, India",https://www.google.co.kr/maps/place/Hospital/data=!4m5!3m4!1s0x3a2ab9e9a3e3d7ad:0x72704731436c96c5!8m2!3d21.9261562!4d79.5631537?authuser=0&hl=en&rclk=1,21.9261562,79.5631537,Madhya Pradesh
Parul Hospital,Doctor,"HIG 2, Ankur Colony, Shivaji Nagar, Bhopal, Madhya Pradesh 462016, India",https://www.google.co.kr/maps/place/Parul+Hospital/data=!4m5!3m4!1s0x397c425c42f5ade5:0x98ee20e54c77a162!8m2!3d23.2274236!4d77.4320856?authuser=0&hl=en&rclk=1,23.2274236,77.4320856,Madhya Pradesh
Anant Institute Of Medical Sciences,Hospital,"No:3, Madan Mahal Railway Station Rd, Madan Mahal, Jabalpur, Madhya Pradesh 482002, India",https://www.google.co.kr/maps/place/Anant+Institute+Of+Medical+Sciences/data=!4m5!3m4!1s0x3981ae026c479f4b:0xac334e8633934fb7!8m2!3d23.1612968!4d79.920198?authuser=0&hl=en&rclk=1,23.1612968,79.920198,Madhya Pradesh
HOSPITAL,Hospital,"23HX+H33, Samnapur, Madhya Pradesh 481662, India",https://www.google.co.kr/maps/place/HOSPITAL/data=!4m5!3m4!1s0x3980559147438b5f:0x9c085497f303b4a5!8m2!3d23.0288782!4d80.0976598?authuser=0&hl=en&rclk=1,23.0288782,80.0976598,Madhya Pradesh
Hospital,Hospital,"WRR8+5M9, Patel Tola, Relwahi, Madhya Pradesh 481051, India",https://www.google.co.kr/maps/place/Hospital/data=!4m5!3m4!1s0x3a298bd4e6911a53:0x7d6a7c0ffdf122d2!8m2!3d21.9404167!4d80.8167245?authuser=0&hl=en&rclk=1,21.9404167,80.8167245,Madhya Pradesh
Hospital,Hospital,"XX97+39F, Asodh, Madhya Pradesh 484661, India",https://www.google.co.kr/maps/place/Hospital/data=!4m5!3m4!1s0x398403ac690e5d51:0xf86c580a2b6066e1!8m2!3d23.967685!4d80.963426?authuser=0&hl=en&rclk=1,23.967685,80.963426,Madhya Pradesh
Hospital,Hospital,"J2HH+FJH, Pivday, Madhya Pradesh 452020, India",https://www.google.co.kr/maps/place/Hospital/data=!4m5!3m4!1s0x3962e6fa3d4c8395:0x5db8d2dc14a91fff!8m2!3d22.6286943!4d76.0291035?authuser=0&hl=en&rclk=1,22.6286943,76.0291035,Madhya Pradesh
Hospital 🏥,Hospital,"2VP2+RJX, Gawa Kheda, Madhya Pradesh 466114, India",https://www.google.co.kr/maps/place/Hospital+%F0%9F%8F%A5/data=!4m5!3m4!1s0x397ce9cefb52cd71:0xaac30756a4b30fb!8m2!3d23.0371093!4d76.8516149?authuser=0&hl=en&rclk=1,23.0371093,76.8516149,Madhya Pradesh
Hospital,Hospital,"QQG3+28M, Kusmanya, Madhya Pradesh 455332, India",https://www.google.co.kr/maps/place/Hospital/data=!4m5!3m4!1s0x397d2120fd76798d:0x146b6e34761c97f0!8m2!3d22.775094!4d76.7533016?authuser=0&hl=en&rclk=1,22.775094,76.7533016,Madhya Pradesh
Hospital,Hospital,"6WRG+QWG, Jhurre Colony, Madhya Pradesh 480441, India",https://www.google.co.kr/maps/place/Hospital/data=!4m5!3m4!1s0x397fd96e60987215:0x4ebe8517aa03f131!8m2!3d22.2419343!4d78.9273185?authuser=0&hl=en&rclk=1,22.2419343,78.9273185,Madhya Pradesh
Dr pradeep jain,Hospital,"Bareth Rd, Ganj Basoda, Madhya Pradesh 464221, India",https://www.google.co.kr/maps/place/Dr+pradeep+jain/data=!4m5!3m4!1s0x397957560d1a1b71:0xeb3b3bf3c2d6f37e!8m2!3d23.8563304!4d77.9402389?authuser=0&hl=en&rclk=1,23.8563304,77.9402389,Madhya Pradesh
hospital,Hospital,"RW6R+665, Khiriya Khurd, Madhya Pradesh 470021, India",https://www.google.co.kr/maps/place/hospital/data=!4m5!3m4!1s0x3978cb77738f0d2b:0xd82c01d1509c0b06!8m2!3d23.8105069!4d78.9406091?authuser=0&hl=en&rclk=1,23.8105069,78.9406091,Madhya Pradesh
Hospital,Hospital,"GRF8+VVR, Bhagora, Madhya Pradesh 453441, India",https://www.google.co.kr/maps/place/Hospital/data=!4m5!3m4!1s0x3962f0cf74d9a22b:0xba293a70666c5727!8m2!3d22.5247324!4d75.8171336?authuser=0&hl=en&rclk=1,22.5247324,75.8171336,Madhya Pradesh
Hospital,Hospital,"Sai lab, Lodhipura, Madhya Pradesh 465674, India",https://www.google.co.kr/maps/place/Hospital/data=!4m5!3m4!1s0x397b6db789265c8d:0x8e82b84f250b456c!8m2!3d23.9179908!4d76.9640723?authuser=0&hl=en&rclk=1,23.9179908,76.9640723,Madhya Pradesh
New Government Hospital Khurai,Hospital,"Polytechnic Rd, Abid Nagar, Khurai, Madhya Pradesh 470117, India",https://www.google.co.kr/maps/place/New+Government+Hospital+Khurai/data=!4m5!3m4!1s0x39793fa6f4a39843:0xc8d8c534c434723e!8m2!3d24.03242!4d78.3241541?authuser=0&hl=en&rclk=1,24.03242,78.3241541,Madhya Pradesh
NEO CHILDREN HOSPITAL,Hospital,"मेडिकल कालेज के सामने, Ashok Vihar, Sagar, Madhya Pradesh 470001, India",https://www.google.co.kr/maps/place/NEO+CHILDREN+HOSPITAL/data=!4m5!3m4!1s0x3978d35cc8312117:0x29e2ffeb811249d5!8m2!3d23.8200397!4d78.7529206?authuser=0&hl=en&rclk=1,23.8200397,78.7529206,Madhya Pradesh
Clinic,Hospital,"8WGP+R8X, Kikra, Madhya Pradesh 481778, India",https://www.google.co.kr/maps/place/Clinic/data=!4m5!3m4!1s0x3a29fd1df3dd3a6f:0x8f53d3cb74b0559a!8m2!3d22.3271191!4d80.9358649?authuser=0&hl=en&rclk=1,22.3271191,80.9358649,Madhya Pradesh
Hope s s hospital,Hospital,"1, Ayodhya Bypass Rd, Mohan Nagar, Prakash Nagar, Mamta Nagar, Bhopal, Madhya Pradesh 462022, India",https://www.google.co.kr/maps/place/Hope+s+s+hospital/data=!4m5!3m4!1s0x397c41fda6e942ed:0x2042b8926ff83f84!8m2!3d23.2575277!4d77.4784331?authuser=0&hl=en&rclk=1,23.2575277,77.4784331,Madhya Pradesh
Hospital Chitwariya,Hospital,"H6VR+94F, Mudapahad No 1, Madhya Pradesh 486670, India",https://www.google.co.kr/maps/place/Hospital+Chitwariya/data=!4m5!3m4!1s0x398f7dc3bb9d543d:0xa177549bde2a0295!8m2!3d24.5934466!4d82.2402902?authuser=0&hl=en&rclk=1,24.5934466,82.2402902,Madhya Pradesh
Hospital,Hospital,"6PRV+87V, Garetha, Madhya Pradesh 464228, India",https://www.google.co.kr/maps/place/Hospital/data=!4m5!3m4!1s0x397bcf28850e4d7d:0x3f5d6d4b9c9edca8!8m2!3d24.2408749!4d77.7431769?authuser=0&hl=en&rclk=1,24.2408749,77.7431769,Madhya Pradesh
Hospital,Hospital,"P2V7+3R2, Jhinguwan, Madhya Pradesh 472111, India",https://www.google.co.kr/maps/place/Hospital/data=!4m5!3m4!1s0x397842794e626781:0xcab217600917ec18!8m2!3d24.742633!4d79.0145252?authuser=0&hl=en&rclk=1,24.742633,79.0145252,Madhya Pradesh
Hospital,Hospital,"2MHJ+794, Gouharganj, Madhya Pradesh 464990, India",https://www.google.co.kr/maps/place/Hospital/data=!4m5!3m4!1s0x397c311742db1c4b:0x2ab954ffcf0f5044!8m2!3d23.0281435!4d77.6809543?authuser=0&hl=en&rclk=1,23.0281435,77.6809543,Madhya Pradesh
Hospital,Hospital,"6MWC+VF6, Choli, Madhya Pradesh 451221, India",https://www.google.co.kr/maps/place/Hospital/data=!4m5!3m4!1s0x3962638c49f23e49:0x645063d01bb7f3d9!8m2!3d22.2471555!4d75.6711385?authuser=0&hl=en&rclk=1,22.2471555,75.6711385,Madhya Pradesh
Medical,Hospital,"55XF+5JM, Dantodiya, Madhya Pradesh 457001, India",https://www.google.co.kr/maps/place/Medical/data=!4m5!3m4!1s0x3963efe451dd83a3:0x841d080189973942!8m2!3d23.1979679!4d75.174035?authuser=0&hl=en&rclk=1,23.1979679,75.174035,Madhya Pradesh
CHL Hospital 114,Hospital,"Scheme 114 Part 1, AB Rd, near Dewas Naka, Indore, Madhya Pradesh 452010, India",https://www.google.co.kr/maps/place/CHL+Hospital+114/data=!4m5!3m4!1s0x3963036d277cd8a3:0x636481b384e87a6!8m2!3d22.7709496!4d75.8983592?authuser=0&hl=en&rclk=1,22.7709496,75.8983592,Madhya Pradesh
Apte Hospital,Hospital,"X53Q+3XG, Housing Board Colony, Narsinghpur, Madhya Pradesh 487001, India",https://www.google.co.kr/maps/place/Apte+Hospital/data=!4m5!3m4!1s0x397f9cd019aaa661:0xbd60085528d14118!8m2!3d22.9526884!4d79.1899423?authuser=0&hl=en&rclk=1,22.9526884,79.1899423,Madhya Pradesh
Central Reserve Police Force - Composite Hospital,Military hospital,"4GQP+F52, Bangrasia, Bhopal, Madhya Pradesh 462045, India",https://www.google.co.kr/maps/place/Central+Reserve+Police+Force+-+Composite+Hospital/data=!4m5!3m4!1s0x397c4713bcb706e1:0xb8eda306ae94912e!8m2!3d23.1386338!4d77.5353942?authuser=0&hl=en&rclk=1,23.1386338,77.5353942,Madhya Pradesh
Sanjivni hospital,Hospital,"6454+98R, Chanakyapuri, Sehore, Madhya Pradesh 466001, India",https://www.google.co.kr/maps/place/Sanjivni+hospital/data=!4m5!3m4!1s0x397cf57d0b5cb6d7:0x190ff3a1fb3ab91f!8m2!3d23.2084776!4d77.1057532?authuser=0&hl=en&rclk=1,23.2084776,77.1057532,Madhya Pradesh
Super Speciality Hospital,Hospital,"ढक्कन वाला कुआ, Samvad Nagar, Indore, Madhya Pradesh 452001, India",https://www.google.co.kr/maps/place/Super+Speciality+Hospital/data=!4m5!3m4!1s0x3962fd7c21c7c7bb:0x632e8411927e1237!8m2!3d22.6969925!4d75.8820626?authuser=0&hl=en&rclk=1,22.6969925,75.8820626,Madhya Pradesh
Miracles Hospital,Hospital,"Hoshangabad Road Near Ashima Mall, 200 feet road, Bhopal, Madhya Pradesh 462026, India",https://www.google.co.kr/maps/place/Miracles+Hospital/data=!4m5!3m4!1s0x397c4394bd028139:0x7d8b99a28fc2efc6!8m2!3d23.1843184!4d77.4636997?authuser=0&hl=en&rclk=1,23.1843184,77.4636997,Madhya Pradesh
Govt Dhanwantari Ayurvedic Hospital,Hospital,"Police station Road, Chimanganj Mandi, Sandipani Nagar, Ujjain, Madhya Pradesh 456001, India",https://www.google.co.kr/maps/place/Govt+Dhanwantari+Ayurvedic+Hospital/data=!4m5!3m4!1s0x39637441f779fedd:0xbf36319f9dc2abe0!8m2!3d23.1953897!4d75.789431?authuser=0&hl=en&rclk=1,23.1953897,75.789431,Madhya Pradesh
Eureka Hospital,Doctor,"347 Mahatma Gandhi Road, near पत्रकार कॉलोनी चौराहा, Saket Nagar, Indore, Madhya Pradesh 452018, India",https://www.google.co.kr/maps/place/Eureka+Hospital/data=!4m5!3m4!1s0x3962fd377801896d:0xed14096c6c9dc86a!8m2!3d22.7227757!4d75.8962785?authuser=0&hl=en&rclk=1,22.7227757,75.8962785,Madhya Pradesh
Nahar Nursing Home,Otolaryngology clinic,"68, Garipipliya Rd, Sector A, Telephone Nagar, Indore, Madhya Pradesh 452018, India",https://www.google.co.kr/maps/place/Nahar+Nursing+Home/data=!4m5!3m4!1s0x3962e2cc8a46d685:0x450a0ee0cc9541a6!8m2!3d22.7216263!4d75.9039944?authuser=0&hl=en&rclk=1,22.7216263,75.9039944,Madhya Pradesh
Health Centre,Hospital,"Unnamed Road, Madhya Pradesh 466120, India",https://www.google.co.kr/maps/place/Health+Centre/data=!4m5!3m4!1s0x397d29b3ec4bf13f:0x508dc57d90c96303!8m2!3d22.8015178!4d76.5959107?authuser=0&hl=en&rclk=1,22.8015178,76.5959107,Madhya Pradesh
Life Medicity Multi Speciality Hospital,Doctor,"Aaga Chowk near baldeobagh (2.75 km) 482001, Madhya Pradesh 482001, India",https://www.google.co.kr/maps/place/Life+Medicity+Multi+Speciality+Hospital/data=!4m5!3m4!1s0x3981af0a4656813b:0xbcfc390a822ab52e!8m2!3d23.1762079!4d79.9247449?authuser=0&hl=en&rclk=1,23.1762079,79.9247449,Madhya Pradesh
Maheshwari Nursing Home,Nursing home,"85, New Chandra Nagar, Maharani Laxmi Bai Colony, Lashkar, Gwalior, Madhya Pradesh 474002, India",https://www.google.co.kr/maps/place/Maheshwari+Nursing+Home/data=!4m5!3m4!1s0x3976c69e0ba8cfff:0x8662e714c1329a83!8m2!3d26.2136091!4d78.1738103?authuser=0&hl=en&rclk=1,26.2136091,78.1738103,Madhya Pradesh
"Dr. Ashok Gupta, Rheumatologist, Arthritis, Sle (Lupus) doctor in bhopal",Rheumatologist,"Bansal Hospital, Sector c Near, Shahpura Lake, Bhopal, Madhya Pradesh 462016, India","https://www.google.co.kr/maps/place/Dr.+Ashok+Gupta,+Rheumatologist,+Arthritis,+Sle+(Lupus)+doctor+in+bhopal/data=!4m5!3m4!1s0x397c4206a2d8535b:0x88c39b438e368508!8m2!3d23.1995551!4d77.4199492?authuser=0&hl=en&rclk=1",23.1995551,77.4199492,Madhya Pradesh
Hospital हॉस्पिटल,Hospital,"JF8X+R9J, Rewa, Madhya Pradesh 486114, India",https://www.google.co.kr/maps/place/Hospital+%E0%A4%B9%E0%A5%89%E0%A4%B8%E0%A5%8D%E0%A4%AA%E0%A4%BF%E0%A4%9F%E0%A4%B2/data=!4m5!3m4!1s0x3984550b54be1c53:0x7443f3af506180e0!8m2!3d24.6170832!4d81.4983992?authuser=0&hl=en&rclk=1,24.6170832,81.4983992,Madhya Pradesh
Pratiksha Medical,Medical Center,"RRPF+4W4, Chichli, Madhya Pradesh 487770, India",https://www.google.co.kr/maps/place/Pratiksha+Medical/data=!4m5!3m4!1s0x397faf9ae35287d1:0x87163ffc13231870!8m2!3d22.8352705!4d78.8248252?authuser=0&hl=en&rclk=1,22.8352705,78.8248252,Madhya Pradesh
"Dr. Jaydeep Kumar Sharma- Best Neurologist in Gwalior/Best Neurophysician/Best Stroke Specialist/Brain & Spine/Epileptologist/Naso ka best Doctor/Headache/Migraine,Chakkar,Slip Disk,Backache/Sciatica,Neck Pain in Gwalior, Madhya Pradesh, India",Neurologist,"Hospital Rd, near Chandak Hospital, in front of Kartik, Lalitpur Colony, Lashkar, Gwalior, Madhya Pradesh 474009, India","https://www.google.co.kr/maps/place/Dr.+Jaydeep+Kumar+Sharma-+Best+Neurologist+in+Gwalior%2FBest+Neurophysician%2FBest+Stroke+Specialist%2FBrain+%26+Spine%2FEpileptologist%2FNaso+ka+best+Doctor%2FHeadache%2FMigraine,Chakkar,Slip+Disk,Backache%2FSciatica,Neck+Pain+in+Gwalior,+Madhya+Pradesh,+India/data=!4m5!3m4!1s0x3976c50e17e6f1fb:0x4f2bccfdfb872014!8m2!3d26.1977148!4d78.1612161?authuser=0&hl=en&rclk=1",26.1977148,78.1612161,Madhya Pradesh
Dr. Anupam Sahni,Neurologist,"Best Superspeciality Hospital, 1352, Home Science College Rd, Napier Town, Jabalpur, Madhya Pradesh 482001, India",https://www.google.co.kr/maps/place/Dr.+Anupam+Sahni/data=!4m5!3m4!1s0x3981ae03f09e5ab3:0x4fbd2c0333140019!8m2!3d23.160424!4d79.923?authuser=0&hl=en&rclk=1,23.160424,79.923,Madhya Pradesh
Dr Shobha Chimania,Doctor,"Choithram Hospital, 14,Manik Baug Road, Indore, Madhya Pradesh 452009, India",https://www.google.co.kr/maps/place/Dr+Shobha+Chimania/data=!4m5!3m4!1s0x3962fcf77caffffd:0x9b05a14d70c3c906!8m2!3d22.6881089!4d75.8569813?authuser=0&hl=en&rclk=1,22.6881089,75.8569813,Madhya Pradesh
Dr Praveen Paliwal,Oncologist,"Bansal Hospital, Shahpura, Bhopal, Madhya Pradesh 462016, India",https://www.google.co.kr/maps/place/Dr+Praveen+Paliwal/data=!4m5!3m4!1s0x397c4306ecbca475:0xd938a6d50d21f8ad!8m2!3d23.1994844!4d77.4200622?authuser=0&hl=en&rclk=1,23.1994844,77.4200622,Madhya Pradesh
Perfect Vision,Hospital,"480, Sudha Nagar, Main Road, Near Sethi Gate, Main Road, Indore, Madhya Pradesh 452009, India",https://www.google.co.kr/maps/place/Perfect+Vision/data=!4m5!3m4!1s0x3962fd6d5c629411:0x9ee195852209e45!8m2!3d22.7195687!4d75.8577258?authuser=0&hl=en&rclk=1,22.7195687,75.8577258,Madhya Pradesh
DR Y S CHAUHAN MEMORIAL HOSPITAL,Doctor,"Nagar Palika Rd, Narsinghpur, Madhya Pradesh 487001, India",https://www.google.co.kr/maps/place/DR+Y+S+CHAUHAN+MEMORIAL+HOSPITAL/data=!4m5!3m4!1s0x397f9cc55abb81a7:0x1ee588970f13db67!8m2!3d22.9480838!4d79.1872927?authuser=0&hl=en&rclk=1,22.9480838,79.1872927,Madhya Pradesh
"Dr Vidyanand Tripathi , Nephrologist & kidney Transplant specialist. Kidney diseases/hypertension/dialysis/kidney stones",Nephrologist,"Bansal Hospital Bhopal ! A Multispecialty Hospital, Shahpura, Bhopal, Madhya Pradesh 462016, India","https://www.google.co.kr/maps/place/Dr+Vidyanand+Tripathi+,+Nephrologist+%26+kidney+Transplant+specialist.+Kidney+diseases%2Fhypertension%2Fdialysis%2Fkidney+stones/data=!4m5!3m4!1s0x397c430694ec842b:0x51ac7a53feeaaf74!8m2!3d23.1994158!4d77.4199731?authuser=0&hl=en&rclk=1",23.1994158,77.4199731,Madhya Pradesh
"MKM STONE, UROLOGY AND LAPAROSCOPY HOSPITAL",Urologist,"E-1/88-A, Near RBI Awasiya Parisar, E-1, Arera Colony, Bhopal, Madhya Pradesh 462016, India","https://www.google.co.kr/maps/place/MKM+STONE,+UROLOGY+AND+LAPAROSCOPY+HOSPITAL/data=!4m5!3m4!1s0x397c42fd4721d089:0x31c1e3ce7cadca2f!8m2!3d23.2209711!4d77.4306984?authuser=0&hl=en&rclk=1",23.2209711,77.4306984,Madhya Pradesh
Karim Nursing Home,Nursing home,"AB Road, Near, Idgah Rd, Dewas, Madhya Pradesh 455001, India",https://www.google.co.kr/maps/place/Karim+Nursing+Home/data=!4m5!3m4!1s0x3963179118a4420f:0x984427d3f768ad7b!8m2!3d22.9669893!4d76.0541811?authuser=0&hl=en&rclk=1,22.9669893,76.0541811,Madhya Pradesh
Dr Yogendra Shrivastava,Doctor,"E-7, Bharat Nagar Rd, Lala Lajpat Rai Society, E-7, Arera Colony, Bhopal, Madhya Pradesh 462016, India",https://www.google.co.kr/maps/place/Dr+Yogendra+Shrivastava/data=!4m5!3m4!1s0x397c43ae7c167007:0x1180b2c2eaa99337!8m2!3d23.2019913!4d77.4331822?authuser=0&hl=en&rclk=1,23.2019913,77.4331822,Madhya Pradesh
Dr Smt Neelu Soni,Obstetrician-gynecologist,"14, Manik Bagh Road, Indore, Madhya Pradesh 452014, India",https://www.google.co.kr/maps/place/Dr+Smt+Neelu+Soni/data=!4m5!3m4!1s0x3962fd6d5c629411:0xff072875c087408!8m2!3d22.7063847!4d75.8556489?authuser=0&hl=en&rclk=1,22.7063847,75.8556489,Madhya Pradesh
