Company_Name,Category,Address,Url,Latitude,Longitude,State
Nazareth Hospital,General hospital,"Arbuthnot Rd, near Police Point, Nongkynrih, Laitumkhrah, Shillong, Meghalaya 793003, India",https://www.google.co.kr/maps/place/Nazareth+Hospital/data=!4m5!3m4!1s0x37507eba5269ca75:0xeba93ef78cda465d!8m2!3d25.571382!4d91.8979556?authuser=0&hl=en&rclk=1,25.571382,91.8979556,Meghalaya
Woodland Hospital,General hospital,"Dhankheti, Malki, Shillong, Meghalaya 793003, India",https://www.google.co.kr/maps/place/Woodland+Hospital/data=!4m5!3m4!1s0x37507e986d90fc4d:0xfe2d6844b18b0384!8m2!3d25.5662852!4d91.8898463?authuser=0&hl=en&rclk=1,25.5662852,91.8898463,Meghalaya
Civil Hospital Shillong,General hospital,"Laban, Lachumiere, Shillong, Meghalaya 793001, India",https://www.google.co.kr/maps/place/Civil+Hospital+Shillong/data=!4m5!3m4!1s0x37507e9aaa349c19:0xc17fab4baaf2b2c4!8m2!3d25.5677394!4d91.8810813?authuser=0&hl=en&rclk=1,25.5677394,91.8810813,Meghalaya
NEIGRIHMS Private Ward,Hospital,"HWRR+92H, Mawdiangdiang Shillong, Meghalaya 793018, India",https://www.google.co.kr/maps/place/NEIGRIHMS+Private+Ward/data=!4m5!3m4!1s0x3750790558c08421:0x6c1389365b12aaa4!8m2!3d25.5909262!4d91.9400944?authuser=0&hl=en&rclk=1,25.5909262,91.9400944,Meghalaya
Neigrihms Hospital,Hospital,"MDR32, Nongmynsong, Shillong, Meghalaya 793019, India",https://www.google.co.kr/maps/place/Neigrihms+Hospital/data=!4m5!3m4!1s0x375079b725f753fd:0xe55b6a140bdbebc3!8m2!3d25.5880057!4d91.9135255?authuser=0&hl=en&rclk=1,25.5880057,91.9135255,Meghalaya
"NEIGRIHMS Ward, Visiting Hours",Hospital,"HWRQ+JPP, Mawdiangdiang, Meghalaya 793018, India","https://www.google.co.kr/maps/place/NEIGRIHMS+Ward,+Visiting+Hours/data=!4m5!3m4!1s0x375079054d613faf:0x3441e6ee712fa60f!8m2!3d25.5915996!4d91.9393337?authuser=0&hl=en&rclk=1",25.5915996,91.9393337,Meghalaya
Nongpoh Civil Hospital,Hospital,"GS Rd, Nongpoh, Meghalaya 793102, India",https://www.google.co.kr/maps/place/Nongpoh+Civil+Hospital/data=!4m5!3m4!1s0x375a890c956e8dc3:0x89ae90f48da22a19!8m2!3d25.9095178!4d91.8768597?authuser=0&hl=en&rclk=1,25.9095178,91.8768597,Meghalaya
R P Chest Hospital Compound,Hospital,"HVG8+Q9C, Garikhana, Shillong, Meghalaya 793002, India",https://www.google.co.kr/maps/place/R+P+Chest+Hospital+Compound/data=!4m5!3m4!1s0x37507e66d56ea999:0x163fa41fa6bcb594!8m2!3d25.5769273!4d91.8658841?authuser=0&hl=en&rclk=1,25.5769273,91.8658841,Meghalaya
Ganesh Das Hospital,Hospital,"Polo hills, Lawmali Rd, Golf Links, Shillong, Meghalaya 793001, India",https://www.google.co.kr/maps/place/Ganesh+Das+Hospital/data=!4m5!3m4!1s0x37507eec1351104d:0x9073fa1b4ad27a48!8m2!3d25.5837298!4d91.8844084?authuser=0&hl=en&rclk=1,25.5837298,91.8844084,Meghalaya
NEIGRIHMS OPD,Hospital,"Neigrihms Circle Rd, Mawdiangdiang, Meghalaya 793018, India",https://www.google.co.kr/maps/place/NEIGRIHMS+OPD/data=!4m5!3m4!1s0x375079055d3fb33b:0xaa51f6e9b31c334!8m2!3d25.5914962!4d91.9393555?authuser=0&hl=en&rclk=1,25.5914962,91.9393555,Meghalaya
Civil Hospital Shillong,Hospital,"HVFV+755, Laitumkhrah, Shillong, Meghalaya 793003, India",https://www.google.co.kr/maps/place/Civil+Hospital+Shillong/data=!4m5!3m4!1s0x37507febfe66d515:0x8a76aaaef075d429!8m2!3d25.5731355!4d91.8929979?authuser=0&hl=en&rclk=1,25.5731355,91.8929979,Meghalaya
Holy Cross Hospital,Hospital,"MVCP+C28, Meghalaya 793122, India",https://www.google.co.kr/maps/place/Holy+Cross+Hospital/data=!4m5!3m4!1s0x375a81c6d131ec41:0x5ac2c76a61b51449!8m2!3d25.671037!4d91.88509?authuser=0&hl=en&rclk=1,25.671037,91.88509,Meghalaya
Dr. H. Gordon Roberts Hospital,Hospital,"Jaiaw, Shillong, Meghalaya 793002, India",https://www.google.co.kr/maps/place/Dr.+H.+Gordon+Roberts+Hospital/data=!4m5!3m4!1s0x37507ef4102a218b:0x835074c08232690!8m2!3d25.5848335!4d91.8752718?authuser=0&hl=en&rclk=1,25.5848335,91.8752718,Meghalaya
"TB HOSPITAL,SHILLONG",Hospital,"TB Hospital, Shillong, Meghalaya 793012, India","https://www.google.co.kr/maps/place/TB+HOSPITAL,SHILLONG/data=!4m5!3m4!1s0x375079cd05875a71:0xdbad4b77be10c4e9!8m2!3d25.608079!4d91.9425242?authuser=0&hl=en&rclk=1",25.608079,91.9425242,Meghalaya
shillong robbert hospital,Hospital,"Police Bazar, Shillong, Meghalaya 793001, India",https://www.google.co.kr/maps/place/shillong+robbert+hospital/data=!4m5!3m4!1s0x37507ebf70f2b455:0x91608ae99c1f0919!8m2!3d25.5787726!4d91.8932535?authuser=0&hl=en&rclk=1,25.5787726,91.8932535,Meghalaya
The Childrens' Hospital,Children's hospital,"Near St John White Hall School, Pohkseh, Shillong, Meghalaya 793014, India",https://www.google.co.kr/maps/place/The+Childrens'+Hospital/data=!4m5!3m4!1s0x37507952ea848dd9:0x2d30adafd45eecb5!8m2!3d25.5658307!4d91.9111941?authuser=0&hl=en&rclk=1,25.5658307,91.9111941,Meghalaya
Jiban Ram Goenka Hospital,Hospital,"HVGC+3HP, Upper Mawprem, Garikhana, Shillong, Meghalaya 793002, India",https://www.google.co.kr/maps/place/Jiban+Ram+Goenka+Hospital/data=!4m5!3m4!1s0x37507e8a0c0acf7d:0xfd0ea2dcefafc868!8m2!3d25.575221!4d91.8714449?authuser=0&hl=en&rclk=1,25.575221,91.8714449,Meghalaya
Bethany Hospital,Hospital,"NSCA Mini Stadium, NH 40, Nongpoh, Meghalaya 793102, India",https://www.google.co.kr/maps/place/Bethany+Hospital/data=!4m5!3m4!1s0x375a890f42555555:0xe212deeb08cf9f88!8m2!3d25.9002117!4d91.8779453?authuser=0&hl=en&rclk=1,25.9002117,91.8779453,Meghalaya
Misson Hospital,Hospital,"Upper Chandmari Rd, AB Mission Compound, Tura, Meghalaya 794001, India",https://www.google.co.kr/maps/place/Misson+Hospital/data=!4m5!3m4!1s0x3757f181752cd0a7:0xab2bb396223d08cb!8m2!3d25.5185016!4d90.2187626?authuser=0&hl=en&rclk=1,25.5185016,90.2187626,Meghalaya
CGHS Dispensary,Hospital,"793003, Nongkynrih, Laitumkhrah, Shillong, Meghalaya 793003, India",https://www.google.co.kr/maps/place/CGHS+Dispensary/data=!4m5!3m4!1s0x37507ebb85ac56fb:0xdfeed1f917506813!8m2!3d25.5712634!4d91.8957022?authuser=0&hl=en&rclk=1,25.5712634,91.8957022,Meghalaya
Nongstoiñ Civil Hospital,Hospital,"H64H+GF5, NH44E, Nongstoin, Meghalaya 793119, India",https://www.google.co.kr/maps/place/Nongstoi%C3%B1+Civil+Hospital/data=!4m5!3m4!1s0x3750aca22def53d3:0x862fe772b0d3e5ea!8m2!3d25.5565005!4d91.2291079?authuser=0&hl=en&rclk=1,25.5565005,91.2291079,Meghalaya
Homoeopathy Hospital,Government hospital,"HWWX+927, Mawdiangdiang, Meghalaya 793018, India",https://www.google.co.kr/maps/place/Homoeopathy+Hospital/data=!4m5!3m4!1s0x3750790739e262c9:0xfb369166f5ab4f04!8m2!3d25.5959088!4d91.9475412?authuser=0&hl=en&rclk=1,25.5959088,91.9475412,Meghalaya
Tirot Singh Memorial Hospital,Hospital,"Circuit House Rd, Mairang, Meghalaya 793120, India",https://www.google.co.kr/maps/place/Tirot+Singh+Memorial+Hospital/data=!4m5!3m4!1s0x37509b814626b763:0xdc3da4278b746641!8m2!3d25.5542041!4d91.6328169?authuser=0&hl=en&rclk=1,25.5542041,91.6328169,Meghalaya
"TB Hospital Umsawli,",Government hospital,"TB Hospital, Umsawli, Meghalaya 793012, India","https://www.google.co.kr/maps/place/TB+Hospital+Umsawli,/data=!4m5!3m4!1s0x375079f722eb224d:0xa2cf57323b3f1314!8m2!3d25.6081515!4d91.9425268?authuser=0&hl=en&rclk=1",25.6081515,91.9425268,Meghalaya
"Bethany Hospital, Shillong",Private hospital,"Nongrim hills, Shillong, Meghalaya, India","https://www.google.co.kr/maps/place/Bethany+Hospital,+Shillong/data=!4m5!3m4!1s0x37507eaf94a95f0f:0x34676a1af4509000!8m2!3d25.5661639!4d91.9010857?authuser=0&hl=en&rclk=1",25.5661639,91.9010857,Meghalaya
Dr Norman Tunnel Hospital,Hospital,"Moosalyngkat, Jowai-Shillong Rd, Jowai, Meghalaya 793150, India",https://www.google.co.kr/maps/place/Dr+Norman+Tunnel+Hospital/data=!4m5!3m4!1s0x3750126e033bd50d:0xa9b488b2a26da0b1!8m2!3d25.4441035!4d92.1988731?authuser=0&hl=en&rclk=1,25.4441035,92.1988731,Meghalaya
Civil Hospital Baghmara,Government hospital,"Veterinary-Medical Rd, Baghmara, Meghalaya 794102, India",https://www.google.co.kr/maps/place/Civil+Hospital+Baghmara/data=!4m5!3m4!1s0x37570a2ff5c8799b:0xdf150511641fc8ba!8m2!3d25.1982435!4d90.6300043?authuser=0&hl=en&rclk=1,25.1982435,90.6300043,Meghalaya
EMRI Shillong,Hospital,"HVMJ+RVC, Golf Links, Shillong, Meghalaya 793001, India",https://www.google.co.kr/maps/place/EMRI+Shillong/data=!4m5!3m4!1s0x37507eedc61aa8a5:0x34bd2a9e332affd6!8m2!3d25.584557!4d91.8821492?authuser=0&hl=en&rclk=1,25.584557,91.8821492,Meghalaya
DGAR Hospital,Military hospital,"GV7G+92J, Meghalaya 793010, India",https://www.google.co.kr/maps/place/DGAR+Hospital/data=!4m5!3m4!1s0x37507c54170e57a9:0x1a9e1c0442aa84ca!8m2!3d25.5134674!4d91.8750291?authuser=0&hl=en&rclk=1,25.5134674,91.8750291,Meghalaya
NEIGRIHMS A-31,Hospital,"HWRP+FC5, Mawdiangdiang, Meghalaya 793018, India",https://www.google.co.kr/maps/place/NEIGRIHMS+A-31/data=!4m5!3m4!1s0x3750791a776cd659:0x3886c6d79d054d4f!8m2!3d25.5911278!4d91.9361137?authuser=0&hl=en&rclk=1,25.5911278,91.9361137,Meghalaya
Military Hospital,Hospital,"NH 44, Ïewduh, Bara Bazar, Shillong, Meghalaya 793001, India",https://www.google.co.kr/maps/place/Military+Hospital/data=!4m5!3m4!1s0x37507e89a94a1997:0x651275d3e2b104cd!8m2!3d25.570798!4d91.8726986?authuser=0&hl=en&rclk=1,25.570798,91.8726986,Meghalaya
Old Civil Hospital,Hospital,"C6P4+F3W, Jowai, Meghalaya 793150, India",https://www.google.co.kr/maps/place/Old+Civil+Hospital/data=!4m5!3m4!1s0x37501214dfe66711:0x9db3fdc1085183a4!8m2!3d25.436231!4d92.2051922?authuser=0&hl=en&rclk=1,25.436231,92.2051922,Meghalaya
Holy Cross Hospitàl Mairang,Hospital,"HJ6J+56H, Mairang, Meghalaya 793120, India",https://www.google.co.kr/maps/place/Holy+Cross+Hospit%C3%A0l+Mairang/data=!4m5!3m4!1s0x37509c7892ecd16d:0x7dae9c2f92930d7c!8m2!3d25.5604294!4d91.6306178?authuser=0&hl=en&rclk=1,25.5604294,91.6306178,Meghalaya
Civil Hospital,Hospital,"G673+VFH, Tura, Meghalaya 794101, India",https://www.google.co.kr/maps/place/Civil+Hospital/data=!4m5!3m4!1s0x3757f1a18760f859:0x50e42af5be056ae7!8m2!3d25.5146849!4d90.2037406?authuser=0&hl=en&rclk=1,25.5146849,90.2037406,Meghalaya
Williamnagar Civil Hospital,Hospital,"GJ73+PXW, Williamnagar, Meghalaya 794111, India",https://www.google.co.kr/maps/place/Williamnagar+Civil+Hospital/data=!4m5!3m4!1s0x3757787eb82749bd:0x8f40a0c5fbf08de6!8m2!3d25.5143533!4d90.6049535?authuser=0&hl=en&rclk=1,25.5143533,90.6049535,Meghalaya
Bethany Hospital,Medical Center,"2VV8+GVW, Byrnihat, Meghalaya 793101, India",https://www.google.co.kr/maps/place/Bethany+Hospital/data=!4m5!3m4!1s0x375af52660a0cec1:0x2859023ff4605844!8m2!3d26.0438611!4d91.8671947?authuser=0&hl=en&rclk=1,26.0438611,91.8671947,Meghalaya
"M.C.H. Hospital, Jowai",Government hospital,"Hoapital Road, Jowai, Meghalaya 793150, India","https://www.google.co.kr/maps/place/M.C.H.+Hospital,+Jowai/data=!4m5!3m4!1s0x37500e3282362271:0x8afd52cdac1f5b11!8m2!3d25.4680299!4d92.2609605?authuser=0&hl=en&rclk=1",25.4680299,92.2609605,Meghalaya
Lady Kerr Welfare Centre,Maternity hospital,"Red Cross, Laban, Shillong, Meghalaya 793004, India",https://www.google.co.kr/maps/place/Lady+Kerr+Welfare+Centre/data=!4m5!3m4!1s0x37507e856a0271ff:0xbe27a6c6b653d9af!8m2!3d25.5668335!4d91.8793782?authuser=0&hl=en&rclk=1,25.5668335,91.8793782,Meghalaya
Dr Alka,Hospital,"HWH2+8R8, Demseiñ-Ïong, Shillong, Meghalaya 793011, India",https://www.google.co.kr/maps/place/Dr+Alka/data=!4m5!3m4!1s0x37507fe3fb2fba8b:0xa1a772a29c6b2c65!8m2!3d25.5782921!4d91.9020872?authuser=0&hl=en&rclk=1,25.5782921,91.9020872,Meghalaya
Woodland WK Hospital,Hospital,"NH6, Jowai, Meghalaya 793150, India",https://www.google.co.kr/maps/place/Woodland+WK+Hospital/data=!4m5!3m4!1s0x37500f0c58a08c4f:0x255c3422a1cfff1!8m2!3d25.4691882!4d92.2394078?authuser=0&hl=en&rclk=1,25.4691882,92.2394078,Meghalaya
Tura Christian Hospital,Private hospital,"G699+9F8, AB Mission Compound, Tura, Meghalaya 794001, India",https://www.google.co.kr/maps/place/Tura+Christian+Hospital/data=!4m5!3m4!1s0x3757f18239b712e9:0x7955162224976c4!8m2!3d25.5184068!4d90.2186912?authuser=0&hl=en&rclk=1,25.5184068,90.2186912,Meghalaya
CHC Bhoi Rymbong,Government hospital,"P25C+FQ7, Bhoirymbong, Meghalaya 793103, India",https://www.google.co.kr/maps/place/CHC+Bhoi+Rymbong/data=!4m5!3m4!1s0x375a9cf0afa4d90d:0x8ae65bf1f9a8718e!8m2!3d25.7086625!4d92.0219135?authuser=0&hl=en&rclk=1,25.7086625,92.0219135,Meghalaya
Ampati Civil Hospital,Hospital,"FWVV+M74, Betasing, Meghalaya 794115, India",https://www.google.co.kr/maps/place/Ampati+Civil+Hospital/data=!4m5!3m4!1s0x39fd574033409827:0x1c9e8b4e1c9d6d5e!8m2!3d25.49415!4d89.9432013?authuser=0&hl=en&rclk=1,25.49415,89.9432013,Meghalaya
CGHS Shillong Head Office.,Hospital,"Central Govt. Health Services Office of Additional Director Nongrim Hills, near Nagaland House, 793003, India",https://www.google.co.kr/maps/place/CGHS+Shillong+Head+Office./data=!4m5!3m4!1s0x37507eafd480c573:0x7b9ff398c39df3b1!8m2!3d25.5673403!4d91.9024379?authuser=0&hl=en&rclk=1,25.5673403,91.9024379,Meghalaya
Kharkongor Clinic,Hospital,"HV73+69R, Sawmer, Meghalaya 793005, India",https://www.google.co.kr/maps/place/Kharkongor+Clinic/data=!4m5!3m4!1s0x37507e737098dceb:0xb02f18fff7644a4!8m2!3d25.5631246!4d91.8533937?authuser=0&hl=en&rclk=1,25.5631246,91.8533937,Meghalaya
Nongstoin MCH Hospital,Government hospital,"G799+WMM, Upper New-Nongstoin, Nongstoin, Meghalaya 793119, India",https://www.google.co.kr/maps/place/Nongstoin+MCH+Hospital/data=!4m5!3m4!1s0x3750ad0c14ea4c4b:0xe9bd727ed27ba197!8m2!3d25.5198429!4d91.2691858?authuser=0&hl=en&rclk=1,25.5198429,91.2691858,Meghalaya
Mawphlang Public Health Centre,Government hospital,"Lad Umrisain, Mawphlāng, Meghalaya 793121, India",https://www.google.co.kr/maps/place/Mawphlang+Public+Health+Centre/data=!4m5!3m4!1s0x375088a863c17d47:0xe1074b6a4ad891af!8m2!3d25.4600461!4d91.7629374?authuser=0&hl=en&rclk=1,25.4600461,91.7629374,Meghalaya
Regional Cancer Centre,Hospital,"HWVV+43G, Mawdiangdiang, Meghalaya 793018, India",https://www.google.co.kr/maps/place/Regional+Cancer+Centre/data=!4m5!3m4!1s0x3750794818d1d47f:0xaea17718ca0505b8!8m2!3d25.5928231!4d91.9427045?authuser=0&hl=en&rclk=1,25.5928231,91.9427045,Meghalaya
Dr B Lyngdoh Clinic,Hospital,"NH6, Nongrimbah, Shillong, Meghalaya 793014, India",https://www.google.co.kr/maps/place/Dr+B+Lyngdoh+Clinic/data=!4m5!3m4!1s0x37507eac0461797f:0xdea746809b3bcfff!8m2!3d25.5622345!4d91.9054034?authuser=0&hl=en&rclk=1,25.5622345,91.9054034,Meghalaya
Maternity and Child Hospital,Hospital,"Unnamed Road, Tura, Meghalaya 794101, India",https://www.google.co.kr/maps/place/Maternity+and+Child+Hospital/data=!4m5!3m4!1s0x3757f0580e8b8951:0x31424f6cc2e337bd!8m2!3d25.5200964!4d90.176777?authuser=0&hl=en&rclk=1,25.5200964,90.176777,Meghalaya
Laitdom P.H.C,Hospital,"JM56+524, Ladpanar, Meghalaya 793120, India",https://www.google.co.kr/maps/place/Laitdom+P.H.C/data=!4m5!3m4!1s0x37509d5316741d17:0xba771f3cb66f6bb3!8m2!3d25.6078982!4d91.6600641?authuser=0&hl=en&rclk=1,25.6078982,91.6600641,Meghalaya
Government Hospital,Hospital,"7PCP+W68, Cherrapunji, Meghalaya 793108, India",https://www.google.co.kr/maps/place/Government+Hospital/data=!4m5!3m4!1s0x3750f34abf9a4d99:0xb8d3db8d96c6bf23!8m2!3d25.2722751!4d91.7355817?authuser=0&hl=en&rclk=1,25.2722751,91.7355817,Meghalaya
Sub Divisional Hospital,Hospital,"Lower 793108, Cherrapunji, Meghalaya, India",https://www.google.co.kr/maps/place/Sub+Divisional+Hospital/data=!4m5!3m4!1s0x3750f34ac09d0069:0x68bdc8f24ed2a74f!8m2!3d25.2723676!4d91.735641?authuser=0&hl=en&rclk=1,25.2723676,91.735641,Meghalaya
Civil Hospital Mairang,Hospital,"HJ3M+J6W, Mairang, Meghalaya 793120, India",https://www.google.co.kr/maps/place/Civil+Hospital+Mairang/data=!4m5!3m4!1s0x37509b8145bb93cd:0xd40a9f0886e313f5!8m2!3d25.5541153!4d91.6330653?authuser=0&hl=en&rclk=1,25.5541153,91.6330653,Meghalaya
Health Sub-Center Muallian,Hospital,"6F3Q+4H7, Moolain, Meghalaya 793200, India",https://www.google.co.kr/maps/place/Health+Sub-Center+Muallian/data=!4m5!3m4!1s0x374fdff14752328f:0x9827639523af8f77!8m2!3d25.20279!4d92.4889156?authuser=0&hl=en&rclk=1,25.20279,92.4889156,Meghalaya
Resubelpara Civil Hospital,Hospital,"DIET Rd, Medical Colony, Resubelpara, Meghalaya 794108, India",https://www.google.co.kr/maps/place/Resubelpara+Civil+Hospital/data=!4m5!3m4!1s0x3759ccd78aeb8fb9:0x95c76d83bb9ff70e!8m2!3d25.8998043!4d90.610857?authuser=0&hl=en&rclk=1,25.8998043,90.610857,Meghalaya
Echonomics,Hospital,"HVGQ+M5P, Khyndailad, Police Bazar, Shillong, Meghalaya 793001, India",https://www.google.co.kr/maps/place/Echonomics/data=!4m5!3m4!1s0x37507e9500000001:0xabee2e0982c01749!8m2!3d25.5767146!4d91.8879469?authuser=0&hl=en&rclk=1,25.5767146,91.8879469,Meghalaya
Holy Cross Hospital,Hospital,"Walbakgre, Tura, Meghalaya 794101, India",https://www.google.co.kr/maps/place/Holy+Cross+Hospital/data=!4m5!3m4!1s0x3757f1095166cf17:0x4516073b2a655d2a!8m2!3d25.5181981!4d90.1704088?authuser=0&hl=en&rclk=1,25.5181981,90.1704088,Meghalaya
CAPF Composite Hospital BSF Umpling,Hospital,"Umpling, Mawarliang, Shillong, Meghalaya 793006, India",https://www.google.co.kr/maps/place/CAPF+Composite+Hospital+BSF+Umpling/data=!4m5!3m4!1s0x37507939ac062143:0x759fbf58cdd91814!8m2!3d25.5718168!4d91.9233597?authuser=0&hl=en&rclk=1,25.5718168,91.9233597,Meghalaya
MCH HOSPITAL NONGSTOIN,Hospital,"G7C9+XJP, Nongstoin, Meghalaya 793119, India",https://www.google.co.kr/maps/place/MCH+HOSPITAL+NONGSTOIN/data=!4m5!3m4!1s0x3750ad0f0e12675f:0xaca8c1bf9b0dda92!8m2!3d25.5224737!4d91.2690919?authuser=0&hl=en&rclk=1,25.5224737,91.2690919,Meghalaya
Specialist Hospital,Hospital,"WVFX+8FV, Kharkutta, Meghalaya 783134, India",https://www.google.co.kr/maps/place/Specialist+Hospital/data=!4m5!3m4!1s0x3759c3d5345c5c41:0xde9658fe6fa81ef!8m2!3d25.9233573!4d90.8986637?authuser=0&hl=en&rclk=1,25.9233573,90.8986637,Meghalaya
Puksora Sub: Center (Health),Hospital,"Upper Puksora, Meghalaya, India",https://www.google.co.kr/maps/place/Puksora+Sub:+Center+(Health)/data=!4m5!3m4!1s0x3750c99b3374051f:0x272083a37b14bc77!8m2!3d25.2042941!4d91.3355507?authuser=0&hl=en&rclk=1,25.2042941,91.3355507,Meghalaya
Saulmari PHC,Hospital,"VFXQ+F5H, Bajengdoba, Meghalaya 794002, India",https://www.google.co.kr/maps/place/Saulmari+PHC/data=!4m5!3m4!1s0x37583115e5c6f087:0x9ac7f45f42fc7c71!8m2!3d25.8986758!4d90.4879916?authuser=0&hl=en&rclk=1,25.8986758,90.4879916,Meghalaya
The Children Hospital,Hospital,"HV9J+485, Lachumiere, Shillong, Meghalaya 793006, India",https://www.google.co.kr/maps/place/The+Children+Hospital/data=!4m5!3m4!1s0x37507e9aaa34f9b3:0x883cb6bcac653bef!8m2!3d25.567753!4d91.880864?authuser=0&hl=en&rclk=1,25.567753,91.880864,Meghalaya
Primary Health Centre,Hospital,"GRH7+P42, Sadew, Meghalaya 793005, India",https://www.google.co.kr/maps/place/Primary+Health+Centre/data=!4m5!3m4!1s0x3750876b3124c6b3:0x25663075058dfec7!8m2!3d25.5292586!4d91.8127549?authuser=0&hl=en&rclk=1,25.5292586,91.8127549,Meghalaya
C.H.C Ummulong,Hospital,"NH6, Ummulong, Meghalaya 793151, India",https://www.google.co.kr/maps/place/C.H.C+Ummulong/data=!4m5!3m4!1s0x37500cdac4ad54d1:0xf06d598b0269ac66!8m2!3d25.5157282!4d92.1566892?authuser=0&hl=en&rclk=1,25.5157282,92.1566892,Meghalaya
Stay Fit Clinic,Hospital,"Mission Road, Mairang, Meghalaya 793120, India",https://www.google.co.kr/maps/place/Stay+Fit+Clinic/data=!4m5!3m4!1s0x37509c822a1b6cb9:0xb81c1ed3bb398523!8m2!3d25.5615654!4d91.642114?authuser=0&hl=en&rclk=1,25.5615654,91.642114,Meghalaya
Mission Trust,Hospital,"HW53+G25, Jingkieng, Nongthymmai, Shillong, Meghalaya 793014, India",https://www.google.co.kr/maps/place/Mission+Trust/data=!4m5!3m4!1s0x37507ea900000001:0x6757435951532b3a!8m2!3d25.5587694!4d91.902597?authuser=0&hl=en&rclk=1,25.5587694,91.902597,Meghalaya
Rasongsli Nursing Home,Hospital,"74P9+CRQ, Meghalaya 793161, India",https://www.google.co.kr/maps/place/Rasongsli+Nursing+Home/data=!4m5!3m4!1s0x37506a915943c7bb:0xd967e5a497d3fa7d!8m2!3d25.286083!4d92.119621?authuser=0&hl=en&rclk=1,25.286083,92.119621,Meghalaya
Hope Clinic,Medical clinic,"Pine Mount Ridge, Opp Pine Mount School, Barik, Opp Pine Mount School, Barik, Shillong, Meghalaya 793001, India",https://www.google.co.kr/maps/place/Hope+Clinic/data=!4m5!3m4!1s0x37507e9b3551d11b:0x6756445f7a147ef!8m2!3d25.563535!4d91.8806506?authuser=0&hl=en&rclk=1,25.563535,91.8806506,Meghalaya
Memorial Clinic,Medical clinic,"near Umshyrpi College, harisava, Laban, Shillong, Meghalaya 793004, India",https://www.google.co.kr/maps/place/Memorial+Clinic/data=!4m5!3m4!1s0x37507e85748546e7:0x2080f412599f4575!8m2!3d25.5666702!4d91.8783734?authuser=0&hl=en&rclk=1,25.5666702,91.8783734,Meghalaya
Woodland Diagnostic Centre,Medical clinic,"F622+WH9, Jowai, Meghalaya 793150, India",https://www.google.co.kr/maps/place/Woodland+Diagnostic+Centre/data=!4m5!3m4!1s0x3750127461c9453d:0x82efb708634fa642!8m2!3d25.4522819!4d92.2014743?authuser=0&hl=en&rclk=1,25.4522819,92.2014743,Meghalaya
Chandigarh Government Hospital,Government hospital,"Kalmakanda - Durgapur Rd, Bangladesh",https://www.google.co.kr/maps/place/Chandigarh+Government+Hospital/data=!4m5!3m4!1s0x37570f9891848925:0x5a5fa01a5a49c24d!8m2!3d25.1149427!4d90.7216778?authuser=0&hl=en&rclk=1,25.1149427,90.7216778,Meghalaya
