Company_Name,Category,Address,Url,Latitude,Longitude,Territory
"Shalby Hospitals, Naroda",Hospital,"Haridarshan Cross Road, Kathwada Rd, Naroda, Ahmedabad, Gujarat 382325, India","https://www.google.co.kr/maps/place/Shalby+Hospitals,+Naroda/data=!4m5!3m4!1s0x395e872df1e4a8e7:0xb71a301f46668b34!8m2!3d23.0693387!4d72.6735728?authuser=0&hl=en&rclk=1",23.0693387,72.6735728,Gujarat
Shalby Multi-Specialty Hospitals,General hospital,"Sarkhej - Gandhinagar Hwy, opposite of Karnavati Club, Ramdev Nagar, Ahmedabad, Gujarat 380015, India",https://www.google.co.kr/maps/place/Shalby+Multi-Specialty+Hospitals/data=!4m5!3m4!1s0x395e9b25101211f5:0x2f374a23db429344!8m2!3d23.019021!4d72.506649?authuser=0&hl=en&rclk=1,23.019021,72.506649,Gujarat
Spandan Multispeciality Hospital,Hospital,"Municipal Corporation, Sindhwai Mata Road Beside Ward Office No: 4, Manjalpur, Vadodara, Gujarat 390011, India",https://www.google.co.kr/maps/place/Spandan+Multispeciality+Hospital/data=!4m5!3m4!1s0x395fc8af92669c35:0x24bd71539c783c1b!8m2!3d22.2773279!4d73.2031338?authuser=0&hl=en&rclk=1,22.2773279,73.2031338,Gujarat
Vijay Shalby Hospital,Hospital,"Fire Station, 6, Rupam Society, 120 Feet Ring Rd, Vijay Cross Rd Near Memnagar, Navrangpura, Ahmedabad, Gujarat 380009, India",https://www.google.co.kr/maps/place/Vijay+Shalby+Hospital/data=!4m5!3m4!1s0x395e84f53fffffff:0x6f2a3fb1ba37f9d1!8m2!3d23.0447606!4d72.5503205?authuser=0&hl=en&rclk=1,23.0447606,72.5503205,Gujarat
Zydus Hospitals,Hospital,"Zydus Hospitals Road, Nr. Sola Bridge, Sarkhej - Gandhinagar Hwy, Ahmedabad, Gujarat 380054, India",https://www.google.co.kr/maps/place/Zydus+Hospitals/data=!4m5!3m4!1s0x395e9b5e464673c1:0x4aa886904308b889!8m2!3d23.0585079!4d72.517465?authuser=0&hl=en&rclk=1,23.0585079,72.517465,Gujarat
"Civil Hospital Campus, Ahmedabad",General hospital,"D Block Asarwa, Haripura, Office of the Medical Superintendent Civil Hospital, Asarwa, Ahmedabad, Gujarat 380016, India","https://www.google.co.kr/maps/place/Civil+Hospital+Campus,+Ahmedabad/data=!4m5!3m4!1s0x395e841a8fb6688b:0x74c28945e5a91979!8m2!3d23.0515024!4d72.6052235?authuser=0&hl=en&rclk=1",23.0515024,72.6052235,Gujarat
"Shalby Hospital, Surat",Hospital,"Nr. Navyug College, Rander Rd, Adajan, Surat, Gujarat 395009, India","https://www.google.co.kr/maps/place/Shalby+Hospital,+Surat/data=!4m5!3m4!1s0x3be04c2bd38b220d:0xfd16cdc3f794f73b!8m2!3d21.2023112!4d72.8009972?authuser=0&hl=en&rclk=1",21.2023112,72.8009972,Gujarat
Sterling Hospital,Private hospital,"Sterling Hospital Road near Maharaja Agrasen Vidhyalaya, Memnagar, Ahmedabad, Gujarat 380052, India",https://www.google.co.kr/maps/place/Sterling+Hospital/data=!4m5!3m4!1s0x395e84afbc804959:0x1bd6f237ba587f77!8m2!3d23.048672!4d72.5311702?authuser=0&hl=en&rclk=1,23.048672,72.5311702,Gujarat
CIMS Hospital,Hospital,"Science City Rd, Science City, Panchamrut Bunglows II, Sola, Ahmedabad, Gujarat 380060, India",https://www.google.co.kr/maps/place/CIMS+Hospital/data=!4m5!3m4!1s0x395e9cb250f37723:0x27de8effab4879ed!8m2!3d23.0701125!4d72.5174376?authuser=0&hl=en&rclk=1,23.0701125,72.5174376,Gujarat
Shree Krishna Hospital,General hospital,"Anand - Sojitra Rd, Gokul Nagar, Karamsad, Anand, Gujarat 388325, India",https://www.google.co.kr/maps/place/Shree+Krishna+Hospital/data=!4m5!3m4!1s0x395e5203e158c8a5:0x416fa814eee399a0!8m2!3d22.5390591!4d72.8947528?authuser=0&hl=en&rclk=1,22.5390591,72.8947528,Gujarat
Krishna Shalby Hospital,General hospital,"319, Green City, Ghuma, Via, Bopal, Ahmedabad, Gujarat 380058, India",https://www.google.co.kr/maps/place/Krishna+Shalby+Hospital/data=!4m5!3m4!1s0x395e848ac8a7faf3:0x82cde84d06a2babf!8m2!3d23.024069!4d72.4413764?authuser=0&hl=en&rclk=1,23.024069,72.4413764,Gujarat
Global Hospital,General hospital,"Nr. Bodakdev Garden Pakwan Cross Road, Off, Sarkhej - Gandhinagar Hwy, Bodakdev, Ahmedabad, Gujarat 380054, India",https://www.google.co.kr/maps/place/Global+Hospital/data=!4m5!3m4!1s0x395e9b4f80a8d1bf:0x921f95d936981600!8m2!3d23.0413162!4d72.5086723?authuser=0&hl=en&rclk=1,23.0413162,72.5086723,Gujarat
Yashfeen Group Of Hospital,Private hospital,"Opp. Morarji Desai Market, At & Post Viraval, Navsari, Gujarat 396445, India",https://www.google.co.kr/maps/place/Yashfeen+Group+Of+Hospital/data=!4m5!3m4!1s0x3be0f7c6a3410899:0x9646c92bc93308cc!8m2!3d20.9614828!4d72.9294947?authuser=0&hl=en&rclk=1,20.9614828,72.9294947,Gujarat
Saviour Hospital,Private hospital,"Sardar Patel Stadium Rd, Near Bharat Petrol Pump, Chaitanya Nagar, Navrangpura, Ahmedabad, Gujarat 380014, India",https://www.google.co.kr/maps/place/Saviour+Hospital/data=!4m5!3m4!1s0x395e848eb92e312d:0x3aae614f99d235ed!8m2!3d23.0451422!4d72.5607897?authuser=0&hl=en&rclk=1,23.0451422,72.5607897,Gujarat
N.m Virani Wockhardt Hospital Rajkot,General hospital,"Kalawad Road Near St. Mary's High School, Rajkot, Gujarat 360007, India",https://www.google.co.kr/maps/place/N.m+Virani+Wockhardt+Hospital+Rajkot/data=!4m5!3m4!1s0x3959ca2462dea45b:0xf077f763eb7b65b0!8m2!3d22.2882455!4d70.7742188?authuser=0&hl=en&rclk=1,22.2882455,70.7742188,Gujarat
Anand Hospital,Hospital,"1/568/B-57, Por Mahollo, Athugar St, Timaliyawad, Nanpura, Surat, Gujarat 395001, India",https://www.google.co.kr/maps/place/Anand+Hospital/data=!4m5!3m4!1s0x3be04e63a5de0acb:0x1fdb6d2b393b848e!8m2!3d21.1876805!4d72.813208?authuser=0&hl=en&rclk=1,21.1876805,72.813208,Gujarat
Kaizen Hospital,Hospital,"Helmet Circle, 132 Feet Ring Rd, Memnagar, Ahmedabad, Gujarat 380052, India",https://www.google.co.kr/maps/place/Kaizen+Hospital/data=!4m5!3m4!1s0x395e84bd5a21e4cd:0x4f416178d87b5ae0!8m2!3d23.0467458!4d72.5439125?authuser=0&hl=en&rclk=1,23.0467458,72.5439125,Gujarat
Sterling Hospital Vadodara,Private hospital,"Circle West, Race Course Road Opposite Inox Cinema, Hari Nagar, Vadodara, Gujarat 390007, India",https://www.google.co.kr/maps/place/Sterling+Hospital+Vadodara/data=!4m5!3m4!1s0x395fc8bb855e740f:0x700707839db9fe19!8m2!3d22.3127258!4d73.1588197?authuser=0&hl=en&rclk=1,22.3127258,73.1588197,Gujarat
Sterling Hospital Rajkot,Private hospital,"Police Station, Plot No.251, 150 Feet Ring Rd, Opp, Gandhigram, Rajkot, Gujarat 360007, India",https://www.google.co.kr/maps/place/Sterling+Hospital+Rajkot/data=!4m5!3m4!1s0x3959c983ae49a5d9:0x6ec42199c0552471!8m2!3d22.306737!4d70.767542?authuser=0&hl=en&rclk=1,22.306737,70.767542,Gujarat
SAL Hospital & Medical Institute,General hospital,"Doordarshan Tower SAL Hospital Cross roads, opposite Drive In Road, Thaltej, Ahmedabad, Gujarat 380054, India",https://www.google.co.kr/maps/place/SAL+Hospital+%26+Medical+Institute/data=!4m5!3m4!1s0x395e84ac4fa14425:0xd23e816209544b0b!8m2!3d23.049471!4d72.524174?authuser=0&hl=en&rclk=1,23.049471,72.524174,Gujarat
Civil Hospital,General hospital,"No.G-2, GH Road, Sector-12, Gandhinagar, Gujarat 382016, India",https://www.google.co.kr/maps/place/Civil+Hospital/data=!4m5!3m4!1s0x395c2bb7bcbba583:0x72c6b98cc8da1029!8m2!3d23.2182762!4d72.6400921?authuser=0&hl=en&rclk=1,23.2182762,72.6400921,Gujarat
Goenka Hospital,Hospital,"Pethapur Mahudi Road Near GGS , Piplaj, Gandhinagar- 382610 Gujarat, India., Gandhinagar - Vijapur Rd, Pimplaj, Gujarat 382610, India",https://www.google.co.kr/maps/place/Goenka+Hospital/data=!4m5!3m4!1s0x395c2d1453c8f507:0xc3ed0ef5f3611394!8m2!3d23.3259125!4d72.6831516?authuser=0&hl=en&rclk=1,23.3259125,72.6831516,Gujarat
Nidhi Multispeciality Hospital,Hospital,"Shree Kunj Building Stadium Commerce College Road, Commerce Six Rd, Nr Azad Sweets, Navrangpura, Ahmedabad, Gujarat 380009, India",https://www.google.co.kr/maps/place/Nidhi+Multispeciality+Hospital/data=!4m5!3m4!1s0x395e848c996426c3:0x915350ab1da7fe78!8m2!3d23.0400995!4d72.5614033?authuser=0&hl=en&rclk=1,23.0400995,72.5614033,Gujarat
"Civil Hospital, Valsad",Hospital,"Civil Rd, Halar, Jivan Nagar Society, Valsad, Gujarat 396001, India","https://www.google.co.kr/maps/place/Civil+Hospital,+Valsad/data=!4m5!3m4!1s0x3be0c296293d0e95:0xee51a47bb868d138!8m2!3d20.5938613!4d72.922216?authuser=0&hl=en&rclk=1",20.5938613,72.922216,Gujarat
Tricolour Hospitals,Hospital,"Dr. Vikram Sarabhai Road, Genda Cir, Vadiwadi, Vadodara, Gujarat 390007, India",https://www.google.co.kr/maps/place/Tricolour+Hospitals/data=!4m5!3m4!1s0x395fc8b9d8e526ff:0x8143736d33d957f2!8m2!3d22.3173026!4d73.1669353?authuser=0&hl=en&rclk=1,22.3173026,73.1669353,Gujarat
Gujarat Kidney And Superspeciality Hospital Vadodara,Hospital,"New India Mill Compound Nr Jetalpur Bridge, Jetalpur Rd, Vadodara, Gujarat 390020, India",https://www.google.co.kr/maps/place/Gujarat+Kidney+And+Superspeciality+Hospital+Vadodara/data=!4m5!3m4!1s0x395fc8a5599b023d:0xea25bf1ff850e17a!8m2!3d22.3073146!4d73.1760006?authuser=0&hl=en&rclk=1,22.3073146,73.1760006,Gujarat
Sri Sathya Sai Heart Hospital,Heart hospital,"off, Kalavad Rd, Maruti Nagar, Nana Mava, Rajkot, Gujarat 360005, India",https://www.google.co.kr/maps/place/Sri+Sathya+Sai+Heart+Hospital/data=!4m5!3m4!1s0x3959ca35d01a7a2f:0x1fa9db8601b444d5!8m2!3d22.2784156!4d70.7695437?authuser=0&hl=en&rclk=1,22.2784156,70.7695437,Gujarat
Aarna Medical Hospital,Hospital,"107, Devraj Mall, India Colony Rd, Bapunagar, Ahmedabad, Gujarat 380024, India",https://www.google.co.kr/maps/place/Aarna+Medical+Hospital/data=!4m5!3m4!1s0x395e86eccb30264f:0xa9083ce59170200e!8m2!3d23.0396226!4d72.6388065?authuser=0&hl=en&rclk=1,23.0396226,72.6388065,Gujarat
Nirmal Hospital Pvt Ltd,Private hospital,"Nirmal Hospital, Sagrampura, Surat, Gujarat 395002, India",https://www.google.co.kr/maps/place/Nirmal+Hospital+Pvt+Ltd/data=!4m5!3m4!1s0x3be04e69b0000001:0x889ddaa12034e9ed!8m2!3d21.1812543!4d72.8246493?authuser=0&hl=en&rclk=1,21.1812543,72.8246493,Gujarat
Sterling Ram Krishna Speciality Hospital,Hospital,"Plot Health Centre, Ward 10-B “C”, Nr. YMCA, opp. Iffco Colony, Gandhidham, Gujarat 370201, India",https://www.google.co.kr/maps/place/Sterling+Ram+Krishna+Speciality+Hospital/data=!4m5!3m4!1s0x3950b9961bc8a88b:0xcfe4c5d7c9b4e255!8m2!3d23.069198!4d70.12218?authuser=0&hl=en&rclk=1,23.069198,70.12218,Gujarat
"Navkar Surgical Hospital - Best Laparoscopy Hernia Hospital, Gastro, General Surgery, Fistula Center, Advance Laparoscopy, Gastro Intestinal",Hospital,"3/A, near State Bank of India, Vikramnagar Society, Usmanpura, Ahmedabad, Gujarat 380013, India","https://www.google.co.kr/maps/place/Navkar+Surgical+Hospital+-+Best+Laparoscopy+Hernia+Hospital,+Gastro,+General+Surgery,+Fistula+Center,+Advance+Laparoscopy,+Gastro+Intestinal/data=!4m5!3m4!1s0x395e8463d32f5a07:0x99ceea6a79fd329e!8m2!3d23.0488235!4d72.5666032?authuser=0&hl=en&rclk=1",23.0488235,72.5666032,Gujarat
HCG Hospitals,Hospital,"Mithakhali Six Rd, kalyan Society, Maharashtra Society, Ellisbridge, Ahmedabad, Gujarat 380006, India",https://www.google.co.kr/maps/place/HCG+Hospitals/data=!4m5!3m4!1s0x395e84f773bc0859:0x227151ad64cb173a!8m2!3d23.0287828!4d72.56429?authuser=0&hl=en&rclk=1,23.0287828,72.56429,Gujarat
AIMS Hospital,Hospital,"Gyansagar Society, Motinagar, Paldi, Ahmedabad, Gujarat 380007, India",https://www.google.co.kr/maps/place/AIMS+Hospital/data=!4m5!3m4!1s0x395e8505e9b36323:0xa5dceb78dfeffd1e!8m2!3d23.0034244!4d72.5638695?authuser=0&hl=en&rclk=1,23.0034244,72.5638695,Gujarat
Bhailal Amin General Hospital,Hospital,"Bhailal Amin Marg, Road, Gorwa, Vadodara, Gujarat 390003, India",https://www.google.co.kr/maps/place/Bhailal+Amin+General+Hospital/data=!4m5!3m4!1s0x395fc8c3aa3a4ef1:0xf623ea5a765fc68b!8m2!3d22.3250448!4d73.1631132?authuser=0&hl=en&rclk=1,22.3250448,73.1631132,Gujarat
Rajasthan Hospital Ahmedabad,Hospital,"Shahibaug Rd, Arihant Nagar, Shahibag, Ahmedabad, Gujarat 380004, India",https://www.google.co.kr/maps/place/Rajasthan+Hospital+Ahmedabad/data=!4m5!3m4!1s0x395e840de6c7179f:0x2e74535df195b8f3!8m2!3d23.0550441!4d72.5969431?authuser=0&hl=en&rclk=1,23.0550441,72.5969431,Gujarat
BRAHMA AYURVED MULTISPECIALITY HOSPITAL,Hospital,"4TH FLOOR, TULSI MILESTONE, ABOVE SANKET INDIA, College Rd, near MAHAGUJARAT HOSPITAL, Nadiad, Gujarat 387001, India",https://www.google.co.kr/maps/place/BRAHMA+AYURVED+MULTISPECIALITY+HOSPITAL/data=!4m5!3m4!1s0x395e5b18e5e87bad:0x83609016cf83925c!8m2!3d22.6886633!4d72.8728812?authuser=0&hl=en&rclk=1,22.6886633,72.8728812,Gujarat
Apollo Hospitals City Centre,General hospital,"No.1, Tulsi Baugh Society, Opp. Doctor House, Ambawadi, near Parimal Garden, Ahmedabad, Gujarat 380006, India",https://www.google.co.kr/maps/place/Apollo+Hospitals+City+Centre/data=!4m5!3m4!1s0x395e9a65b9058931:0x318b50c7f83e2bd2!8m2!3d23.0172744!4d72.5558091?authuser=0&hl=en&rclk=1,23.0172744,72.5558091,Gujarat
Zydus Hospitals Anand,Hospital,"Anand-Lambhvel Road, Zydus Rd, Anand, Gujarat 388001, India",https://www.google.co.kr/maps/place/Zydus+Hospitals+Anand/data=!4m5!3m4!1s0x395e4e89d4fe9357:0xc0d8489832ca9d92!8m2!3d22.5667006!4d72.9458474?authuser=0&hl=en&rclk=1,22.5667006,72.9458474,Gujarat
Zydus hospital,Hospital,"F2WR+HQC, Becharaji, Gujarat 384210, India",https://www.google.co.kr/maps/place/Zydus+hospital/data=!4m5!3m4!1s0x395c75a1bda7b481:0x6c09ec0f492cc2b3!8m2!3d23.4964309!4d72.0419029?authuser=0&hl=en&rclk=1,23.4964309,72.0419029,Gujarat
Adani Hospitals Mundra,Private hospital,"A2/1 Samundra township old port road, near adani hospital, Gujarat 370421, India",https://www.google.co.kr/maps/place/Adani+Hospitals+Mundra/data=!4m5!3m4!1s0x14075d5452527157:0x82332f1dea9f40ad!8m2!3d22.8068224!4d69.7139223?authuser=0&hl=en&rclk=1,22.8068224,69.7139223,Gujarat
IRIS HOSPITAL,Hospital,"Lambhvel Rd, Patel Chokdi, Purushottam Nagar, Anand, Gujarat 388001, India",https://www.google.co.kr/maps/place/IRIS+HOSPITAL/data=!4m5!3m4!1s0x395e4e6288eb583d:0x5623056fe6c8d1e7!8m2!3d22.5645264!4d72.9452216?authuser=0&hl=en&rclk=1,22.5645264,72.9452216,Gujarat
"Narayana Multispeciality Hospital, Ahmedabad",Private hospital,"Police Station, Nr. Chakudiya Mahadev, Cross Rd, opp. Rakhial, Rakhial, Ahmedabad, Gujarat 380023, India","https://www.google.co.kr/maps/place/Narayana+Multispeciality+Hospital,+Ahmedabad/data=!4m5!3m4!1s0x395e86876b675049:0x333a7f0f520404a7!8m2!3d23.0226551!4d72.6236515?authuser=0&hl=en&rclk=1",23.0226551,72.6236515,Gujarat
Kiran Multi Super speciality Hospital,Specialized hospital,"Vasta Devdi Road, near Sumul Dairy Road, Katargam, Surat, Gujarat 395004, India",https://www.google.co.kr/maps/place/Kiran+Multi+Super+speciality+Hospital/data=!4m5!3m4!1s0x3be04ee8c2c34845:0x17961f91f6edb62c!8m2!3d21.2184767!4d72.8368004?authuser=0&hl=en&rclk=1,21.2184767,72.8368004,Gujarat
Avron Hospitals PVT. LTD.,Hospital,"Avron hospital , 4, Shantiniketan Park, Sardar Patel Colony, Ahmedabad, Gujarat 380013, India",https://www.google.co.kr/maps/place/Avron+Hospitals+PVT.+LTD./data=!4m5!3m4!1s0x395e848f0dd1cc83:0xea8c77a5f4b57c5c!8m2!3d23.0479746!4d72.5595247?authuser=0&hl=en&rclk=1,23.0479746,72.5595247,Gujarat
Apollo Hospital International Limited,Hospital,"Plot No, 1A, Gandhinagar - Ahmedabad Rd, GIDC Bhat, GIDC estate, Ahmedabad, Gujarat 382428, India",https://www.google.co.kr/maps/place/Apollo+Hospital+International+Limited/data=!4m5!3m4!1s0x395e84f505555555:0x883a088bbb845a53!8m2!3d23.1095502!4d72.6263885?authuser=0&hl=en&rclk=1,23.1095502,72.6263885,Gujarat
HCG Cancer Centre OPD Tower,Hospital,"Sola, Ahmedabad, Gujarat, India",https://www.google.co.kr/maps/place/HCG+Cancer+Centre+OPD+Tower/data=!4m5!3m4!1s0x395e834d0f661ef5:0xa9d469f4ab61717e!8m2!3d23.0706434!4d72.5229485?authuser=0&hl=en&rclk=1,23.0706434,72.5229485,Gujarat
Sanjivani Hospital,Private hospital,"Agrawal Towers, 5, Sola Rd, Bhuyang Dev, Ahmedabad, Gujarat 380061, India",https://www.google.co.kr/maps/place/Sanjivani+Hospital/data=!4m5!3m4!1s0x395e8359bbd3537b:0x13d76e80d46b29ce!8m2!3d23.0594635!4d72.5355052?authuser=0&hl=en&rclk=1,23.0594635,72.5355052,Gujarat
Yashfeen hospital,Hospital,"9WC9+G6C, Laddak, Vapi East, Imran Nagar, Vapi, Gujarat 396191, India",https://www.google.co.kr/maps/place/Yashfeen+hospital/data=!4m5!3m4!1s0x3be0cf85fcf81b1d:0x23501502a3aed107!8m2!3d20.3713236!4d72.9180032?authuser=0&hl=en&rclk=1,20.3713236,72.9180032,Gujarat
Aaradhya Hospital,Hospital,"Sukan char rasta, New India Colony, Nikol, Ahmedabad, Gujarat 380038, India",https://www.google.co.kr/maps/place/Aaradhya+Hospital/data=!4m5!3m4!1s0x395e87121977a2fd:0x5c96786d651aaf7b!8m2!3d23.0501046!4d72.6640929?authuser=0&hl=en&rclk=1,23.0501046,72.6640929,Gujarat
Aashka Multispeciality Hospital,Hospital,"Gandhinagar Bypass Rd, Sargasan, Gandhinagar, Gujarat 382421, India",https://www.google.co.kr/maps/place/Aashka+Multispeciality+Hospital/data=!4m5!3m4!1s0x395c2a222e3b10d1:0x340381f4de33ae83!8m2!3d23.1856255!4d72.6219966?authuser=0&hl=en&rclk=1,23.1856255,72.6219966,Gujarat
Adventist Wockhardt Heart Hospital- Surat,Heart hospital,"R K Desai Marg Opposite Chowpatty, Athwalines, Athwa Gate, Surat, Gujarat 395001, India",https://www.google.co.kr/maps/place/Adventist+Wockhardt+Heart+Hospital-+Surat/data=!4m5!3m4!1s0x3be04e77150edfdb:0xdb2efc1fe1ed253d!8m2!3d21.184029!4d72.809061?authuser=0&hl=en&rclk=1,21.184029,72.809061,Gujarat
Muljibhai Patel Urological Hospital,Urology clinic,"Dr V V, DP Desai Rd, Yogiraj Society, Nadiad, Gujarat 387001, India",https://www.google.co.kr/maps/place/Muljibhai+Patel+Urological+Hospital/data=!4m5!3m4!1s0x395e5b1e520ee86b:0xf6679a666c20d963!8m2!3d22.6833518!4d72.8723101?authuser=0&hl=en&rclk=1,22.6833518,72.8723101,Gujarat
Wokard Hospital,Hospital,"Hospital Chowk, Sadar, Rajkot, Gujarat 360001, India",https://www.google.co.kr/maps/place/Wokard+Hospital/data=!4m5!3m4!1s0x3959c9f86fcba8cb:0x5dc2eae4bea53985!8m2!3d22.3038945!4d70.8021599?authuser=0&hl=en&rclk=1,22.3038945,70.8021599,Gujarat
Shiv Hospital,Hospital,"32, Karansinhji Rd, Karanpara, Rajkot, Gujarat 360001, India",https://www.google.co.kr/maps/place/Shiv+Hospital/data=!4m5!3m4!1s0x3959ca0f1104059f:0x235527e675962234!8m2!3d22.289951!4d70.8039989?authuser=0&hl=en&rclk=1,22.289951,70.8039989,Gujarat
ESIS HOSPITAL,Hospital,"Dudh Sagar Main Road, Near Gopal Dairy, opp. buniyad school, Shakti Industrial Zone, Rajkot, Gujarat 360003, India",https://www.google.co.kr/maps/place/ESIS+HOSPITAL/data=!4m5!3m4!1s0x3959b54eb1082231:0x84ccc3497e1224cf!8m2!3d22.293282!4d70.8300409?authuser=0&hl=en&rclk=1,22.293282,70.8300409,Gujarat
Government Hospital,Hospital,"W8XJ+8X3, Kalupur, Balasinor, Gujarat 388235, India",https://www.google.co.kr/maps/place/Government+Hospital/data=!4m5!3m4!1s0x395e1970f797b285:0xf258d805a166ecfd!8m2!3d22.9482549!4d73.3324243?authuser=0&hl=en&rclk=1,22.9482549,73.3324243,Gujarat
Epic Hospital,Hospital,"Empire Doctor House, Beside Amiraj Farms, Sarkhej - Gandhinagar Hwy, opposite Kargil Petrol Pump, Sola, Ahmedabad, Gujarat 380060, India",https://www.google.co.kr/maps/place/Epic+Hospital/data=!4m5!3m4!1s0x395e83f701e199e7:0xd3d7e43e049dd16c!8m2!3d23.0762334!4d72.5235924?authuser=0&hl=en&rclk=1,23.0762334,72.5235924,Gujarat
BAPS Yogiji Maharaj Hospital,Hospital,"Shahibaug Road, Shahibaug, near BAPS Shri Swaminarayan Mandir, Ahmedabad, Gujarat 380004, India",https://www.google.co.kr/maps/place/BAPS+Yogiji+Maharaj+Hospital/data=!4m5!3m4!1s0x395e846b752bf3d9:0x62f0c185953205d2!8m2!3d23.0460805!4d72.5887516?authuser=0&hl=en&rclk=1,23.0460805,72.5887516,Gujarat
Anand Hospital,Hospital,"White House, opp. Rajasthan Hospital Ahmedabad, Shahibag, Ahmedabad, Gujarat 380004, India",https://www.google.co.kr/maps/place/Anand+Hospital/data=!4m5!3m4!1s0x395e840e0a076805:0x401d2ed5026487e0!8m2!3d23.0550697!4d72.5974564?authuser=0&hl=en&rclk=1,23.0550697,72.5974564,Gujarat
Civil Hospital,Hospital,"Station Rd, near LD Patel school, Tarapur, Gujarat 388180, India",https://www.google.co.kr/maps/place/Civil+Hospital/data=!4m5!3m4!1s0x395eff006cb31567:0x7c8a4d74203f33b8!8m2!3d22.483667!4d72.6618046?authuser=0&hl=en&rclk=1,22.483667,72.6618046,Gujarat
Vihar Hospital,Hospital,"Dr Cook Rd, Nandanvan Society, Popati Nagar, Anand, Gujarat 388001, India",https://www.google.co.kr/maps/place/Vihar+Hospital/data=!4m5!3m4!1s0x395e4e9fb6dd0dbd:0x8b5ceaa1aef19fb5!8m2!3d22.5546096!4d72.9673642?authuser=0&hl=en&rclk=1,22.5546096,72.9673642,Gujarat
Apex Heart Institute,Heart hospital,"Block: G-L , Mondeal Business Park, Sarkhej - Gandhinagar Hwy, near Gurudwara, Ahmedabad, Gujarat 380059, India",https://www.google.co.kr/maps/place/Apex+Heart+Institute/data=!4m5!3m4!1s0x395e9b52231db9ff:0x5898774944acbb2!8m2!3d23.0456592!4d72.5139894?authuser=0&hl=en&rclk=1,23.0456592,72.5139894,Gujarat
Sheth H J Mahagujarat Hospital,General hospital,"College Rd, Near, Shanti Nagar, Nadiad, Gujarat 387001, India",https://www.google.co.kr/maps/place/Sheth+H+J+Mahagujarat+Hospital/data=!4m5!3m4!1s0x395e5b191aad7125:0x1185d134c7131c07!8m2!3d22.689076!4d72.8716908?authuser=0&hl=en&rclk=1,22.689076,72.8716908,Gujarat
Tristar Hospital,Hospital,"Nanpura New Rd, opp. T & TV High School, Kharwawad, Athwa Gate, Surat, Gujarat 395001, India",https://www.google.co.kr/maps/place/Tristar+Hospital/data=!4m5!3m4!1s0x3be04e7a7161e71d:0xc55f5abba844eac4!8m2!3d21.1865466!4d72.8118988?authuser=0&hl=en&rclk=1,21.1865466,72.8118988,Gujarat
Hi-Tech Hospital,Hospital,"1186, GH Rd, Sector 3D, Sector 3, Gandhinagar, Gujarat 382016, India",https://www.google.co.kr/maps/place/Hi-Tech+Hospital/data=!4m5!3m4!1s0x395c2a348f0b804b:0x8787b0982b142690!8m2!3d23.2053487!4d72.6336632?authuser=0&hl=en&rclk=1,23.2053487,72.6336632,Gujarat
The Nice Children Hospital,Children's hospital,"38, Ambika Vijay Society Varachha Main Rd, Beside Surat Super Stores, Opp. Nav Shakti Vijay Society, Surat, Urmi Society, Kodiyar Nagar, Surat, Gujarat 395006, India",https://www.google.co.kr/maps/place/The+Nice+Children+Hospital/data=!4m5!3m4!1s0x3be04f04b8486b93:0xd18a877ac138be4a!8m2!3d21.213514!4d72.8587897?authuser=0&hl=en&rclk=1,21.213514,72.8587897,Gujarat
Shubhechha Hospital,Hospital,"society urmi charrasta, Srinagar, Gujarat 190001, India",https://www.google.co.kr/maps/place/Shubhechha+Hospital/data=!4m5!3m4!1s0x395fc8a9a5ac2775:0xb5b09995e5b2670!8m2!3d22.3009166!4d73.1743004?authuser=0&hl=en&rclk=1,22.3009166,73.1743004,Gujarat
Nidhi Hospital,Hospital,"1st floor, Shalimar Complex, Above Anandnagar Post Office, Freniben Desai Marg, Paldi, near Mahalakshmi Cross Roads, Ahmedabad, Gujarat 380007, India",https://www.google.co.kr/maps/place/Nidhi+Hospital/data=!4m5!3m4!1s0x395e85014321a0cb:0x2a9f25f06ea4018c!8m2!3d23.0104295!4d72.5624521?authuser=0&hl=en&rclk=1,23.0104295,72.5624521,Gujarat
Smit Hospital,Hospital,"Police Chowki Road, opp. Salum Bazar, Nadiad, Gujarat 387001, India",https://www.google.co.kr/maps/place/Smit+Hospital/data=!4m5!3m4!1s0x395e5b16de6f4a87:0x45f67bac2ec4abdd!8m2!3d22.6955584!4d72.8706152?authuser=0&hl=en&rclk=1,22.6955584,72.8706152,Gujarat
Hospital,Hospital,"9629+987, Mokasar, Gujarat 363520, India",https://www.google.co.kr/maps/place/Hospital/data=!4m5!3m4!1s0x395900caf74c01c5:0x9f267deb5af83bc9!8m2!3d22.3509013!4d71.2183018?authuser=0&hl=en&rclk=1,22.3509013,71.2183018,Gujarat
Referal Hospital & General Hospital,Hospital,"5H9G+RG4, Sankheda, Gujarat 391145, India",https://www.google.co.kr/maps/place/Referal+Hospital+%26+General+Hospital/data=!4m5!3m4!1s0x39607345cd59367b:0xad184fa5ec79f0a4!8m2!3d22.1695045!4d73.5763273?authuser=0&hl=en&rclk=1,22.1695045,73.5763273,Gujarat
Clinic(Hospital),Hospital,"M65M+VCW, Nana Machiyala, Gujarat 365601, India",https://www.google.co.kr/maps/place/Clinic(Hospital)/data=!4m5!3m4!1s0x3958870470b32455:0xc094a2789aa07ea3!8m2!3d21.65973!4d71.2335886?authuser=0&hl=en&rclk=1,21.65973,71.2335886,Gujarat
LifeLine Multispeciality Hospital,General hospital,"Shreenathji Complex, 1st, Rander Rd, Ramnagar, Surat, Gujarat 395009, India",https://www.google.co.kr/maps/place/LifeLine+Multispeciality+Hospital/data=!4m5!3m4!1s0x3be04c3cd05162af:0x979c95defdf7aef1!8m2!3d21.2156589!4d72.7920614?authuser=0&hl=en&rclk=1,21.2156589,72.7920614,Gujarat
Sheth Lallubhai Gordhandas Municipal General Hospital,General hospital,"Mani Nagar Estate Road, Balvatika, Maninagar, Ahmedabad, Gujarat 380008, India",https://www.google.co.kr/maps/place/Sheth+Lallubhai+Gordhandas+Municipal+General+Hospital/data=!4m5!3m4!1s0x395e85dd22c00347:0x58721adf3709e5fb!8m2!3d22.9994656!4d72.6045825?authuser=0&hl=en&rclk=1,22.9994656,72.6045825,Gujarat
Krishna Multispeciality Hospital,General hospital,"Sanala Rd, Behind Mahesh Hotel, Sardar Nagar, Morbi, Gujarat 363649, India",https://www.google.co.kr/maps/place/Krishna+Multispeciality+Hospital/data=!4m5!3m4!1s0x39598cd8f0de9a83:0x724e514d0bed576b!8m2!3d22.811788!4d70.827194?authuser=0&hl=en&rclk=1,22.811788,70.827194,Gujarat
Body Checkup in Ahmedabad,Hospital,"Dantali, Gujarat 382165, India",https://www.google.co.kr/maps/place/Body+Checkup+in+Ahmedabad/data=!4m5!3m4!1s0x395c278a696d1b41:0x6d27d50794947210!8m2!3d23.1487947!4d72.4934118?authuser=0&hl=en&rclk=1,23.1487947,72.4934118,Gujarat
Hospital,Hospital,"Kalapi Nagar, Nagalpur, Mehsana, Gujarat 384002, India",https://www.google.co.kr/maps/place/Hospital/data=!4m5!3m4!1s0x395c41865913a219:0xf476f92cd206a086!8m2!3d23.5879607!4d72.3693252?authuser=0&hl=en&rclk=1,23.5879607,72.3693252,Gujarat
Zydus Hospital,Hospital,"C-602, Sterling Hospital Rd, L.K Society, Nilmani Society, Memnagar, Ahmedabad, Gujarat 380052, India",https://www.google.co.kr/maps/place/Zydus+Hospital/data=!4m5!3m4!1s0x395e84afa6d3433d:0xc017f8581e5fadf0!8m2!3d23.0490168!4d72.5304605?authuser=0&hl=en&rclk=1,23.0490168,72.5304605,Gujarat
Civil Hospital,General hospital,"GHRH+25Q, Bela, Gariyadhar, Gujarat 364505, India",https://www.google.co.kr/maps/place/Civil+Hospital/data=!4m5!3m4!1s0x3be20acc175db4cf:0x6a0020c85a94461!8m2!3d21.5400801!4d71.5779907?authuser=0&hl=en&rclk=1,21.5400801,71.5779907,Gujarat
Government Hospital,Hospital,"Bus Stand, Main Road, Near ST, Halvad, Gujarat 363330, India",https://www.google.co.kr/maps/place/Government+Hospital/data=!4m5!3m4!1s0x395a2ac9deba36b7:0x2be8a3682702378a!8m2!3d23.0141833!4d71.1846203?authuser=0&hl=en&rclk=1,23.0141833,71.1846203,Gujarat
Sheer Hospital,Hospital,"Sayla, Gujarat 363430, India",https://www.google.co.kr/maps/place/Sheer+Hospital/data=!4m5!3m4!1s0x395916c9f3d4e635:0x9162963f43c1ea7c!8m2!3d22.5445105!4d71.4839152?authuser=0&hl=en&rclk=1,22.5445105,71.4839152,Gujarat
Apollo cancer hospital,Hospital,"Apollo Hospital Ln, Narolgam, Paldi, Ahmedabad, Gujarat 380006, India",https://www.google.co.kr/maps/place/Apollo+cancer+hospital/data=!4m5!3m4!1s0x395e8456837b2cab:0x4e658820936df1fd!8m2!3d23.022505!4d72.5713621?authuser=0&hl=en&rclk=1,23.022505,72.5713621,Gujarat
Long Life Hospital,Hospital,"3rd Floor, Ambika Complex, Paldi Char Rasta, Paldi Rd, Paldi, Ahmedabad, Gujarat 380007, India",https://www.google.co.kr/maps/place/Long+Life+Hospital/data=!4m5!3m4!1s0x395e8501a6af8fed:0x26a2c6b57a31067e!8m2!3d23.0129245!4d72.5638154?authuser=0&hl=en&rclk=1,23.0129245,72.5638154,Gujarat
Shree Gujarat Hospital,Hospital,"Shree Gujarat Hospital ,Satyamev Complex,Kamod circle, Sardar Patel Ring Rd, Ahmedabad, Gujarat 382405, India",https://www.google.co.kr/maps/place/Shree+Gujarat+Hospital/data=!4m5!3m4!1s0x395e83d8042b8c8b:0xdc233496ac40e732!8m2!3d23.0776432!4d72.5389115?authuser=0&hl=en&rclk=1,23.0776432,72.5389115,Gujarat
Government Hospital,Hospital,"Rajkot,, Jai Nandan Nagar, Rajkot, Gujarat 360003, India",https://www.google.co.kr/maps/place/Government+Hospital/data=!4m5!3m4!1s0x3959b61a1bc94865:0xb434e25ab6093beb!8m2!3d22.3222841!4d70.8228449?authuser=0&hl=en&rclk=1,22.3222841,70.8228449,Gujarat
Retina Hospital,Hospital,"7QXP+F84, Race Course, Sadar, Rajkot, Gujarat 360001, India",https://www.google.co.kr/maps/place/Retina+Hospital/data=!4m5!3m4!1s0x3959cbda52257099:0xf82607aa045ae3b0!8m2!3d22.2986349!4d70.7858241?authuser=0&hl=en&rclk=1,22.2986349,70.7858241,Gujarat
Esic hospital,Hospital,"Shop 2 to 4, JAY UTTAM COMPLEX, NR SITA HOSPITAL BESIDES SUB JAIL, Ring Rd, Surat, Gujarat 395002, India",https://www.google.co.kr/maps/place/Esic+hospital/data=!4m5!3m4!1s0x3be04f9388b350bb:0x22219f65d3e484b4!8m2!3d21.1804937!4d72.8269214?authuser=0&hl=en&rclk=1,21.1804937,72.8269214,Gujarat
Gujarat Hospital,Hospital,"Ambica Hotel, Shakariba Party Plot, C.T.M Road, Gujarat 380026, India",https://www.google.co.kr/maps/place/Gujarat+Hospital/data=!4m5!3m4!1s0x395e866a782f01df:0xb94b6a30582535d5!8m2!3d23.0045249!4d72.6386199?authuser=0&hl=en&rclk=1,23.0045249,72.6386199,Gujarat
Apollo Hospital ( Information Centre ),Hospital,"Kensvilla, Radhakrishna Twp, Mehsana, Gujarat 384205, India",https://www.google.co.kr/maps/place/Apollo+Hospital+(+Information+Centre+)/data=!4m5!3m4!1s0x395c43b6fa23aaa1:0xec378653a21d0d48!8m2!3d23.6200777!4d72.3867193?authuser=0&hl=en&rclk=1,23.6200777,72.3867193,Gujarat
ESIS DISPENSARY,Hospital,"Ashapuri Mata Mandir, Navsari, Gujarat, India",https://www.google.co.kr/maps/place/ESIS+DISPENSARY/data=!4m5!3m4!1s0x3be0f0a2603b62b7:0x5bbf17533f0b97ae!8m2!3d20.8631152!4d72.9076279?authuser=0&hl=en&rclk=1,20.8631152,72.9076279,Gujarat
Mahavir Hospital,Private hospital,"Ring Rd, Opposite Jivan Bharti School, Nanpura, Surat, Gujarat 395001, India",https://www.google.co.kr/maps/place/Mahavir+Hospital/data=!4m5!3m4!1s0x3be04e705192d03f:0xe4fc1330863e2f25!8m2!3d21.184108!4d72.813787?authuser=0&hl=en&rclk=1,21.184108,72.813787,Gujarat
Radhe Hospital,Hospital,"A/B 360007, 12, Raiya Rd, Jivan Nagar, Kidwai Nagar Society, Rajkot, Gujarat 360005, India",https://www.google.co.kr/maps/place/Radhe+Hospital/data=!4m5!3m4!1s0x3959c980c1dd6a39:0xfa3f3db2bdf6402a!8m2!3d22.3007303!4d70.7689238?authuser=0&hl=en&rclk=1,22.3007303,70.7689238,Gujarat
hospital,Hospital,"Khijda St, New Dhoraji, Dhoraji, Gujarat 360410, India",https://www.google.co.kr/maps/place/hospital/data=!4m5!3m4!1s0x39581f070275589d:0x6c61e83e337721c8!8m2!3d21.7326971!4d70.4468991?authuser=0&hl=en&rclk=1,21.7326971,70.4468991,Gujarat
Government Hospital,Hospital,"7H46+99C, Paliyad, Gujarat 364720, India",https://www.google.co.kr/maps/place/Government+Hospital/data=!4m5!3m4!1s0x3958e087fbff916f:0x764155a8147d2b6a!8m2!3d22.2559459!4d71.5609007?authuser=0&hl=en&rclk=1,22.2559459,71.5609007,Gujarat
Esic Model Hospital,Hospital,"nr. General Hospital Road, Rajiv Nagar, 1/9, Bapunagar, Ahmedabad, Gujarat 380024, India",https://www.google.co.kr/maps/place/Esic+Model+Hospital/data=!4m5!3m4!1s0x395e868feaaaaaab:0x547043580b191888!8m2!3d23.0280799!4d72.6246068?authuser=0&hl=en&rclk=1,23.0280799,72.6246068,Gujarat
Hospital,Government hospital,"FMJR+336, Chuda, Gujarat 363410, India",https://www.google.co.kr/maps/place/Hospital/data=!4m5!3m4!1s0x395924bf90862f31:0x7eba40798b1e624!8m2!3d22.4801694!4d71.6901251?authuser=0&hl=en&rclk=1,22.4801694,71.6901251,Gujarat
Zydus hospital,Hospital,"2GGM+R36, Bimanagar, Ambawadi, Ahmedabad, Gujarat 380015, India",https://www.google.co.kr/maps/place/Zydus+hospital/data=!4m5!3m4!1s0x395e850a5d0f8d8b:0xe3de13e12614d74!8m2!3d23.0270379!4d72.5326422?authuser=0&hl=en&rclk=1,23.0270379,72.5326422,Gujarat
Sterling Cancer Hospital,Hospital,"B/h, Sindhu Bhavan Marg, Off S G Highway, Bodakdev, Ahmedabad, Gujarat 380054, India",https://www.google.co.kr/maps/place/Sterling+Cancer+Hospital/data=!4m5!3m4!1s0x395e9b4f9b56f671:0x710f96e3e2fe01e4!8m2!3d23.0414855!4d72.5094662?authuser=0&hl=en&rclk=1,23.0414855,72.5094662,Gujarat
KD Hospital,Hospital,"Sardar Patel Ring Rd, Ahmedabad, Gujarat 382421, India",https://www.google.co.kr/maps/place/KD+Hospital/data=!4m5!3m4!1s0x395e8390ebc97b4f:0x4e01d19f2121e25c!8m2!3d23.135653!4d72.5419608?authuser=0&hl=en&rclk=1,23.135653,72.5419608,Gujarat
ESIC Hospital,Hospital,"Street Number 1, 8/9, Street Number 10, Kalyan Society, Bhakti Nagar, Rajkot, Gujarat 360002, India",https://www.google.co.kr/maps/place/ESIC+Hospital/data=!4m5!3m4!1s0x3959ca110a4af623:0x8a9332bd1c9e6394!8m2!3d22.2869651!4d70.7969903?authuser=0&hl=en&rclk=1,22.2869651,70.7969903,Gujarat
CHC Mundra,Hospital,"B-16, Samudra Twp Rd, Vardhaman Nagar, Mundra, Gujarat 370421, India",https://www.google.co.kr/maps/place/CHC+Mundra/data=!4m5!3m4!1s0x3950d4e6b837fd07:0x254bbeb8b1f8b928!8m2!3d22.8322343!4d69.7235727?authuser=0&hl=en&rclk=1,22.8322343,69.7235727,Gujarat
Shubhkamana Hospital,Private hospital,"Hospital Road, Nootan Nagar, Mahuva, Gujarat 364290, India",https://www.google.co.kr/maps/place/Shubhkamana+Hospital/data=!4m5!3m4!1s0x3be224d46c797e57:0xea550016d210900f!8m2!3d21.0902979!4d71.7664736?authuser=0&hl=en&rclk=1,21.0902979,71.7664736,Gujarat
GUJARAT HOSPITAL,Hospital,"182, NH228, Rabari Colony, Amraiwadi, Ahmedabad, Gujarat 380026, India",https://www.google.co.kr/maps/place/GUJARAT+HOSPITAL/data=!4m5!3m4!1s0x395e8763b918e447:0xaedf40930f829a11!8m2!3d23.0045854!4d72.6373784?authuser=0&hl=en&rclk=1,23.0045854,72.6373784,Gujarat
Akanksha Hospital - Best IVF Hospital |Best Infertility Hospital |Best Surrogacy Hospital | Awarded Best IVF and Surrogacy Hospital In India| Best IVF Centre India,Fertility clinic,"Lambhvel Road, Opp.Guruvilla Bungalows, Lambhvel, Anand, Gujarat 387310, India",https://www.google.co.kr/maps/place/Akanksha+Hospital+-+Best+IVF+Hospital+%7CBest+Infertility+Hospital+%7CBest+Surrogacy+Hospital+%7C+Awarded+Best+IVF+and+Surrogacy+Hospital+In+India%7C+Best+IVF+Centre+India/data=!4m5!3m4!1s0x395e4f2da6ff2101:0xb715ed3901342b57!8m2!3d22.5828266!4d72.9425773?authuser=0&hl=en&rclk=1,22.5828266,72.9425773,Gujarat
Apollo Hospital,Hospital,"Pancholi House, Prabhat Chowk, 61, Ghatlodiya, Chanakyapuri, Ahmedabad, Gujarat 380061, India",https://www.google.co.kr/maps/place/Apollo+Hospital/data=!4m5!3m4!1s0x395e830c99ce7ca5:0xed3240fa58144f99!8m2!3d23.0686329!4d72.5434773?authuser=0&hl=en&rclk=1,23.0686329,72.5434773,Gujarat
Kidney Hospital,Hospital,"ne dehlu, near asarva mill Amarsingh Chaudhary Bridge opp. Braham Chahri, Asarwa, Ahmedabad, Gujarat 380016, India",https://www.google.co.kr/maps/place/Kidney+Hospital/data=!4m5!3m4!1s0x395e843d6f7cd1a5:0x9c7ce45f08b74a96!8m2!3d23.0407253!4d72.6002453?authuser=0&hl=en&rclk=1,23.0407253,72.6002453,Gujarat
Shree Gujarat Hospital,Hospital,"NH47, Satyamev Complex, Kamod, Gujarat 382405, India",https://www.google.co.kr/maps/place/Shree+Gujarat+Hospital/data=!4m5!3m4!1s0x395e8ff3b1937b7f:0xcfc9a0dd7076bc1f!8m2!3d22.927027!4d72.5424573?authuser=0&hl=en&rclk=1,22.927027,72.5424573,Gujarat
Zydus hospital,Hospital,"3G88+M8M, Panchamrut Bunglows II, Thaltej, Ahmedabad, Gujarat 380059, India",https://www.google.co.kr/maps/place/Zydus+hospital/data=!4m5!3m4!1s0x395e9db40c3932e9:0xe413aeb3b7c3e6ec!8m2!3d23.0667011!4d72.5157875?authuser=0&hl=en&rclk=1,23.0667011,72.5157875,Gujarat
Chirayu Hospital - -Joint Replacement Ahmedabad |Orthopedic Surgeon |Spine Hospital|Trauma Center,Hospital,"203-204, Chirayu Complex, Narayan Nagar Rd, Paldi, Ahmedabad, Gujarat 380007, India",https://www.google.co.kr/maps/place/Chirayu+Hospital+-+-Joint+Replacement+Ahmedabad+%7COrthopedic+Surgeon+%7CSpine+Hospital%7CTrauma+Center/data=!4m5!3m4!1s0x395e8507a6e58a9b:0x1a6551bce3f8b703!8m2!3d23.007!4d72.565742?authuser=0&hl=en&rclk=1,23.007,72.565742,Gujarat
Gujarat Hospital,Hospital,"B-205, Pancham Mall, Near Jivanwadi, Nikol Gam Rd, Nikol, Ahmedabad, Gujarat 382350, India",https://www.google.co.kr/maps/place/Gujarat+Hospital/data=!4m5!3m4!1s0x395e86e309e60683:0xc614c737e37edbdb!8m2!3d23.040522!4d72.6584803?authuser=0&hl=en&rclk=1,23.040522,72.6584803,Gujarat
Mayflower Women's Hospital,Women's health clinic,"132 Feet Ring Road, Opp Traffic Police Helmet Circle, near Manav Mandir, Memnagar, Ahmedabad, Gujarat 380052, India",https://www.google.co.kr/maps/place/Mayflower+Women's+Hospital/data=!4m5!3m4!1s0x395e84bd1afac8b5:0xa2fddd374a9c913d!8m2!3d23.045773!4d72.5413545?authuser=0&hl=en&rclk=1,23.045773,72.5413545,Gujarat
Devasya Kidney Hospital,Hospital,"Dandi Kuch Cir, Sardar Colony, Ahmedabad, Gujarat 380013, India",https://www.google.co.kr/maps/place/Devasya+Kidney+Hospital/data=!4m5!3m4!1s0x395e8132d6c5032f:0xdef3c1e52bbf8df2!8m2!3d23.0576135!4d72.5702152?authuser=0&hl=en&rclk=1,23.0576135,72.5702152,Gujarat
Gujarat Hospital,Hospital,"Sanidhya complex, Balasinor, Gujarat, India",https://www.google.co.kr/maps/place/Gujarat+Hospital/data=!4m5!3m4!1s0x395e1970202d992b:0x53cbffeed2c97344!8m2!3d22.949167!4d73.3353281?authuser=0&hl=en&rclk=1,22.949167,73.3353281,Gujarat
Civil hospital,Hospital,"V987+MXJ, Jafarabad, Gujarat 365540, India",https://www.google.co.kr/maps/place/Civil+hospital/data=!4m5!3m4!1s0x3be25265d9bf1311:0x2b096a574ae2546d!8m2!3d20.866714!4d71.3648865?authuser=0&hl=en&rclk=1,20.866714,71.3648865,Gujarat
Sarvajanik Hospital,Hospital,"SH 64, opposite ONGC Workshop, Happy Nagar, Ankleshwar, Gujarat 393001, India",https://www.google.co.kr/maps/place/Sarvajanik+Hospital/data=!4m5!3m4!1s0x3be023fdfcdbe44f:0x8c32433c9171d03a!8m2!3d21.6322481!4d72.9994109?authuser=0&hl=en&rclk=1,21.6322481,72.9994109,Gujarat
Gujarat Brain and Spine Hospital,Hospital,"3H59+9CP, Mahesana Society, Sardar Colony, Ahmedabad, Gujarat 380013, India",https://www.google.co.kr/maps/place/Gujarat+Brain+and+Spine+Hospital/data=!4m5!3m4!1s0x395e847e2532114f:0x216f3939c79120!8m2!3d23.0584651!4d72.5685665?authuser=0&hl=en&rclk=1,23.0584651,72.5685665,Gujarat
Sarkari Hospital (Govt Of India),Hospital,"RC2X+9JM, Chaloda, Gujarat 382260, India",https://www.google.co.kr/maps/place/Sarkari+Hospital+(Govt+Of+India)/data=!4m5!3m4!1s0x395e936b5614e055:0xe7794a8b44dd381d!8m2!3d22.8009562!4d72.4490347?authuser=0&hl=en&rclk=1,22.8009562,72.4490347,Gujarat
Gujarat hospital,Hospital,"F5RM+X55, khimat, Gujarat 385545, India",https://www.google.co.kr/maps/place/Gujarat+hospital/data=!4m5!3m4!1s0x395cb30da93599e5:0xeb92a078034ab982!8m2!3d24.4923938!4d72.1829844?authuser=0&hl=en&rclk=1,24.4923938,72.1829844,Gujarat
Indira Ivf,Hospital,"Haveli Rd, Vadhavan, Surendranagar, Gujarat 363002, India",https://www.google.co.kr/maps/place/Indira+Ivf/data=!4m5!3m4!1s0x3959411cf1abc60f:0xaab9036b4a45dc9!8m2!3d22.727974!4d71.634046?authuser=0&hl=en&rclk=1,22.727974,71.634046,Gujarat
Royal Hospital,Hospital,"Lohana Mahajanwadi Rd, Panch Hatdi, Porbandar, Gujarat 360575, India",https://www.google.co.kr/maps/place/Royal+Hospital/data=!4m5!3m4!1s0x395635426350242b:0xf3120b74bfa66bf3!8m2!3d21.642497!4d69.6065858?authuser=0&hl=en&rclk=1,21.642497,69.6065858,Gujarat
life line multispeciality hospital,Hospital,"6V53+JX8, Gandhi Vihar Society, Bhagunagar Society, Varachha, Surat, Gujarat 395006, India",https://www.google.co.kr/maps/place/life+line+multispeciality+hospital/data=!4m5!3m4!1s0x3be04fa3d4dd7aa3:0x97e5750596b2c1cb!8m2!3d21.209042!4d72.854945?authuser=0&hl=en&rclk=1,21.209042,72.854945,Gujarat
SVP Hospital,Hospital,"Ellisbridge, Ahmedabad, Gujarat 380006, India",https://www.google.co.kr/maps/place/SVP+Hospital/data=!4m5!3m4!1s0x395e8519e29e77a1:0x5b3ac4b4ab68d19!8m2!3d23.0196776!4d72.5717022?authuser=0&hl=en&rclk=1,23.0196776,72.5717022,Gujarat
Gujarat Hospital,Hospital,"Balasinor - Sevaliya Rd, Gujarat 388235, India",https://www.google.co.kr/maps/place/Gujarat+Hospital/data=!4m5!3m4!1s0x395e19c6e16b35c1:0x4361ca8fdbb270d1!8m2!3d22.87883!4d73.334521?authuser=0&hl=en&rclk=1,22.87883,73.334521,Gujarat
Gujarat Super Speciality Clinic,Hospital,"203-206, AEON complex, Opp.Navkar Institute, Vijay Char Rasta, About Shiv, Sagar Restaurant Navrangpura, Navrangpura, Ahmedabad, Gujarat 380009, India",https://www.google.co.kr/maps/place/Gujarat+Super+Speciality+Clinic/data=!4m5!3m4!1s0x395e8496abfc04a9:0x5cdab8569c9f6e48!8m2!3d23.0430544!4d72.5498069?authuser=0&hl=en&rclk=1,23.0430544,72.5498069,Gujarat
Sava Hospital,Hospital,"Joravarnagar Bridge, Hindu Society, Ambedkarnagar, Surendranagar, Gujarat 363002, India",https://www.google.co.kr/maps/place/Sava+Hospital/data=!4m5!3m4!1s0x395940e6a16545f9:0xc7f16fe1e3d2c440!8m2!3d22.7176025!4d71.6379481?authuser=0&hl=en&rclk=1,22.7176025,71.6379481,Gujarat
Zydus Hospital Cancer Center,Hospital,"Zydus Hospital Rd, Thaltej, Ahmedabad, Gujarat 380054, India",https://www.google.co.kr/maps/place/Zydus+Hospital+Cancer+Center/data=!4m5!3m4!1s0x395e9dd06f4f1141:0x626081326b9e0410!8m2!3d23.0581366!4d72.5120041?authuser=0&hl=en&rclk=1,23.0581366,72.5120041,Gujarat
HCG Hospitals - Bhavnagar,Hospital,"1139 Sir Patini Road, Meghani Cir, Krishna Nagar, Bhavnagar, Gujarat 364001, India",https://www.google.co.kr/maps/place/HCG+Hospitals+-+Bhavnagar/data=!4m5!3m4!1s0x395f5a64a8abc297:0x7aabc76259ebd31b!8m2!3d21.7662206!4d72.15413?authuser=0&hl=en&rclk=1,21.7662206,72.15413,Gujarat
HCG Hospitals,Hospital,"Nr. Astha Avenue, HCG Hospital Road, Ayodhya Chowk, Off, 150 Feet Ring Rd, Rajkot, Gujarat 360006, India",https://www.google.co.kr/maps/place/HCG+Hospitals/data=!4m5!3m4!1s0x3959c96a6168f28d:0x7d5bb35dff684c02!8m2!3d22.319635!4d70.7736302?authuser=0&hl=en&rclk=1,22.319635,70.7736302,Gujarat
Sanand Hospital And Trauma Center,Hospital,"Navdurga Complex, Ist Floor, Bavala Road, Gadhiya Char Rasta, Sanand, Gujarat 382110, India",https://www.google.co.kr/maps/place/Sanand+Hospital+And+Trauma+Center/data=!4m5!3m4!1s0x395e985500000001:0x8919b45d763817d0!8m2!3d22.9882641!4d72.3812556?authuser=0&hl=en&rclk=1,22.9882641,72.3812556,Gujarat
Geeta Hospital Mundra,Hospital,"3,Ambe Nagar, Nr. Ganjanad Complex,, Gundala Road, Baroi-Mundra (Kutch), Mundra, Gujarat 370421, India",https://www.google.co.kr/maps/place/Geeta+Hospital+Mundra/data=!4m5!3m4!1s0x3950d4f712eb8757:0x9aa841dbb6e66369!8m2!3d22.847887!4d69.730474?authuser=0&hl=en&rclk=1,22.847887,69.730474,Gujarat
Clinic,Hospital,"Unnamed Road, Vankar Vas, Kankot, Rajkot, Gujarat 360004, India",https://www.google.co.kr/maps/place/Clinic/data=!4m5!3m4!1s0x3959cb73b8387f0b:0x842835cbd5bc4d3b!8m2!3d22.2415311!4d70.7362974?authuser=0&hl=en&rclk=1,22.2415311,70.7362974,Gujarat
Anand Orthopedic Hospital,Hospital,"Near Over Bridge, Bhalej Rd, Beside Bagiwala, Anand, Gujarat 388001, India",https://www.google.co.kr/maps/place/Anand+Orthopedic+Hospital/data=!4m5!3m4!1s0x395e4e9a9274bbed:0x6093bbb5debe7a05!8m2!3d22.562511!4d72.960063?authuser=0&hl=en&rclk=1,22.562511,72.960063,Gujarat
SARKARI HOSPITAL,Hospital,"G35F+JJW, Anand, Gujarat 388365, India",https://www.google.co.kr/maps/place/SARKARI+HOSPITAL/data=!4m5!3m4!1s0x395e4b43c3ff3059:0x354c493eeddb4de5!8m2!3d22.5091233!4d73.0740816?authuser=0&hl=en&rclk=1,22.5091233,73.0740816,Gujarat
General Hospital,Hospital,"QM2M+7R3, Mohammadi Nagar, Kheda, Gujarat 387411, India",https://www.google.co.kr/maps/place/General+Hospital/data=!4m5!3m4!1s0x395ef5a04768e38f:0xd293101e20014bee!8m2!3d22.7506402!4d72.6845574?authuser=0&hl=en&rclk=1,22.7506402,72.6845574,Gujarat
Government Public Hospital,Government hospital,"GIDC Phase 1, Khandipul Darwaja, Wadhwan, Surendranagar, Gujarat 363030, India",https://www.google.co.kr/maps/place/Government+Public+Hospital/data=!4m5!3m4!1s0x39594734142d7d35:0xd8cde1eb8f402d76!8m2!3d22.7100702!4d71.6721097?authuser=0&hl=en&rclk=1,22.7100702,71.6721097,Gujarat
Hospital,Hospital,"Mayuri Apartment, 8, Millpara Main Rd, Millpara, Bhakti Nagar, Rajkot, Gujarat 360002, India",https://www.google.co.kr/maps/place/Hospital/data=!4m5!3m4!1s0x3959cbfbad952d5b:0x6344b1aff7223a0e!8m2!3d22.2842922!4d70.8022593?authuser=0&hl=en&rclk=1,22.2842922,70.8022593,Gujarat
Pushya Hospital,Orthopedic clinic,"32, Sardar Patel Nagar, Opp. ABC-1, near Wagh Bakri Tea Lounge, Navrangpura, Ahmedabad, Gujarat 380009, India",https://www.google.co.kr/maps/place/Pushya+Hospital/data=!4m5!3m4!1s0x395e85dc1d3d3aa1:0x757879a4c249020e!8m2!3d23.0332248!4d72.556018?authuser=0&hl=en&rclk=1,23.0332248,72.556018,Gujarat
Samarpan General Hospital,Hospital,"Airport Rd, Ajanta Society, Jamnagar, Gujarat 361006, India",https://www.google.co.kr/maps/place/Samarpan+General+Hospital/data=!4m5!3m4!1s0x39571547735fea39:0x9bd5c10d15f54841!8m2!3d22.4587532!4d70.0349018?authuser=0&hl=en&rclk=1,22.4587532,70.0349018,Gujarat
Shrey Hospital,Private hospital,"Stadium Cross Rd, Near AMCO Bank, Navarangpura Gam, Navrangpura, Ahmedabad, Gujarat 380009, India",https://www.google.co.kr/maps/place/Shrey+Hospital/data=!4m5!3m4!1s0x395e84f5287f3fbd:0x64b7201a98b5a837!8m2!3d23.0376709!4d72.5648198?authuser=0&hl=en&rclk=1,23.0376709,72.5648198,Gujarat
J.J.HOSPITAL,Hospital,"Unnamed Road, Vishwas City 1, Chanakyapuri, Ahmedabad, Gujarat 380061, India",https://www.google.co.kr/maps/place/J.J.HOSPITAL/data=!4m5!3m4!1s0x395e832335a45ecf:0xa066a55df409eb17!8m2!3d23.0730162!4d72.5366222?authuser=0&hl=en&rclk=1,23.0730162,72.5366222,Gujarat
Sanjivani Hospital,Hospital,"15, Sunrise Park Road, Sunrise Park, Vastrapur, Ahmedabad, Gujarat 380052, India",https://www.google.co.kr/maps/place/Sanjivani+Hospital/data=!4m5!3m4!1s0x395e84b1a8e4a059:0x8e24c029de199a7a!8m2!3d23.043503!4d72.528778?authuser=0&hl=en&rclk=1,23.043503,72.528778,Gujarat
Landmark Hospital,Private hospital,"25, New Jagnath, Jagnath Plot, Rajkot, Gujarat 360001, India",https://www.google.co.kr/maps/place/Landmark+Hospital/data=!4m5!3m4!1s0x3959ca2278b5cb07:0xa714a5de223ab024!8m2!3d22.2957447!4d70.7884305?authuser=0&hl=en&rclk=1,22.2957447,70.7884305,Gujarat
M P Shah Cancer Hospital,Hospital,"Asarwa Cir, Chamanpura, Asarwa, Ahmedabad, Gujarat 380016, India",https://www.google.co.kr/maps/place/M+P+Shah+Cancer+Hospital/data=!4m5!3m4!1s0x395e8555fec78d37:0xe9d866a25c511d48!8m2!3d23.0454826!4d72.6096333?authuser=0&hl=en&rclk=1,23.0454826,72.6096333,Gujarat
"Sterling Hospital Bhayli, Vadodara",Hospital,"Plot # 49, TP 3, Block # 225, Opp Radheshyam Avenue, behind Waves Club - Banquet hall in Vadodara, Bhayli, Vadodara, Gujarat 391410, India","https://www.google.co.kr/maps/place/Sterling+Hospital+Bhayli,+Vadodara/data=!4m5!3m4!1s0x395fc7d3cbce5d17:0xca2f8ff12674dea0!8m2!3d22.2849043!4d73.1299856?authuser=0&hl=en&rclk=1",22.2849043,73.1299856,Gujarat
Hospitals,Hospital,"Gota, Ahmedabad, Gujarat 382481, India",https://www.google.co.kr/maps/place/Hospitals/data=!4m5!3m4!1s0x395e831976d6ff5f:0xe45af511896394f!8m2!3d23.0977347!4d72.5491238?authuser=0&hl=en&rclk=1,23.0977347,72.5491238,Gujarat
Civil hospital,Hospital,"Kundal Main Rd, Udhyog Nagar, Kundal, Gujarat 382715, India",https://www.google.co.kr/maps/place/Civil+hospital/data=!4m5!3m4!1s0x395c22afdd10d2ed:0xac3f146b9bcacbfb!8m2!3d23.3026334!4d72.3423287?authuser=0&hl=en&rclk=1,23.3026334,72.3423287,Gujarat
Nirmal Superspeciality Hospital,Hospital,"VIP Road, Vesu, Surat, Gujarat 395007, India",https://www.google.co.kr/maps/place/Nirmal+Superspeciality+Hospital/data=!4m5!3m4!1s0x3be0520ceb16aa1d:0x104a8a4f3f69d26d!8m2!3d21.1406296!4d72.7810157?authuser=0&hl=en&rclk=1,21.1406296,72.7810157,Gujarat
Aash Hospital,Hospital,"Bharat Colony, Sardar Patel Colony, Nayak Nagar, Naranpura, Ahmedabad, Gujarat 380014, India",https://www.google.co.kr/maps/place/Aash+Hospital/data=!4m5!3m4!1s0x395e8488d7a87179:0xe01e18b31b28cec0!8m2!3d23.0473415!4d72.5625132?authuser=0&hl=en&rclk=1,23.0473415,72.5625132,Gujarat
ARI Office Apollo Hospitals Bhat,Hospital,"Unnamed Road, GIDC Bhat, Bhat, Ahmedabad, Gujarat 382424, India",https://www.google.co.kr/maps/place/ARI+Office+Apollo+Hospitals+Bhat/data=!4m5!3m4!1s0x395e8179c02f3f4f:0xaed617eea1838afc!8m2!3d23.1104117!4d72.62561?authuser=0&hl=en&rclk=1,23.1104117,72.62561,Gujarat
ESIC D4 RUKHADIYA HANUMAN,Hospital,"Q5M3+CX2, Karchaliya Para, Bhavnagar, Gujarat 364003, India",https://www.google.co.kr/maps/place/ESIC+D4+RUKHADIYA+HANUMAN/data=!4m5!3m4!1s0x395f5a8fe0b1e30f:0x5e20afd5eaa74872!8m2!3d21.783515!4d72.1548943?authuser=0&hl=en&rclk=1,21.783515,72.1548943,Gujarat
Civil Hospital,Hospital,"26P4+6MP, Hirpara, Jasdan, Gujarat 360050, India",https://www.google.co.kr/maps/place/Civil+Hospital/data=!4m5!3m4!1s0x3958f7cdc9b1b8c7:0xc3fed17437caab5a!8m2!3d22.0355773!4d71.2067059?authuser=0&hl=en&rclk=1,22.0355773,71.2067059,Gujarat
Civil Hospital,Hospital,"VG93+2PM, Professor Colony, Rajendra Nagar Society, Rajpipla, Gujarat 393145, India",https://www.google.co.kr/maps/place/Civil+Hospital/data=!4m5!3m4!1s0x396000d30f30b4df:0x292bb4bac34d4397!8m2!3d21.8675959!4d73.5043083?authuser=0&hl=en&rclk=1,21.8675959,73.5043083,Gujarat
Param Hospital Division of Shree Giriraj Hospital,Hospital,"Ashapura Main Road, Old Dr. Rohit Thakkar Hospital, near ST Stand, Rajkot, Gujarat 360001, India",https://www.google.co.kr/maps/place/Param+Hospital+Division+of+Shree+Giriraj+Hospital/data=!4m5!3m4!1s0x3959cbc390ac70b1:0x868e6079a022e2a3!8m2!3d22.2900469!4d70.8009585?authuser=0&hl=en&rclk=1,22.2900469,70.8009585,Gujarat
Patel Hospital And Trauma Center,Hospital,"9GG5+5FR, Visaman, Gujarat 360110, India",https://www.google.co.kr/maps/place/Patel+Hospital+And+Trauma+Center/data=!4m5!3m4!1s0x3959d9ebffffe23f:0x77b5f7c1f561e19e!8m2!3d22.3754877!4d70.50864?authuser=0&hl=en&rclk=1,22.3754877,70.50864,Gujarat
OM HOSPITAL,Hospital,"22°08'21.6""N 70°59'18.4""E, India",https://www.google.co.kr/maps/place/OM+HOSPITAL/data=!4m5!3m4!1s0x39584e08f15374f9:0xd9c9ddc5939060ee!8m2!3d22.1385907!4d70.9880415?authuser=0&hl=en&rclk=1,22.1385907,70.9880415,Gujarat
AASHIRWAD SURGICAL HOSPITAL,Hospital,"321 PALLADIUM BUSINESS HUB, Ahmedabad, Gujarat 382424, India",https://www.google.co.kr/maps/place/AASHIRWAD+SURGICAL+HOSPITAL/data=!4m5!3m4!1s0x395e83ddfb4b9b0b:0x4692659dce138507!8m2!3d23.1038139!4d72.5940789?authuser=0&hl=en&rclk=1,23.1038139,72.5940789,Gujarat
Gayatri Multispeciality Hospital,Hospital,"Gandhinagar, Gujarat 382421, India",https://www.google.co.kr/maps/place/Gayatri+Multispeciality+Hospital/data=!4m5!3m4!1s0x395c29de9ba0361b:0x1667c757426ae879!8m2!3d23.1617809!4d72.5875705?authuser=0&hl=en&rclk=1,23.1617809,72.5875705,Gujarat
Sparsh Hospital,Hospital,"100-b, opp. samved hospita, Swastik Society, Navrangpura, Ahmedabad, Gujarat 380001, India",https://www.google.co.kr/maps/place/Sparsh+Hospital/data=!4m5!3m4!1s0x395e848cf1f25d79:0x46bdd1f5234c9aac!8m2!3d23.0398836!4d72.5589211?authuser=0&hl=en&rclk=1,23.0398836,72.5589211,Gujarat
G K General Hospital,Hospital,"adani institute of medical science, GAIMS Campus, Bhuj, Gujarat 370001, India",https://www.google.co.kr/maps/place/G+K+General+Hospital/data=!4m5!3m4!1s0x39511e137bfaaaad:0x6b2f3c509763945e!8m2!3d23.241612!4d69.6759089?authuser=0&hl=en&rclk=1,23.241612,69.6759089,Gujarat
Omkar HospitaL,Hospital,"Near, Omkar hospital, old, Bus Stop Rd, Savar Kundla, Gujarat 364515, India",https://www.google.co.kr/maps/place/Omkar+HospitaL/data=!4m5!3m4!1s0x3be264c74f8ebd2d:0x88d9df3fc14029f4!8m2!3d21.3392412!4d71.3119953?authuser=0&hl=en&rclk=1,21.3392412,71.3119953,Gujarat
Jamna Hospial,Hospital,"HX76+74J, Ganesh Chokdi, Sardar Ganj, Anand, Gujarat 388001, India",https://www.google.co.kr/maps/place/Jamna+Hospial/data=!4m5!3m4!1s0x395e4e9a8456fbb5:0x49aaf82dd89843b3!8m2!3d22.563201!4d72.96028?authuser=0&hl=en&rclk=1,22.563201,72.96028,Gujarat
Aarna Hospital,Hospital,"60,, 43, Bhairavnath Rd, Archana Society, Bhairavnath, Maninagar, Ahmedabad, Gujarat 380028, India",https://www.google.co.kr/maps/place/Aarna+Hospital/data=!4m5!3m4!1s0x395e85e86c510a8b:0x2b0924663b1b3ce3!8m2!3d22.9950354!4d72.6023665?authuser=0&hl=en&rclk=1,22.9950354,72.6023665,Gujarat
Chiranjeevi Multispeciality Hospital,Hospital,"NH 48, Gujarat 391243, India",https://www.google.co.kr/maps/place/Chiranjeevi+Multispeciality+Hospital/data=!4m5!3m4!1s0x395fc3a7ce5a6d7d:0xeaba7c8e3ae9f235!8m2!3d22.136842!4d73.1846644?authuser=0&hl=en&rclk=1,22.136842,73.1846644,Gujarat
Govt Hospital,Hospital,"X9PM+J84, Krushna Nagar Society, Sanand, Gujarat 382110, India",https://www.google.co.kr/maps/place/Govt+Hospital/data=!4m5!3m4!1s0x395e99ac33439679:0x5f6f2c82b4dd587f!8m2!3d22.986501!4d72.383339?authuser=0&hl=en&rclk=1,22.986501,72.383339,Gujarat
Sanand Hospital And Trauma Centre,Hospital,"294V+MH9, Kaneti, Gujarat 382110, India",https://www.google.co.kr/maps/place/Sanand+Hospital+And+Trauma+Centre/data=!4m5!3m4!1s0x395e990e3750f7c5:0x554d437237f184d6!8m2!3d23.0066704!4d72.39397?authuser=0&hl=en&rclk=1,23.0066704,72.39397,Gujarat
GOVT. Civil Hospital,Hospital,"Jamnagar Road, Hospital Chowk, opp. SBI, Rajkot, Gujarat 360001, India",https://www.google.co.kr/maps/place/GOVT.+Civil+Hospital/data=!4m5!3m4!1s0x3959c9f81ab2b1af:0x498025747ee75779!8m2!3d22.3038666!4d70.8013929?authuser=0&hl=en&rclk=1,22.3038666,70.8013929,Gujarat
Pushya Hospital-A Unit Of Spine Clinic Ahmedabad Pvt . Ltd.,Hospital,"HX76+74C, Ganesh Chokdi, Sardar Ganj, Anand, Gujarat 388001, India",https://www.google.co.kr/maps/place/Pushya+Hospital-A+Unit+Of+Spine+Clinic+Ahmedabad+Pvt+.+Ltd./data=!4m5!3m4!1s0x395e4e9a8456f095:0xaf267b714258a093!8m2!3d22.5632!4d72.96028?authuser=0&hl=en&rclk=1,22.5632,72.96028,Gujarat
Avadh Orthopedicgeneral Hospital,Hospital,"35X7+7P9, Jhalod, Gujarat 389170, India",https://www.google.co.kr/maps/place/Avadh+Orthopedicgeneral+Hospital/data=!4m5!3m4!1s0x3960d9a99cd3bc7b:0x362682a7300b6420!8m2!3d23.0981684!4d74.16435?authuser=0&hl=en&rclk=1,23.0981684,74.16435,Gujarat
Hospital,Hospital,"New Jagnath, Jagnath Plot, Rajkot, Gujarat 360001, India",https://www.google.co.kr/maps/place/Hospital/data=!4m5!3m4!1s0x3959cbbfdf4136f5:0x43266c434a8dcce1!8m2!3d22.2947415!4d70.7885787?authuser=0&hl=en&rclk=1,22.2947415,70.7885787,Gujarat
J B General Hospital,Hospital,"XJ27+MJ8, Palikhanda, Gujarat 389210, India",https://www.google.co.kr/maps/place/J+B+General+Hospital/data=!4m5!3m4!1s0x3960a304745772f7:0x6d7e7f9a52dd20f6!8m2!3d22.9516705!4d73.61408?authuser=0&hl=en&rclk=1,22.9516705,73.61408,Gujarat
KRISHNA GENERAL HOSPITAL,Hospital,"7WM7+GWV, Ahmedabad, Gujarat 382130, India",https://www.google.co.kr/maps/place/KRISHNA+GENERAL+HOSPITAL/data=!4m5!3m4!1s0x395bf79840f7cc27:0x9253f4dc4412cca6!8m2!3d23.2838688!4d71.9148109?authuser=0&hl=en&rclk=1,23.2838688,71.9148109,Gujarat
Navkar ENT Hospital,Hospital,"16, Paldi, Dungarshinagar, Paldi, Ahmedabad, Gujarat 380007, India",https://www.google.co.kr/maps/place/Navkar+ENT+Hospital/data=!4m5!3m4!1s0x395e8502ffffffff:0x83eef800b6e874f8!8m2!3d23.0084286!4d72.5612333?authuser=0&hl=en&rclk=1,23.0084286,72.5612333,Gujarat
Devrshi Hospital,Hospital,"8247+3Q7, Chhota Udepur, Gujarat 391165, India",https://www.google.co.kr/maps/place/Devrshi+Hospital/data=!4m5!3m4!1s0x396045ef6daac2e1:0xb8087526c00c6147!8m2!3d22.305158!4d74.01441?authuser=0&hl=en&rclk=1,22.305158,74.01441,Gujarat
Shree Datt General Hospital,Hospital,"9VXX+9PF, Borsad, Gujarat 388540, India",https://www.google.co.kr/maps/place/Shree+Datt+General+Hospital/data=!4m5!3m4!1s0x395fb278876343e3:0x61ce1b27b0be83d!8m2!3d22.398443!4d72.89931?authuser=0&hl=en&rclk=1,22.398443,72.89931,Gujarat
Muniseva Trust Hospital,Hospital,"2GXJ+8GG, Nilmani Society, Thaltej, Ahmedabad, Gujarat 380052, India",https://www.google.co.kr/maps/place/Muniseva+Trust+Hospital/data=!4m5!3m4!1s0x395e84af916c2937:0x36080fa5efd940b5!8m2!3d23.04831!4d72.53133?authuser=0&hl=en&rclk=1,23.04831,72.53133,Gujarat
Palanpor Urban Health Center,Government hospital,"Palanpur Jakatnaka, Surat, Gujarat 395009, India",https://www.google.co.kr/maps/place/Palanpor+Urban+Health+Center/data=!4m5!3m4!1s0x3be04c38106d5781:0xd74ba32eaab0185a!8m2!3d21.2070361!4d72.7814761?authuser=0&hl=en&rclk=1,21.2070361,72.7814761,Gujarat
Swami Ramanand Sarswati T B Clinic General Hospi,Hospital,"Gujarat 382870, India",https://www.google.co.kr/maps/place/Swami+Ramanand+Sarswati+T+B+Clinic+General+Hospi/data=!4m5!3m4!1s0x395db53cbf22832b:0x801ba5a1aeb44644!8m2!3d23.5745093!4d72.72878?authuser=0&hl=en&rclk=1,23.5745093,72.72878,Gujarat
Shree Jalaram Arogya Seva Trust Hospital,Hospital,"3X37+3MP, Nikol, Gujarat 387610, India",https://www.google.co.kr/maps/place/Shree+Jalaram+Arogya+Seva+Trust+Hospital/data=!4m5!3m4!1s0x395e71a38ea77649:0xd81fd769f2edd6e0!8m2!3d23.0527245!4d72.9642?authuser=0&hl=en&rclk=1,23.0527245,72.9642,Gujarat
Krishna Heart And Super Speciality Institute,Heart hospital,"Chimanlal Girdharlal Rd, Ellisbridge, Ahmedabad, Gujarat 380006, India",https://www.google.co.kr/maps/place/Krishna+Heart+And+Super+Speciality+Institute/data=!4m5!3m4!1s0x395e84fc99adf449:0xf238148f74b1e11!8m2!3d23.0200439!4d72.5576565?authuser=0&hl=en&rclk=1,23.0200439,72.5576565,Gujarat
Madhav Orthopaedic Hospital,Hospital,"2GXJ+8GG, Nilmani Society, Thaltej, Ahmedabad, Gujarat 380052, India",https://www.google.co.kr/maps/place/Madhav+Orthopaedic+Hospital/data=!4m5!3m4!1s0x395e84af916c2937:0xadd781ce81dca7d9!8m2!3d23.04831!4d72.53133?authuser=0&hl=en&rclk=1,23.04831,72.53133,Gujarat
Vishram Hospital,Hospital,"Sanathal Cir, Sanathal, Ahmedabad, Gujarat 382210, India",https://www.google.co.kr/maps/place/Vishram+Hospital/data=!4m5!3m4!1s0x395e9a7fe023e593:0xba93d4fcddd81b8a!8m2!3d22.9605588!4d72.4731271?authuser=0&hl=en&rclk=1,22.9605588,72.4731271,Gujarat
Ashish Welfare Trust Relief Gynec General Hospital,Hospital,"QJG8+7JV, Vadnagar, Gujarat 384355, India",https://www.google.co.kr/maps/place/Ashish+Welfare+Trust+Relief+Gynec+General+Hospital/data=!4m5!3m4!1s0x395c53d8b55d7f2d:0x6e308417e50e8117!8m2!3d23.7757259!4d72.61656?authuser=0&hl=en&rclk=1,23.7757259,72.61656,Gujarat
Sneh Hospital,Hospital,"Thakrar Hospital, Opp. Paradise Cinema, Porbandar, Gujarat 360575, India",https://www.google.co.kr/maps/place/Sneh+Hospital/data=!4m5!3m4!1s0x3956345e7eabe941:0x14b6d9568f1b242a!8m2!3d21.632669!4d69.615852?authuser=0&hl=en&rclk=1,21.632669,69.615852,Gujarat
First Aid Hospital,Hospital,"CMG8+C6H, Chachaka, Gujarat 363410, India",https://www.google.co.kr/maps/place/First+Aid+Hospital/data=!4m5!3m4!1s0x395923f5a163fd4f:0xa526f4efb7b0d654!8m2!3d22.426054!4d71.6655973?authuser=0&hl=en&rclk=1,22.426054,71.6655973,Gujarat
Vallabh Hospital,Surgical center,"Sola Rd, Indra Government Society, Bhuyangdev Society, Ghatlodiya, Memnagar, Ahmedabad, Gujarat 380081, India",https://www.google.co.kr/maps/place/Vallabh+Hospital/data=!4m5!3m4!1s0x395e8359bbd3537b:0x34cc51484afe5a2f!8m2!3d23.0594079!4d72.5359816?authuser=0&hl=en&rclk=1,23.0594079,72.5359816,Gujarat
Vatsalya Hospital,Hospital,"150 Feet Ring Road, Navjyot Park Main Rd, Jagannath Chowk, Rajkot, Gujarat 360005, India",https://www.google.co.kr/maps/place/Vatsalya+Hospital/data=!4m5!3m4!1s0x3959ca31481b8127:0x5df7d7a9c573dd02!8m2!3d22.2829244!4d70.7716126?authuser=0&hl=en&rclk=1,22.2829244,70.7716126,Gujarat
Sadvichar Trust General Hospital,Hospital,"Gujarat 364505, India",https://www.google.co.kr/maps/place/Sadvichar+Trust+General+Hospital/data=!4m5!3m4!1s0x3be20b1eafa85769:0xf47d382896b2502c!8m2!3d21.5211988!4d71.6015?authuser=0&hl=en&rclk=1,21.5211988,71.6015,Gujarat
Hospital Government,Hospital,"QPVP+HF9, Pakhajan, Gujarat 392165, India",https://www.google.co.kr/maps/place/Hospital+Government/data=!4m5!3m4!1s0x395f8221a0175a53:0xb1506b32eeb0760b!8m2!3d21.7939132!4d72.736243?authuser=0&hl=en&rclk=1,21.7939132,72.736243,Gujarat
Teli Hospital,Hospital,"Junagadh Rd, Noorani Plot, Dhoraji, Gujarat 360410, India",https://www.google.co.kr/maps/place/Teli+Hospital/data=!4m5!3m4!1s0x39581e15d639797b:0xe0d914b1f763024d!8m2!3d21.7319234!4d70.4492863?authuser=0&hl=en&rclk=1,21.7319234,70.4492863,Gujarat
Pagarav Hospital And Icu Pvt. Ltd.,Hospital,"Sector 23, Gandhinagar, Gujarat 382024, India",https://www.google.co.kr/maps/place/Pagarav+Hospital+And+Icu+Pvt.+Ltd./data=!4m5!3m4!1s0x395c2b99c64cf047:0xf4ced875a6aba4c5!8m2!3d23.2366002!4d72.65188?authuser=0&hl=en&rclk=1,23.2366002,72.65188,Gujarat
Apollo Hospitals Gandhinagar,Hospital,"75H3+J64, Pramukh Swami nagar, Tandalja, Vadodara, Gujarat 390012, India",https://www.google.co.kr/maps/place/Apollo+Hospitals+Gandhinagar/data=!4m5!3m4!1s0x395fc78202c63875:0xa574df39a1ad4993!8m2!3d22.2790221!4d73.1530891?authuser=0&hl=en&rclk=1,22.2790221,73.1530891,Gujarat
चिकित्सालय सरकारी अस्पताल Primary Health Centre,Hospital,"W963+79G, Sisodra, Gujarat 393145, India",https://www.google.co.kr/maps/place/%E0%A4%9A%E0%A4%BF%E0%A4%95%E0%A4%BF%E0%A4%A4%E0%A5%8D%E0%A4%B8%E0%A4%BE%E0%A4%B2%E0%A4%AF+%E0%A4%B8%E0%A4%B0%E0%A4%95%E0%A4%BE%E0%A4%B0%E0%A5%80+%E0%A4%85%E0%A4%B8%E0%A5%8D%E0%A4%AA%E0%A4%A4%E0%A4%BE%E0%A4%B2+Primary+Health+Centre/data=!4m5!3m4!1s0x395ffb718bbdcc6b:0xef615ede6b7cea75!8m2!3d21.9106821!4d73.3534511?authuser=0&hl=en&rclk=1,21.9106821,73.3534511,Gujarat
Sarakari Hospital,Hospital,"X965+4WC, Chitravad, Gujarat 360452, India",https://www.google.co.kr/maps/place/Sarakari+Hospital/data=!4m5!3m4!1s0x395788bd7e47e18f:0xa8fdc7f6733d0830!8m2!3d21.9603127!4d70.3597783?authuser=0&hl=en&rclk=1,21.9603127,70.3597783,Gujarat
Mansarovar Hospital,Hospital,"2HWC+R58, Shanti Nagar, Usmanpura, Ahmedabad, Gujarat 380013, India",https://www.google.co.kr/maps/place/Mansarovar+Hospital/data=!4m5!3m4!1s0x395e84624c301b2d:0x382fefed9eb5fff1!8m2!3d23.0470487!4d72.57044?authuser=0&hl=en&rclk=1,23.0470487,72.57044,Gujarat
Devasya Kidney Hospital,Hospital,"2nd Floor, Samarpan Complex S.P Ring Road, Circle, nr. Ambli, bopal, Gujarat 380058, India",https://www.google.co.kr/maps/place/Devasya+Kidney+Hospital/data=!4m5!3m4!1s0x395e9b0b115205db:0x80a5f1aa1b86074f!8m2!3d23.0283157!4d72.4774455?authuser=0&hl=en&rclk=1,23.0283157,72.4774455,Gujarat
PHC nanodara,Government hospital,"R6R4+8P8, Nanodara, Gujarat 382220, India",https://www.google.co.kr/maps/place/PHC+nanodara/data=!4m5!3m4!1s0x395ebb80f3c28259:0x2095e97b1b89eae0!8m2!3d22.8407755!4d72.2068383?authuser=0&hl=en&rclk=1,22.8407755,72.2068383,Gujarat
Modi Hospital,Hospital,"Gymkhana Road, Near, Moti Tanki Chowk, Gavliwad, Rajkot, Gujarat 360001, India",https://www.google.co.kr/maps/place/Modi+Hospital/data=!4m5!3m4!1s0x3959ca1b9411b4ef:0xa1a2dabf504ab82!8m2!3d22.2955015!4d70.7959561?authuser=0&hl=en&rclk=1,22.2955015,70.7959561,Gujarat
Nani Hospital,Hospital,"370001, Saraf Bazar, Old Dhatia Falia, Bhuj, Gujarat 370001, India",https://www.google.co.kr/maps/place/Nani+Hospital/data=!4m5!3m4!1s0x3950e20010a9cffb:0x61cd574e36b7093a!8m2!3d23.2538309!4d69.6702035?authuser=0&hl=en&rclk=1,23.2538309,69.6702035,Gujarat
Samved Orthopaedic Hospital,Orthopedic clinic,"3rd Floor, Samved Hospital, Near Sopan Flats, Stadium, to, Commerce Six Roads, Girivar Society, Navrangpura, Ahmedabad, Gujarat 380009, India",https://www.google.co.kr/maps/place/Samved+Orthopaedic+Hospital/data=!4m5!3m4!1s0x395e84f54011597d:0x47e5802e9981c67d!8m2!3d23.0404741!4d72.558142?authuser=0&hl=en&rclk=1,23.0404741,72.558142,Gujarat
Sudeep E.N.T Hospital,Hospital,"Block No-298, Gujarat State Highway, Surat - Bardoli Rd, Opp to DGVCL, Bardoli, Gujarat 394601, India",https://www.google.co.kr/maps/place/Sudeep+E.N.T+Hospital/data=!4m5!3m4!1s0x3be067cf96c2564b:0x8ff409b0cfda0f5b!8m2!3d21.1161178!4d73.1032392?authuser=0&hl=en&rclk=1,21.1161178,73.1032392,Gujarat
"Civil hospital, rajula",Hospital,"Rajula Citi Tower, Tower Road, Beside, Towe, Rajula, Gujarat 365560, India","https://www.google.co.kr/maps/place/Civil+hospital,+rajula/data=!4m5!3m4!1s0x3be245bac304a929:0x72e958745900fd1e!8m2!3d21.0360441!4d71.4430817?authuser=0&hl=en&rclk=1",21.0360441,71.4430817,Gujarat
Hetshvi Uro Surgical Multispeciality Hospital,Hospital,"B34/6, New Civil Hospital Rd, Patel Society, Asarwa, Ahmedabad, Gujarat 380016, India",https://www.google.co.kr/maps/place/Hetshvi+Uro+Surgical+Multispeciality+Hospital/data=!4m5!3m4!1s0x395e8417351d7575:0x3fedb8f83481e622!8m2!3d23.0469749!4d72.6015615?authuser=0&hl=en&rclk=1,23.0469749,72.6015615,Gujarat
Rms Hospital Trauma General Hospital,Hospital,"2JGF+2W9, Rakhial, Ahmedabad, Gujarat 380023, India",https://www.google.co.kr/maps/place/Rms+Hospital+Trauma+General+Hospital/data=!4m5!3m4!1s0x395e8687b239c963:0x81b95d70ee670fc0!8m2!3d23.02505!4d72.62486?authuser=0&hl=en&rclk=1,23.02505,72.62486,Gujarat
Jagruti Multispeciality Hospital,Hospital,"4XMH+WG9, Ratatalav, Gujarat 370110, India",https://www.google.co.kr/maps/place/Jagruti+Multispeciality+Hospital/data=!4m5!3m4!1s0x3950c13fffffe1a7:0xe0fd6cc67f61c024!8m2!3d23.1347988!4d69.97886?authuser=0&hl=en&rclk=1,23.1347988,69.97886,Gujarat
shriji surgical hospital,Hospital,"anjali cross road, India",https://www.google.co.kr/maps/place/shriji+surgical+hospital/data=!4m5!3m4!1s0x395e848f0942a943:0xd434ae7c7c4aeb95!8m2!3d23.0477604!4d72.5592102?authuser=0&hl=en&rclk=1,23.0477604,72.5592102,Gujarat
Krisha hospital,Hospital,"Sultanpura, Vadodara, Gujarat 390001, India",https://www.google.co.kr/maps/place/Krisha+hospital/data=!4m5!3m4!1s0x395fc9def0cf0943:0xff596a36ee8fe7e6!8m2!3d22.2976944!4d73.203784?authuser=0&hl=en&rclk=1,22.2976944,73.203784,Gujarat
"Government Hospital, Rah",Hospital,"FRVJ+Q78, Rah, Gujarat 385310, India","https://www.google.co.kr/maps/place/Government+Hospital,+Rah/data=!4m5!3m4!1s0x395b53b74f2c0437:0x8da3bd20f2e41a80!8m2!3d24.4944059!4d71.8307177?authuser=0&hl=en&rclk=1",24.4944059,71.8307177,Gujarat
"Dr Srujal Shah - Vascular Surgeon in Ahmedabad, India",Vascular surgeon,"9, Goddan Park Rd, Sardar Colony, 380013shram road, opposite starottel hotel, near vadaj, Ahmedabad, Gujarat 380013, India","https://www.google.co.kr/maps/place/Dr+Srujal+Shah+-+Vascular+Surgeon+in+Ahmedabad,+India/data=!4m5!3m4!1s0x395e84cfb4bbd52b:0xe3ac883a22ff0dce!8m2!3d23.053019!4d72.570897?authuser=0&hl=en&rclk=1",23.053019,72.570897,Gujarat
Hospital for Joint Surgery (Dr. Nirbhay Shah),Hospital,"Swasthya Sadan, Kailashwadi Circle, Junction Plot, Rajkot, Gujarat 360001, India",https://www.google.co.kr/maps/place/Hospital+for+Joint+Surgery+(Dr.+Nirbhay+Shah)/data=!4m5!3m4!1s0x3959c9f86fcbaed1:0x631b05fc3be30f99!8m2!3d22.3091721!4d70.7987835?authuser=0&hl=en&rclk=1,22.3091721,70.7987835,Gujarat
GLOBAL AYURVEDA,Hospital,"Rajkot - Bhavnagar Highway,Gadhka Patiyu, Tramba (Kasturbadham, Gadhaka Rd, Rajkot, Gujarat 360020, India",https://www.google.co.kr/maps/place/GLOBAL+AYURVEDA/data=!4m5!3m4!1s0x3959b4a2cce7124f:0x9a5f6ec61d9c9d8a!8m2!3d22.241398!4d70.8976158?authuser=0&hl=en&rclk=1,22.241398,70.8976158,Gujarat
CENSAR HOSPITAL,Hospital,"F9CP+9HG, Gosal, Gujarat 363430, India",https://www.google.co.kr/maps/place/CENSAR+HOSPITAL/data=!4m5!3m4!1s0x395911582f54609f:0xed15bcf763b22c18!8m2!3d22.4709482!4d71.3864595?authuser=0&hl=en&rclk=1,22.4709482,71.3864595,Gujarat
AROGYAM Hospital,Hospital,"E-1/405, E-1/405, Pandit Gajananrao Ambade Marg, Mandvi, Vadodara, Gujarat 390001, India",https://www.google.co.kr/maps/place/AROGYAM+Hospital/data=!4m5!3m4!1s0x395fc5f5ed52310f:0x69cfd4ea18978157!8m2!3d22.300149!4d73.2013159?authuser=0&hl=en&rclk=1,22.300149,73.2013159,Gujarat
Aarna Superspeciality Hospital,Hospital,"2H75+QMR, Paldi, Ahmedabad, Gujarat 380007, India",https://www.google.co.kr/maps/place/Aarna+Superspeciality+Hospital/data=!4m5!3m4!1s0x395e85027cf934ab:0x15ded16da6cd7d98!8m2!3d23.014481!4d72.55914?authuser=0&hl=en&rclk=1,23.014481,72.55914,Gujarat
Sahyog General Hospital Nursing Home,Hospital,"XCPR+44V, Telav, Gujarat 382210, India",https://www.google.co.kr/maps/place/Sahyog+General+Hospital+Nursing+Home/data=!4m5!3m4!1s0x395e9a3b741d88c9:0x1c743ec9a613a427!8m2!3d22.985366!4d72.4402999?authuser=0&hl=en&rclk=1,22.985366,72.4402999,Gujarat
Health Check Up in Ahmedabad,Hospital,"Gujarat 382427, India",https://www.google.co.kr/maps/place/Health+Check+Up+in+Ahmedabad/data=!4m5!3m4!1s0x395e8eecc4d0d6db:0x878856b780d2888a!8m2!3d22.9034945!4d72.5833654?authuser=0&hl=en&rclk=1,22.9034945,72.5833654,Gujarat
Fortis Hospital,Hospital,"HPV8+27J, Mount Abu, Rajasthan 307501, India",https://www.google.co.kr/maps/place/Fortis+Hospital/data=!4m5!3m4!1s0x395d2a7c00000001:0x3f30f231c6eebae5!8m2!3d24.5925909!4d72.7156274?authuser=0&hl=en&rclk=1,24.5925909,72.7156274,Gujarat
Neyo Hospitals,Hospital,"AkshardhamComplex, India",https://www.google.co.kr/maps/place/Neyo+Hospitals/data=!4m5!3m4!1s0x395e84ca5d947c41:0x7f9e292eb30e14ad!8m2!3d23.0325576!4d72.5239783?authuser=0&hl=en&rclk=1,23.0325576,72.5239783,Gujarat
"Solitaire clinic -Joint, Knee Replacement Surgery |Arthroscopy |Fracture| Best Orthopedic Hospital",Orthopedic clinic,"Polaris Building, 201, Second, Stadium Circle, opp. Vipul Dudhiya, Navrangpura, Ahmedabad, Gujarat 380009, India","https://www.google.co.kr/maps/place/Solitaire+clinic+-Joint,+Knee+Replacement+Surgery+%7CArthroscopy+%7CFracture%7C+Best+Orthopedic+Hospital/data=!4m5!3m4!1s0x395e84f496836aeb:0xf8c6d3ac7021e179!8m2!3d23.0396266!4d72.5623284?authuser=0&hl=en&rclk=1",23.0396266,72.5623284,Gujarat
Viroc Hospital,Hospital,"8672+6V4, Nivrutti Colony, Karelibagh, Vadodara, Gujarat 390018, India",https://www.google.co.kr/maps/place/Viroc+Hospital/data=!4m5!3m4!1s0x395fcf432e422dd3:0x659e968f87ee4ac2!8m2!3d22.3130133!4d73.20219?authuser=0&hl=en&rclk=1,22.3130133,73.20219,Gujarat
Astha Hospital,Hospital,"Dhari, Gujarat 365640, India",https://www.google.co.kr/maps/place/Astha+Hospital/data=!4m5!3m4!1s0x3be2856465d5d9cf:0x45391df85d1c616c!8m2!3d21.3303716!4d71.0343398?authuser=0&hl=en&rclk=1,21.3303716,71.0343398,Gujarat
Apollo Hospitals International Ltd,Hospital,"4J5G+Q99, GIDC Bhat, Bhat, Ahmedabad, Gujarat 382424, India",https://www.google.co.kr/maps/place/Apollo+Hospitals+International+Ltd/data=!4m5!3m4!1s0x395e8142808810b9:0x9b3f7114277f107e!8m2!3d23.1094245!4d72.6259951?authuser=0&hl=en&rclk=1,23.1094245,72.6259951,Gujarat
Nova IVF Fertility - IVF Centre In Ahmedabad,Fertility clinic,"108, Swastik Society Cross Rd, Swastik Society, Navrangpura, Ahmedabad, Gujarat 380009, India",https://www.google.co.kr/maps/place/Nova+IVF+Fertility+-+IVF+Centre+In+Ahmedabad/data=!4m5!3m4!1s0x395e84f53fffffff:0x4177ca2c066f8da4!8m2!3d23.0384909!4d72.5585396?authuser=0&hl=en&rclk=1,23.0384909,72.5585396,Gujarat
CIMS,Gastroenterologist,"Cims Hospital, Ahmedabad, Gujarat 380060, India",https://www.google.co.kr/maps/place/CIMS/data=!4m5!3m4!1s0x395e9cb2533ea735:0xab977267345a7f58!8m2!3d23.0699847!4d72.5172875?authuser=0&hl=en&rclk=1,23.0699847,72.5172875,Gujarat
Sneh Hospital,Medical clinic,"Om Avenue, Nr. Vitthal Mandir Between Hatkeshwar Circle to 7th Day School Road, Maninagar East, Ahmedabad, Gujarat 380008, India",https://www.google.co.kr/maps/place/Sneh+Hospital/data=!4m5!3m4!1s0x395e87e2c45e4f85:0x6ab7c6c7874064a1!8m2!3d22.9949699!4d72.6222143?authuser=0&hl=en&rclk=1,22.9949699,72.6222143,Gujarat
"Dr Amit Jhala - Best Spine Surgery Surgeon, Spine Specialist Doctor",Surgeon,"203-204, Chirayu Complex, Narayan Nagar Rd, Paldi, Ahmedabad, Gujarat 380007, India","https://www.google.co.kr/maps/place/Dr+Amit+Jhala+-+Best+Spine+Surgery+Surgeon,+Spine+Specialist+Doctor/data=!4m5!3m4!1s0x395e85018900bec7:0x623f7ddc967f2018!8m2!3d23.0070009!4d72.5657357?authuser=0&hl=en&rclk=1",23.0070009,72.5657357,Gujarat
પ્રજયમ આયુર્વેદ હોસ્પિટલ,Hospital,"સામે, B3, રશદ્વાર એપાર્ટમેન્ટ, ગુજરાતી મ્યુનિસિપાલિટી શાળાની, Ashram Rd, જૂના વાડજ, Ahmedabad, Gujarat 380013, India",https://www.google.co.kr/maps/place/%E0%AA%AA%E0%AB%8D%E0%AA%B0%E0%AA%9C%E0%AA%AF%E0%AA%AE+%E0%AA%86%E0%AA%AF%E0%AB%81%E0%AA%B0%E0%AB%8D%E0%AA%B5%E0%AB%87%E0%AA%A6+%E0%AA%B9%E0%AB%8B%E0%AA%B8%E0%AB%8D%E0%AA%AA%E0%AA%BF%E0%AA%9F%E0%AA%B2/data=!4m5!3m4!1s0x395e85fb70df5bdd:0xb8227471ec89308f!8m2!3d23.054102!4d72.573332?authuser=0&hl=en&rclk=1,23.054102,72.573332,Gujarat
"Primary Health Centre,Gangad",Government hospital,"M7HF+WF5, Gangad, Gujarat 382240, India","https://www.google.co.kr/maps/place/Primary+Health+Centre,Gangad/data=!4m5!3m4!1s0x395ec1f3aa99b09d:0x1dbe03298648ba4b!8m2!3d22.6797655!4d72.2737232?authuser=0&hl=en&rclk=1",22.6797655,72.2737232,Gujarat
Cgh hospital,Hospital,"Panchavati Rd, Ellisbridge, Ahmedabad, Gujarat 380009, India",https://www.google.co.kr/maps/place/Cgh+hospital/data=!4m5!3m4!1s0x395e8512da38309b:0xc9b645cbcf010dfd!8m2!3d23.0245643!4d72.5591091?authuser=0&hl=en&rclk=1,23.0245643,72.5591091,Gujarat
Sanjivani Super Speciality Hospitals,Doctor,"Near, 1, Uday Park Society, Sunrise Park Road, Vastrapur, Ahmedabad, Gujarat 380015, India",https://www.google.co.kr/maps/place/Sanjivani+Super+Speciality+Hospitals/data=!4m5!3m4!1s0x395e84b7cb29c877:0xc7133af047ed5589!8m2!3d23.040212!4d72.528213?authuser=0&hl=en&rclk=1,23.040212,72.528213,Gujarat
"Goverment Hospital, Motichandur",Hospital,"JQ28+GHJ, Moti Chandur, Gujarat 384241, India","https://www.google.co.kr/maps/place/Goverment+Hospital,+Motichandur/data=!4m5!3m4!1s0x395b8ffcc8a680df:0xfff582f09265bf6d!8m2!3d23.6013343!4d71.7663844?authuser=0&hl=en&rclk=1",23.6013343,71.7663844,Gujarat
Shalya Orthopaedic Hospital & Joint Replacement Centre,Hospital,"3G96+FG3, Thaltej, Ahmedabad, Gujarat 380060, India",https://www.google.co.kr/maps/place/Shalya+Orthopaedic+Hospital+%26+Joint+Replacement+Centre/data=!4m5!3m4!1s0x395e9cb04a09c589:0x1cc3556b44207af1!8m2!3d23.068645!4d72.5113?authuser=0&hl=en&rclk=1,23.068645,72.5113,Gujarat
આરોગ્ય કેન્દ્ર,Hospital,"36J5+M7C, Khadadhar, Gujarat 365550, India",https://www.google.co.kr/maps/place/%E0%AA%86%E0%AA%B0%E0%AB%8B%E0%AA%97%E0%AB%8D%E0%AA%AF+%E0%AA%95%E0%AB%87%E0%AA%A8%E0%AB%8D%E0%AA%A6%E0%AB%8D%E0%AA%B0/data=!4m5!3m4!1s0x3be25f4d5d12a045:0x87dea52f65051b7c!8m2!3d21.0816944!4d71.2081341?authuser=0&hl=en&rclk=1,21.0816944,71.2081341,Gujarat
Kasturba Hospital,Medical clinic,"9XJG+GH2, Dhandhuka, Gujarat 382460, India",https://www.google.co.kr/maps/place/Kasturba+Hospital/data=!4m5!3m4!1s0x395ed5162feffe87:0xe337b114f07b8014!8m2!3d22.3812574!4d71.9763923?authuser=0&hl=en&rclk=1,22.3812574,71.9763923,Gujarat
Gotarka arogykendr ( ગોતરકા આરોગ્ય કેન્દ્ર ),Government hospital,"PFVM+XR3, Gotarka, Gujarat 385360, India",https://www.google.co.kr/maps/place/Gotarka+arogykendr+(+%E0%AA%97%E0%AB%8B%E0%AA%A4%E0%AA%B0%E0%AA%95%E0%AA%BE+%E0%AA%86%E0%AA%B0%E0%AB%8B%E0%AA%97%E0%AB%8D%E0%AA%AF+%E0%AA%95%E0%AB%87%E0%AA%A8%E0%AB%8D%E0%AA%A6%E0%AB%8D%E0%AA%B0+)/data=!4m5!3m4!1s0x395ba1e25cffb01d:0x46a88c0bf809c90e!8m2!3d23.7448935!4d71.4845315?authuser=0&hl=en&rclk=1,23.7448935,71.4845315,Gujarat
Hospital,Hospital,"F54M+G5R, Pajvali, Gujarat 363530, India",https://www.google.co.kr/maps/place/Hospital/data=!4m5!3m4!1s0x3959a7ba64f715e1:0xc31183f8700f70b1!8m2!3d22.4563577!4d71.1828993?authuser=0&hl=en&rclk=1,22.4563577,71.1828993,Gujarat
Renewed General Hospital,Government hospital,"8PXP+34G, Gandhinagar, Gujarat 382320, India",https://www.google.co.kr/maps/place/Renewed+General+Hospital/data=!4m5!3m4!1s0x395dd29846e8a25d:0xbf773f5d2d569d28!8m2!3d23.3476798!4d72.7353176?authuser=0&hl=en&rclk=1,23.3476798,72.7353176,Gujarat
urban health centre,Hospital,"R4X6+2R2, Bhadra, Patan, Gujarat 384265, India",https://www.google.co.kr/maps/place/urban+health+centre/data=!4m5!3m4!1s0x395c878de02d2ae3:0x137dbf5480ed42bd!8m2!3d23.8475023!4d72.1120244?authuser=0&hl=en&rclk=1,23.8475023,72.1120244,Gujarat
Primary Health Centre Rudatal,Government hospital,"Moto Madh, Rudatal, Gujarat 382145, India",https://www.google.co.kr/maps/place/Primary+Health+Centre+Rudatal/data=!4m5!3m4!1s0x395c131db5bc524b:0xfd6b0258719a94be!8m2!3d23.4102983!4d72.1614379?authuser=0&hl=en&rclk=1,23.4102983,72.1614379,Gujarat
AIIMS RAJKOT (KHANDHERI),Hospital,"Unnamed Road, Gujarat 360006, India",https://www.google.co.kr/maps/place/AIIMS+RAJKOT+(KHANDHERI)/data=!4m5!3m4!1s0x3959c9f878ea9493:0x83269f7a0561a119!8m2!3d22.3679175!4d70.7467282?authuser=0&hl=en&rclk=1,22.3679175,70.7467282,Gujarat
Ashirwad Surgical Hospital,Hospital,"Wonder Point, Near J K Steel, N H No-8, Amraiwadi, Amraiwadi, Ahmedabad, Gujarat 380026, India",https://www.google.co.kr/maps/place/Ashirwad+Surgical+Hospital/data=!4m5!3m4!1s0x395e867115555555:0xc2acc475067c3a20!8m2!3d23.0063653!4d72.6224856?authuser=0&hl=en&rclk=1,23.0063653,72.6224856,Gujarat
Dhiraj Hospital,Hospital,"78RC+PX9, Pipaliya, Gujarat 391760, India",https://www.google.co.kr/maps/place/Dhiraj+Hospital/data=!4m5!3m4!1s0x395fda8abeebfa63:0xe83a9df7b05ff8e4!8m2!3d22.2917827!4d73.32249?authuser=0&hl=en&rclk=1,22.2917827,73.32249,Gujarat
Hopewell medical hospital,Hospital,"G-101, Sumel8, Ajit mill, Cross Rd, Ahmedabad, Gujarat 380023, India",https://www.google.co.kr/maps/place/Hopewell+medical+hospital/data=!4m5!3m4!1s0x395e879870607417:0x8626833983fccf10!8m2!3d23.0215941!4d72.6332265?authuser=0&hl=en&rclk=1,23.0215941,72.6332265,Gujarat
Datoj Hospital,Hospital,"20, Main Road, New Jagnath, New Jagnath, Rajkot, Gujarat 360001, India",https://www.google.co.kr/maps/place/Datoj+Hospital/data=!4m5!3m4!1s0x3959ca1898a860a3:0x4aafa9df5b7e5506!8m2!3d22.2943765!4d70.7878332?authuser=0&hl=en&rclk=1,22.2943765,70.7878332,Gujarat
Brain & Spine Hospital,Neurosurgeon,"Blue Star Complex, Near Income Tax Railway Under Bridge, Income Tax, Ahmedabad, Gujarat 380014, India",https://www.google.co.kr/maps/place/Brain+%26+Spine+Hospital/data=!4m5!3m4!1s0x395e848ac1e417ed:0x58979268e3204bb2!8m2!3d23.040264!4d72.566022?authuser=0&hl=en&rclk=1,23.040264,72.566022,Gujarat
"Dr Saurabh Goyal - Senior Orthopedic & Joint Replacement Surgeon , Knee Replacement Surgery Expert",Orthopedic surgeon,"201, Polaris Near Vodafone house, Stadium circle, above Yamaha Showroom, Navrangpura, Ahmedabad, Gujarat 380009, India","https://www.google.co.kr/maps/place/Dr+Saurabh+Goyal+-+Senior+Orthopedic+%26+Joint+Replacement+Surgeon+,+Knee+Replacement+Surgery+Expert/data=!4m5!3m4!1s0x395e84f52914bfd3:0x2c1e7300e111bbee!8m2!3d23.039586!4d72.5622734?authuser=0&hl=en&rclk=1",23.039586,72.5622734,Gujarat
Shradhha Clinic,Hospital,"X6M5+8V6, Androkha, Gujarat 383460, India",https://www.google.co.kr/maps/place/Shradhha+Clinic/data=!4m5!3m4!1s0x395d76232bffffff:0xb9ebc07c84e75538!8m2!3d23.9832763!4d73.2096358?authuser=0&hl=en&rclk=1,23.9832763,73.2096358,Gujarat
Het Imaging (Dr Pushkar Dabhi),Medical diagnostic imaging center,"Opp. Panchmukhi Hanumanji Temple, Jalaram Society, Atkot Ring Rd, Jasdan, Gujarat 360050, India",https://www.google.co.kr/maps/place/Het+Imaging+(Dr+Pushkar+Dabhi)/data=!4m5!3m4!1s0x3958f7861dcb7033:0x47bf5e06e1e5baa2!8m2!3d22.0323221!4d71.1991652?authuser=0&hl=en&rclk=1,22.0323221,71.1991652,Gujarat
RUDRA HOSPITAL ICU & NURSING HOME,Hospital,"OARNATE COMPLEX 3RD FLOOR NEAR NEW RASOI HOTEL, Kalubha Rd, Bhavnagar, Gujarat 364001, India",https://www.google.co.kr/maps/place/RUDRA+HOSPITAL+ICU+%26+NURSING+HOME/data=!4m5!3m4!1s0x395e850a10b74bab:0x1f49ad87c8f8e874!8m2!3d23.022505!4d72.5713621?authuser=0&hl=en&rclk=1,23.022505,72.5713621,Gujarat
Dr Chintan Gandhi (Gandhi Hospital),Obstetrician-gynecologist,"Yashodanand Complex, GF-FF, Taj Mohammad Khan Pathan Rd, Virat Nagar, Ahmedabad, Gujarat 380023, India",https://www.google.co.kr/maps/place/Dr+Chintan+Gandhi+(Gandhi+Hospital)/data=!4m5!3m4!1s0x395e86f6a8069e65:0x8cdb3ff140ab1f30!8m2!3d23.0291982!4d72.6447938?authuser=0&hl=en&rclk=1,23.0291982,72.6447938,Gujarat
Shree Hospital,Hospital,"362001, Nehru Park Society, Rani Sati Colony, Junagadh, Gujarat, India",https://www.google.co.kr/maps/place/Shree+Hospital/data=!4m5!3m4!1s0x395801f33f030301:0x8e24eaff9fc607fa!8m2!3d21.5217727!4d70.4538276?authuser=0&hl=en&rclk=1,21.5217727,70.4538276,Gujarat
Hridansh Maternity Hospital,Hospital,"Sherpura, Nagarkuva, Petlad, Gujarat 388450, India",https://www.google.co.kr/maps/place/Hridansh+Maternity+Hospital/data=!4m5!3m4!1s0x395e54819ddfda93:0x472eb0dfc67e87b4!8m2!3d22.484015!4d72.8014199?authuser=0&hl=en&rclk=1,22.484015,72.8014199,Gujarat
Dr. Vinay G Bhomia,Doctor,"1, Uday Park Society, Near Sunrise Park, Vastrapur, Ahmedabad, Gujarat 380015, India",https://www.google.co.kr/maps/place/Dr.+Vinay+G+Bhomia/data=!4m5!3m4!1s0x395e9ad506b764cf:0x58b5ad49693878f7!8m2!3d23.007883!4d72.5178168?authuser=0&hl=en&rclk=1,23.007883,72.5178168,Gujarat
Dr. Sunil N. Mody,Otolaryngologist,"Modi Hospital, Dr. Radhakrishnan Road, Moti Tanki Chowk, Rajkot, Gujarat 360001, India",https://www.google.co.kr/maps/place/Dr.+Sunil+N.+Mody/data=!4m5!3m4!1s0x3959ca1278f4820b:0x55a549e4a4615304!8m2!3d22.2955029!4d70.796034?authuser=0&hl=en&rclk=1,22.2955029,70.796034,Gujarat
Geeta Hospital,Doctor,"Gundala Rd, Mundra, Gujarat 370421, India",https://www.google.co.kr/maps/place/Geeta+Hospital/data=!4m5!3m4!1s0x3950d5dac420d5a3:0xb89af8aecbb00bb1!8m2!3d22.8728372!4d69.7487505?authuser=0&hl=en&rclk=1,22.8728372,69.7487505,Gujarat
Dr. Vikram I Shah - Best Orthopedic & Joint Replacement Surgeon,Orthopedic surgeon,"Sarkhej - Gandhinagar Hwy, opp. Karnavati Club, Ramdev Nagar, Ahmedabad, Gujarat 380015, India",https://www.google.co.kr/maps/place/Dr.+Vikram+I+Shah+-+Best+Orthopedic+%26+Joint+Replacement+Surgeon/data=!4m5!3m4!1s0x395e9b25174106ab:0x22aa217300abbb05!8m2!3d23.0190226!4d72.506634?authuser=0&hl=en&rclk=1,23.0190226,72.506634,Gujarat
3 by OYO - Nami Residency,·₩₩,"Hotel Nami Residency Opp. V S Hospital, Ellisbridge, Ashram Rd, Madalpur Gam, Paldi, Ahmedabad, Gujarat 380006, India",https://www.google.co.kr/maps/place/3+by+OYO+-+Nami+Residency/data=!4m5!3m4!1s0x395e8455c8c99dff:0xfd703689e87d77a2!8m2!3d23.0210131!4d72.5702772?authuser=0&hl=en&rclk=1,23.0210131,72.5702772,Gujarat
70 Degrees East,·₩₩₩,"E-201, Second Floor, Ozone Desire 100ft, Adjacent to Columbia Asia Hospital, Hebatpur Rd, Thaltej, Ahmedabad, Gujarat 380059, India",https://www.google.co.kr/maps/place/70+Degrees+East/data=!4m5!3m4!1s0x395e9ca9a7ef5c1d:0xc1c5e2d2f29f1c69!8m2!3d23.0584132!4d72.5126416?authuser=0&hl=en&rclk=1,23.0584132,72.5126416,Gujarat
Saaol Heart Center Surat (Ghododod Branch),Doctor,"G2, Shiv Kutir Appartment, Ghod Dod Road,, next to New Life Hospital, Surat, Gujarat 395001, India",https://www.google.co.kr/maps/place/Saaol+Heart+Center+Surat+(Ghododod+Branch)/data=!4m5!3m4!1s0x3be04e734b416001:0xcb4789199b60ee14!8m2!3d21.174873!4d72.811628?authuser=0&hl=en&rclk=1,21.174873,72.811628,Gujarat
