Company_Name,Category,Address,Url,Latitude,Longitude,State
Indian Hospitals Corporation Limited,General hospital,"22, Greams Rd, Thousand Lights East, Thousand Lights, Chennai, Tamil Nadu 600006, India",https://www.google.co.kr/maps/place/Indian+Hospitals+Corporation+Limited/data=!4m5!3m4!1s0x3a5266442944ea53:0x83062871423229ed!8m2!3d13.0576824!4d80.2553425?authuser=0&hl=en&rclk=1,13.0576824,80.2553425,Tamil Nadu
"Fortis Malar Hospital, Adyar, Chennai",General hospital,"No. 52, 1st Main Rd, Gandhi Nagar, Adyar, Chennai, Tamil Nadu 600020, India","https://www.google.co.kr/maps/place/Fortis+Malar+Hospital,+Adyar,+Chennai/data=!4m5!3m4!1s0x3a5267ebca1ef1c9:0x65f09e8a6db91462!8m2!3d13.0091785!4d80.2588349?authuser=0&hl=en&rclk=1",13.0091785,80.2588349,Tamil Nadu
Apollo Speciality Hospitals,Hospital,"80 Feet Rd, KK Nagar, Tamil Nadu 625020, India",https://www.google.co.kr/maps/place/Apollo+Speciality+Hospitals/data=!4m5!3m4!1s0x3b00c5b1a66210eb:0x4702986a03fb4ab4!8m2!3d9.9278643!4d78.1494347?authuser=0&hl=en&rclk=1,9.9278643,78.1494347,Tamil Nadu
Apollo,General hospital,"CRPJ+R67, Melmaruvathur, Tamil Nadu 603319, India",https://www.google.co.kr/maps/place/Apollo/data=!4m5!3m4!1s0x3a531a026d50df39:0x3de045aae741b5cf!8m2!3d12.4370297!4d79.8305551?authuser=0&hl=en&rclk=1,12.4370297,79.8305551,Tamil Nadu
Hindu Mission Hospital,General hospital,"103, Grand Southern Trunk Rd, New Market, Tambaram West, Tambaram, Chennai, Tamil Nadu 600045, India",https://www.google.co.kr/maps/place/Hindu+Mission+Hospital/data=!4m5!3m4!1s0x3a525f6ea331a4c1:0xbc21098dedcb8e8d!8m2!3d12.9236633!4d80.1141179?authuser=0&hl=en&rclk=1,12.9236633,80.1141179,Tamil Nadu
PSG Hospitals,Private hospital,"Avinashi Rd, Peelamedu, Coimbatore, Tamil Nadu 641004, India",https://www.google.co.kr/maps/place/PSG+Hospitals/data=!4m5!3m4!1s0x3ba859030ea11999:0xe4e7cf2ff5b622d9!8m2!3d11.0187626!4d77.006959?authuser=0&hl=en&rclk=1,11.0187626,77.006959,Tamil Nadu
Prime Indian Hospitals,General hospital,"1051, Poonamallee High Rd, Amaravathi Nagar, Arumbakkam, Chennai, Tamil Nadu 600106, India",https://www.google.co.kr/maps/place/Prime+Indian+Hospitals/data=!4m5!3m4!1s0x3a5266a0e0299d41:0x1e4c3c152a6ad1ba!8m2!3d13.076723!4d80.205766?authuser=0&hl=en&rclk=1,13.076723,80.205766,Tamil Nadu
Kauvery Hospital - Hosur,Private hospital,"35, Shanthi Nagar, Opp. CSI Church, Hosur, Tamil Nadu 635109, India",https://www.google.co.kr/maps/place/Kauvery+Hospital+-+Hosur/data=!4m5!3m4!1s0x3bae70b81748137f:0x433c25f9d8fba060!8m2!3d12.7284909!4d77.8244931?authuser=0&hl=en&rclk=1,12.7284909,77.8244931,Tamil Nadu
Child Jesus Hospital,Hospital,"Promenade Road, Opp TABS Complex, Melapudur, Cantonment, Tiruchirappalli, Tamil Nadu 620001, India",https://www.google.co.kr/maps/place/Child+Jesus+Hospital/data=!4m5!3m4!1s0x3baaf511ddfa74ff:0x12d96f16ef0e9078!8m2!3d10.805109!4d78.6865239?authuser=0&hl=en&rclk=1,10.805109,78.6865239,Tamil Nadu
Apollo Hospital,Private hospital,"Chennai Bypass Road Ariyamangalam Area, Old Palpannai, Tiruchirappalli, Tamil Nadu 620010, India",https://www.google.co.kr/maps/place/Apollo+Hospital/data=!4m5!3m4!1s0x3baaf506a2accc6b:0x2d7977fac779dfa6!8m2!3d10.8070322!4d78.7111298?authuser=0&hl=en&rclk=1,10.8070322,78.7111298,Tamil Nadu
apollo,General hospital,"2nd Ave, F Block, Anna Nagar West Extension, Chennai, Tamil Nadu 600101, India",https://www.google.co.kr/maps/place/apollo/data=!4m5!3m4!1s0x3a52640e959a565f:0xe08a6239b8dcf788!8m2!3d13.0951364!4d80.1945358?authuser=0&hl=en&rclk=1,13.0951364,80.1945358,Tamil Nadu
Guru Hospital,Hospital,"4 /120-F, Pandikovil Ring Road, Mattuthavani Airport High way, Tamil Nadu 625107, India",https://www.google.co.kr/maps/place/Guru+Hospital/data=!4m5!3m4!1s0x3b00c4311e5f7d6d:0x7bd9cedb67c0ed6e!8m2!3d9.94355!4d78.1647561?authuser=0&hl=en&rclk=1,9.94355,78.1647561,Tamil Nadu
"Government Hospital of Thoracic Medicine, Chennai",General hospital,"77, Chennai - Theni Highway Sanatorium, Kadaperi, Chennai, Tamil Nadu 600047, India","https://www.google.co.kr/maps/place/Government+Hospital+of+Thoracic+Medicine,+Chennai/data=!4m5!3m4!1s0x3a52666a3b499e4f:0xaf0eb30d15e7d37a!8m2!3d12.942847!4d80.1330657?authuser=0&hl=en&rclk=1",12.942847,80.1330657,Tamil Nadu
KG Hospital,General hospital,"5, Government Arts College Rd, Opposite Court, Gopalapuram, Coimbatore, Tamil Nadu 641018, India",https://www.google.co.kr/maps/place/KG+Hospital/data=!4m5!3m4!1s0x3ba859a5b5400001:0x90b60ab4fbdd5cb4!8m2!3d11.0002385!4d76.9715681?authuser=0&hl=en&rclk=1,11.0002385,76.9715681,Tamil Nadu
Tamil Nadu Government Multi Super Speciality Hospital,Government hospital,"Government Medical College Omandurar Government Estate, Anna Salai, Opposite to, Anna Salai, Triplicane, Chennai, Tamil Nadu 600002, India",https://www.google.co.kr/maps/place/Tamil+Nadu+Government+Multi+Super+Speciality+Hospital/data=!4m5!3m4!1s0x3a52661cdfe287e3:0x91c026621c68ec07!8m2!3d13.0692152!4d80.2737472?authuser=0&hl=en&rclk=1,13.0692152,80.2737472,Tamil Nadu
Sugam Hospital,General hospital,"349, Thiruvottiyur High Rd, Tiruvottiyur, Chennai, Tamil Nadu 600019, India",https://www.google.co.kr/maps/place/Sugam+Hospital/data=!4m5!3m4!1s0x3a525c7cb4b167e9:0x6ee9ae5b31fb6af1!8m2!3d13.1650006!4d80.303401?authuser=0&hl=en&rclk=1,13.1650006,80.303401,Tamil Nadu
SIMS Hospital,Hospital,"21, Dr Thirumoorthy Nagar Main Rd, Tirumurthy Nagar, Nungambakkam, Chennai, Tamil Nadu 600034, India",https://www.google.co.kr/maps/place/SIMS+Hospital/data=!4m5!3m4!1s0x3a52664249bcf06d:0x1624b9cffce7f8b5!8m2!3d13.0562741!4d80.2477408?authuser=0&hl=en&rclk=1,13.0562741,80.2477408,Tamil Nadu
"Dr. Rela Institute & Medical Centre - Multispeciality Hospital in Chennai, India",Hospital,"#7, CLC Works Rd, Nagappa Nagar, Chromepet, Chennai, Tamil Nadu 600044, India","https://www.google.co.kr/maps/place/Dr.+Rela+Institute+%26+Medical+Centre+-+Multispeciality+Hospital+in+Chennai,+India/data=!4m5!3m4!1s0x3a525f27fc049c1f:0xb4dcb75b95f1fe93!8m2!3d12.9549896!4d80.1385812?authuser=0&hl=en&rclk=1",12.9549896,80.1385812,Tamil Nadu
Hospital,Hospital,"C6G4+7C9, Reddiapatti, Tamil Nadu 626118, India",https://www.google.co.kr/maps/place/Hospital/data=!4m5!3m4!1s0x3b013eadb774c04f:0x627af46dded782fc!8m2!3d9.4256594!4d78.2061181?authuser=0&hl=en&rclk=1,9.4256594,78.2061181,Tamil Nadu
Rohini Hospital,Hospital,"NO 3279/3281/1 Arulananda Nagar Road, Main Road, VOC Nagar, Thanjavur, Tamil Nadu 613007, India",https://www.google.co.kr/maps/place/Rohini+Hospital/data=!4m5!3m4!1s0x3baab8bfc98652c9:0xc8d63393274e202f!8m2!3d10.7686932!4d79.1309783?authuser=0&hl=en&rclk=1,10.7686932,79.1309783,Tamil Nadu
"Apollo Reach Hospitals, Karaikudi",Private hospital,"Madurai Main Road, Managiri, Karaikudi, Tamil Nadu 630307, India","https://www.google.co.kr/maps/place/Apollo+Reach+Hospitals,+Karaikudi/data=!4m5!3m4!1s0x3b006086c8397847:0x8e7a5cabdcde0e29!8m2!3d10.0715231!4d78.7064517?authuser=0&hl=en&rclk=1",10.0715231,78.7064517,Tamil Nadu
Kaveri Hospital,Hospital,"Burkit Rd, T. Nagar, Chennai, Tamil Nadu 600017, India",https://www.google.co.kr/maps/place/Kaveri+Hospital/data=!4m5!3m4!1s0x3a5267aab7c5e7db:0xcb255c818c01cda9!8m2!3d13.0345898!4d80.2334627?authuser=0&hl=en&rclk=1,13.0345898,80.2334627,Tamil Nadu
Apollo Hospital Chennai,Hospital,"Greams Lane, 21, Greams Rd, Thousand Lights, Chennai, Tamil Nadu 600006, India",https://www.google.co.kr/maps/place/Apollo+Hospital+Chennai/data=!4m5!3m4!1s0x3a52666accdfbb59:0x2e0d1b10a5e06d2f!8m2!3d13.0631824!4d80.2515375?authuser=0&hl=en&rclk=1,13.0631824,80.2515375,Tamil Nadu
Apollo Hospitals,Hospital,"MPVC+85F, Suranam, Tamil Nadu 630713, India",https://www.google.co.kr/maps/place/Apollo+Hospitals/data=!4m5!3m4!1s0x3b01ab3e16a3cabb:0xe66f92987de9a27c!8m2!3d9.6933032!4d78.7204152?authuser=0&hl=en&rclk=1,9.6933032,78.7204152,Tamil Nadu
Medway Hospitals,Hospital,"2, 26, 1st Main Rd, United India Colony, Kodambakkam, Chennai, Tamil Nadu 600024, India",https://www.google.co.kr/maps/place/Medway+Hospitals/data=!4m5!3m4!1s0x3a5266f36d59ee75:0x398bf9f1558236c4!8m2!3d13.0536322!4d80.22752?authuser=0&hl=en&rclk=1,13.0536322,80.22752,Tamil Nadu
Ramakrishna hospital avarampalayam,Hospital,"12, PN Palayam Rd, Siddhapudur, Balasundaram Layout, Balaji Nagar, New Siddhapudur, Tamil Nadu 641044, India",https://www.google.co.kr/maps/place/Ramakrishna+hospital+avarampalayam/data=!4m5!3m4!1s0x3ba8592285ee0455:0x5dad219c17eb5240!8m2!3d11.0242281!4d76.9785297?authuser=0&hl=en&rclk=1,11.0242281,76.9785297,Tamil Nadu
MIOT International,Hospital,"4/112, Mount Poonamallee Rd, Sathya Nagar, Manapakkam, Chennai, Tamil Nadu 600089, India",https://www.google.co.kr/maps/place/MIOT+International/data=!4m5!3m4!1s0x3a5260d2a1750661:0xe3a591bb494f9792!8m2!3d13.0225921!4d80.1863704?authuser=0&hl=en&rclk=1,13.0225921,80.1863704,Tamil Nadu
Vellore Hospital,Hospital,"SH 207, Sasthri Nagar, Krishna Nagar, Veerasamy Nagar, Vellore, Tamil Nadu 632001, India",https://www.google.co.kr/maps/place/Vellore+Hospital/data=!4m5!3m4!1s0x3bad38dfe87b0e5b:0x67e1306dbd083711!8m2!3d12.9016354!4d79.1315638?authuser=0&hl=en&rclk=1,12.9016354,79.1315638,Tamil Nadu
Dr. Mehta's Hospitals,Private hospital,"2, Mc Nichols Rd, Chetpet, Chennai, Tamil Nadu 600031, India",https://www.google.co.kr/maps/place/Dr.+Mehta's+Hospitals/data=!4m5!3m4!1s0x3a5265e51a427cad:0x3c7ce71e604b9f23!8m2!3d13.071801!4d80.240477?authuser=0&hl=en&rclk=1,13.071801,80.240477,Tamil Nadu
Vadamalayan Hospitals,Hospital,"Chockikulam, 15/1, Vallabh Bhai Rd, Madurai, Tamil Nadu 625002, India",https://www.google.co.kr/maps/place/Vadamalayan+Hospitals/data=!4m5!3m4!1s0x3b00c5e904ddddfd:0x397a454de5b761af!8m2!3d9.9430192!4d78.1300745?authuser=0&hl=en&rclk=1,9.9430192,78.1300745,Tamil Nadu
ESI Hospital,Hospital,"Govt Pentland Hospital, Road, Kosapet, Vellore, Tamil Nadu 632001, India",https://www.google.co.kr/maps/place/ESI+Hospital/data=!4m5!3m4!1s0x3bad38e9bf2082c3:0x31e1cfe7b22193e0!8m2!3d12.9156768!4d79.1338086?authuser=0&hl=en&rclk=1,12.9156768,79.1338086,Tamil Nadu
Ganga Cancer Hospital,Hospital,"Chinniyampalayam, Tatabad, Coimbatore, Tamil Nadu 641012, India",https://www.google.co.kr/maps/place/Ganga+Cancer+Hospital/data=!4m5!3m4!1s0x3ba859606fa8a431:0x903279bad78aff59!8m2!3d11.0171789!4d76.9586133?authuser=0&hl=en&rclk=1,11.0171789,76.9586133,Tamil Nadu
Ganga Hospital,Hospital,"Vembakottai Rd, Servaikaranpatti, Tamil Nadu 626201, India",https://www.google.co.kr/maps/place/Ganga+Hospital/data=!4m5!3m4!1s0x3b06c824ba412367:0x698527dbfc633563!8m2!3d9.3425956!4d77.774786?authuser=0&hl=en&rclk=1,9.3425956,77.774786,Tamil Nadu
"Sugam Hospital Chromepet - Multispeciality Hospital in Chennai, India",Hospital,"No. 107 A, Grand Southern Trunk Rd, Sunnambu Colony, Chromepet, Chennai, Tamil Nadu 600044, India","https://www.google.co.kr/maps/place/Sugam+Hospital+Chromepet+-+Multispeciality+Hospital+in+Chennai,+India/data=!4m5!3m4!1s0x3a525e4a4215a8dd:0x29034d2088278c95!8m2!3d12.9618743!4d80.1466478?authuser=0&hl=en&rclk=1",12.9618743,80.1466478,Tamil Nadu
Vel Hospital,Hospital,"Udumalaipettai, Tamil Nadu 642126, India",https://www.google.co.kr/maps/place/Vel+Hospital/data=!4m5!3m4!1s0x3ba9cd0b6aabfed7:0x18122b3fabcfc80b!8m2!3d10.581057!4d77.2478338?authuser=0&hl=en&rclk=1,10.581057,77.2478338,Tamil Nadu
Rajiv Gandhi Government General Hospital,Government hospital,"GH Post Office, 3, Poonamallee High Road, Near Chennai Central, near Park Town, Chennai, Tamil Nadu 600003, India",https://www.google.co.kr/maps/place/Rajiv+Gandhi+Government+General+Hospital/data=!4m5!3m4!1s0x3a5268aabbad9a9f:0xf749acda22be400d!8m2!3d13.081438!4d80.2771945?authuser=0&hl=en&rclk=1,13.081438,80.2771945,Tamil Nadu
Aravind Vision Centre - Andippatti,Hospital,"Near State Bank Of India Madurai, Theni Main Rd, Andippatti, Tamil Nadu 625512, India",https://www.google.co.kr/maps/place/Aravind+Vision+Centre+-+Andippatti/data=!4m5!3m4!1s0x3b073f672c614eed:0x91c68ab907c93a70!8m2!3d9.9998018!4d77.6246871?authuser=0&hl=en&rclk=1,9.9998018,77.6246871,Tamil Nadu
SIMS Hospital,Private hospital,"Metro Station, No.1, Jawaharlal Nehru Rd, next to Vadapalani, Landmark:, Vadapalani, Chennai, Tamil Nadu 600026, India",https://www.google.co.kr/maps/place/SIMS+Hospital/data=!4m5!3m4!1s0x3a5266ea2747db13:0x2ffbe4fed8d74bd2!8m2!3d13.0516589!4d80.2112937?authuser=0&hl=en&rclk=1,13.0516589,80.2112937,Tamil Nadu
Tamilnadu Medical Center,General hospital,"Ammapet, Tamil Nadu 614401, India",https://www.google.co.kr/maps/place/Tamilnadu+Medical+Center/data=!4m5!3m4!1s0x3baab56c3dc1c4d9:0xeb99697bc6d190d4!8m2!3d10.7925842!4d79.3185904?authuser=0&hl=en&rclk=1,10.7925842,79.3185904,Tamil Nadu
Wellkidz Baby Hospital,Hospital,"Denkanikotta Rd, Shanthi Nagar West, Hosur, Tamil Nadu 635109, India",https://www.google.co.kr/maps/place/Wellkidz+Baby+Hospital/data=!4m5!3m4!1s0x3bae70b83c715dcb:0xc19f77c0657abd0a!8m2!3d12.7278451!4d77.8243335?authuser=0&hl=en&rclk=1,12.7278451,77.8243335,Tamil Nadu
Ganga Hospital,Hospital,"Ganesapuram, Kamaraj Nagar, Namakkal, Tamil Nadu 637001, India",https://www.google.co.kr/maps/place/Ganga+Hospital/data=!4m5!3m4!1s0x3babce933c998b91:0xe3a99ea25d9f5659!8m2!3d11.2173905!4d78.1702228?authuser=0&hl=en&rclk=1,11.2173905,78.1702228,Tamil Nadu
Chennai Hospitals,Hospital,"932A, Sathy Rd, Raju Naidu Layout, Gandhipuram, Tamil Nadu 641012, India",https://www.google.co.kr/maps/place/Chennai+Hospitals/data=!4m5!3m4!1s0x3ba8585b54e819ef:0x1f6883f523bff979!8m2!3d11.0215477!4d76.9708639?authuser=0&hl=en&rclk=1,11.0215477,76.9708639,Tamil Nadu
GEM Hospital Coimbatore,Hospital,"45, Pankaja Mills Rd, Palaniappa Nagar, Sowripalayam Pirivu, Ramanathapuram, Tamil Nadu 641045, India",https://www.google.co.kr/maps/place/GEM+Hospital+Coimbatore/data=!4m5!3m4!1s0x3ba85905a88facf7:0xf1d213fbbca5444c!8m2!3d10.9996215!4d76.9954638?authuser=0&hl=en&rclk=1,10.9996215,76.9954638,Tamil Nadu
"VS Hospitals - Multi-speciality Hospital - Kilpauk, Chennai",Hospital,"815/306, Poonamallee High Rd, Kilpauk, Chennai, Tamil Nadu 600010, India","https://www.google.co.kr/maps/place/VS+Hospitals+-+Multi-speciality+Hospital+-+Kilpauk,+Chennai/data=!4m5!3m4!1s0x3a526679b38701b3:0x1964615ceee6f532!8m2!3d13.07796!4d80.241539?authuser=0&hl=en&rclk=1",13.07796,80.241539,Tamil Nadu
"KMCH Hospital, Coimbatore",Hospital,"22RR+W5H, T Nagar, Indira Nagar, Civil Aerodrome Post, Ramanathapuram, Tamil Nadu 641045, India","https://www.google.co.kr/maps/place/KMCH+Hospital,+Coimbatore/data=!4m5!3m4!1s0x3ba8594dc1f80fb7:0x8f01eaeb20a4efcd!8m2!3d11.0423219!4d77.0404926?authuser=0&hl=en&rclk=1",11.0423219,77.0404926,Tamil Nadu
Vadamalayan Hospital (City Centre),Hospital,"77-80, Chinnakadai Street, Chinnakadai Area,South Gate, Madurai, Tamil Nadu 625001, India",https://www.google.co.kr/maps/place/Vadamalayan+Hospital+(City+Centre)/data=!4m5!3m4!1s0x3b00c57861264d09:0x698d36eeba3c1620!8m2!3d9.9117744!4d78.1197023?authuser=0&hl=en&rclk=1,9.9117744,78.1197023,Tamil Nadu
Aravind Vision Centre - Usilampatti,Hospital,"Pariyur Road Opposite G.H, near Dr. Ravindran Hospital, Usilampatti, Tamil Nadu 625532, India",https://www.google.co.kr/maps/place/Aravind+Vision+Centre+-+Usilampatti/data=!4m5!3m4!1s0x3b0737f0c9acb8e3:0xcafe493b9caf0b7f!8m2!3d9.9624666!4d77.7875804?authuser=0&hl=en&rclk=1,9.9624666,77.7875804,Tamil Nadu
PSG Hospitals,Hospital,"Avinashi Rd, Peelamedu, Coimbatore, Tamil Nadu 643201, India",https://www.google.co.kr/maps/place/PSG+Hospitals/data=!4m5!3m4!1s0x3ba8ea33f8a26a77:0x3b33e28d10c758de!8m2!3d11.0242762!4d77.0059182?authuser=0&hl=en&rclk=1,11.0242762,77.0059182,Tamil Nadu
Apollo Hospital Karur,General hospital,"163 A- E, Allwyn Nagar, 30, LGB Nagar, Kovai Main Rd, Vaiyapuri Nagar, Ramanujam Nagar, Karur, Tamil Nadu 639002, India",https://www.google.co.kr/maps/place/Apollo+Hospital+Karur/data=!4m5!3m4!1s0x3baa2f07efd65d8f:0x396eedf588fb096e!8m2!3d10.9604394!4d78.0644706?authuser=0&hl=en&rclk=1,10.9604394,78.0644706,Tamil Nadu
Hospital,Government hospital,"Karur Main Road, Pettvai Thalai, Tiruchirappalli, Tamil Nadu 639112, India",https://www.google.co.kr/maps/place/Hospital/data=!4m5!3m4!1s0x3baa5923652fd1f1:0xeb303d636456c285!8m2!3d10.8753049!4d78.6022419?authuser=0&hl=en&rclk=1,10.8753049,78.6022419,Tamil Nadu
Kotagiri Government Hospital,General hospital,"Main Bazar Road, SH 15, Kotagiri, Tamil Nadu 643217, India",https://www.google.co.kr/maps/place/Kotagiri+Government+Hospital/data=!4m5!3m4!1s0x3ba8c0306db390cd:0xa6c8955416234438!8m2!3d11.4212586!4d76.8614513?authuser=0&hl=en&rclk=1,11.4212586,76.8614513,Tamil Nadu
Vijaya Group of Hospitals,Hospital,"New No:434, Old No:180, NSK Salai Rd, Vadapalani, Chennai, Tamil Nadu 600026, India",https://www.google.co.kr/maps/place/Vijaya+Group+of+Hospitals/data=!4m5!3m4!1s0x3a5266d0fb9230a9:0x7ef99b8ecb885130!8m2!3d13.0496223!4d80.2084482?authuser=0&hl=en&rclk=1,13.0496223,80.2084482,Tamil Nadu
Apollo Children's Hospital,Children's hospital,"15, Shafee Mohammed Rd, Thousand Lights West, Thousand Lights, Chennai, Tamil Nadu 600006, India",https://www.google.co.kr/maps/place/Apollo+Children's+Hospital/data=!4m5!3m4!1s0x3a52670293e67da5:0x717abee7a4427267!8m2!3d13.060162!4d80.2526564?authuser=0&hl=en&rclk=1,13.060162,80.2526564,Tamil Nadu
G H Hospital,Hospital,"M2Q6+P48, Malaikottalam, Tamil Nadu 606213, India",https://www.google.co.kr/maps/place/G+H+Hospital/data=!4m5!3m4!1s0x3bab67f064563629:0xfc86e97e274db75f!8m2!3d11.6892806!4d79.0103225?authuser=0&hl=en&rclk=1,11.6892806,79.0103225,Tamil Nadu
Noble Hospital,Private hospital,"M.Ct.M. School Basket Ball Court, (44, 4, Audiappa St, near Lauders Gate, Opposite. Lady, Purasaiwakkam, Chennai, Tamil Nadu 600084, India",https://www.google.co.kr/maps/place/Noble+Hospital/data=!4m5!3m4!1s0x3a5265dff238aa47:0xcd5ea2a1d1ec7b4f!8m2!3d13.0821506!4d80.2532396?authuser=0&hl=en&rclk=1,13.0821506,80.2532396,Tamil Nadu
Frontline Hospitals,Hospital,"37 & 39, Chinathamani Bazzar, near Anna Statue, Tamil Nadu 620002, India",https://www.google.co.kr/maps/place/Frontline+Hospitals/data=!4m5!3m4!1s0x3baaf5b6cea6067f:0xae99de5ac3fa1901!8m2!3d10.8339397!4d78.6947574?authuser=0&hl=en&rclk=1,10.8339397,78.6947574,Tamil Nadu
Aravind Vision Centre - Kalayarkoil,Hospital,"opp. Narayanamoorthi Hospital, Kalayarkoil, Tamil Nadu 623551, India",https://www.google.co.kr/maps/place/Aravind+Vision+Centre+-+Kalayarkoil/data=!4m5!3m4!1s0x3b00f9549a0dd93d:0x7dcb88423ce51b36!8m2!3d9.8442241!4d78.6377667?authuser=0&hl=en&rclk=1,9.8442241,78.6377667,Tamil Nadu
Chennai Corporation Hospital,Government hospital,"Avvai Shanmugam Salai, Jagadambal Colony, Othavadi, Triplicane, Chennai, Tamil Nadu 600005, India",https://www.google.co.kr/maps/place/Chennai+Corporation+Hospital/data=!4m5!3m4!1s0x3a526628bd468a93:0x871abf67d2111a60!8m2!3d13.047269!4d80.2724821?authuser=0&hl=en&rclk=1,13.047269,80.2724821,Tamil Nadu
DR.KAMAKSHI MEMORIAL HOSPITALS,Hospital,"1, 200 Feet Radial Rd, Dandeeswarar Nagar, Rose Avenue, Pallikaranai, Chennai, Tamil Nadu 600100, India",https://www.google.co.kr/maps/place/DR.KAMAKSHI+MEMORIAL+HOSPITALS/data=!4m5!3m4!1s0x3a525dc9fa00ce73:0xa1d64b4ac0d7b08b!8m2!3d12.9490397!4d80.2090416?authuser=0&hl=en&rclk=1,12.9490397,80.2090416,Tamil Nadu
Noble Hospital,Hospital,"No:44, Audiappa Mudali street, near Lauders Gate, Purasaiwakkam, Chennai, Tamil Nadu 600084, India",https://www.google.co.kr/maps/place/Noble+Hospital/data=!4m5!3m4!1s0x3a52658a4165276d:0x7c8e9a1784eb67fc!8m2!3d13.082032!4d80.253217?authuser=0&hl=en&rclk=1,13.082032,80.253217,Tamil Nadu
Manipal Hospitals Salem,Private hospital,"Dalmia Board, Salem - Bangalore Highway, Vellakalpatti, Salem, Tamil Nadu 636012, India",https://www.google.co.kr/maps/place/Manipal+Hospitals+Salem/data=!4m5!3m4!1s0x3babfa73ce407e39:0x4959b4b0652d724f!8m2!3d11.7030185!4d78.1027645?authuser=0&hl=en&rclk=1,11.7030185,78.1027645,Tamil Nadu
Apollo First Med Hospitals,Hospital,"Apollo First Med Hospital, 154, Poonamallee High Rd, Kilpauk, Chennai, Tamil Nadu 600010, India",https://www.google.co.kr/maps/place/Apollo+First+Med+Hospitals/data=!4m5!3m4!1s0x3a52667705ba1a01:0xb59781072e7d30a0!8m2!3d13.0777125!4d80.24592?authuser=0&hl=en&rclk=1,13.0777125,80.24592,Tamil Nadu
andha Hospital,Hospital,"VFXV+WR2, Pettavaithalai, Tamil Nadu 639112, India",https://www.google.co.kr/maps/place/andha+Hospital/data=!4m5!3m4!1s0x3baa5adf72e54935:0x2543fa84999e9033!8m2!3d10.8997604!4d78.4945135?authuser=0&hl=en&rclk=1,10.8997604,78.4945135,Tamil Nadu
KMC Speciality Hospital,Hospital,"Cantonment, Tiruchirappalli, Tamil Nadu 620001, India",https://www.google.co.kr/maps/place/KMC+Speciality+Hospital/data=!4m5!3m4!1s0x3baaf513249a38bf:0xeef428d5194e589a!8m2!3d10.802273!4d78.6800369?authuser=0&hl=en&rclk=1,10.802273,78.6800369,Tamil Nadu
Be Well Hospitals,General hospital,"5A, Vijaya Raghava Rd, Drivers Colony, T. Nagar, Chennai, Tamil Nadu 600017, India",https://www.google.co.kr/maps/place/Be+Well+Hospitals/data=!4m5!3m4!1s0x3a52664e4351d67f:0xa8a2d399cd313d35!8m2!3d13.043097!4d80.2452985?authuser=0&hl=en&rclk=1,13.043097,80.2452985,Tamil Nadu
Aravind Vision Centre - Watrap,Hospital,"No. 60, Agraharam Center Street Kumaraguru Hospital, opp. Tamil Nadu, 626132, India",https://www.google.co.kr/maps/place/Aravind+Vision+Centre+-+Watrap/data=!4m5!3m4!1s0x3b06dfe7ecf50c7f:0xf10e2ddc362941eb!8m2!3d9.6355398!4d77.6390813?authuser=0&hl=en&rclk=1,9.6355398,77.6390813,Tamil Nadu
Apollo Speciality Hospitals Vanagaram,Hospital,"Plot No, 64, Vanagaram-Ambattur Rd, Ayanambakkam, Ambattur Industrial Estate, Chennai, Tamil Nadu 600095, India",https://www.google.co.kr/maps/place/Apollo+Speciality+Hospitals+Vanagaram/data=!4m5!3m4!1s0x3a52617b16c5b051:0xa67384e8a225f370!8m2!3d13.0707104!4d80.1506203?authuser=0&hl=en&rclk=1,13.0707104,80.1506203,Tamil Nadu
Hospital,Hospital,"PCF5+PQF, Palaniappa Layout, Thogaimalai, Tamil Nadu 621313, India",https://www.google.co.kr/maps/place/Hospital/data=!4m5!3m4!1s0x3baa69a236ac53f9:0xd0fa304ff987c8df!8m2!3d10.7243126!4d78.4094292?authuser=0&hl=en&rclk=1,10.7243126,78.4094292,Tamil Nadu
Hospital,Hospital,"7G58+V4Q, Chittamur, Tamil Nadu 604206, India",https://www.google.co.kr/maps/place/Hospital/data=!4m5!3m4!1s0x3a53364aacb5cf25:0x42a76b2c9ba36aeb!8m2!3d12.2597103!4d79.5153593?authuser=0&hl=en&rclk=1,12.2597103,79.5153593,Tamil Nadu
Hospital PHC,Hospital,"C9WW+753, Unanthangal, Tamil Nadu 636142, India",https://www.google.co.kr/maps/place/Hospital+PHC/data=!4m5!3m4!1s0x3babbddb53791d21:0x5c53fedae0f599ff!8m2!3d11.4456337!4d78.3954253?authuser=0&hl=en&rclk=1,11.4456337,78.3954253,Tamil Nadu
Kanchi Kamakoti Childs Trust Hospital,Children's hospital,"12 A, Nageswara Rd, Tirumurthy Nagar, Nungambakkam, Chennai, Tamil Nadu 600034, India",https://www.google.co.kr/maps/place/Kanchi+Kamakoti+Childs+Trust+Hospital/data=!4m5!3m4!1s0x3a526642898b5dbf:0xefb9663f86bf8722!8m2!3d13.0573353!4d80.245786?authuser=0&hl=en&rclk=1,13.0573353,80.245786,Tamil Nadu
VAET Hospital,Hospital,"Collector Office Road, Tiruchirappalli, Tamil Nadu 620008, India",https://www.google.co.kr/maps/place/VAET+Hospital/data=!4m5!3m4!1s0x3baaf56abfc5039d:0x38342db9a0767f05!8m2!3d10.795534!4d78.678219?authuser=0&hl=en&rclk=1,10.795534,78.678219,Tamil Nadu
Government Hospital,Government hospital,"SH 57, Katchipedu, Sriperumbudur, Tamil Nadu 602105, India",https://www.google.co.kr/maps/place/Government+Hospital/data=!4m5!3m4!1s0x3a52f2c0362a018d:0x4c187079af35334c!8m2!3d12.9572151!4d79.9440242?authuser=0&hl=en&rclk=1,12.9572151,79.9440242,Tamil Nadu
Sankara nethralaya,Hospital,"369W+3PJ, Subba Road Avenue, Nungambakkam, Chennai, Tamil Nadu 600008, India",https://www.google.co.kr/maps/place/Sankara+nethralaya/data=!4m5!3m4!1s0x3a52676c1ab87b57:0x97ddad487f2fc33c!8m2!3d13.0677!4d80.246768?authuser=0&hl=en&rclk=1,13.0677,80.246768,Tamil Nadu
VICTORY MISSION HOSPITAL,Hospital,"NH36, Kathvapallivasal, Tamil Nadu 622503, India",https://www.google.co.kr/maps/place/VICTORY+MISSION+HOSPITAL/data=!4m5!3m4!1s0x3b00634250504f8d:0xbdb6a5cb57b867bd!8m2!3d10.1903447!4d78.6904553?authuser=0&hl=en&rclk=1,10.1903447,78.6904553,Tamil Nadu
Ulundurpet Government Hospital,General hospital,"Ulundurpet, Tamil Nadu 606107, India",https://www.google.co.kr/maps/place/Ulundurpet+Government+Hospital/data=!4m5!3m4!1s0x3bab51feb7cc40bf:0xd7f3f31004104562!8m2!3d11.6927302!4d79.2859268?authuser=0&hl=en&rclk=1,11.6927302,79.2859268,Tamil Nadu
Government Hospital,Hospital,"10, EVR Rd Aruna Nagar, Puthur, EVR Rd, Aruna Nagar, Puthur, Bharthi Nagar, Tiruchirappalli, Tamil Nadu 620017, India",https://www.google.co.kr/maps/place/Government+Hospital/data=!4m5!3m4!1s0x3baaf5748002a3c7:0xf6936e70c46cf49b!8m2!3d10.8108705!4d78.6767874?authuser=0&hl=en&rclk=1,10.8108705,78.6767874,Tamil Nadu
Vijaya hospital,Hospital,"23, Jawaharlal Nehru Rd, Sri Sakthi Nagar, Arumbakkam, Chennai, Tamil Nadu 600106, India",https://www.google.co.kr/maps/place/Vijaya+hospital/data=!4m5!3m4!1s0x3a52678d090d5c2b:0xe517e1b9cc6a9d26!8m2!3d13.067842!4d80.2084005?authuser=0&hl=en&rclk=1,13.067842,80.2084005,Tamil Nadu
Hospital,Medical clinic,"600117, Ganganagar Extension, S.Kolathur, Kovilambakkam, Chennai, Tamil Nadu 600117, India",https://www.google.co.kr/maps/place/Hospital/data=!4m5!3m4!1s0x3a525dce24899b0f:0x267bf9394527f231!8m2!3d12.950337!4d80.199197?authuser=0&hl=en&rclk=1,12.950337,80.199197,Tamil Nadu
Sankara nethralaya,Hospital,"Sri Rangam Ave, Egmore, Chennai, Tamil Nadu 600008, India",https://www.google.co.kr/maps/place/Sankara+nethralaya/data=!4m5!3m4!1s0x3a5267ec5afb175f:0x32217371a81f2f95!8m2!3d13.0706408!4d80.2589752?authuser=0&hl=en&rclk=1,13.0706408,80.2589752,Tamil Nadu
Government Hospital,Hospital,"Sarukkai, Tamil Nadu 614203, India",https://www.google.co.kr/maps/place/Government+Hospital/data=!4m5!3m4!1s0x3baacf007c094559:0x7dbf2ea94057a4e8!8m2!3d10.9373601!4d79.2431043?authuser=0&hl=en&rclk=1,10.9373601,79.2431043,Tamil Nadu
Apollo Hospital,Hospital,"W4F4+QF2, Kalyana Nagar, Tambaram, Chennai, Tamil Nadu 600045, India",https://www.google.co.kr/maps/place/Apollo+Hospital/data=!4m5!3m4!1s0x3a525f6451e8a681:0x991dd0a46ed7bfe6!8m2!3d12.9243956!4d80.1061467?authuser=0&hl=en&rclk=1,12.9243956,80.1061467,Tamil Nadu
Arcot Govt Hospital,Hospital,"SH 5, Arcot, Tamil Nadu 632503, India",https://www.google.co.kr/maps/place/Arcot+Govt+Hospital/data=!4m5!3m4!1s0x3bad3455c439c615:0x9d133e1df98ca815!8m2!3d12.9039895!4d79.3334287?authuser=0&hl=en&rclk=1,12.9039895,79.3334287,Tamil Nadu
RSS Hospital,Hospital,"6, NH 83, 6th Street, Cauvery Nagar South, Thanjavur, Tamil Nadu 613007, India",https://www.google.co.kr/maps/place/RSS+Hospital/data=!4m5!3m4!1s0x3baab8da9dd1c3ed:0xa09a4bdbb83e3d74!8m2!3d10.7529112!4d79.1211153?authuser=0&hl=en&rclk=1,10.7529112,79.1211153,Tamil Nadu
hospital,Hospital,"Palapatti, Tamil Nadu 637017, India",https://www.google.co.kr/maps/place/hospital/data=!4m5!3m4!1s0x3baa2d26999c5f21:0x3f9b246f267e3569!8m2!3d11.0892768!4d78.070348?authuser=0&hl=en&rclk=1,11.0892768,78.070348,Tamil Nadu
Vijaya Hospital,Private hospital,"11, 80 Feet Road, E.V.R Periyar Salai, West Govindhapuram, Dindigul, Tamil Nadu 624001, India",https://www.google.co.kr/maps/place/Vijaya+Hospital/data=!4m5!3m4!1s0x3b00aa8b1e284e7f:0xfe11d6f3595d9fe2!8m2!3d10.3711841!4d77.9709028?authuser=0&hl=en&rclk=1,10.3711841,77.9709028,Tamil Nadu
Kauvery Hospital - Cantonment,Private hospital,"6, Royal Rd, Cantonment, Tiruchirappalli, Tamil Nadu 620001, India",https://www.google.co.kr/maps/place/Kauvery+Hospital+-+Cantonment/data=!4m5!3m4!1s0x3baaf56d21b8db55:0x7186b48a8dfcf979!8m2!3d10.8022986!4d78.6801383?authuser=0&hl=en&rclk=1,10.8022986,78.6801383,Tamil Nadu
Fortis Hospital Vadapalani,Hospital,"23, 1, Arcot Rd, Ottagapalayam, Kannika Puram, Vadapalani, Chennai, Tamil Nadu 600026, India",https://www.google.co.kr/maps/place/Fortis+Hospital+Vadapalani/data=!4m5!3m4!1s0x3a5266c49dcec2bd:0x8e79c9721a9cdd42!8m2!3d13.047391!4d80.2042989?authuser=0&hl=en&rclk=1,13.047391,80.2042989,Tamil Nadu
Kovai Medical Center and Hospital,General hospital,"99, Avinashi Rd, Peelamedu, Indira Nagar, Civil Aerodrome Post, Coimbatore, Tamil Nadu 641014, India",https://www.google.co.kr/maps/place/Kovai+Medical+Center+and+Hospital/data=!4m5!3m4!1s0x3ba857c6e0aac7c7:0x6ca8e27472a4a8bc!8m2!3d11.0423934!4d77.0404579?authuser=0&hl=en&rclk=1,11.0423934,77.0404579,Tamil Nadu
A M N HOSPITAL,Hospital,"GJ4V+396, Gangavalli, Tamil Nadu 636105, India",https://www.google.co.kr/maps/place/A+M+N+HOSPITAL/data=!4m5!3m4!1s0x3bab9fe830a317b5:0xb046e5a0caef55a3!8m2!3d11.5051538!4d78.6433815?authuser=0&hl=en&rclk=1,11.5051538,78.6433815,Tamil Nadu
Ivinpal Hospital,Hospital,"F3X5+49W, Andanur, Tamil Nadu 622203, India",https://www.google.co.kr/maps/place/Ivinpal+Hospital/data=!4m5!3m4!1s0x3baaa144513dc3d3:0xcfc1137d4cfd86c7!8m2!3d10.4978533!4d79.0584527?authuser=0&hl=en&rclk=1,10.4978533,79.0584527,Tamil Nadu
Erode Trust Hospital,General hospital,"42/14, Chinnamuthu Ii Street, Natersar Mill Enclave, Perundurai Rd, Erode, Tamil Nadu 638001, India",https://www.google.co.kr/maps/place/Erode+Trust+Hospital/data=!4m5!3m4!1s0x3ba96f3c81c40469:0x30df612faad1c7b1!8m2!3d11.339951!4d77.7136216?authuser=0&hl=en&rclk=1,11.339951,77.7136216,Tamil Nadu
hospital,Hospital,"RPV7+X8H, Nedodai, Tamil Nadu 630411, India",https://www.google.co.kr/maps/place/hospital/data=!4m5!3m4!1s0x3b0056fd4d95b829:0xa6b396ca3973cf82!8m2!3d9.844944!4d78.7133583?authuser=0&hl=en&rclk=1,9.844944,78.7133583,Tamil Nadu
SRM Hospital OP Block Extension,Hospital,"R2CQ+82W, Potheri, Kattankulathur, Tamil Nadu 603203, India",https://www.google.co.kr/maps/place/SRM+Hospital+OP+Block+Extension/data=!4m5!3m4!1s0x3a52f76c902efad7:0xab0212a13f2c305f!8m2!3d12.8208734!4d80.0375686?authuser=0&hl=en&rclk=1,12.8208734,80.0375686,Tamil Nadu
Motherhood hospital - Chennai,Obstetrician-gynecologist,"New, 542, TT Krishnamachari Rd, opp. Indian Terrain, Alwarpet, Chennai, Tamil Nadu 600018, India",https://www.google.co.kr/maps/place/Motherhood+hospital+-+Chennai/data=!4m5!3m4!1s0x3a5267b4336e6a1d:0xb46e591bbe7831e1!8m2!3d13.0312396!4d80.2511221?authuser=0&hl=en&rclk=1,13.0312396,80.2511221,Tamil Nadu
Kerala Ayurveda Hospital,Hospital,"10, Viswanathapuram, Near Tennur Over Bridge, Tiruchirappalli, Tamil Nadu 620017, India",https://www.google.co.kr/maps/place/Kerala+Ayurveda+Hospital/data=!4m5!3m4!1s0x3baaf5a70db4adbd:0x501764e6c9ca68c9!8m2!3d10.8182618!4d78.6858352?authuser=0&hl=en&rclk=1,10.8182618,78.6858352,Tamil Nadu
Cmc,Hospital,"Vellore - Thoothukudi Hwy, Vasanthapuram, Balaji Nagar, Vellore, Tamil Nadu 632004, India",https://www.google.co.kr/maps/place/Cmc/data=!4m5!3m4!1s0x3bad38e9e3a5ef13:0x5a6cb1a02f0423e1!8m2!3d12.9165167!4d79.1324986?authuser=0&hl=en&rclk=1,12.9165167,79.1324986,Tamil Nadu
ESIC DISPENSEARY HOSPITAL,Hospital,"Attur - Rasipuram Rd, Udayarpalayam, Attur, Tamil Nadu 636102, India",https://www.google.co.kr/maps/place/ESIC+DISPENSEARY+HOSPITAL/data=!4m5!3m4!1s0x3bab9d6b02a73477:0xa9a7afa406469855!8m2!3d11.5983351!4d78.5904719?authuser=0&hl=en&rclk=1,11.5983351,78.5904719,Tamil Nadu
Frontier LifeLine Hospital,Hospital,"R-30C, Ambattur Estate Rd, TS Krishna Nagar, J J Nagar, Mogappair, Chennai, Tamil Nadu 600101, India",https://www.google.co.kr/maps/place/Frontier+LifeLine+Hospital%E2%80%8E/data=!4m5!3m4!1s0x3a5263d404d44c7f:0xac632d39aa57bd32!8m2!3d13.0877252!4d80.1856234?authuser=0&hl=en&rclk=1,13.0877252,80.1856234,Tamil Nadu
Kauvery Hospital - Tennur (Trichy),General hospital,"No.1, K.C.Road, Tennur, Tiruchirappalli, Tamil Nadu 620017, India",https://www.google.co.kr/maps/place/Kauvery+Hospital+-+Tennur+(Trichy)/data=!4m5!3m4!1s0x3baaf5a074f160d5:0x66325f8422f65d25!8m2!3d10.8168449!4d78.680995?authuser=0&hl=en&rclk=1,10.8168449,78.680995,Tamil Nadu
KMCH SULUR HOSPITAL,Hospital,"242b, Trichy Rd, Mathiyalagan Nagar, PKT Nagar, Sulur, Tamil Nadu 641402, India",https://www.google.co.kr/maps/place/KMCH+SULUR+HOSPITAL/data=!4m5!3m4!1s0x3ba855b109f16c71:0xa65392f5f31f93df!8m2!3d11.028418!4d77.1340723?authuser=0&hl=en&rclk=1,11.028418,77.1340723,Tamil Nadu
Government Rajaji Hospital,General hospital,"Alwarpuram, Madurai, Tamil Nadu 625009, India",https://www.google.co.kr/maps/place/Government+Rajaji+Hospital/data=!4m5!3m4!1s0x3b00c596ea20822d:0x7bd4cb7ea902ca0b!8m2!3d9.9280709!4d78.1294632?authuser=0&hl=en&rclk=1,9.9280709,78.1294632,Tamil Nadu
SA-Hospital,Hospital,"RWFW+WJ9, Moorarpalayam, Tamil Nadu 606208, India",https://www.google.co.kr/maps/place/SA-Hospital/data=!4m5!3m4!1s0x3bab6196a14fefed:0xfa94980b0690b2cd!8m2!3d11.824778!4d78.9466031?authuser=0&hl=en&rclk=1,11.824778,78.9466031,Tamil Nadu
Gov. Hospital,Government hospital,"6GR7+X2X, Veeranandapuram, Tamil Nadu 608301, India",https://www.google.co.kr/maps/place/Gov.+Hospital/data=!4m5!3m4!1s0x3a54d6d5d4da6f63:0x6468706eb4e18de7!8m2!3d11.2424765!4d79.5126054?authuser=0&hl=en&rclk=1,11.2424765,79.5126054,Tamil Nadu
Dharan Hospital,Private hospital,"14, byepass, Selva Nagar, Chinnusamy Nagar, Seelanaickenpatti, Salem, Tamil Nadu 636201, India",https://www.google.co.kr/maps/place/Dharan+Hospital/data=!4m5!3m4!1s0x3babefc8a8dff6cf:0xe9508b7c85a684cf!8m2!3d11.6252594!4d78.1451622?authuser=0&hl=en&rclk=1,11.6252594,78.1451622,Tamil Nadu
AA Hospital,Hospital,"Mathigiri Mosque, Royal Town Main Road, Mathigiri, Tamil Nadu 635110, India",https://www.google.co.kr/maps/place/AA+Hospital/data=!4m5!3m4!1s0x3bae7a6e534704b5:0x6aa7673ab1e3d74b!8m2!3d12.6924598!4d77.8053353?authuser=0&hl=en&rclk=1,12.6924598,77.8053353,Tamil Nadu
"Hospital Annexe, CMC",Hospital,"W4FP+PJR, Vellore, Tamil Nadu 632004, India","https://www.google.co.kr/maps/place/Hospital+Annexe,+CMC/data=!4m5!3m4!1s0x3bad3894bf57511f:0x42ef8094373a392d!8m2!3d12.9243698!4d79.136529?authuser=0&hl=en&rclk=1",12.9243698,79.136529,Tamil Nadu
Esi Hospital,Hospital,"Esi hospital, Kandampalayam, Nanjaipugalur, Tamil Nadu 639117, India",https://www.google.co.kr/maps/place/Esi+Hospital/data=!4m5!3m4!1s0x3baa2b6b033ae703:0xecc3c413054cd8ff!8m2!3d11.0761787!4d77.998899?authuser=0&hl=en&rclk=1,11.0761787,77.998899,Tamil Nadu
GOVERNMENT HOSPITAL,Hospital,"86MJ+RP7, Manakkudaiyan, Tamil Nadu 621719, India",https://www.google.co.kr/maps/place/GOVERNMENT+HOSPITAL/data=!4m5!3m4!1s0x3bab3025ba227637:0x39bb3e01e2e87f46!8m2!3d11.334526!4d79.2318106?authuser=0&hl=en&rclk=1,11.334526,79.2318106,Tamil Nadu
Goverment Head Hospital,General hospital,"HFQ6+M59, Pachoor, Tamil Nadu 635854, India",https://www.google.co.kr/maps/place/Goverment+Head+Hospital/data=!4m5!3m4!1s0x3badb28e2ed2c157:0xb9733db8b7172fee!8m2!3d12.5891558!4d78.4604901?authuser=0&hl=en&rclk=1,12.5891558,78.4604901,Tamil Nadu
Indian hospital,Hospital,"Devakottai, Tamil Nadu 630302, India",https://www.google.co.kr/maps/place/Indian+hospital/data=!4m5!3m4!1s0x3b005b3c616c254f:0x6d829906e3573c35!8m2!3d9.9512137!4d78.8201441?authuser=0&hl=en&rclk=1,9.9512137,78.8201441,Tamil Nadu
Military Hospital,Hospital,"Tamil Nadu 643231, India",https://www.google.co.kr/maps/place/Military+Hospital/data=!4m5!3m4!1s0x3ba89507208c2299:0x265b0786f947874!8m2!3d11.3672585!4d76.7826319?authuser=0&hl=en&rclk=1,11.3672585,76.7826319,Tamil Nadu
Vadamalayan Hospitals,Hospital,"649/ A2, Chettinaikanpatti village Road, Angu Bharathi Nagar, J.J. Nagar, Dindigul, Tamil Nadu 624001, India",https://www.google.co.kr/maps/place/Vadamalayan+Hospitals/data=!4m5!3m4!1s0x3b00ab74c53d4f9f:0xbf2b8b4efb85fc59!8m2!3d10.3808014!4d77.9689666?authuser=0&hl=en&rclk=1,10.3808014,77.9689666,Tamil Nadu
Apollo Specialty Hospital,Hospital,"No. 320, Anna Salai, Thiru Vi Ka Kudiyiruppu, Teynampet, Chennai, Tamil Nadu 600035, India",https://www.google.co.kr/maps/place/Apollo+Specialty+Hospital/data=!4m5!3m4!1s0x3a5267b2ead015cf:0x78553bac5cb3767c!8m2!3d13.0337165!4d80.2451388?authuser=0&hl=en&rclk=1,13.0337165,80.2451388,Tamil Nadu
Hospital,Hospital,"1, 3rd Main Road, Srinivase Nagar North, Srinivasa Nagar North, Thillai Nagar, Tiruchirappalli, Tamil Nadu 620018, India",https://www.google.co.kr/maps/place/Hospital/data=!4m5!3m4!1s0x3baaf5e08d40674f:0x709047bc33e93ee5!8m2!3d10.8147118!4d78.6676626?authuser=0&hl=en&rclk=1,10.8147118,78.6676626,Tamil Nadu
Government Hospital,Hospital,"R3CQ+FPQ, Salem, Tamil Nadu 636309, India",https://www.google.co.kr/maps/place/Government+Hospital/data=!4m5!3m4!1s0x3bac07f53d9fbd73:0x8f923ca39fa47492!8m2!3d11.8212177!4d78.0893749?authuser=0&hl=en&rclk=1,11.8212177,78.0893749,Tamil Nadu
AIIMS Hospital,Hospital,"V2JH+RH5, Madurai, Tamil Nadu 625006, India",https://www.google.co.kr/maps/place/AIIMS+Hospital/data=!4m5!3m4!1s0x3b00cf4c395cfd75:0xef42bc4ee2512a90!8m2!3d9.882025!4d78.028993?authuser=0&hl=en&rclk=1,9.882025,78.028993,Tamil Nadu
Jipmer Hospital,Hospital,"Jipmer Campus Rd, Jipmer Campus, Puducherry, 605006, India",https://www.google.co.kr/maps/place/Jipmer+Hospital/data=!4m5!3m4!1s0x3a5361e45536c1c3:0xe02d3465683f42d0!8m2!3d11.9529719!4d79.7966828?authuser=0&hl=en&rclk=1,11.9529719,79.7966828,Tamil Nadu
KMCH,Hospital,"2XQF+P37, Sridevi Nagar, Ganapathypudur, Coimbatore, Tamil Nadu 641006, India",https://www.google.co.kr/maps/place/KMCH/data=!4m5!3m4!1s0x3ba8595bc9df2d81:0x1185d2cef80377eb!8m2!3d11.039298!4d76.9726872?authuser=0&hl=en&rclk=1,11.039298,76.9726872,Tamil Nadu
Sri Isari Velan Mission Hospital,Hospital,"Off OMR, Rajiv Gandhi Salai,Near Navalur Thalambur, Chennai, Tamil Nadu 603103, India",https://www.google.co.kr/maps/place/Sri+Isari+Velan+Mission+Hospital/data=!4m5!3m4!1s0x3a525a2e07deb6d5:0x3065a426efad17d3!8m2!3d12.8472814!4d80.1976322?authuser=0&hl=en&rclk=1,12.8472814,80.1976322,Tamil Nadu
Government General Hospital,Hospital,"33, OMR, Kannagapattu, Thiruporur, Tamil Nadu 603110, India",https://www.google.co.kr/maps/place/Government+General+Hospital/data=!4m5!3m4!1s0x3a52514d23821469:0xf38b90af3a40ec!8m2!3d12.7284278!4d80.1882844?authuser=0&hl=en&rclk=1,12.7284278,80.1882844,Tamil Nadu
Institute Of Child Health and Hospital for Children,Government hospital,"Bhanumati, Rina Mandal Rd, Egmore, Chennai, Tamil Nadu 600008, India",https://www.google.co.kr/maps/place/Institute+Of+Child+Health+and+Hospital+for+Children/data=!4m5!3m4!1s0x3a52660cff28b88f:0x3f0028e54b91f1ba!8m2!3d13.07349!4d80.2569271?authuser=0&hl=en&rclk=1,13.07349,80.2569271,Tamil Nadu
Taj Hospital,Hospital,"Gudalur, Tamil Nadu 643212, India",https://www.google.co.kr/maps/place/Taj+Hospital/data=!4m5!3m4!1s0x3ba8a7240c29c833:0x6f87b363c0baafba!8m2!3d11.496725!4d76.4957012?authuser=0&hl=en&rclk=1,11.496725,76.4957012,Tamil Nadu
esi hospital ariyalur,Hospital,"43QH+F6W, Alagappa Nagar, Vila Ngara, Ariyalur, Tamil Nadu 621704, India",https://www.google.co.kr/maps/place/esi+hospital+ariyalur/data=!4m5!3m4!1s0x3baadf05f8aaf6a5:0x4d3e562b8ccb9c45!8m2!3d11.1387432!4d79.0780865?authuser=0&hl=en&rclk=1,11.1387432,79.0780865,Tamil Nadu
Multiple Hospital Chennai,Government hospital,"Anna Salai, Triplicane, Chennai, Tamil Nadu 600005, India",https://www.google.co.kr/maps/place/Multiple+Hospital+Chennai/data=!4m5!3m4!1s0x3a5267506d2c6453:0xd3ef0c783147bc78!8m2!3d13.0701644!4d80.2750104?authuser=0&hl=en&rclk=1,13.0701644,80.2750104,Tamil Nadu
Cmc Hospital,Hospital,"51, 52, Balaji Nagar 2nd St, Balaji Nagar, Nesapakkam, Chennai, Tamil Nadu 600078, India",https://www.google.co.kr/maps/place/Cmc+Hospital/data=!4m5!3m4!1s0x3a5266d46032ea9f:0xa64d63316e788b01!8m2!3d13.055341!4d80.1984007?authuser=0&hl=en&rclk=1,13.055341,80.1984007,Tamil Nadu
"Dr Ram Mohan Bhat MBBS MD Nephrology, MRCP",Medical clinic,"#27-1, Thirumala Plaza, Shanti Nagar, Denkanikotta Rd, Hosur, Tamil Nadu 635109, India","https://www.google.co.kr/maps/place/Dr+Ram+Mohan+Bhat+MBBS+MD+Nephrology,+MRCP/data=!4m5!3m4!1s0x3bae71f024f791c3:0x335c99f65c9ab635!8m2!3d12.7193796!4d77.8219694?authuser=0&hl=en&rclk=1",12.7193796,77.8219694,Tamil Nadu
S M HOSPITAL,Hospital,"SM Hospital Complex, 29/108, Coonoor Rd, Ooty, Tamil Nadu 643001, India",https://www.google.co.kr/maps/place/S+M+HOSPITAL/data=!4m5!3m4!1s0x3ba8961bc92378bb:0x1f20ecf5ec843983!8m2!3d11.3941299!4d76.7174875?authuser=0&hl=en&rclk=1,11.3941299,76.7174875,Tamil Nadu
NALAM HOSPITAL,Hospital,"42, ARASU PANIYALAR NAGAR, VK Rd, opp. to HP Petrol Bunk, Cheran ma Nagar, Coimbatore, Tamil Nadu 641035, India",https://www.google.co.kr/maps/place/NALAM+HOSPITAL/data=!4m5!3m4!1s0x3ba857a0fc197c33:0xbf26824c93121bd0!8m2!3d11.0541021!4d77.0149907?authuser=0&hl=en&rclk=1,11.0541021,77.0149907,Tamil Nadu
"Dr. P.V. Dhanapal, M.S.,FAIS",Surgeon,"Medical superintendent Government Mohan Kumaramangalam Medical College and Hospital and Hospital, Tamil Nadu, India","https://www.google.co.kr/maps/place/Dr.+P.V.+Dhanapal,+M.S.,FAIS/data=!4m5!3m4!1s0x3babef8e3c8eebbd:0x9acf65ff0342c3a8!8m2!3d11.6321313!4d78.1491058?authuser=0&hl=en&rclk=1",11.6321313,78.1491058,Tamil Nadu
G h hospital,Hospital,"XR29+XWJ, Thachankurichy, Tamil Nadu 621712, India",https://www.google.co.kr/maps/place/G+h+hospital/data=!4m5!3m4!1s0x3baaf00a4a8cabe1:0xa9e63054a707c434!8m2!3d10.9524519!4d78.819772?authuser=0&hl=en&rclk=1,10.9524519,78.819772,Tamil Nadu
"Dr Lavanya Kiran MBBS, MS OBSTERTICS & GYNAECOLOGY, FRM",Medical clinic,"#27-1, Thirumala Plaza, Shanti Nagar, Denkanikotta Rd, Hosur, Tamil Nadu 635109, India","https://www.google.co.kr/maps/place/Dr+Lavanya+Kiran+MBBS,+MS+OBSTERTICS+%26+GYNAECOLOGY,+FRM/data=!4m5!3m4!1s0x3bae7185b5cc052f:0x47ee64e0f8f3dec!8m2!3d12.7195261!4d77.821905?authuser=0&hl=en&rclk=1",12.7195261,77.821905,Tamil Nadu
Corporation Hospital,Hospital,"Hospital Rd, Kannammapet, CIT Nagar, Chennai, Tamil Nadu 600017, India",https://www.google.co.kr/maps/place/Corporation+Hospital/data=!4m5!3m4!1s0x3a526703e4dd089d:0x5e8703a2358e3ffe!8m2!3d13.0299915!4d80.2260652?authuser=0&hl=en&rclk=1,13.0299915,80.2260652,Tamil Nadu
Parvathy Hospital,Hospital,"241, Near MIT Bridge, Grand Southern Trunk Rd, Chromepet, Chennai, Tamil Nadu 600047, India",https://www.google.co.kr/maps/place/Parvathy+Hospital/data=!4m5!3m4!1s0x3a525fa94d5767af:0xf33301ae5af5df63!8m2!3d12.9460838!4d80.1366938?authuser=0&hl=en&rclk=1,12.9460838,80.1366938,Tamil Nadu
JS Hospital,Hospital,"5, Ramakrishna Rd, Hasthampatti, Salem, Tamil Nadu 636007, India",https://www.google.co.kr/maps/place/JS+Hospital/data=!4m5!3m4!1s0x3babf04c0ed8fadd:0xab1635d24983f5a2!8m2!3d11.6740542!4d78.1521782?authuser=0&hl=en&rclk=1,11.6740542,78.1521782,Tamil Nadu
Government Hospital,Hospital,"4C6C+V69, Sholinghur, Tamil Nadu 631102, India",https://www.google.co.kr/maps/place/Government+Hospital/data=!4m5!3m4!1s0x3a52b2f4119bdc8d:0xb4e7294cea18edb!8m2!3d13.1121574!4d79.4206005?authuser=0&hl=en&rclk=1,13.1121574,79.4206005,Tamil Nadu
Government Hospital,Hospital,"Edangimangalam, Tamil Nadu 621706, India",https://www.google.co.kr/maps/place/Government+Hospital/data=!4m5!3m4!1s0x3baaee3f6700ccd9:0x1ceeb70dfedf4553!8m2!3d10.8938543!4d78.860389?authuser=0&hl=en&rclk=1,10.8938543,78.860389,Tamil Nadu
AS HOSPIITAL,Hospital,"27 E, Pattunoolkara Theru, Ethraj Nagar, Ariyalur, Tamil Nadu 621704, India",https://www.google.co.kr/maps/place/AS+HOSPIITAL/data=!4m5!3m4!1s0x3baadf7dbcef97bf:0xfe59e34ea39bca9!8m2!3d11.1410048!4d79.0721499?authuser=0&hl=en&rclk=1,11.1410048,79.0721499,Tamil Nadu
Government Lawley Hospital,Hospital,"NH 67, Vannarpet, Coonoor, Tamil Nadu 643101, India",https://www.google.co.kr/maps/place/Government+Lawley+Hospital/data=!4m5!3m4!1s0x3ba894efc9764d37:0x7b0311528f69cd9c!8m2!3d11.3480125!4d76.7935475?authuser=0&hl=en&rclk=1,11.3480125,76.7935475,Tamil Nadu
"Narayana Multispeciality Clinic, Hosur",Medical clinic,"27-1, Thirumala Plaza, Denkanikottai Main Road, Shanthi Nagar East, Hosur, Tamil Nadu 635109, India","https://www.google.co.kr/maps/place/Narayana+Multispeciality+Clinic,+Hosur/data=!4m5!3m4!1s0x3bae70b992561f15:0x250f67e62f4e8b01!8m2!3d12.7264019!4d77.824313?authuser=0&hl=en&rclk=1",12.7264019,77.824313,Tamil Nadu
Tamil hospital,Hospital,"64PR+8GX, Balakrishrnapuram, Tamil Nadu 614801, India",https://www.google.co.kr/maps/place/Tamil+hospital/data=!4m5!3m4!1s0x3b0011784c38958b:0x4420dff3b7c19722!8m2!3d10.2358547!4d79.1413504?authuser=0&hl=en&rclk=1,10.2358547,79.1413504,Tamil Nadu
Government Royapettah Hospital,Government hospital,"1, West Cott Road, Royapettah, Chennai, Tamil Nadu 600014, India",https://www.google.co.kr/maps/place/Government+Royapettah+Hospital/data=!4m5!3m4!1s0x3a52663cb68edd87:0x82259cfc39d0514!8m2!3d13.0552786!4d80.2648512?authuser=0&hl=en&rclk=1,13.0552786,80.2648512,Tamil Nadu
Children's Hospital,Hospital,"104, Kottai Rd, Thillaipuram, Namakkal, Tamil Nadu 637001, India",https://www.google.co.kr/maps/place/Children's+Hospital/data=!4m5!3m4!1s0x3babcef33a2f81b5:0xecaf3082739d1643!8m2!3d11.2203422!4d78.1639131?authuser=0&hl=en&rclk=1,11.2203422,78.1639131,Tamil Nadu
apollo hospital information centre,Doctor,"edigar street, Krishnapuram, Ambur, Tamil Nadu 635802, India",https://www.google.co.kr/maps/place/apollo+hospital+information+centre/data=!4m5!3m4!1s0x3bad08fb56823511:0xdf3bbd4bb08335ca!8m2!3d12.7871003!4d78.7138566?authuser=0&hl=en&rclk=1,12.7871003,78.7138566,Tamil Nadu
Gov. Hospital,Hospital,"9R2V+W39, Brumadesam, Tamil Nadu 621116, India",https://www.google.co.kr/maps/place/Gov.+Hospital/data=!4m5!3m4!1s0x3bab1157e4750717:0xf44f3df39ef7fa57!8m2!3d11.3522894!4d78.8427256?authuser=0&hl=en&rclk=1,11.3522894,78.8427256,Tamil Nadu
Perambalur Goverment Head Quarters Hospital,Government hospital,"Thuraiyur - Perambalur Rd, Super Nagar, Perambalur, Tamil Nadu 621212, India",https://www.google.co.kr/maps/place/Perambalur+Goverment+Head+Quarters+Hospital/data=!4m5!3m4!1s0x3bab1b42a1d43e1d:0x1d8aae25b14d7df7!8m2!3d11.2365689!4d78.8607773?authuser=0&hl=en&rclk=1,11.2365689,78.8607773,Tamil Nadu
CMCHIS,Hospital,"NH 36, Tirupattur, Tamil Nadu 630211, India",https://www.google.co.kr/maps/place/CMCHIS/data=!4m5!3m4!1s0x3b008bb1e1f0e863:0x67d9d894be63a252!8m2!3d10.1170485!4d78.6047316?authuser=0&hl=en&rclk=1,10.1170485,78.6047316,Tamil Nadu
MURUGESAN MEMORIAL HOSPITAL,Hospital,"420/5, 5th St, Above badboys readymade, Santosh Colony, Sector 9, saliegraman, Chennai, Tamil Nadu 600093, India",https://www.google.co.kr/maps/place/MURUGESAN+MEMORIAL+HOSPITAL/data=!4m5!3m4!1s0x3a5266da9476c869:0xbf0ac6a749c7adbb!8m2!3d13.0435276!4d80.1998258?authuser=0&hl=en&rclk=1,13.0435276,80.1998258,Tamil Nadu
MR Hospital,Hospital,"Arulanthar Nagar, Parisutham Nagar, Thanjavur, Tamil Nadu 613007, India",https://www.google.co.kr/maps/place/MR+Hospital/data=!4m5!3m4!1s0x3baab9c9cc16168d:0x45f4eb36abf42cb2!8m2!3d10.7642731!4d79.128831?authuser=0&hl=en&rclk=1,10.7642731,79.128831,Tamil Nadu
Hospital,Hospital,"X6R6+GPP, TNHB Colony, Velachery, Chennai, Tamil Nadu 600042, India",https://www.google.co.kr/maps/place/Hospital/data=!4m5!3m4!1s0x3a5267ab1a1ba18d:0xcfb8c74c9e78a703!8m2!3d12.9913266!4d80.2118207?authuser=0&hl=en&rclk=1,12.9913266,80.2118207,Tamil Nadu
KRK Hospital,Hospital,"606001, Virudhachalam Street Natraj Nagar, Gandhi Nagar, Ashok Nagar, Tamil Nadu 625016, India",https://www.google.co.kr/maps/place/KRK+Hospital/data=!4m5!3m4!1s0x3bab4a7abe6afa4d:0x7d359b45378837bd!8m2!3d11.5195875!4d79.3251583?authuser=0&hl=en&rclk=1,11.5195875,79.3251583,Tamil Nadu
Sacred Heart Hospital,Hospital,"Kumbakonam - Karaikkal Main Rd, Bharathy Nagar, Kumbakonam, Tamil Nadu 612401, India",https://www.google.co.kr/maps/place/Sacred+Heart+Hospital/data=!4m5!3m4!1s0x3a55329518e97eb1:0xa2eb1143b8079a1b!8m2!3d10.955509!4d79.4049499?authuser=0&hl=en&rclk=1,10.955509,79.4049499,Tamil Nadu
Royal Hospital,Hospital,"1624, S Main St, near Singaram Medicals, Rajakrisnapuram, Thanjavur, Tamil Nadu 613009, India",https://www.google.co.kr/maps/place/Royal+Hospital/data=!4m5!3m4!1s0x3baab89fc3262091:0x5a5b88999ed0cd0f!8m2!3d10.788141!4d79.135058?authuser=0&hl=en&rclk=1,10.788141,79.135058,Tamil Nadu
Government Hospital,Hospital,"SH 79, Namagiripettai, Tamil Nadu 637406, India",https://www.google.co.kr/maps/place/Government+Hospital/data=!4m5!3m4!1s0x3babc03caefb19d3:0x5920fa58d86ed627!8m2!3d11.4570628!4d78.2651916?authuser=0&hl=en&rclk=1,11.4570628,78.2651916,Tamil Nadu
MMRF HOSPITALS,Hospital,"kathankadai Jct Rd, Alagesan Nagar, Vayalur, Tamil Nadu 603305, India",https://www.google.co.kr/maps/place/MMRF+HOSPITALS/data=!4m5!3m4!1s0x3a53a95d7e8650bb:0xf2059c80e57702be!8m2!3d12.464633!4d80.111037?authuser=0&hl=en&rclk=1,12.464633,80.111037,Tamil Nadu
Hospital ( மருத்துவமனை,Hospital,"VWC6+RQ6, Kandai, Tamil Nadu 625706, India",https://www.google.co.kr/maps/place/Hospital+(+%E0%AE%AE%E0%AE%B0%E0%AF%81%E0%AE%A4%E0%AF%8D%E0%AE%A4%E0%AF%81%E0%AE%B5%E0%AE%AE%E0%AE%A9%E0%AF%88/data=!4m5!3m4!1s0x3b0733c5afc0cb9d:0xed04563146785775!8m2!3d9.8720297!4d77.9118922?authuser=0&hl=en&rclk=1,9.8720297,77.9118922,Tamil Nadu
Sri Ramachandra Medical Center,Medical Center,"1, Trunk Rd, Sri Ramachandra Nagar, Porur, Chennai, Tamil Nadu 600116, India",https://www.google.co.kr/maps/place/Sri+Ramachandra+Medical+Center/data=!4m5!3m4!1s0x3a52906c5546475b:0xeddf24a8a1d0e3be!8m2!3d13.0388062!4d80.1434422?authuser=0&hl=en&rclk=1,13.0388062,80.1434422,Tamil Nadu
Hospital,Hospital,"X3FH+P28, Vengamedu, Tamil Nadu 639006, India",https://www.google.co.kr/maps/place/Hospital/data=!4m5!3m4!1s0x3baa2e4d9c729e9f:0xd7d07f5ef61d9dde!8m2!3d10.9743!4d78.0775772?authuser=0&hl=en&rclk=1,10.9743,78.0775772,Tamil Nadu
Cmc Hospital,Hospital,"4, Thiruvalluvar Salai, Raghavendra Nagar, Nesapakkam, Chennai, Tamil Nadu 600083, India",https://www.google.co.kr/maps/place/Cmc+Hospital/data=!4m5!3m4!1s0x3a5266d4947dd407:0x7dee4a8dcf04a!8m2!3d13.0379546!4d80.189227?authuser=0&hl=en&rclk=1,13.0379546,80.189227,Tamil Nadu
Hospital,Hospital,"RWMV+598, Mecheri, Tamil Nadu 636453, India",https://www.google.co.kr/maps/place/Hospital/data=!4m5!3m4!1s0x3bac00165924c829:0xb53d81b7b250ff1a!8m2!3d11.8329198!4d77.9434628?authuser=0&hl=en&rclk=1,11.8329198,77.9434628,Tamil Nadu
JS Hospital,Hospital,"635810, Perambur High Rd, KK Nagar, Chennai, Tamil Nadu, India",https://www.google.co.kr/maps/place/JS+Hospital/data=!4m5!3m4!1s0x3bad74cdc98b3d47:0x40de3b439506d5f8!8m2!3d12.9323552!4d78.7160744?authuser=0&hl=en&rclk=1,12.9323552,78.7160744,Tamil Nadu
"Govt.Primary Health Centre,Tiruporur",Hospital,"OMR, Thiruporur, Tamil Nadu 603110, India","https://www.google.co.kr/maps/place/Govt.Primary+Health+Centre,Tiruporur/data=!4m5!3m4!1s0x3a52514d2670a991:0xdab51d1540e623c!8m2!3d12.7288749!4d80.1883304?authuser=0&hl=en&rclk=1",12.7288749,80.1883304,Tamil Nadu
GH Hospital,Hospital,"8854+CGV, Barur, Tamil Nadu 635201, India",https://www.google.co.kr/maps/place/GH+Hospital/data=!4m5!3m4!1s0x3bac4767969f9a27:0x445f883739ae09c!8m2!3d12.3086006!4d78.3062942?authuser=0&hl=en&rclk=1,12.3086006,78.3062942,Tamil Nadu
Government Hospital,Hospital,"Thondarampattu, Tamil Nadu 614905, India",https://www.google.co.kr/maps/place/Government+Hospital/data=!4m5!3m4!1s0x3baaac4fa8233bc1:0x2e62fc20455227a0!8m2!3d10.5639495!4d79.3212461?authuser=0&hl=en&rclk=1,10.5639495,79.3212461,Tamil Nadu
"GH,Hospital",Hospital,"GJVF+Q88, Adoor Agaram, Tamil Nadu 607302, India","https://www.google.co.kr/maps/place/GH,Hospital/data=!4m5!3m4!1s0x3a54b9565caed615:0x8f40f4f9f5f3ad10!8m2!3d11.5444026!4d79.6233301?authuser=0&hl=en&rclk=1",11.5444026,79.6233301,Tamil Nadu
Annai Theresa Hospital,Hospital,"KK Pudur Rd, Kinar, Tamil Nadu 603303, India",https://www.google.co.kr/maps/place/Annai+Theresa+Hospital/data=!4m5!3m4!1s0x3a5303555a9431fb:0x87188931f94bd15b!8m2!3d12.5241161!4d79.9200382?authuser=0&hl=en&rclk=1,12.5241161,79.9200382,Tamil Nadu
Natural Health Hospital,Hospital,"No.8, Avinashi Rd, Peelamedu, Poongothai Nagar, Civil Aerodrome Post, Coimbatore, Tamil Nadu 641014, India",https://www.google.co.kr/maps/place/Natural+Health+Hospital/data=!4m5!3m4!1s0x3ba857c627cdb2b3:0x759402f32a46817c!8m2!3d11.0391288!4d77.0390014?authuser=0&hl=en&rclk=1,11.0391288,77.0390014,Tamil Nadu
CHITTAR HOSPITAL,Hospital,"F7FM+V65, Kilamalai R.F., Tamil Nadu 629101, India",https://www.google.co.kr/maps/place/CHITTAR+HOSPITAL/data=!4m5!3m4!1s0x3b044df06bad34c1:0x26f2113ef70a226d!8m2!3d8.47464!4d77.2830943?authuser=0&hl=en&rclk=1,8.47464,77.2830943,Tamil Nadu
Saravana Hospitals,General hospital,"X8VG+QXR, BALASAMUTHRAM, Tamil Nadu 621203, India",https://www.google.co.kr/maps/place/Saravana+Hospitals/data=!4m5!3m4!1s0x3baa49a52ca44881:0x764764606d767fe8!8m2!3d10.9944894!4d78.3273828?authuser=0&hl=en&rclk=1,10.9944894,78.3273828,Tamil Nadu
௮ரசு மருத்துவமனை,Hospital,"73FG+4GG, Mookkanur, Tamil Nadu 641653, India",https://www.google.co.kr/maps/place/%E0%AF%AE%E0%AE%B0%E0%AE%9A%E0%AF%81+%E0%AE%AE%E0%AE%B0%E0%AF%81%E0%AE%A4%E0%AF%8D%E0%AE%A4%E0%AF%81%E0%AE%B5%E0%AE%AE%E0%AE%A9%E0%AF%88/data=!4m5!3m4!1s0x3ba8e529aa9433f9:0x6d150ab0435de459!8m2!3d11.2728118!4d77.0763401?authuser=0&hl=en&rclk=1,11.2728118,77.0763401,Tamil Nadu
Hospital Chennai information centre,Hospital,"36/24, Thousand Lights East, Thousand Lights, Chennai, Tamil Nadu 600008, India",https://www.google.co.kr/maps/place/Hospital+Chennai+information+centre/data=!4m5!3m4!1s0x3a5266153adc5673:0xb76f0b0cce38ea7a!8m2!3d13.0608385!4d80.2552738?authuser=0&hl=en&rclk=1,13.0608385,80.2552738,Tamil Nadu
ಅಪೊಲೊ ಆಸ್ಪತ್ರೆ,Hospital,"3753+GQ5, Thousand Lights East, Thousand Lights, Chennai, Tamil Nadu 600006, India",https://www.google.co.kr/maps/place/%E0%B2%85%E0%B2%AA%E0%B3%8A%E0%B2%B2%E0%B3%8A+%E0%B2%86%E0%B2%B8%E0%B3%8D%E0%B2%AA%E0%B2%A4%E0%B3%8D%E0%B2%B0%E0%B3%86/data=!4m5!3m4!1s0x3a5267ba48d3c95f:0x114e0ae6a96568af!8m2!3d13.0587552!4d80.25448?authuser=0&hl=en&rclk=1,13.0587552,80.25448,Tamil Nadu
Kalingarayan Medical Center - Erode,Hospital,"02/2, Erode - Perundurai Rd, Gandhi Nagar, Colony, Erode, Tamil Nadu 638011, India",https://www.google.co.kr/maps/place/Kalingarayan+Medical+Center+-+Erode/data=!4m5!3m4!1s0x3ba96f3c5949bbc3:0x5aa2207609a16aad!8m2!3d11.3381527!4d77.7140189?authuser=0&hl=en&rclk=1,11.3381527,77.7140189,Tamil Nadu
MUSIRI HOSPITAL,Hospital,"WCQ6+JH7, Padiyampakkam, Tamil Nadu 632513, India",https://www.google.co.kr/maps/place/MUSIRI+HOSPITAL/data=!4m5!3m4!1s0x3a52cbe97175433b:0x75e632457e1e9a7f!8m2!3d12.9390483!4d79.411412?authuser=0&hl=en&rclk=1,12.9390483,79.411412,Tamil Nadu
Government Hospital,Hospital,"VX3R+C7V, Senthalai, Tamil Nadu 613101, India",https://www.google.co.kr/maps/place/Government+Hospital/data=!4m5!3m4!1s0x3baaea3ed0000001:0x48e23a77b3edfe58!8m2!3d10.8536085!4d78.9906688?authuser=0&hl=en&rclk=1,10.8536085,78.9906688,Tamil Nadu
"Government Hospital, Gudiyatham",Government hospital,"Government Hospital Rd, Teachers Colony, Pudupet, Ambapuram, Gudiyatham, Tamil Nadu 632602, India","https://www.google.co.kr/maps/place/Government+Hospital,+Gudiyatham/data=!4m5!3m4!1s0x3bad6d306d923f3d:0x57a7cfe7c1426eb7!8m2!3d12.9452679!4d78.8705707?authuser=0&hl=en&rclk=1",12.9452679,78.8705707,Tamil Nadu
Venkittammal hospital,Hospital,"H6PX+692, Udumalaipettai, Tamil Nadu 642126, India",https://www.google.co.kr/maps/place/Venkittammal+hospital/data=!4m5!3m4!1s0x3ba9cd47e98575e1:0x3b4a218d07c96294!8m2!3d10.5855246!4d77.2483981?authuser=0&hl=en&rclk=1,10.5855246,77.2483981,Tamil Nadu
IMMISANTHI HOSPITAL,Hospital,"18, East Coast Rd, Saraswathy Nagar North, Neelankarai, Chennai, Tamil Nadu 600041, India",https://www.google.co.kr/maps/place/IMMISANTHI+HOSPITAL/data=!4m5!3m4!1s0x3a525d2202d2e777:0xeb45bfbea9676a50!8m2!3d12.9507463!4d80.2551276?authuser=0&hl=en&rclk=1,12.9507463,80.2551276,Tamil Nadu
Hospital,Hospital,"NH 44, Chinnalapatti, Tamil Nadu 624301, India",https://www.google.co.kr/maps/place/Hospital/data=!4m5!3m4!1s0x3b075335ee9f9cb1:0x49cc1c43d02ef5f2!8m2!3d10.2784776!4d77.923493?authuser=0&hl=en&rclk=1,10.2784776,77.923493,Tamil Nadu
Hospital my,Hospital,"X7J2+27C, Dr. Vasi Estate, Phase II, Tharamani, Chennai, Tamil Nadu 600096, India",https://www.google.co.kr/maps/place/Hospital+my/data=!4m5!3m4!1s0x3a525d663930dfd7:0x7e53bbd16e42a4a5!8m2!3d12.9800718!4d80.2506352?authuser=0&hl=en&rclk=1,12.9800718,80.2506352,Tamil Nadu
விநாயகா இரத்தபரிசோதனை மையம்,Hospital,"FMGW+RRJ, Jeeva Nagar, Tamil Nadu 638301, India",https://www.google.co.kr/maps/place/%E0%AE%B5%E0%AE%BF%E0%AE%A8%E0%AE%BE%E0%AE%AF%E0%AE%95%E0%AE%BE+%E0%AE%87%E0%AE%B0%E0%AE%A4%E0%AF%8D%E0%AE%A4%E0%AE%AA%E0%AE%B0%E0%AE%BF%E0%AE%9A%E0%AF%8B%E0%AE%A4%E0%AE%A9%E0%AF%88+%E0%AE%AE%E0%AF%88%E0%AE%AF%E0%AE%AE%E0%AF%8D/data=!4m5!3m4!1s0x3ba943b25b6b579d:0x51c552ddc3dfde82!8m2!3d11.4770853!4d77.6970134?authuser=0&hl=en&rclk=1,11.4770853,77.6970134,Tamil Nadu
Govenment Hospital,Government hospital,"C2X7+2VC, Gummanur, Tamil Nadu 636806, India",https://www.google.co.kr/maps/place/Govenment+Hospital/data=!4m5!3m4!1s0x3bac2bfe649ff7b1:0xe9521366589acca9!8m2!3d12.4475533!4d78.0146338?authuser=0&hl=en&rclk=1,12.4475533,78.0146338,Tamil Nadu
Sri Ramachandra Hospital,Hospital,"No 24, South Ave, Vasudeva Nagar, Thiruvanmiyur, Chennai, Tamil Nadu 600041, India",https://www.google.co.kr/maps/place/Sri+Ramachandra+Hospital/data=!4m5!3m4!1s0x3a525d5c36a8714f:0x5626e9fae9780211!8m2!3d12.9837309!4d80.257578?authuser=0&hl=en&rclk=1,12.9837309,80.257578,Tamil Nadu
உளுந்தை மருத்துவமனை,Hospital,"GP6P+MQ9, Tiruvannamalai, Tamil Nadu 604403, India",https://www.google.co.kr/maps/place/%E0%AE%89%E0%AE%B3%E0%AF%81%E0%AE%A8%E0%AF%8D%E0%AE%A4%E0%AF%88+%E0%AE%AE%E0%AE%B0%E0%AF%81%E0%AE%A4%E0%AF%8D%E0%AE%A4%E0%AF%81%E0%AE%B5%E0%AE%AE%E0%AE%A9%E0%AF%88/data=!4m5!3m4!1s0x3a5322012630ea1d:0x57a4e709ceb8685d!8m2!3d12.5116644!4d79.7369711?authuser=0&hl=en&rclk=1,12.5116644,79.7369711,Tamil Nadu
Jolen Hospital,Hospital,"No1 bajanaikoil, Bajanai Koil 2nd St, Sembakkam, Chennai, Tamil Nadu 600073, India",https://www.google.co.kr/maps/place/Jolen+Hospital/data=!4m5!3m4!1s0x3a5267a84ccbd0db:0xb54afe2c3906c052!8m2!3d13.0621591!4d80.2276674?authuser=0&hl=en&rclk=1,13.0621591,80.2276674,Tamil Nadu
Government Hospital,Hospital,"Unnamed Road, Eswarankoilpathu, Tamil Nadu 613104, India",https://www.google.co.kr/maps/place/Government+Hospital/data=!4m5!3m4!1s0x3baaea1af794febf:0x3e6ca08d19fa5948!8m2!3d10.8637429!4d79.0052665?authuser=0&hl=en&rclk=1,10.8637429,79.0052665,Tamil Nadu
goverment Hospitals,Hospital,"3RMW+CX3, 24 - Veerapandi, Tamil Nadu 641108, India",https://www.google.co.kr/maps/place/goverment+Hospitals/data=!4m5!3m4!1s0x3ba8f5f54e13c027:0xf5e252f5196b304b!8m2!3d11.0835113!4d76.8474083?authuser=0&hl=en&rclk=1,11.0835113,76.8474083,Tamil Nadu
Ariyalur Government Hospital,Hospital,"43V9+3V5, Rajajinagar, Ariyalur, Tamil Nadu 621704, India",https://www.google.co.kr/maps/place/Ariyalur+Government+Hospital/data=!4m5!3m4!1s0x3bab2081fdee9273:0x5b686290c44764ec!8m2!3d11.1426345!4d79.0697193?authuser=0&hl=en&rclk=1,11.1426345,79.0697193,Tamil Nadu
Dr. Arockiyam hospital,Hospital,"Bharathi Nagar - Veerappalli Rd, Vettapattu, Tamil Nadu 635651, India",https://www.google.co.kr/maps/place/Dr.+Arockiyam+hospital/data=!4m5!3m4!1s0x3bac53c15044d66f:0x14bdc2842a3b8097!8m2!3d12.5416061!4d78.5279439?authuser=0&hl=en&rclk=1,12.5416061,78.5279439,Tamil Nadu
Women's hospital,Private hospital,"Akbar Salai, Thuvkudimalai, Tamil Nadu 620022, India",https://www.google.co.kr/maps/place/Women's+hospital/data=!4m5!3m4!1s0x3baa8d2e819fcaab:0xf916d038535f5fd3!8m2!3d10.7708403!4d78.8011739?authuser=0&hl=en&rclk=1,10.7708403,78.8011739,Tamil Nadu
மருத்துவமனை,Hospital,"2C6P+6G4, Veppathur, Tamil Nadu 612105, India",https://www.google.co.kr/maps/place/%E0%AE%AE%E0%AE%B0%E0%AF%81%E0%AE%A4%E0%AF%8D%E0%AE%A4%E0%AF%81%E0%AE%B5%E0%AE%AE%E0%AE%A9%E0%AF%88/data=!4m5!3m4!1s0x3a552d2c23e0ceb7:0x8bef8543ed9b6314!8m2!3d11.0105205!4d79.436327?authuser=0&hl=en&rclk=1,11.0105205,79.436327,Tamil Nadu
Hospital,Hospital,"XGVH+FWJ, T.Puthur, Tamil Nadu 621217, India",https://www.google.co.kr/maps/place/Hospital/data=!4m5!3m4!1s0x3baa51037ae8f4cf:0xd1ed941b4c3424db!8m2!3d10.993714!4d78.5297799?authuser=0&hl=en&rclk=1,10.993714,78.5297799,Tamil Nadu
Hospital,Hospital,"Unnamed Road, Kunnam, Tamil Nadu 604304, India",https://www.google.co.kr/maps/place/Hospital/data=!4m5!3m4!1s0x3a53433e1bdc7c8d:0x986bf6818708822!8m2!3d12.084384!4d79.677255?authuser=0&hl=en&rclk=1,12.084384,79.677255,Tamil Nadu
SIMS CLINIC,Medical clinic,"Udhaya Towers, 29/1, G C T, Duraisamy Nagar Main Rd, Namachivaya Nagar, Ganpathy Nagar, Tamil Nadu 625003, India",https://www.google.co.kr/maps/place/SIMS+CLINIC/data=!4m5!3m4!1s0x3a52643438428ecd:0x6c65c09b1f7d371c!8m2!3d13.099629!4d80.227858?authuser=0&hl=en&rclk=1,13.099629,80.227858,Tamil Nadu
Hospital,Government hospital,"7W82+WFR, Kanchipuram, Tamil Nadu 603401, India",https://www.google.co.kr/maps/place/Hospital/data=!4m5!3m4!1s0x3a5312b947924223:0xa6dbe7a41169dd53!8m2!3d12.267359!4d79.901128?authuser=0&hl=en&rclk=1,12.267359,79.901128,Tamil Nadu
"Kmch City Centre, Ram Nagar, Coimbatore Tn.",Hospital,"Avinashi Rd, Peranaidu Layout, Civil airport, Coimbatore, Tamil Nadu 641009, India","https://www.google.co.kr/maps/place/Kmch+City+Centre,+Ram+Nagar,+Coimbatore+Tn./data=!4m5!3m4!1s0x3ba858feff631ed3:0x86080280d463b832!8m2!3d11.0164409!4d76.961194?authuser=0&hl=en&rclk=1",11.0164409,76.961194,Tamil Nadu
Hospital Semmangudi,Hospital,"Okkakudi, Tamil Nadu 613204, India",https://www.google.co.kr/maps/place/Hospital+Semmangudi/data=!4m5!3m4!1s0x3baac5647334f1ed:0x44d6d9b16f5b3e9a!8m2!3d10.9226277!4d79.132603?authuser=0&hl=en&rclk=1,10.9226277,79.132603,Tamil Nadu
Hospital,Hospital,"Arasankalani Cemetery, gangai amman kovil street, Chennai, Tamil Nadu 600119, India",https://www.google.co.kr/maps/place/Hospital/data=!4m5!3m4!1s0x3a525b2d44ed679f:0x84bcbde3bc2d3f68!8m2!3d12.8800757!4d80.1997837?authuser=0&hl=en&rclk=1,12.8800757,80.1997837,Tamil Nadu
RAMKI HOSPITAL,Hospital,"89, 112 A, Idappadi Rd, Perantharkadu, Komarapalayam, Tamil Nadu 638183, India",https://www.google.co.kr/maps/place/RAMKI+HOSPITAL/data=!4m5!3m4!1s0x3ba943fa11949789:0xb4230ab28e5d60b5!8m2!3d11.4484386!4d77.6947358?authuser=0&hl=en&rclk=1,11.4484386,77.6947358,Tamil Nadu
Indus Hospital,Hospital,"80, Kalamkari N St, Valluvar Colony, Cs Nagar, Sivakami Nagar, Tamil Nadu 625014, India",https://www.google.co.kr/maps/place/Indus+Hospital/data=!4m5!3m4!1s0x3b00c51ab5823503:0xf1b5f6b0e8a8e31b!8m2!3d9.955729!4d78.1297799?authuser=0&hl=en&rclk=1,9.955729,78.1297799,Tamil Nadu
ஶ்ரீபுரந்தான் கால்நடை மருத்துவமனை,Hospital,"28X8+22P, Sripuranthan North, Tamil Nadu 621701, India",https://www.google.co.kr/maps/place/%E0%AE%B6%E0%AF%8D%E0%AE%B0%E0%AF%80%E0%AE%AA%E0%AF%81%E0%AE%B0%E0%AE%A8%E0%AF%8D%E0%AE%A4%E0%AE%BE%E0%AE%A9%E0%AF%8D+%E0%AE%95%E0%AE%BE%E0%AE%B2%E0%AF%8D%E0%AE%A8%E0%AE%9F%E0%AF%88+%E0%AE%AE%E0%AE%B0%E0%AF%81%E0%AE%A4%E0%AF%8D%E0%AE%A4%E0%AF%81%E0%AE%B5%E0%AE%AE%E0%AE%A9%E0%AF%88/data=!4m5!3m4!1s0x3baad315ef633335:0x4e84bed8871e0c3c!8m2!3d11.0475836!4d79.3150717?authuser=0&hl=en&rclk=1,11.0475836,79.3150717,Tamil Nadu
Chengalpattu Government Hospital,Hospital,"SH58, Anna Nagar, Chengalpattu, Tamil Nadu 603001, India",https://www.google.co.kr/maps/place/Chengalpattu+Government+Hospital/data=!4m5!3m4!1s0x3a52fc41d2132b3f:0x3044fbb60ed0bdff!8m2!3d12.6839954!4d79.9833484?authuser=0&hl=en&rclk=1,12.6839954,79.9833484,Tamil Nadu
IMMIMYSAAN HOSPITAL,Hospital,"New No.19, Old No.10, Thayar Sahib Street,, Mount Rd, Chennai, Tamil Nadu 600002, India",https://www.google.co.kr/maps/place/IMMIMYSAAN+HOSPITAL/data=!4m5!3m4!1s0x3a52661a19bff01d:0x197a6b606bd696db!8m2!3d13.0655278!4d80.2667198?authuser=0&hl=en&rclk=1,13.0655278,80.2667198,Tamil Nadu
டானியல் மருத்துவமனை,Hospital,"Orumavilai Rd, Tamil Nadu 629804, India",https://www.google.co.kr/maps/place/%E0%AE%9F%E0%AE%BE%E0%AE%A9%E0%AE%BF%E0%AE%AF%E0%AE%B2%E0%AF%8D+%E0%AE%AE%E0%AE%B0%E0%AF%81%E0%AE%A4%E0%AF%8D%E0%AE%A4%E0%AF%81%E0%AE%B5%E0%AE%AE%E0%AE%A9%E0%AF%88/data=!4m5!3m4!1s0x3b04ffe7aba2dfed:0xda39bb4fe347f6d8!8m2!3d8.2165317!4d77.2766932?authuser=0&hl=en&rclk=1,8.2165317,77.2766932,Tamil Nadu
தமிழ் நாடு அரசு மருத்துவமனை,Hospital,"VVM9+C4X, Thummakundu, Tamil Nadu 625529, India",https://www.google.co.kr/maps/place/%E0%AE%A4%E0%AE%AE%E0%AE%BF%E0%AE%B4%E0%AF%8D+%E0%AE%A8%E0%AE%BE%E0%AE%9F%E0%AF%81+%E0%AE%85%E0%AE%B0%E0%AE%9A%E0%AF%81+%E0%AE%AE%E0%AE%B0%E0%AF%81%E0%AE%A4%E0%AF%8D%E0%AE%A4%E0%AF%81%E0%AE%B5%E0%AE%AE%E0%AE%A9%E0%AF%88/data=!4m5!3m4!1s0x3b0733370bb1309b:0x8de9d04f3df8db3c!8m2!3d9.8836079!4d77.8678741?authuser=0&hl=en&rclk=1,9.8836079,77.8678741,Tamil Nadu
Avanipoor Hospitale,Hospital,"7RF8+P7M, Villupuram, Tamil Nadu 604101, India",https://www.google.co.kr/maps/place/Avanipoor+Hospitale/data=!4m5!3m4!1s0x3a5315ffb431b487:0x88d564c3f7995ff9!8m2!3d12.2743314!4d79.8156584?authuser=0&hl=en&rclk=1,12.2743314,79.8156584,Tamil Nadu
தமிழ் நாடு பல்நோக்கு உயர் சிறப்பு மருத்துவமனை,Hospital,"Omandurar Government Estate, Anna Salai, opposite to The Hindu Office, Chennai, Tamil Nadu 600002, India",https://www.google.co.kr/maps/place/%E0%AE%A4%E0%AE%AE%E0%AE%BF%E0%AE%B4%E0%AF%8D+%E0%AE%A8%E0%AE%BE%E0%AE%9F%E0%AF%81+%E0%AE%AA%E0%AE%B2%E0%AF%8D%E0%AE%A8%E0%AF%8B%E0%AE%95%E0%AF%8D%E0%AE%95%E0%AF%81+%E0%AE%89%E0%AE%AF%E0%AE%B0%E0%AF%8D+%E0%AE%9A%E0%AE%BF%E0%AE%B1%E0%AE%AA%E0%AF%8D%E0%AE%AA%E0%AF%81+%E0%AE%AE%E0%AE%B0%E0%AF%81%E0%AE%A4%E0%AF%8D%E0%AE%A4%E0%AF%81%E0%AE%B5%E0%AE%AE%E0%AE%A9%E0%AF%88/data=!4m5!3m4!1s0x3a52672553fd6311:0x7223da732fadc3e9!8m2!3d13.0701638!4d80.2745838?authuser=0&hl=en&rclk=1,13.0701638,80.2745838,Tamil Nadu
Government Hospital,Hospital,"J28R+X8P, Pudunagar, Tamil Nadu 613301, India",https://www.google.co.kr/maps/place/Government+Hospital/data=!4m5!3m4!1s0x3baabd4818ea16d9:0x34656c9ba5bd2077!8m2!3d10.617471!4d79.0408314?authuser=0&hl=en&rclk=1,10.617471,79.0408314,Tamil Nadu
நைஸ்ரின் சப்ரின் மருத்துவமனை,Hospital,"89RM+8GM, Adiramapattinam, Tamil Nadu 614701, India",https://www.google.co.kr/maps/place/%E0%AE%A8%E0%AF%88%E0%AE%B8%E0%AF%8D%E0%AE%B0%E0%AE%BF%E0%AE%A9%E0%AF%8D+%E0%AE%9A%E0%AE%AA%E0%AF%8D%E0%AE%B0%E0%AE%BF%E0%AE%A9%E0%AF%8D+%E0%AE%AE%E0%AE%B0%E0%AF%81%E0%AE%A4%E0%AF%8D%E0%AE%A4%E0%AF%81%E0%AE%B5%E0%AE%AE%E0%AE%A9%E0%AF%88/data=!4m5!3m4!1s0x3afffdbfdc482a09:0x82ddce2e691943f9!8m2!3d10.3408457!4d79.3837842?authuser=0&hl=en&rclk=1,10.3408457,79.3837842,Tamil Nadu
ARS Hospital,Orthopedic clinic,"6/53 , 6th Street,, Thennapalayam Extension, Palladam Road, Tiruppur, Tamil Nadu 641604, India",https://www.google.co.kr/maps/place/ARS+Hospital/data=!4m5!3m4!1s0x3ba90791b0c2c62f:0xf7f55a1c11fffcb2!8m2!3d11.0881278!4d77.3470377?authuser=0&hl=en&rclk=1,11.0881278,77.3470377,Tamil Nadu
Government Hospital,Hospital,"Kattuputhur, Tamil Nadu 621207, India",https://www.google.co.kr/maps/place/Government+Hospital/data=!4m5!3m4!1s0x3baa36c66fe15bcd:0xc8dbaddd1a598c3!8m2!3d10.994017!4d78.215436?authuser=0&hl=en&rclk=1,10.994017,78.215436,Tamil Nadu
Poornima Hospital,Hospital,"Thuraiyur Road, Erumapatti, Tamil Nadu 637013, India",https://www.google.co.kr/maps/place/Poornima+Hospital/data=!4m5!3m4!1s0x3babca836791a503:0xb0562df9b38e669b!8m2!3d11.1477121!4d78.2882842?authuser=0&hl=en&rclk=1,11.1477121,78.2882842,Tamil Nadu
Hospital,Hospital,"RVQP+RXR, Koviladi, Tamil Nadu 613105, India",https://www.google.co.kr/maps/place/Hospital/data=!4m5!3m4!1s0x3baaec4c696dfa1d:0x4846c5625616ac0b!8m2!3d10.8396219!4d78.887377?authuser=0&hl=en&rclk=1,10.8396219,78.887377,Tamil Nadu
Rajathiran Hospital,Hospital,"RM8J+588, Nanjankulam, Tamil Nadu 627357, India",https://www.google.co.kr/maps/place/Rajathiran+Hospital/data=!4m5!3m4!1s0x3b041b073b8feb1f:0x1c5ef50b091c41b!8m2!3d8.8154111!4d77.6808128?authuser=0&hl=en&rclk=1,8.8154111,77.6808128,Tamil Nadu
Limarahospital,Hospital,"62G6+67J, Coimbatore, Tamil Nadu 641107, India",https://www.google.co.kr/maps/place/Limarahospital/data=!4m5!3m4!1s0x3ba8fb844710efc3:0x5899df113abb61a3!8m2!3d11.2255977!4d77.0106458?authuser=0&hl=en&rclk=1,11.2255977,77.0106458,Tamil Nadu
Dr.Ananth Hospital🏥,Hospital,"CCP6+J9X, Kavanur, Tamil Nadu 606103, India",https://www.google.co.kr/maps/place/Dr.Ananth+Hospital%F0%9F%8F%A5/data=!4m5!3m4!1s0x3a54cb07288e0da9:0x9192a8c4e4e7cdea!8m2!3d11.4366075!4d79.4109697?authuser=0&hl=en&rclk=1,11.4366075,79.4109697,Tamil Nadu
Government General Hospital,Hospital,"Trichy - Melur- Tuticorin, Nagamangalam, Tamil Nadu 620012, India",https://www.google.co.kr/maps/place/Government+General+Hospital/data=!4m5!3m4!1s0x3baa61999132d12b:0xada713bad13b3d07!8m2!3d10.6990413!4d78.6210105?authuser=0&hl=en&rclk=1,10.6990413,78.6210105,Tamil Nadu
Inthu hospital,Hospital,"40, Selavoyal, 20, kamarajar Salai, Gandhi Nagar, Kodungaiyur, Chennai, Tamil Nadu 600118, India",https://www.google.co.kr/maps/place/Inthu+hospital/data=!4m5!3m4!1s0x3a52650fd53a6909:0x2990dd2d6951b35d!8m2!3d13.13824!4d80.246009?authuser=0&hl=en&rclk=1,13.13824,80.246009,Tamil Nadu
Franclare Health Center Hospital,Hospital,"GVXR+5XR, Kanchipuram, Tamil Nadu 603303, India",https://www.google.co.kr/maps/place/Franclare+Health+Center+Hospital/data=!4m5!3m4!1s0x3a531dd062fa4acf:0xdd10c8fe3b27edc3!8m2!3d12.5479881!4d79.8923843?authuser=0&hl=en&rclk=1,12.5479881,79.8923843,Tamil Nadu
Hospital,Hospital,"XR27+FM6, Tiruchirappalli, Tamil Nadu 621712, India",https://www.google.co.kr/maps/place/Hospital/data=!4m5!3m4!1s0x3baaf074e964245b:0x5ec900c85c4c8b22!8m2!3d10.9511711!4d78.8141514?authuser=0&hl=en&rclk=1,10.9511711,78.8141514,Tamil Nadu
St Mary's Hospital,Hospital,"HVVQ+2MJ, Jamunamarathur, Tamil Nadu 635703, India",https://www.google.co.kr/maps/place/St+Mary's+Hospital/data=!4m5!3m4!1s0x3bad1d9ed358b383:0x83195c7dd9cf8430!8m2!3d12.5925807!4d78.889149?authuser=0&hl=en&rclk=1,12.5925807,78.889149,Tamil Nadu
Ramachandra Clinic,Hospital,"37, Karuneegar St, Paramesh Nagar, Adambakkam, Chennai, Tamil Nadu 600088, India",https://www.google.co.kr/maps/place/Ramachandra+Clinic/data=!4m5!3m4!1s0x3a5267585a118aaf:0xa26e59c1b10851a1!8m2!3d12.9904805!4d80.2010776?authuser=0&hl=en&rclk=1,12.9904805,80.2010776,Tamil Nadu
N.M Hospital,Hospital,"Appakoodal Rd, Vembathi, Tamil Nadu 638502, India",https://www.google.co.kr/maps/place/N.M+Hospital/data=!4m5!3m4!1s0x3ba9411a8841c389:0x384866c78c05408b!8m2!3d11.5219574!4d77.580766?authuser=0&hl=en&rclk=1,11.5219574,77.580766,Tamil Nadu
Ranjitham Hospital,Hospital,"2X97+559, Sholavandan, Tamil Nadu 625214, India",https://www.google.co.kr/maps/place/Ranjitham+Hospital/data=!4m5!3m4!1s0x3b00cbf83d3dddc9:0xf644d3cc2850c4b3!8m2!3d10.0179009!4d77.9629943?authuser=0&hl=en&rclk=1,10.0179009,77.9629943,Tamil Nadu
Women's speciality Centre,Hospital,"18/19, Chari St, Parthasarathi Puram, T. Nagar, Chennai, Tamil Nadu 600017, India",https://www.google.co.kr/maps/place/Women's+speciality+Centre/data=!4m5!3m4!1s0x3a52675ef47b9b01:0xe00614330b2c55b2!8m2!3d13.0487859!4d80.2309968?authuser=0&hl=en&rclk=1,13.0487859,80.2309968,Tamil Nadu
St.Helen Hospital,Hospital,"Unnamed Road, Enayam, Tamil Nadu 629193, India",https://www.google.co.kr/maps/place/St.Helen+Hospital/data=!4m5!3m4!1s0x3b0501434b6403a3:0xb1bd9dcd5d4419e6!8m2!3d8.2172715!4d77.188513?authuser=0&hl=en&rclk=1,8.2172715,77.188513,Tamil Nadu
hospital G.H,Government hospital,"5QMG+HJG, Pattiveeranpatti, Tamil Nadu 624211, India",https://www.google.co.kr/maps/place/hospital+G.H/data=!4m5!3m4!1s0x3b074f552ce8fbdb:0xa33bd22bf2ede561!8m2!3d10.183939!4d77.7765881?authuser=0&hl=en&rclk=1,10.183939,77.7765881,Tamil Nadu
Govet. Hospital Sripuranthan,Hospital,"28V5+CF5, Sripuranthan North, Tamil Nadu 621701, India",https://www.google.co.kr/maps/place/Govet.+Hospital+Sripuranthan/data=!4m5!3m4!1s0x3baad337839d8d9b:0x800827dc3f5e2cdb!8m2!3d11.0435117!4d79.3087209?authuser=0&hl=en&rclk=1,11.0435117,79.3087209,Tamil Nadu
"Mcv Memorial Ent Trust Hospital,Coimbatore Tn.",Hospital,"2X3H+FC8, Race Course, Coimbatore, Tamil Nadu 642001, India","https://www.google.co.kr/maps/place/Mcv+Memorial+Ent+Trust+Hospital,Coimbatore+Tn./data=!4m5!3m4!1s0x3ba859b07e71a997:0x685adfb02b335986!8m2!3d11.0036589!4d76.9785855?authuser=0&hl=en&rclk=1",11.0036589,76.9785855,Tamil Nadu
Vitneary Hospital,Hospital,"FRHP+W28, varuthampatti, Sankari West, Tamil Nadu 637303, India",https://www.google.co.kr/maps/place/Vitneary+Hospital/data=!4m5!3m4!1s0x3ba95dcabfc22b71:0x74a5c1c9260a123e!8m2!3d11.4797933!4d77.8350709?authuser=0&hl=en&rclk=1,11.4797933,77.8350709,Tamil Nadu
Government Hospital Valparai,Hospital,"8XH5+X4G, Valparai, Tamil Nadu 642127, India",https://www.google.co.kr/maps/place/Government+Hospital+Valparai/data=!4m5!3m4!1s0x3b0789c9fcd24ff7:0xee0c0f0f50f2a96d!8m2!3d10.329942!4d76.9578391?authuser=0&hl=en&rclk=1,10.329942,76.9578391,Tamil Nadu
GOVERNMENT HOSPITAL,Hospital,"T.Pettai Rd, Mettupalayam, Tamil Nadu 621211, India",https://www.google.co.kr/maps/place/GOVERNMENT+HOSPITAL/data=!4m5!3m4!1s0x3baa4f38dc6b7d91:0xbbb1f6f59999c1dd!8m2!3d10.956192!4d78.4410683?authuser=0&hl=en&rclk=1,10.956192,78.4410683,Tamil Nadu
Gem Hospital - Chennai,Gastroenterologist,"MDR452, Gandhi Nagar, Thiruvengadam Nagar, Perungudi, Chennai, Tamil Nadu 600096, India",https://www.google.co.kr/maps/place/Gem+Hospital+-+Chennai/data=!4m5!3m4!1s0x3a525d64076d6d13:0xe57998725f6c2b55!8m2!3d12.9692077!4d80.2457528?authuser=0&hl=en&rclk=1,12.9692077,80.2457528,Tamil Nadu
G H Hospital,Hospital,"Edaiyur, Tamil Nadu 605766, India",https://www.google.co.kr/maps/place/G+H+Hospital/data=!4m5!3m4!1s0x3baca3077f287635:0xe4a350555b85df!8m2!3d11.9543994!4d79.0997857?authuser=0&hl=en&rclk=1,11.9543994,79.0997857,Tamil Nadu
Hindu mission hospital,Hospital,"8th Cross St, Iyyappa Nagar, Hindu Colony, Nanganallur, Chennai, Tamil Nadu 600061, India",https://www.google.co.kr/maps/place/Hindu+mission+hospital/data=!4m5!3m4!1s0x3a525f90e27f35ab:0x42725dc27d02d930!8m2!3d12.9787362!4d80.1847142?authuser=0&hl=en&rclk=1,12.9787362,80.1847142,Tamil Nadu
"Vinayaga Mission Kirubananda Med Colg Hp,Salem Tn.",Hospital,"H3M6+QW2, Chinnasiragapadi, Tamil Nadu 636308, India","https://www.google.co.kr/maps/place/Vinayaga+Mission+Kirubananda+Med+Colg+Hp,Salem+Tn./data=!4m5!3m4!1s0x3babe451380aa0b1:0x7eabb87c01734ed4!8m2!3d11.5843805!4d78.0622677?authuser=0&hl=en&rclk=1",11.5843805,78.0622677,Tamil Nadu
Subi Clinic,Hospital,"5GQ4+F5V, Eragudi, Tamil Nadu 621001, India",https://www.google.co.kr/maps/place/Subi+Clinic/data=!4m5!3m4!1s0x3babad8fd2370a49:0xf8e5b8cd8f151fea!8m2!3d11.1887365!4d78.5054201?authuser=0&hl=en&rclk=1,11.1887365,78.5054201,Tamil Nadu
Sub Health Centre,Government hospital,"HHX7+V95, Pulavankudieruppu, Tamil Nadu 627414, India",https://www.google.co.kr/maps/place/Sub+Health+Centre/data=!4m5!3m4!1s0x3b046a82caf29531:0x44abae420c3893e9!8m2!3d8.5996318!4d77.5634705?authuser=0&hl=en&rclk=1,8.5996318,77.5634705,Tamil Nadu
JMC HOSPITAL,Hospital,"NO 2 NORTH ECR ELLAIYAMMAN KOIL NEAR CHECK POST OPPOSITE MUDALIYARKUPPAM CHEYYUR TALUK, Tamil Nadu 603302, India",https://www.google.co.kr/maps/place/JMC+HOSPITAL/data=!4m5!3m4!1s0x3a5559f18946ed81:0x630aabcd3cb2d90e!8m2!3d10.4712253!4d79.5753134?authuser=0&hl=en&rclk=1,10.4712253,79.5753134,Tamil Nadu
NR Hospital,Hospital,"Market Rd, near old Post Office, Thuraiyur, Tamil Nadu 621010, India",https://www.google.co.kr/maps/place/NR+Hospital/data=!4m5!3m4!1s0x3babab16934cf169:0x4d13a274cccfc630!8m2!3d11.1508506!4d78.5958816?authuser=0&hl=en&rclk=1,11.1508506,78.5958816,Tamil Nadu
Vednery hospital,Hospital,"R26W+W5V, Kallaperambur, Tamil Nadu 613601, India",https://www.google.co.kr/maps/place/Vednery+hospital/data=!4m5!3m4!1s0x3baac14b892597b7:0x7566acb2fb8902ef!8m2!3d10.8123713!4d79.0454249?authuser=0&hl=en&rclk=1,10.8123713,79.0454249,Tamil Nadu
ஆரம்ப சுகாதார நிலையம் (Hospital),Hospital,"4FCR+57F, Kattur, Tamil Nadu 612502, India",https://www.google.co.kr/maps/place/%E0%AE%86%E0%AE%B0%E0%AE%AE%E0%AF%8D%E0%AE%AA+%E0%AE%9A%E0%AF%81%E0%AE%95%E0%AE%BE%E0%AE%A4%E0%AE%BE%E0%AE%B0+%E0%AE%A8%E0%AE%BF%E0%AE%B2%E0%AF%88%E0%AE%AF%E0%AE%AE%E0%AF%8D+(Hospital)/data=!4m5!3m4!1s0x3a5529816c085d9f:0x99861770a456102d!8m2!3d11.1204287!4d79.4906608?authuser=0&hl=en&rclk=1,11.1204287,79.4906608,Tamil Nadu
Mcv Ent Trust Hospital,Hospital,"115, Palaghat Rd, Bodipalayam village, Tamil Nadu 642005, India",https://www.google.co.kr/maps/place/Mcv+Ent+Trust+Hospital/data=!4m5!3m4!1s0x3ba8384f26c9d3d9:0xd4ba6be999b46577!8m2!3d10.6694271!4d76.9805372?authuser=0&hl=en&rclk=1,10.6694271,76.9805372,Tamil Nadu
Hospital/Vhn,Hospital,"CX3J+8XX, Periyavenmani, Venmari, Tamil Nadu 603313, India",https://www.google.co.kr/maps/place/Hospital%2FVhn/data=!4m5!3m4!1s0x3a530f17175c4445:0x18442a47b7fb3d69!8m2!3d12.4033585!4d79.9824893?authuser=0&hl=en&rclk=1,12.4033585,79.9824893,Tamil Nadu
GEM Hospital Erode,Gastroenterologist,"5, Street, Muthu Karuppan St, Gandhi Nagar, Erode, Tamil Nadu 638009, India",https://www.google.co.kr/maps/place/GEM+Hospital+Erode/data=!4m5!3m4!1s0x3ba96f276fffffff:0x48d37d9008ce4549!8m2!3d11.3380804!4d77.7155545?authuser=0&hl=en&rclk=1,11.3380804,77.7155545,Tamil Nadu
VETNARY HOSPITAL,Hospital,"86WW+68C, Ottankadu, Tamil Nadu 614803, India",https://www.google.co.kr/maps/place/VETNARY+HOSPITAL/data=!4m5!3m4!1s0x3b00042b2f4f4887:0x6b69f5ed8ad05da6!8m2!3d10.3455554!4d79.2457563?authuser=0&hl=en&rclk=1,10.3455554,79.2457563,Tamil Nadu
Noble hospital,Hospital,"Noble hospital, Rajamanickam Nagar, Keelkattalai, Chennai, Tamil Nadu 600117, India",https://www.google.co.kr/maps/place/Noble+hospital/data=!4m5!3m4!1s0x3a525fa854ca21ef:0xe3990be612898ee1!8m2!3d12.9575322!4d80.1835111?authuser=0&hl=en&rclk=1,12.9575322,80.1835111,Tamil Nadu
SRM,Medical Center,"NH 45, Mannachanallur, Taluk, Irungalur, Tamil Nadu 621105, India",https://www.google.co.kr/maps/place/SRM/data=!4m5!3m4!1s0x3baafbe571b9c351:0xb645638fd77dfb72!8m2!3d10.9545257!4d78.7553178?authuser=0&hl=en&rclk=1,10.9545257,78.7553178,Tamil Nadu
General Hospital,Hospital,"PC88+964, Sendanadu, Tamil Nadu 607204, India",https://www.google.co.kr/maps/place/General+Hospital/data=!4m5!3m4!1s0x3a54ad0d389ab0c3:0xb8ca1f05d798d219!8m2!3d11.7158797!4d79.4155687?authuser=0&hl=en&rclk=1,11.7158797,79.4155687,Tamil Nadu
Veterinary Hospital,Hospital,"Paiyur, Tamil Nadu 605302, India",https://www.google.co.kr/maps/place/Veterinary+Hospital/data=!4m5!3m4!1s0x3bacaba34bfde14f:0x97f6aef02a04cb54!8m2!3d11.9282036!4d79.3572974?authuser=0&hl=en&rclk=1,11.9282036,79.3572974,Tamil Nadu
"MEU, Academic Block, VMKVMCH-SALEM",Hospital,"Chinnasiragapadi, Tamil Nadu 636308, India","https://www.google.co.kr/maps/place/MEU,+Academic+Block,+VMKVMCH-SALEM/data=!4m5!3m4!1s0x3babe5ae27f89579:0x96e6f74bcb309e79!8m2!3d11.5824422!4d78.061667?authuser=0&hl=en&rclk=1",11.5824422,78.061667,Tamil Nadu
சின்னக்காவூர் Hospital,Hospital,"QRMC+678, Salem, Tamil Nadu 636406, India",https://www.google.co.kr/maps/place/%E0%AE%9A%E0%AE%BF%E0%AE%A9%E0%AF%8D%E0%AE%A9%E0%AE%95%E0%AF%8D%E0%AE%95%E0%AE%BE%E0%AE%B5%E0%AF%82%E0%AE%B0%E0%AF%8D+Hospital/data=!4m5!3m4!1s0x3ba9534efd6b584f:0xb819737b70cc9f5c!8m2!3d11.7830351!4d77.8206902?authuser=0&hl=en&rclk=1,11.7830351,77.8206902,Tamil Nadu
V N Clinic,Hospital,"6, Yagapuram, Pudukkottai, SH-71, Manapparai Pudhukottai Road, Pudukkottai, Pudukkottai, 622102, India",https://www.google.co.kr/maps/place/V+N+Clinic/data=!4m5!3m4!1s0x3baa7dda66877c13:0x9e37a72f7c84d2f2!8m2!3d10.511889!4d78.623946?authuser=0&hl=en&rclk=1,10.511889,78.623946,Tamil Nadu
VVV HOSPITAL,Hospital,"Near Three 636809, Dharmapuri - Hogenakkal Rd, Papparapatti, Tamil Nadu, India",https://www.google.co.kr/maps/place/VVV+HOSPITAL/data=!4m5!3m4!1s0x3bac225add0afb01:0x242a55e3e38561e6!8m2!3d12.207355!4d78.055623?authuser=0&hl=en&rclk=1,12.207355,78.055623,Tamil Nadu
SKS HOME,Doctor,"VRJC+MQC, Shanthi Nagar, Lalgudi, Tamil Nadu 621601, India",https://www.google.co.kr/maps/place/SKS+HOME/data=!4m5!3m4!1s0x3baaf1eea2e0015d:0x20140f6495b658c!8m2!3d10.8816856!4d78.8218942?authuser=0&hl=en&rclk=1,10.8816856,78.8218942,Tamil Nadu
சென்னை,Hospital,"Unnamed Road, Chinnakolapadi, Tamil Nadu 606704, India",https://www.google.co.kr/maps/place/%E0%AE%9A%E0%AF%86%E0%AE%A9%E0%AF%8D%E0%AE%A9%E0%AF%88/data=!4m5!3m4!1s0x3baceb658fc1eb11:0xdceafe6b081d2031!8m2!3d12.2595142!4d78.9804242?authuser=0&hl=en&rclk=1,12.2595142,78.9804242,Tamil Nadu
அரசு மருத்துவமனை,Government hospital,"கிழக்கு சத்திர தெரு, Sentharapatti, Tamil Nadu 636110, India",https://www.google.co.kr/maps/place/%E0%AE%85%E0%AE%B0%E0%AE%9A%E0%AF%81+%E0%AE%AE%E0%AE%B0%E0%AF%81%E0%AE%A4%E0%AF%8D%E0%AE%A4%E0%AF%81%E0%AE%B5%E0%AE%AE%E0%AE%A9%E0%AF%88/data=!4m5!3m4!1s0x3baba328010f24c7:0xd88806fa923d7b84!8m2!3d11.4384765!4d78.52207?authuser=0&hl=en&rclk=1,11.4384765,78.52207,Tamil Nadu
அரசு மருத்துவ மனை,Hospital,"434P+HM4, அயில்ரெட்டிபாளையம், Tamil Nadu 606811, India",https://www.google.co.kr/maps/place/%E0%AE%85%E0%AE%B0%E0%AE%9A%E0%AF%81+%E0%AE%AE%E0%AE%B0%E0%AF%81%E0%AE%A4%E0%AF%8D%E0%AE%A4%E0%AF%81%E0%AE%B5+%E0%AE%AE%E0%AE%A9%E0%AF%88/data=!4m5!3m4!1s0x3bacbc401b7aff1b:0x649def1a4de3ee8d!8m2!3d12.1063962!4d79.0867135?authuser=0&hl=en&rclk=1,12.1063962,79.0867135,Tamil Nadu
Veterinary Hospital,Hospital,"JWG5+4JJ, புதுக்குடி, Tamil Nadu 628621, India",https://www.google.co.kr/maps/place/Veterinary+Hospital/data=!4m5!3m4!1s0x3b0475d7ae3d3c2b:0x3d02c70402026551!8m2!3d8.6253295!4d77.9090135?authuser=0&hl=en&rclk=1,8.6253295,77.9090135,Tamil Nadu
Medical,Medical Center,"Pavadi St, Pillanallur, Tamil Nadu 637403, India",https://www.google.co.kr/maps/place/Medical/data=!4m5!3m4!1s0x3babc36ecaa6cf5f:0x8d944d42a157ceb7!8m2!3d11.428525!4d78.1347499?authuser=0&hl=en&rclk=1,11.428525,78.1347499,Tamil Nadu
Medical,Medical Center,"6/775, Paramathi Rd, C E B Colony, BodhuPatty, Periyapatti, Tamil Nadu 637001, India",https://www.google.co.kr/maps/place/Medical/data=!4m5!3m4!1s0x3babcef5879f4007:0x8705fe8417d4742!8m2!3d11.2223208!4d78.1565279?authuser=0&hl=en&rclk=1,11.2223208,78.1565279,Tamil Nadu
New Medical,Medical Center,"Bazar St, Thirupparaithurai, Tamil Nadu 639115, India",https://www.google.co.kr/maps/place/New+Medical/data=!4m5!3m4!1s0x3baa5bdf36750ab1:0x19720d880409ce5e!8m2!3d10.8840902!4d78.5645902?authuser=0&hl=en&rclk=1,10.8840902,78.5645902,Tamil Nadu
Trichy Fetal Medicine Centre & Fertility Centre,Fertility clinic,"MRC Complex, D17, 7th Cross Rd E, Thillai Nagar, Tiruchirappalli, Tamil Nadu 620018, India",https://www.google.co.kr/maps/place/Trichy+Fetal+Medicine+Centre+%26+Fertility+Centre/data=!4m5!3m4!1s0x3baaf5a400e45131:0x543a313745a413a7!8m2!3d10.82254!4d78.6853481?authuser=0&hl=en&rclk=1,10.82254,78.6853481,Tamil Nadu
Chest Clinic,Pulmonologist,"Srinivasan Complex, 145/74-C, Salai Rd, Annamalai Nagar, Tiruchirappalli, Tamil Nadu 620018, India",https://www.google.co.kr/maps/place/Chest+Clinic/data=!4m5!3m4!1s0x3baaf5a357e5438d:0x8ac1a8ce17165ef9!8m2!3d10.8272929!4d78.685199?authuser=0&hl=en&rclk=1,10.8272929,78.685199,Tamil Nadu
