Company_Name,Category,Address,Url,Latitude,Longitude,Territory
Delek Hospital,General hospital,"Gangchen Kyishong, Dharamshala, Himachal Pradesh 176215, India",https://www.google.co.kr/maps/place/Delek+Hospital/data=!4m5!3m4!1s0x391b51257f29833b:0x6ad98887d2cb3c67!8m2!3d32.2255812!4d76.3226598?authuser=0&hl=en&rclk=1,32.2255812,76.3226598,Himachal Pradesh
"Fortis Hospital, Kangra",General hospital,"Palampur - Dharamshala Road Adarsh nagar, Himachal Pradesh 176001, India","https://www.google.co.kr/maps/place/Fortis+Hospital,+Kangra/data=!4m5!3m4!1s0x391b4f8fedd5fae9:0xd3bd0e4f61d69294!8m2!3d32.1160198!4d76.282065?authuser=0&hl=en&rclk=1",32.1160198,76.282065,Himachal Pradesh
Zonal Hospital Dharamsala,Government hospital,"Dharamsala Rd, Chilgari, Dharamshala, Himachal Pradesh 176215, India",https://www.google.co.kr/maps/place/Zonal+Hospital+Dharamsala/data=!4m5!3m4!1s0x391b511e3f7e7011:0xf3e1635ecb118dfa!8m2!3d32.2131639!4d76.3193888?authuser=0&hl=en&rclk=1,32.2131639,76.3193888,Himachal Pradesh
Kullu Valley Hospital,General hospital,"Bhuntar - Ramshila Rd, Shastri Nagar, Kullu, Himachal Pradesh 175101, India",https://www.google.co.kr/maps/place/Kullu+Valley+Hospital/data=!4m5!3m4!1s0x3904f6c9c04ec941:0x74174721a0635706!8m2!3d31.9442852!4d77.1094751?authuser=0&hl=en&rclk=1,31.9442852,77.1094751,Himachal Pradesh
Tenzin Hospital,Hospital,"NH-22, Bypass Rd Panthaghati, Kasumpti, Shimla, Himachal Pradesh 171009, India",https://www.google.co.kr/maps/place/Tenzin+Hospital/data=!4m5!3m4!1s0x39057f4d97b6ee47:0x40b62f32d296c1db!8m2!3d31.0728844!4d77.1816294?authuser=0&hl=en&rclk=1,31.0728844,77.1816294,Himachal Pradesh
"Government Regional Hospital, Solan",Government hospital,"Rajgarh Rd, Kotla Nala, Solan, Himachal Pradesh 173212, India","https://www.google.co.kr/maps/place/Government+Regional+Hospital,+Solan/data=!4m5!3m4!1s0x390f86b5ff6ccaa1:0x378a48552a512934!8m2!3d30.9073856!4d77.1068325?authuser=0&hl=en&rclk=1",30.9073856,77.1068325,Himachal Pradesh
Sai Hospital & IVF Centre,Hospital,"Shimla Dharamshala Road, Dugha, Hamirpur, Himachal Pradesh 177001, India",https://www.google.co.kr/maps/place/Sai+Hospital+%26+IVF+Centre/data=!4m5!3m4!1s0x3904d5c53fa0f2df:0x3f97bd806c66a52!8m2!3d31.6708183!4d76.5360839?authuser=0&hl=en&rclk=1,31.6708183,76.5360839,Himachal Pradesh
Surya Hospital - Gynaecologist / Orthopedic Surgeon | Best Hospital in Nurpur,Private hospital,"Jassur Dhameta Road Raja Ka Talab, Nurpur, Himachal Pradesh 176051, India",https://www.google.co.kr/maps/place/Surya+Hospital+-+Gynaecologist+%2F+Orthopedic+Surgeon+%7C+Best+Hospital+in+Nurpur/data=!4m5!3m4!1s0x391b63465a697025:0x1d5caf93bf8761c9!8m2!3d32.2074155!4d75.9114531?authuser=0&hl=en&rclk=1,32.2074155,75.9114531,Himachal Pradesh
Vyas Hospital-a unit of Sonjay Hospitals Private Limited,General hospital,"Near Kothi Chowk Village Talwar, PO, Chandpur, Himachal Pradesh 174004, India",https://www.google.co.kr/maps/place/Vyas+Hospital-a+unit+of+Sonjay+Hospitals+Private+Limited/data=!4m5!3m4!1s0x39053ec5182ae6cf:0xe9794d8bb11a9e90!8m2!3d31.3596413!4d76.7473119?authuser=0&hl=en&rclk=1,31.3596413,76.7473119,Himachal Pradesh
Nanda Hospital,General hospital,"Una - Jahu - Ner Chowk Rd, Una, Himachal Pradesh 174303, India",https://www.google.co.kr/maps/place/Nanda+Hospital/data=!4m5!3m4!1s0x391ad07ff2f233d7:0x1e0ce132012ea8d1!8m2!3d31.474426!4d76.271698?authuser=0&hl=en&rclk=1,31.474426,76.271698,Himachal Pradesh
Neelkanth Hospital,Hospital,"93/1, Palace Colony Rd, Palace Colony, Mandi, Himachal Pradesh 175001, India",https://www.google.co.kr/maps/place/Neelkanth+Hospital/data=!4m5!3m4!1s0x3904e224a1ba80f5:0xe2d8f91d5d5084!8m2!3d31.7085643!4d76.9275537?authuser=0&hl=en&rclk=1,31.7085643,76.9275537,Himachal Pradesh
Himachal Clinic and Hospital,Hospital,"RX5G+4PV, Una, Himachal Pradesh 144206, India",https://www.google.co.kr/maps/place/Himachal+Clinic+and+Hospital/data=!4m5!3m4!1s0x391b11f63a9014f9:0x53958e90fa2e66d9!8m2!3d31.8078624!4d75.976788?authuser=0&hl=en&rclk=1,31.8078624,75.976788,Himachal Pradesh
Deendyal Upadhyay Zonal Hospital,Hospital,"Cart Rd, Near Local Bus Stand, Lower Bazar, Shimla, Himachal Pradesh 171001, India",https://www.google.co.kr/maps/place/Deendyal+Upadhyay+Zonal+Hospital/data=!4m5!3m4!1s0x39057894aa9bc2d1:0x9f0128bac5c7edb!8m2!3d31.1037055!4d77.171295?authuser=0&hl=en&rclk=1,31.1037055,77.171295,Himachal Pradesh
harish,General hospital,"H538+586, Thunag, Himachal Pradesh 175048, India",https://www.google.co.kr/maps/place/harish/data=!4m5!3m4!1s0x390507bc00000001:0x2cf04a9518df3284!8m2!3d31.552911!4d77.1657716?authuser=0&hl=en&rclk=1,31.552911,77.1657716,Himachal Pradesh
Military Hospital,General hospital,"Circular Road, Sanjauli, Shimla, Himachal Pradesh 171001, India",https://www.google.co.kr/maps/place/Military+Hospital/data=!4m5!3m4!1s0x3905789b79d1bc69:0x64ddb8937d5254ff!8m2!3d31.108014!4d77.1882356?authuser=0&hl=en&rclk=1,31.108014,77.1882356,Himachal Pradesh
Vivekanand Medical Institute,Private hospital,"Near Agriculture University, Holta, Palampur, Himachal Pradesh 176062, India",https://www.google.co.kr/maps/place/Vivekanand+Medical+Institute/data=!4m5!3m4!1s0x3904b15f0606bf43:0xcb1ac00d54e2a17!8m2!3d32.106333!4d76.551017?authuser=0&hl=en&rclk=1,32.106333,76.551017,Himachal Pradesh
ESI Jabli,General hospital,"Jabli, Himachal Pradesh 173220, India",https://www.google.co.kr/maps/place/ESI+Jabli/data=!4m5!3m4!1s0x390f8f4c934ee521:0x1480f5a5f5104e6!8m2!3d30.8753822!4d76.9945157?authuser=0&hl=en&rclk=1,30.8753822,76.9945157,Himachal Pradesh
Hospital,Hospital,"Doldhar Sunder Nager, Himachal Pradesh 175031, India",https://www.google.co.kr/maps/place/Hospital/data=!4m5!3m4!1s0x39051189b79c3b27:0x7e402c07c153d43f!8m2!3d31.4735894!4d76.9390076?authuser=0&hl=en&rclk=1,31.4735894,76.9390076,Himachal Pradesh
"Civil Hospital Haroli, Una Himachal Pradesh",Hospital,"C6GH+QW9, Haroli, Himachal Pradesh 177220, India","https://www.google.co.kr/maps/place/Civil+Hospital+Haroli,+Una+Himachal+Pradesh/data=!4m5!3m4!1s0x391adad4aebe60c3:0xba110bfe4688d5f4!8m2!3d31.4269022!4d76.2298672?authuser=0&hl=en&rclk=1",31.4269022,76.2298672,Himachal Pradesh
Civil hospital kangra,Hospital,"473F+563, New Kangra, Kangra, Himachal Pradesh 176001, India",https://www.google.co.kr/maps/place/Civil+hospital+kangra/data=!4m5!3m4!1s0x391b4fad3410cb7f:0x64cd809bb24d65!8m2!3d32.1028978!4d76.2730591?authuser=0&hl=en&rclk=1,32.1028978,76.2730591,Himachal Pradesh
"Civil Hospital Karsog, Dist. Mandi, HP",Government hospital,"Marmel-Kao Road, near Panchayat Smiti Guest House, Karsog, Himachal Pradesh 175011, India","https://www.google.co.kr/maps/place/Civil+Hospital+Karsog,+Dist.+Mandi,+HP/data=!4m5!3m4!1s0x3905a0705ccf7337:0x9a9d887615bc758e!8m2!3d31.3809915!4d77.2037782?authuser=0&hl=en&rclk=1",31.3809915,77.2037782,Himachal Pradesh
Himachal Clinic,Hospital,"Himachal Pradesh 144209, India",https://www.google.co.kr/maps/place/Himachal+Clinic/data=!4m5!3m4!1s0x391b10a671b80e4d:0xb40afca91ece314f!8m2!3d31.7615832!4d75.9792099?authuser=0&hl=en&rclk=1,31.7615832,75.9792099,Himachal Pradesh
Ashok memorial hospital,Hospital,"fatak, Harnota, Himachal Pradesh 176021, India",https://www.google.co.kr/maps/place/Ashok+memorial+hospital/data=!4m5!3m4!1s0x391b65e2749bebb9:0x40f7c15ddcb30d22!8m2!3d32.1956313!4d75.9405535?authuser=0&hl=en&rclk=1,32.1956313,75.9405535,Himachal Pradesh
CIVIL HOSPITAL PALAMPUR,Government hospital,"near Police Station, Berachah, Palampur, Himachal Pradesh 176061, India",https://www.google.co.kr/maps/place/CIVIL+HOSPITAL+PALAMPUR/data=!4m5!3m4!1s0x3904b3c282e7b86b:0x4ab1cd62fbd4cbd3!8m2!3d32.1078634!4d76.5349963?authuser=0&hl=en&rclk=1,32.1078634,76.5349963,Himachal Pradesh
Civil Hospital Padhar,Hospital,"Padhar College Rd, Rigger, Narla, Himachal Pradesh 175012, India",https://www.google.co.kr/maps/place/Civil+Hospital+Padhar/data=!4m5!3m4!1s0x3904e8b5f81ffabd:0x34db6dc40dc55592!8m2!3d31.8797428!4d76.9131643?authuser=0&hl=en&rclk=1,31.8797428,76.9131643,Himachal Pradesh
Civil Hospital Bhoranj,Hospital,"JJXW+68W, Bhoranj, Himachal Pradesh 176045, India",https://www.google.co.kr/maps/place/Civil+Hospital+Bhoranj/data=!4m5!3m4!1s0x390527fdc0000001:0x71ab98ac6c5b6aeb!8m2!3d31.6481228!4d76.6458144?authuser=0&hl=en&rclk=1,31.6481228,76.6458144,Himachal Pradesh
Civil Hospital Sundernagar,Hospital,"GV8M+HM7, Pungh, Himachal Pradesh 175018, India",https://www.google.co.kr/maps/place/Civil+Hospital+Sundernagar/data=!4m5!3m4!1s0x390519360e03f025:0xb3f6bd3c3d3dff62!8m2!3d31.5164191!4d76.8841614?authuser=0&hl=en&rclk=1,31.5164191,76.8841614,Himachal Pradesh
Civil Hospital Kandaghat,Hospital,"X494+C24, Kandaghat, Himachal Pradesh 173215, India",https://www.google.co.kr/maps/place/Civil+Hospital+Kandaghat/data=!4m5!3m4!1s0x390f80ad7447d46f:0x1e6cd084130d72ad!8m2!3d30.9685193!4d77.1050736?authuser=0&hl=en&rclk=1,30.9685193,77.1050736,Himachal Pradesh
Simla Sanitarium & Hospital,Hospital,"Chaura Maidan Rd, Chaura Maidan, Shimla, Himachal Pradesh 171004, India",https://www.google.co.kr/maps/place/Simla+Sanitarium+%26+Hospital/data=!4m5!3m4!1s0x390578e43d0bae55:0x895bfd6f18067ba3!8m2!3d31.1031253!4d77.1558574?authuser=0&hl=en&rclk=1,31.1031253,77.1558574,Himachal Pradesh
Civil Hospital Kumarsain,Hospital,"National Highway 22, Kumarsain, Himachal Pradesh 172029, India",https://www.google.co.kr/maps/place/Civil+Hospital+Kumarsain/data=!4m5!3m4!1s0x3905968d65d6e0bf:0xdac35647a78104ab!8m2!3d31.3177404!4d77.4491171?authuser=0&hl=en&rclk=1,31.3177404,77.4491171,Himachal Pradesh
Karan Hospital,Private hospital,"Karan hospital, Mandi - Pathankot Rd, Palampur, Himachal Pradesh 176061, India",https://www.google.co.kr/maps/place/Karan+Hospital/data=!4m5!3m4!1s0x3904b3f20c91f06d:0x8f82eb7f5d3097d2!8m2!3d32.095728!4d76.5301566?authuser=0&hl=en&rclk=1,32.095728,76.5301566,Himachal Pradesh
Himachal Clinic,Hospital,"Tibbi, Una, NH-70, Nadaun Rd, Amb, Himachal Pradesh 177203, India",https://www.google.co.kr/maps/place/Himachal+Clinic/data=!4m5!3m4!1s0x391b2223146e86bb:0xd370971353bd2500!8m2!3d31.6915905!4d76.1129333?authuser=0&hl=en&rclk=1,31.6915905,76.1129333,Himachal Pradesh
Civil Hospital Darlaghat,Hospital,"Shimla-Kangra Rd, Darlaghat, Himachal Pradesh 171102, India",https://www.google.co.kr/maps/place/Civil+Hospital+Darlaghat/data=!4m5!3m4!1s0x39056c1f8129c6c3:0x726beec8562c68dd!8m2!3d31.2346924!4d76.9410753?authuser=0&hl=en&rclk=1,31.2346924,76.9410753,Himachal Pradesh
Regional Hospital Kullu,Government hospital,"College Rd, Dhalpur, Kullu, Himachal Pradesh 175101, India",https://www.google.co.kr/maps/place/Regional+Hospital+Kullu/data=!4m5!3m4!1s0x3904f6afd0857a2d:0x1042d5543ebca277!8m2!3d31.9566725!4d77.1115458?authuser=0&hl=en&rclk=1,31.9566725,77.1115458,Himachal Pradesh
"Civil Hospital, Dehra",Government hospital,"SH 22, Dehra Gopipur, Himachal Pradesh 177101, India","https://www.google.co.kr/maps/place/Civil+Hospital,+Dehra/data=!4m5!3m4!1s0x391b39654eacf9b7:0xf8e283bdf02b67a9!8m2!3d31.8819489!4d76.2127537?authuser=0&hl=en&rclk=1",31.8819489,76.2127537,Himachal Pradesh
"ESIC Model Hospital, Baddi",Government hospital,"Post & Village Katha, opp. Gillette India Limited, Baddi, Himachal Pradesh 173205, India","https://www.google.co.kr/maps/place/ESIC+Model+Hospital,+Baddi/data=!4m5!3m4!1s0x390ff55396e0f155:0xdc267e609f323c07!8m2!3d30.9429564!4d76.8221676?authuser=0&hl=en&rclk=1",30.9429564,76.8221676,Himachal Pradesh
Hospital,Hospital,"MH9M+5QM, Hamirpur, Himachal Pradesh 177029, India",https://www.google.co.kr/maps/place/Hospital/data=!4m5!3m4!1s0x3904d6486e8ba2b9:0x56646358676598a7!8m2!3d31.6679644!4d76.5844201?authuser=0&hl=en&rclk=1,31.6679644,76.5844201,Himachal Pradesh
N.R. Hospital,Private hospital,"Shimla-Ghumarwin Rd, Mahain, Himachal Pradesh 174004, India",https://www.google.co.kr/maps/place/N.R.+Hospital/data=!4m5!3m4!1s0x39053ec45465e3d1:0x961004a8fdc63d45!8m2!3d31.3614133!4d76.748307?authuser=0&hl=en&rclk=1,31.3614133,76.748307,Himachal Pradesh
Hospital,Hospital,"Himachal Pradesh 173208, India",https://www.google.co.kr/maps/place/Hospital/data=!4m5!3m4!1s0x390565bbfca391bb:0x96163b8bbd718583!8m2!3d31.1140568!4d76.9473714?authuser=0&hl=en&rclk=1,31.1140568,76.9473714,Himachal Pradesh
Civil Hospital Chail,Government hospital,"MDR 8, Chail, Himachal Pradesh 173217, India",https://www.google.co.kr/maps/place/Civil+Hospital+Chail/data=!4m5!3m4!1s0x390f7ff68b85b5bb:0xf919a37148064f84!8m2!3d30.9722446!4d77.197631?authuser=0&hl=en&rclk=1,30.9722446,77.197631,Himachal Pradesh
Gloda Hospital Hamirpur,Hospital,"MGHG+23M, Agriculture Colony, Hamirpur, Himachal Pradesh 177001, India",https://www.google.co.kr/maps/place/Gloda+Hospital+Hamirpur/data=!4m5!3m4!1s0x3904d5b5f1760dc7:0x926236255c0b2f1e!8m2!3d31.6775907!4d76.5251633?authuser=0&hl=en&rclk=1,31.6775907,76.5251633,Himachal Pradesh
Regional Hospital,Government hospital,"Una - Hamirpur Rd, Una, Himachal Pradesh 174303, India",https://www.google.co.kr/maps/place/Regional+Hospital/data=!4m5!3m4!1s0x391ad080ff7af8e3:0xe07cabfc8299d691!8m2!3d31.4785791!4d76.2741605?authuser=0&hl=en&rclk=1,31.4785791,76.2741605,Himachal Pradesh
Hospital,Hospital,"6396+RV9, Bagga, Himachal Pradesh 176225, India",https://www.google.co.kr/maps/place/Hospital/data=!4m5!3m4!1s0x391b61acfd1faeb1:0x7fc1449d2f3ac987!8m2!3d32.2195459!4d76.0622338?authuser=0&hl=en&rclk=1,32.2195459,76.0622338,Himachal Pradesh
Mannat Multi Speciality Hospital,Hospital,"NH-21,290A/4 Salah, Sundar Nagar, Himachal Pradesh 175018, India",https://www.google.co.kr/maps/place/Mannat+Multi+Speciality+Hospital/data=!4m5!3m4!1s0x390519bb5ad585a9:0x8149d5f362c5779!8m2!3d31.5223534!4d76.8862454?authuser=0&hl=en&rclk=1,31.5223534,76.8862454,Himachal Pradesh
Dispensary Brohkari HP,General hospital,"C3JC+57C, Mandi, Himachal Pradesh 175031, India",https://www.google.co.kr/maps/place/Dispensary+Brohkari+HP/data=!4m5!3m4!1s0x39050e9c86f95cdf:0xada16784af071e46!8m2!3d31.4304323!4d77.0706297?authuser=0&hl=en&rclk=1,31.4304323,77.0706297,Himachal Pradesh
Civil Hospital,Hospital,"Hospital Rd, Sarkaghat, Himachal Pradesh 175024, India",https://www.google.co.kr/maps/place/Civil+Hospital/data=!4m5!3m4!1s0x3904df2bab5a9275:0x5cf159adf8a4ec4c!8m2!3d31.7015073!4d76.7370518?authuser=0&hl=en&rclk=1,31.7015073,76.7370518,Himachal Pradesh
Lady Willingdon Hospital (Mission Hospital),Hospital,"65VQ+XCW, Model Town, Siyal, Manali, Himachal Pradesh 175131, India",https://www.google.co.kr/maps/place/Lady+Willingdon+Hospital+(Mission+Hospital)/data=!4m5!3m4!1s0x390487e686b83d23:0x6ef2d20c68062169!8m2!3d32.2449824!4d77.1885762?authuser=0&hl=en&rclk=1,32.2449824,77.1885762,Himachal Pradesh
Ayurvedic Hospital Hamirpur,Hospital,"Shimla-Kangra Rd, Chakmoh, Galore, Hamirpur, Himachal Pradesh 177001, India",https://www.google.co.kr/maps/place/Ayurvedic+Hospital+Hamirpur/data=!4m5!3m4!1s0x3904d44bea630bc9:0x8dfa5ffabe0dc2c8!8m2!3d31.6861745!4d76.5213092?authuser=0&hl=en&rclk=1,31.6861745,76.5213092,Himachal Pradesh
Government Hospital,Hospital,"Bhumti, Tehsil - Arki, District - Solan (H. P.), Himachal Pradesh 173208, India",https://www.google.co.kr/maps/place/Government+Hospital/data=!4m5!3m4!1s0x390565f097aa8baf:0x2ea3abf78358e676!8m2!3d31.1339116!4d76.9306254?authuser=0&hl=en&rclk=1,31.1339116,76.9306254,Himachal Pradesh
Civil Hospital Bagsaid,Hospital,"H46F+Q97, Bagsiad, Himachal Pradesh 175048, India",https://www.google.co.kr/maps/place/Civil+Hospital+Bagsaid/data=!4m5!3m4!1s0x390507159e396d7d:0xf6c7be63424823eb!8m2!3d31.5619123!4d77.1234108?authuser=0&hl=en&rclk=1,31.5619123,77.1234108,Himachal Pradesh
"CENTRAL hEALTH CENTRE, CHANDI",Hospital,"2WF7+CGW, Solan, Himachal Pradesh 173225, India","https://www.google.co.kr/maps/place/CENTRAL+hEALTH+CENTRE,+CHANDI/data=!4m5!3m4!1s0x390561ca88530fe7:0x86d4429a0f41ff22!8m2!3d31.0236174!4d76.9138277?authuser=0&hl=en&rclk=1",31.0236174,76.9138277,Himachal Pradesh
Aastha Hospital & IVF Centre - Hospital in Hamirpur,Hospital,"Pacca Bharo, Ward No.1, Krishna Nagar, Himachal Pradesh 177001, India",https://www.google.co.kr/maps/place/Aastha+Hospital+%26+IVF+Centre+-+Hospital+in+Hamirpur/data=!4m5!3m4!1s0x3904d44bea630bc7:0x272c50efc6ae937c!8m2!3d31.6957348!4d76.5015592?authuser=0&hl=en&rclk=1,31.6957348,76.5015592,Himachal Pradesh
District Ayurvedic Hospital Hamirpur,Hospital,"Near, bhota chowk, Agriculture Colony, Hamirpur, Himachal Pradesh 177001, India",https://www.google.co.kr/maps/place/District+Ayurvedic+Hospital+Hamirpur/data=!4m5!3m4!1s0x3904d5caa8fe2483:0x2ac21d62fd94d128!8m2!3d31.680972!4d76.524962?authuser=0&hl=en&rclk=1,31.680972,76.524962,Himachal Pradesh
S D K L Memorial Glodha Hospital,Hospital,"Shimla-Kangra Rd, Agriculture Colony, Hamirpur, Himachal Pradesh 177001, India",https://www.google.co.kr/maps/place/S+D+K+L+Memorial+Glodha+Hospital/data=!4m5!3m4!1s0x3904d5b5f0c4c235:0x1d43d87e7a5616d7!8m2!3d31.6776461!4d76.5251532?authuser=0&hl=en&rclk=1,31.6776461,76.5251532,Himachal Pradesh
Kamla Nehru Hospital,Hospital,"NH 22, Milsington Estate, Chotta Shimla, Shimla, Himachal Pradesh 171001, India",https://www.google.co.kr/maps/place/Kamla+Nehru+Hospital/data=!4m5!3m4!1s0x390578be45d5c6d3:0xbfe2fd52ca3745d9!8m2!3d31.0966289!4d77.1752519?authuser=0&hl=en&rclk=1,31.0966289,77.1752519,Himachal Pradesh
Civil Hospital,Hospital,"Shawat - Kotgarh Rd, Kotgarh, Himachal Pradesh 172030, India",https://www.google.co.kr/maps/place/Civil+Hospital/data=!4m5!3m4!1s0x390594223945ea21:0xe52e92bc296399f0!8m2!3d31.3105075!4d77.4770649?authuser=0&hl=en&rclk=1,31.3105075,77.4770649,Himachal Pradesh
Sanjiven Hospital,Hospital,"Samkhetar Road, Moti Bazar, Samkhetar, Mandi, Himachal Pradesh 175001, India",https://www.google.co.kr/maps/place/Sanjiven+Hospital/data=!4m5!3m4!1s0x3904e23ad5633421:0x44f7191e6937df78!8m2!3d31.7108979!4d76.9298691?authuser=0&hl=en&rclk=1,31.7108979,76.9298691,Himachal Pradesh
Government Civil Hospital ( Baijnath ),Government hospital,"Baijnath, Himachal Pradesh 176125, India",https://www.google.co.kr/maps/place/Government+Civil+Hospital+(+Baijnath+)/data=!4m5!3m4!1s0x3904b9d4bb4f038b:0xdd18ee864231fd19!8m2!3d32.0512015!4d76.6428506?authuser=0&hl=en&rclk=1,32.0512015,76.6428506,Himachal Pradesh
Civil Hospital,Hospital,"MDR25, Gohar, Himachal Pradesh 175029, India",https://www.google.co.kr/maps/place/Civil+Hospital/data=!4m5!3m4!1s0x39050492517cdf7b:0xccff54cf077cdc35!8m2!3d31.5828769!4d77.0424253?authuser=0&hl=en&rclk=1,31.5828769,77.0424253,Himachal Pradesh
Civil Hospital Nirmand,Hospital,"CHFH+83V, Nirmand, Himachal Pradesh 172023, India",https://www.google.co.kr/maps/place/Civil+Hospital+Nirmand/data=!4m5!3m4!1s0x3905c1ea033d7e87:0xb3a54d52106e039a!8m2!3d31.4233592!4d77.5776681?authuser=0&hl=en&rclk=1,31.4233592,77.5776681,Himachal Pradesh
City hospital,Hospital,"Mandi - Pathankot Rd, Ghurkari, Himachal Pradesh 176001, India",https://www.google.co.kr/maps/place/City+hospital/data=!4m5!3m4!1s0x391b4f4865f5681d:0x65408eb4e9bf0bd7!8m2!3d32.1247987!4d76.2955947?authuser=0&hl=en&rclk=1,32.1247987,76.2955947,Himachal Pradesh
Civil Hospital,Hospital,"Tissa, Himachal Pradesh 176316, India",https://www.google.co.kr/maps/place/Civil+Hospital/data=!4m5!3m4!1s0x391cc348142f6b4b:0x471843c6b7abef47!8m2!3d32.833505!4d76.156303?authuser=0&hl=en&rclk=1,32.833505,76.156303,Himachal Pradesh
Sri Harihar Hospital Pvt. Ltd.,Private hospital,"(Manikaran Road), Hathithan, Bhuntar, Himachal Pradesh 175125, India",https://www.google.co.kr/maps/place/Sri+Harihar+Hospital+Pvt.+Ltd./data=!4m5!3m4!1s0x3904f79d72edae21:0x61cb616d96c1c47c!8m2!3d31.8952691!4d77.1499433?authuser=0&hl=en&rclk=1,31.8952691,77.1499433,Himachal Pradesh
Shree Balaji Hospital,Private hospital,"Dharamsala Rd, near Bus Stand, Balaji Vihar, Adarsh Colony, Kangra, Himachal Pradesh 176001, India",https://www.google.co.kr/maps/place/Shree+Balaji+Hospital/data=!4m5!3m4!1s0x391b4f8f841b7b9f:0xddba03208be3e12!8m2!3d32.1149356!4d76.2795135?authuser=0&hl=en&rclk=1,32.1149356,76.2795135,Himachal Pradesh
Himachal clinic,Hospital,"Bharoli Kutiara Bus Stop, VPO-Bharoli Kutiara, Bag, Himachal Pradesh 176036, India",https://www.google.co.kr/maps/place/Himachal+clinic/data=!4m5!3m4!1s0x391b2f341abb7f2b:0x97f3e6218f404174!8m2!3d31.7923119!4d76.334718?authuser=0&hl=en&rclk=1,31.7923119,76.334718,Himachal Pradesh
Regional Hospital,Hospital,"Lower Keylong , near Government Senior Secondary School, Keylong, Himachal Pradesh, India",https://www.google.co.kr/maps/place/Regional+Hospital/data=!4m5!3m4!1s0x39037abd3fa38873:0x1cd097697ac6ecd3!8m2!3d32.571131!4d77.0318664?authuser=0&hl=en&rclk=1,32.571131,77.0318664,Himachal Pradesh
hospital,Hospital,"9CRQ+X9Q, Dalash, Himachal Pradesh 172025, India",https://www.google.co.kr/maps/place/hospital/data=!4m5!3m4!1s0x3905bd97ac89c889:0x5d47939fe842b581!8m2!3d31.3924636!4d77.4384887?authuser=0&hl=en&rclk=1,31.3924636,77.4384887,Himachal Pradesh
"Radha Soami Charitable Hospital, Bhota",Hospital,"Shimla-Kangra Rd, Bhota, Himachal Pradesh 176041, India","https://www.google.co.kr/maps/place/Radha+Soami+Charitable+Hospital,+Bhota/data=!4m5!3m4!1s0x390529978497d855:0xd82f405e519951cb!8m2!3d31.6094437!4d76.5690985?authuser=0&hl=en&rclk=1",31.6094437,76.5690985,Himachal Pradesh
District Ayurvedic Hospital,Hospital,"Kullu - Ramshila Rd, Dhalpur, Kullu, Himachal Pradesh 175101, India",https://www.google.co.kr/maps/place/District+Ayurvedic+Hospital/data=!4m5!3m4!1s0x3904f6ae8a61c395:0xcc91c1f6df1786d8!8m2!3d31.9589943!4d77.1095479?authuser=0&hl=en&rclk=1,31.9589943,77.1095479,Himachal Pradesh
Hospital,Hospital,"8CJC+94M, Kingal, Himachal Pradesh 172024, India",https://www.google.co.kr/maps/place/Hospital/data=!4m5!3m4!1s0x390597ab8bc34a27:0x480bacfcaee42e90!8m2!3d31.330972!4d77.4203056?authuser=0&hl=en&rclk=1,31.330972,77.4203056,Himachal Pradesh
Civil Hospital,Government hospital,"Hospital Rd, Rajgarh, Himachal Pradesh 173101, India",https://www.google.co.kr/maps/place/Civil+Hospital/data=!4m5!3m4!1s0x390f7a306c1baae3:0xb50705f0274414dc!8m2!3d30.8523671!4d77.2998184?authuser=0&hl=en&rclk=1,30.8523671,77.2998184,Himachal Pradesh
Hospital,Hospital,"RPC4+QPF, Dabrot, Himachal Pradesh 175050, India",https://www.google.co.kr/maps/place/Hospital/data=!4m5!3m4!1s0x3904db7092086495:0x3e6ebb590211c077!8m2!3d31.8219406!4d76.7068052?authuser=0&hl=en&rclk=1,31.8219406,76.7068052,Himachal Pradesh
ESI Hospital Parwanoo,Government hospital,"Kalka - Shimla Rd, Sector 2, Parwanoo, Himachal Pradesh 173220, India",https://www.google.co.kr/maps/place/ESI+Hospital+Parwanoo/data=!4m5!3m4!1s0x390f8ee53bcd3663:0x165b6b7734454f8c!8m2!3d30.8400852!4d76.9547605?authuser=0&hl=en&rclk=1,30.8400852,76.9547605,Himachal Pradesh
Maharishi Markandeshwar Hospital,Hospital,"V3CP+F9X, Laddo, Himachal Pradesh 173229, India",https://www.google.co.kr/maps/place/Maharishi+Markandeshwar+Hospital/data=!4m5!3m4!1s0x390f841139e69a53:0x95ef0e749db26362!8m2!3d30.871243!4d77.0859753?authuser=0&hl=en&rclk=1,30.871243,77.0859753,Himachal Pradesh
Nav Jeevan Hospital,Hospital,"Kohala, Jawalamukhi, Himachal Pradesh 176031, India",https://www.google.co.kr/maps/place/Nav+Jeevan+Hospital/data=!4m5!3m4!1s0x391b30d5b60864a1:0xa199941a4575701e!8m2!3d31.8788793!4d76.3148905?authuser=0&hl=en&rclk=1,31.8788793,76.3148905,Himachal Pradesh
Central Government Health Scheme ( CGHS),Hospital,"Chaura Maidan, Shimla, Himachal Pradesh 171004, India",https://www.google.co.kr/maps/place/Central+Government+Health+Scheme+(+CGHS)/data=!4m5!3m4!1s0x3905791d9775f659:0xd14a9f2ba500ff22!8m2!3d31.1032875!4d77.1472587?authuser=0&hl=en&rclk=1,31.1032875,77.1472587,Himachal Pradesh
Hospital,Hospital,"348P+JH5, Othra, Himachal Pradesh 176026, India",https://www.google.co.kr/maps/place/Hospital/data=!4m5!3m4!1s0x391b4364c46d4c07:0x6903b202aaecb239!8m2!3d32.0665048!4d76.1364891?authuser=0&hl=en&rclk=1,32.0665048,76.1364891,Himachal Pradesh
"Civil Hospital, Nalagarh, Solan",Government hospital,"Pinjore - Swarghat Rd, New Nalagarh, Himachal Pradesh 174101, India","https://www.google.co.kr/maps/place/Civil+Hospital,+Nalagarh,+Solan/data=!4m5!3m4!1s0x39055bef211fac3f:0x73e62a808ca5c91!8m2!3d31.0428874!4d76.7175186?authuser=0&hl=en&rclk=1",31.0428874,76.7175186,Himachal Pradesh
City Hospital Kangra,Hospital,"Palampur Rd, opp. Sant Hyundai, Ghurkari Khas, Himachal Pradesh 176001, India",https://www.google.co.kr/maps/place/City+Hospital+Kangra/data=!4m5!3m4!1s0x391b4fbf95698deb:0xe95735f82bc19d75!8m2!3d32.1249326!4d76.2957214?authuser=0&hl=en&rclk=1,32.1249326,76.2957214,Himachal Pradesh
Agnihotri Hospital,Hospital,"F79C+RG6, Una, Himachal Pradesh 174303, India",https://www.google.co.kr/maps/place/Agnihotri+Hospital/data=!4m5!3m4!1s0x391ad182566639d9:0x628f4330adde4201!8m2!3d31.4695334!4d76.2712798?authuser=0&hl=en&rclk=1,31.4695334,76.2712798,Himachal Pradesh
Netaji Subhash Chandra Bose Zonal Hospital,Hospital,"Hospital Rd, Palace Colony, Mandi, Himachal Pradesh 175001, India",https://www.google.co.kr/maps/place/Netaji+Subhash+Chandra+Bose+Zonal+Hospital/data=!4m5!3m4!1s0x3904e2250935160b:0xfeeba31185292cf9!8m2!3d31.7114564!4d76.9270145?authuser=0&hl=en&rclk=1,31.7114564,76.9270145,Himachal Pradesh
Shiva Hospital,Hospital,"Shiva Complex, Near Thodo Ground, Rajgarh Road, Solan, Himachal Pradesh 173212, India",https://www.google.co.kr/maps/place/Shiva+Hospital/data=!4m5!3m4!1s0x390f814ba3afcc0f:0x4abea1159028ea37!8m2!3d30.907034!4d77.105906?authuser=0&hl=en&rclk=1,30.907034,77.105906,Himachal Pradesh
Malhotra Hospital & Trauma Centre,Hospital,"Opposite petrol pump, Distt, Main Bazar, Ner Chowk, Himachal Pradesh 175008, India",https://www.google.co.kr/maps/place/Malhotra+Hospital+%26+Trauma+Centre/data=!4m5!3m4!1s0x39051ea1a727541d:0x8faca6d324822dc2!8m2!3d31.6086039!4d76.9145835?authuser=0&hl=en&rclk=1,31.6086039,76.9145835,Himachal Pradesh
Military Hospital,Hospital,"MDR6, Kasauli, Himachal Pradesh 173204, India",https://www.google.co.kr/maps/place/Military+Hospital/data=!4m5!3m4!1s0x390f891c59fa2009:0xf7e091aac62631ab!8m2!3d30.9043973!4d76.9606246?authuser=0&hl=en&rclk=1,30.9043973,76.9606246,Himachal Pradesh
Civil Hospital nurpur,Government hospital,"8V4V+VGV, Chowgan Bazar, Nurpur, Himachal Pradesh 176202, India",https://www.google.co.kr/maps/place/Civil+Hospital+nurpur/data=!4m5!3m4!1s0x391c82ca2c64fadb:0xc32c2b63d5c480fb!8m2!3d32.3072403!4d75.8938012?authuser=0&hl=en&rclk=1,32.3072403,75.8938012,Himachal Pradesh
District Ayurvedic Hospital Mandi,Hospital,"PW6H+W7F, Palace Colony, Mandi, Himachal Pradesh 175001, India",https://www.google.co.kr/maps/place/District+Ayurvedic+Hospital+Mandi/data=!4m5!3m4!1s0x3904e2256a5a4d1f:0x7c604fc744a58348!8m2!3d31.7123107!4d76.9281706?authuser=0&hl=en&rclk=1,31.7123107,76.9281706,Himachal Pradesh
Oral Hospital,Hospital,"Nalagarh Bypass Rd, Nalagarh, Himachal Pradesh 174101, India",https://www.google.co.kr/maps/place/Oral+Hospital/data=!4m5!3m4!1s0x39055bf4d0f1bc29:0xdfc3a3a6b39d3bda!8m2!3d31.0387249!4d76.7032051?authuser=0&hl=en&rclk=1,31.0387249,76.7032051,Himachal Pradesh
MR Hospital,Hospital,"SH11, Behna, Himachal Pradesh 172025, India",https://www.google.co.kr/maps/place/MR+Hospital/data=!4m5!3m4!1s0x390597fc6ce35299:0xfb4eacde64273260!8m2!3d31.3621459!4d77.3871951?authuser=0&hl=en&rclk=1,31.3621459,77.3871951,Himachal Pradesh
HOSPITAl,Hospital,"88VF+JJ9, Mandi, Himachal Pradesh 175011, India",https://www.google.co.kr/maps/place/HOSPITAl/data=!4m5!3m4!1s0x3905988c2a3f0fa5:0x684baf5e48a885f2!8m2!3d31.3440446!4d77.3241045?authuser=0&hl=en&rclk=1,31.3440446,77.3241045,Himachal Pradesh
Hospital,Hospital,"G39F+7JF, Dhishti, Himachal Pradesh 175028, India",https://www.google.co.kr/maps/place/Hospital/data=!4m5!3m4!1s0x390505e689bba1a5:0x9df1ce06e143d2e3!8m2!3d31.5181869!4d77.0740613?authuser=0&hl=en&rclk=1,31.5181869,77.0740613,Himachal Pradesh
Civil Hospital,Hospital,"3XH6+527, Kunihar, Himachal Pradesh 173207, India",https://www.google.co.kr/maps/place/Civil+Hospital/data=!4m5!3m4!1s0x3905645e3fc1dfe1:0x2fe6b3791bf6b11b!8m2!3d31.0779027!4d76.9600584?authuser=0&hl=en&rclk=1,31.0779027,76.9600584,Himachal Pradesh
Civil hospital Anni,Government hospital,"Anni, Himachal Pradesh 172025, India",https://www.google.co.kr/maps/place/Civil+hospital+Anni/data=!4m5!3m4!1s0x3905bd271d328963:0xaf0352c60313db8b!8m2!3d31.4332527!4d77.4169727?authuser=0&hl=en&rclk=1,31.4332527,77.4169727,Himachal Pradesh
Civil Hospital Sandhole,Hospital,"Sandhol, Himachal Pradesh 176090, India",https://www.google.co.kr/maps/place/Civil+Hospital+Sandhole/data=!4m5!3m4!1s0x3904c56900c65fa7:0x166bd5eeeffc575d!8m2!3d31.8556498!4d76.6560152?authuser=0&hl=en&rclk=1,31.8556498,76.6560152,Himachal Pradesh
Shri Sai Multispeciality Hospital & Trauma Centre,Hospital,"Chakreda Street, adjacent NH, Nahan, Himachal Pradesh 173001, India",https://www.google.co.kr/maps/place/Shri+Sai+Multispeciality+Hospital+%26+Trauma+Centre/data=!4m5!3m4!1s0x390f0c0876ed9631:0x5e9859b3dd9aa3b!8m2!3d30.556571!4d77.288388?authuser=0&hl=en&rclk=1,30.556571,77.288388,Himachal Pradesh
Civil Hospital Janjehli,Hospital,"G68F+82R, Janjehli, Himachal Pradesh 175047, India",https://www.google.co.kr/maps/place/Civil+Hospital+Janjehli/data=!4m5!3m4!1s0x3905a7c39aa89037:0xe391f6c905af95c1!8m2!3d31.5158744!4d77.2225108?authuser=0&hl=en&rclk=1,31.5158744,77.2225108,Himachal Pradesh
Civil Hospital,Hospital,"SH 13, Suni, Himachal Pradesh 171301, India",https://www.google.co.kr/maps/place/Civil+Hospital/data=!4m5!3m4!1s0x390576a2619702db:0xdfb1f93f51c5b313!8m2!3d31.2426601!4d77.1240935?authuser=0&hl=en&rclk=1,31.2426601,77.1240935,Himachal Pradesh
Government Hospital,Hospital,"Kingle, Shimla, NH-22, Rampur Road, Kumarsain, Kumarsain, Himachal Pradesh 172024, India",https://www.google.co.kr/maps/place/Government+Hospital/data=!4m5!3m4!1s0x390597ab947b3ac3:0xf8ae094d4b6415ca!8m2!3d31.330113!4d77.420203?authuser=0&hl=en&rclk=1,31.330113,77.420203,Himachal Pradesh
HOspital,Hospital,"Garkhal-Badhalag Rd, Chandi, Himachal Pradesh 173225, India",https://www.google.co.kr/maps/place/HOspital/data=!4m5!3m4!1s0x39056133c5117913:0x510be9cc69aa35!8m2!3d31.023745!4d76.9138765?authuser=0&hl=en&rclk=1,31.023745,76.9138765,Himachal Pradesh
Government Hospital,Hospital,"Kotkhai Road, Kotkhai, Himachal Pradesh 171202, India",https://www.google.co.kr/maps/place/Government+Hospital/data=!4m5!3m4!1s0x39058c9931bd31cd:0x9c44d6b8644b78cd!8m2!3d31.11766!4d77.5353455?authuser=0&hl=en&rclk=1,31.11766,77.5353455,Himachal Pradesh
AIIMS BILASPUR HP,Hospital,"Noa, Himachal Pradesh 174005, India",https://www.google.co.kr/maps/place/AIIMS+BILASPUR+HP/data=!4m5!3m4!1s0x3905410d746fa533:0xb484826ee1699cb8!8m2!3d31.2859804!4d76.7868674?authuser=0&hl=en&rclk=1,31.2859804,76.7868674,Himachal Pradesh
Ayurvedic Hospital,Hospital,"NH 22, Dhalli, Shimla, Himachal Pradesh 171012, India",https://www.google.co.kr/maps/place/Ayurvedic+Hospital/data=!4m5!3m4!1s0x3905826c21298ff5:0xf053f35927757832!8m2!3d31.1073789!4d77.2100152?authuser=0&hl=en&rclk=1,31.1073789,77.2100152,Himachal Pradesh
Civil Hospital Dharampur,Hospital,"Dharampur, Himachal Pradesh 175040, India",https://www.google.co.kr/maps/place/Civil+Hospital+Dharampur/data=!4m5!3m4!1s0x3904ddd956b51f8d:0xb1f9d7bcbcaf08be!8m2!3d31.8028744!4d76.7584142?authuser=0&hl=en&rclk=1,31.8028744,76.7584142,Himachal Pradesh
Ayurvedic Hospital,Hospital,"SH 16, Nalagarh, Himachal Pradesh 174101, India",https://www.google.co.kr/maps/place/Ayurvedic+Hospital/data=!4m5!3m4!1s0x39055be92b451541:0xe241b367a3d4d745!8m2!3d31.0432459!4d76.7162848?authuser=0&hl=en&rclk=1,31.0432459,76.7162848,Himachal Pradesh
"Vivekanand Hospital, Palampur",Hospital,"Holta, Banuri, Himachal Pradesh 176062, India","https://www.google.co.kr/maps/place/Vivekanand+Hospital,+Palampur/data=!4m5!3m4!1s0x3904b15efd995017:0x7f89b3684ee08a7e!8m2!3d32.1062893!4d76.5517342?authuser=0&hl=en&rclk=1",32.1062893,76.5517342,Himachal Pradesh
MALHOTRA SUPER SPECIALITY HOSPITAL,Hospital,"WRXJ+HPP, Baddi, Himachal Pradesh 173205, India",https://www.google.co.kr/maps/place/MALHOTRA+SUPER+SPECIALITY+HOSPITAL/data=!4m5!3m4!1s0x390f8aa984a31357:0x759f4f61380d0c81!8m2!3d30.948972!4d76.831839?authuser=0&hl=en&rclk=1,30.948972,76.831839,Himachal Pradesh
Hospital,Hospital,"H8R2+7JW, Purbani, Himachal Pradesh 172107, India",https://www.google.co.kr/maps/place/Hospital/data=!4m5!3m4!1s0x3906435cb4595029:0x906b3325085ed499!8m2!3d31.5907383!4d78.3015696?authuser=0&hl=en&rclk=1,31.5907383,78.3015696,Himachal Pradesh
HOSPITAL,Hospital,"2GGM+X3C, Kasba Jagehr, Himachal Pradesh 176087, India",https://www.google.co.kr/maps/place/HOSPITAL/data=!4m5!3m4!1s0x3904b5c5c667e3c1:0xfbb57b65999ce9c5!8m2!3d32.0274432!4d76.532652?authuser=0&hl=en&rclk=1,32.0274432,76.532652,Himachal Pradesh
DISPENSARY BUILDING औषधालय भवन,Hospital,"GWX9+PXQ, Ponda, Himachal Pradesh 172104, India",https://www.google.co.kr/maps/place/DISPENSARY+BUILDING+%E0%A4%94%E0%A4%B7%E0%A4%A7%E0%A4%BE%E0%A4%B2%E0%A4%AF+%E0%A4%AD%E0%A4%B5%E0%A4%A8/data=!4m5!3m4!1s0x3905d8868f36a5b7:0x60c49d1c7dff9904!8m2!3d31.5493494!4d77.9199778?authuser=0&hl=en&rclk=1,31.5493494,77.9199778,Himachal Pradesh
dr. virender mohan hospital,Hospital,"Kalka - Shimla Rd, Dharampur, Himachal Pradesh 173209, India",https://www.google.co.kr/maps/place/dr.+virender+mohan+hospital/data=!4m5!3m4!1s0x390f861900000001:0x36fd096ff60a0185!8m2!3d30.9001999!4d77.019481?authuser=0&hl=en&rclk=1,30.9001999,77.019481,Himachal Pradesh
Civil Hospital,Government hospital,"M365+GW9, Gagret, Himachal Pradesh 177201, India",https://www.google.co.kr/maps/place/Civil+Hospital/data=!4m5!3m4!1s0x391b1f38e38af08b:0xb23097d86d4f2dbb!8m2!3d31.6612901!4d76.0598516?authuser=0&hl=en&rclk=1,31.6612901,76.0598516,Himachal Pradesh
Rainbow Hospital - Children's Hospital in Bilaspur,Private hospital,"Ward No- 5, Road, Opp.Shiv Mandir, Ghumarwin, Himachal Pradesh 174021, India",https://www.google.co.kr/maps/place/Rainbow+Hospital+-+Children's+Hospital+in+Bilaspur/data=!4m5!3m4!1s0x39053b74b3b97b99:0xdcefa51dba730ff5!8m2!3d31.4384555!4d76.7105232?authuser=0&hl=en&rclk=1,31.4384555,76.7105232,Himachal Pradesh
Bhuthi Hospital,Government hospital,"X385+36Q, Dughilag, Himachal Pradesh 175102, India",https://www.google.co.kr/maps/place/Bhuthi+Hospital/data=!4m5!3m4!1s0x3904f3d05f2b2007:0xfb25ebb782c39fbd!8m2!3d31.9652004!4d77.0581149?authuser=0&hl=en&rclk=1,31.9652004,77.0581149,Himachal Pradesh
SJVN Hospital,Hospital,"Bayal Tehsil, Nirmand, Himachal Pradesh, India",https://www.google.co.kr/maps/place/SJVN+Hospital/data=!4m5!3m4!1s0x3905c03ced5e00d5:0xfb94c4da60585e11!8m2!3d31.4005614!4d77.5890762?authuser=0&hl=en&rclk=1,31.4005614,77.5890762,Himachal Pradesh
Civil Hospital,Hospital,"SH 9, Arki, Himachal Pradesh 173208, India",https://www.google.co.kr/maps/place/Civil+Hospital/data=!4m5!3m4!1s0x39056f8348e14f23:0xca294e72167f1e9e!8m2!3d31.1563561!4d76.9684476?authuser=0&hl=en&rclk=1,31.1563561,76.9684476,Himachal Pradesh
"Regional Hospital, Bilaspur",Hospital,"Regional Hospital Rd, Cinema Colony, Changer Sector, Kosrian Sector, Bilaspur, Himachal Pradesh 174001, India","https://www.google.co.kr/maps/place/Regional+Hospital,+Bilaspur/data=!4m5!3m4!1s0x39053f1a843b574b:0x3ee46b1170051889!8m2!3d31.3381329!4d76.7658007?authuser=0&hl=en&rclk=1",31.3381329,76.7658007,Himachal Pradesh
primary health centre,Hospital,"Gopalpur-Jia-Chamunda Rd, Jia, Himachal Pradesh 176052, India",https://www.google.co.kr/maps/place/primary+health+centre/data=!4m5!3m4!1s0x391b4d5193edd0bb:0xff6196ec195cdec1!8m2!3d32.1558714!4d76.4494859?authuser=0&hl=en&rclk=1,32.1558714,76.4494859,Himachal Pradesh
Himachal Head Neck Hospital,Hospital,"Opp To Govt.Hospital,, Hamirpur, Himachal Pradesh 177001, India",https://www.google.co.kr/maps/place/Himachal+Head+Neck+Hospital/data=!4m5!3m4!1s0x3904d5ca93949d43:0x8d4abed1e516e6e6!8m2!3d31.6805489!4d76.527019?authuser=0&hl=en&rclk=1,31.6805489,76.527019,Himachal Pradesh
Aashirwad hospital,Hospital,"Phase 1, New, Nalagarh, Himachal Pradesh 174101, India",https://www.google.co.kr/maps/place/Aashirwad+hospital/data=!4m5!3m4!1s0x39055bdc86953359:0x6001e7aae9738902!8m2!3d31.0377119!4d76.7040937?authuser=0&hl=en&rclk=1,31.0377119,76.7040937,Himachal Pradesh
Sai Sanjivni Hospital,Private hospital,"The Mall, Bajoral Khurd, Solan, Himachal Pradesh 173212, India",https://www.google.co.kr/maps/place/Sai+Sanjivni+Hospital/data=!4m5!3m4!1s0x390f86b66b168ce7:0xd519114647647135!8m2!3d30.9084945!4d77.095539?authuser=0&hl=en&rclk=1,30.9084945,77.095539,Himachal Pradesh
Civil Hospital,Hospital,"6C43+36W, Matiana, Himachal Pradesh 171212, India",https://www.google.co.kr/maps/place/Civil+Hospital/data=!4m5!3m4!1s0x3905903ddc0d5d81:0xadd4886c127f31ef!8m2!3d31.2052403!4d77.4030912?authuser=0&hl=en&rclk=1,31.2052403,77.4030912,Himachal Pradesh
Civil Hospital Jari,Hospital,"X6WV+H43, Jari, Himachal Pradesh 175105, India",https://www.google.co.kr/maps/place/Civil+Hospital+Jari/data=!4m5!3m4!1s0x39045f058fffe737:0xad140504af0b98a!8m2!3d31.9963988!4d77.2428053?authuser=0&hl=en&rclk=1,31.9963988,77.2428053,Himachal Pradesh
Civil Hospital,Government hospital,"Jubbal Road, Jubbal, Himachal Pradesh 171205, India",https://www.google.co.kr/maps/place/Civil+Hospital/data=!4m5!3m4!1s0x3905f6a48e9f9c47:0xdadf36ebe1c42787!8m2!3d31.1082349!4d77.6626501?authuser=0&hl=en&rclk=1,31.1082349,77.6626501,Himachal Pradesh
District Ayurvedic Hospital,Hospital,"687C+G4P, Chilgari, Dharamshala, Himachal Pradesh 176215, India",https://www.google.co.kr/maps/place/District+Ayurvedic+Hospital/data=!4m5!3m4!1s0x391b511e600219c1:0x332babbe387ffdf8!8m2!3d32.2138404!4d76.3203168?authuser=0&hl=en&rclk=1,32.2138404,76.3203168,Himachal Pradesh
Civil Hospital,Hospital,"QM48+69H, Tihra, Himachal Pradesh 175026, India",https://www.google.co.kr/maps/place/Civil+Hospital/data=!4m5!3m4!1s0x3904da3d0c86119d:0xc2b7b7c23da542bd!8m2!3d31.7555657!4d76.6659779?authuser=0&hl=en&rclk=1,31.7555657,76.6659779,Himachal Pradesh
sanihra Hospital,Hospital,"9HFF+428, Sanira, Himachal Pradesh 174030, India",https://www.google.co.kr/maps/place/sanihra+Hospital/data=!4m5!3m4!1s0x390537b5bc9c8ad5:0x8f556dd9e47ad18!8m2!3d31.3727987!4d76.5725703?authuser=0&hl=en&rclk=1,31.3727987,76.5725703,Himachal Pradesh
Hospital,Hospital,"FHJJ+CQJ, Arsu Market, Arsu, Himachal Pradesh 172002, India",https://www.google.co.kr/maps/place/Hospital/data=!4m5!3m4!1s0x3905c74bcc9b98b3:0xa3756d6ef9587b5e!8m2!3d31.4810923!4d77.5818795?authuser=0&hl=en&rclk=1,31.4810923,77.5818795,Himachal Pradesh
Government Hospital Ratti,Government hospital,"Ratti Bridge, Ner Chowk, Himachal Pradesh 175008, India",https://www.google.co.kr/maps/place/Government+Hospital+Ratti/data=!4m5!3m4!1s0x39051ebbb2d0b48b:0x1150f7adce10cd5e!8m2!3d31.6014946!4d76.9029057?authuser=0&hl=en&rclk=1,31.6014946,76.9029057,Himachal Pradesh
Hospital,Hospital,"Unnamed Road, Himachal Pradesh 174102, India",https://www.google.co.kr/maps/place/Hospital/data=!4m5!3m4!1s0x3905434f4d265fff:0x1aa43f314dcd46ed!8m2!3d31.1692238!4d76.7585101?authuser=0&hl=en&rclk=1,31.1692238,76.7585101,Himachal Pradesh
Hospital,Hospital,"SH 16, Diggal, Himachal Pradesh 173218, India",https://www.google.co.kr/maps/place/Hospital/data=!4m5!3m4!1s0x39056710beb2b319:0xab452bb1e325cf0f!8m2!3d31.0897885!4d76.8635618?authuser=0&hl=en&rclk=1,31.0897885,76.8635618,Himachal Pradesh
Hospital,Hospital,"JRJJ+9Q5, Rewalsar, Himachal Pradesh 175023, India",https://www.google.co.kr/maps/place/Hospital/data=!4m5!3m4!1s0x39051f13db3403bb:0xfb3d8afb9eff7d02!8m2!3d31.6308857!4d76.8319828?authuser=0&hl=en&rclk=1,31.6308857,76.8319828,Himachal Pradesh
Sushrut Hospital,Hospital,"GVMP+3W8, Bhojpur, Sundar Nagar, Himachal Pradesh 175019, India",https://www.google.co.kr/maps/place/Sushrut+Hospital/data=!4m5!3m4!1s0x390519a4f7c1f4ed:0xff0c9836dc585a7c!8m2!3d31.5326592!4d76.8873242?authuser=0&hl=en&rclk=1,31.5326592,76.8873242,Himachal Pradesh
Civil hospital,Hospital,"CGRQ+J4Q, Bharmour, Himachal Pradesh 176315, India",https://www.google.co.kr/maps/place/Civil+hospital/data=!4m5!3m4!1s0x39035407fbceea57:0x55672ec6ef6921b9!8m2!3d32.441594!4d76.5378595?authuser=0&hl=en&rclk=1,32.441594,76.5378595,Himachal Pradesh
Hospital,Hospital,"RJ5R+M4H, Upper Cholangarh, Cholangarh, Himachal Pradesh 175026, India",https://www.google.co.kr/maps/place/Hospital/data=!4m5!3m4!1s0x3904d1f49c7485d1:0xc8083c46507def72!8m2!3d31.8091915!4d76.6403564?authuser=0&hl=en&rclk=1,31.8091915,76.6403564,Himachal Pradesh
Hospital,Hospital,"4QV6+MFM, Kwarni, Nalagarh, Himachal Pradesh 174102, India",https://www.google.co.kr/maps/place/Hospital/data=!4m5!3m4!1s0x39054392b8f5254b:0x51dbd9ab7434ca43!8m2!3d31.144208!4d76.7611822?authuser=0&hl=en&rclk=1,31.144208,76.7611822,Himachal Pradesh
Hospital,Hospital,"po.cholthara teh, dist, Sarkaghat, Himachal Pradesh 175037, India",https://www.google.co.kr/maps/place/Hospital/data=!4m5!3m4!1s0x3904d918113169d7:0x6737bd581624f68f!8m2!3d31.7102833!4d76.6879077?authuser=0&hl=en&rclk=1,31.7102833,76.6879077,Himachal Pradesh
HOSPITAL,Hospital,"near Serpon Orchid Houl, Hango, Himachal Pradesh 172112, India",https://www.google.co.kr/maps/place/HOSPITAL/data=!4m5!3m4!1s0x390657f6d5347d13:0x8c69ed6c39e693df!8m2!3d31.8341463!4d78.5362809?authuser=0&hl=en&rclk=1,31.8341463,78.5362809,Himachal Pradesh
Ayurvedic hospital bhararu,Hospital,"WR84+37J, Mandi, Himachal Pradesh 175014, India",https://www.google.co.kr/maps/place/Ayurvedic+hospital+bhararu/data=!4m5!3m4!1s0x3904c2151d0788a9:0xc36724ceb3d21de4!8m2!3d31.91521!4d76.805634?authuser=0&hl=en&rclk=1,31.91521,76.805634,Himachal Pradesh
Hospital,Hospital,"JR2F+6PV, Khalkar, Himachal Pradesh 175023, India",https://www.google.co.kr/maps/place/Hospital/data=!4m5!3m4!1s0x3905211fa087ee2f:0xa3a361a52d86e4ed!8m2!3d31.6006051!4d76.824295?authuser=0&hl=en&rclk=1,31.6006051,76.824295,Himachal Pradesh
Krishana Hospital,Hospital,"Bus Stand, NH103, Near, Hamirpur, Himachal Pradesh 177001, India",https://www.google.co.kr/maps/place/Krishana+Hospital/data=!4m5!3m4!1s0x3904d5e879a1c579:0x1b92fb6922fa94c9!8m2!3d31.6867981!4d76.5204507?authuser=0&hl=en&rclk=1,31.6867981,76.5204507,Himachal Pradesh
Hospital,Military hospital,"PHXG+7CC, Up Mohal Danmochhe, Himachal Pradesh 172111, India",https://www.google.co.kr/maps/place/Hospital/data=!4m5!3m4!1s0x390653f8477cba9f:0xf84bc9a8230ede72!8m2!3d31.7481962!4d78.5760024?authuser=0&hl=en&rclk=1,31.7481962,78.5760024,Himachal Pradesh
BADDI ENT HOSPITAL,Hospital,"Sai Rd, Baddi, Himachal Pradesh 173205, India",https://www.google.co.kr/maps/place/BADDI+ENT+HOSPITAL/data=!4m5!3m4!1s0x390ff5691fd37fc1:0x2e36ef34102a1e0a!8m2!3d30.9332114!4d76.7987363?authuser=0&hl=en&rclk=1,30.9332114,76.7987363,Himachal Pradesh
Dattal Hospital,Hospital,"Thakurdwara, Kasoti, Himachal Pradesh 176102, India",https://www.google.co.kr/maps/place/Dattal+Hospital/data=!4m5!3m4!1s0x3904b3879b1408bd:0x2d9110ef7c8eb7df!8m2!3d32.0837208!4d76.5117184?authuser=0&hl=en&rclk=1,32.0837208,76.5117184,Himachal Pradesh
Government Hospital,Hospital,"95MQ+J7C, Pangna, Himachal Pradesh 175011, India",https://www.google.co.kr/maps/place/Government+Hospital/data=!4m5!3m4!1s0x39050a847d21bebf:0xaf41466d4fe8dd29!8m2!3d31.3840503!4d77.188139?authuser=0&hl=en&rclk=1,31.3840503,77.188139,Himachal Pradesh
Sia Ram Hospital,Hospital,"VPO, Kandrour, Himachal Pradesh 174004, India",https://www.google.co.kr/maps/place/Sia+Ram+Hospital/data=!4m5!3m4!1s0x39053ea06aaaaaab:0xa12ab54b73d353fe!8m2!3d31.390606!4d76.7549635?authuser=0&hl=en&rclk=1,31.390606,76.7549635,Himachal Pradesh
Saxena Hospital,Hospital,"Jassur, Himachal Pradesh 176201, India",https://www.google.co.kr/maps/place/Saxena+Hospital/data=!4m5!3m4!1s0x391c827db53776e7:0x87b78166670f196!8m2!3d32.2835712!4d75.8504439?authuser=0&hl=en&rclk=1,32.2835712,75.8504439,Himachal Pradesh
Health Sub Centre Devdhar,Government hospital,"Lower, Dhar, Himachal Pradesh 175106, India",https://www.google.co.kr/maps/place/Health+Sub+Centre+Devdhar/data=!4m5!3m4!1s0x3905ab14feac6537:0x98489c2a69cbaabe!8m2!3d31.688425!4d77.2609643?authuser=0&hl=en&rclk=1,31.688425,77.2609643,Himachal Pradesh
Civil Hospital Killar,Hospital,"Chowki, Killar, Himachal Pradesh 176323, India",https://www.google.co.kr/maps/place/Civil+Hospital+Killar/data=!4m5!3m4!1s0x391d2a582a4edcaf:0x79f376ea8c016314!8m2!3d33.0811976!4d76.4073778?authuser=0&hl=en&rclk=1,33.0811976,76.4073778,Himachal Pradesh
CHC Hospital,Hospital,"Bihar, Kunihar, Himachal Pradesh 173207, India",https://www.google.co.kr/maps/place/CHC+Hospital/data=!4m5!3m4!1s0x3905645e3ff7780b:0x156a0cf26019afe!8m2!3d31.078188!4d76.9566089?authuser=0&hl=en&rclk=1,31.078188,76.9566089,Himachal Pradesh
DISTT.AYURVEDIC HOSPITAL,Hospital,"Hospital Rd, Sundar Bagh Colony, Nahan, Himachal Pradesh 173001, India",https://www.google.co.kr/maps/place/DISTT.AYURVEDIC+HOSPITAL/data=!4m5!3m4!1s0x390f0c0c1ce60dcf:0xa9d230abe0ef0b4b!8m2!3d30.562631!4d77.2930615?authuser=0&hl=en&rclk=1,30.562631,77.2930615,Himachal Pradesh
Civil Hospital Kotli,Hospital,"QV5C+WQ2, Mandi, Himachal Pradesh 175003, India",https://www.google.co.kr/maps/place/Civil+Hospital+Kotli/data=!4m5!3m4!1s0x3904e0d58bc26f07:0xcb96745e42e1987!8m2!3d31.7597697!4d76.8718965?authuser=0&hl=en&rclk=1,31.7597697,76.8718965,Himachal Pradesh
Civil Hospital,Hospital,"Subhash Chowk Rd, Moti Tiba, Dalhousie, Himachal Pradesh 176304, India",https://www.google.co.kr/maps/place/Civil+Hospital/data=!4m5!3m4!1s0x391c91148034381d:0x12927af07452776!8m2!3d32.5311523!4d75.9638178?authuser=0&hl=en&rclk=1,32.5311523,75.9638178,Himachal Pradesh
Aakash Multi Speciality Hospital,Hospital,"Pinjore - Swarghat Rd, Professors Colony, Phase2, Nalagarh, Himachal Pradesh 174101, India",https://www.google.co.kr/maps/place/Aakash+Multi+Speciality+Hospital/data=!4m5!3m4!1s0x39055be77dcc26e7:0x2fcc2d592067d2a4!8m2!3d31.036579!4d76.7104929?authuser=0&hl=en&rclk=1,31.036579,76.7104929,Himachal Pradesh
hospital,Hospital,"6628+J9X, Basnur Khas, Himachal Pradesh 176208, India",https://www.google.co.kr/maps/place/hospital/data=!4m5!3m4!1s0x391b5bb72817162b:0xdbb52d4a76682d93!8m2!3d32.2016113!4d76.2159925?authuser=0&hl=en&rclk=1,32.2016113,76.2159925,Himachal Pradesh
Clinical Centre,Hospital,"Unnamed Road, New Shimla, Shimla, Himachal Pradesh 171002, India",https://www.google.co.kr/maps/place/Clinical+Centre/data=!4m5!3m4!1s0x390579a4f5519c1b:0x4ffcfcdf0fb5512!8m2!3d31.0842554!4d77.1710335?authuser=0&hl=en&rclk=1,31.0842554,77.1710335,Himachal Pradesh
सरकारी अस्पताल,Government hospital,"Sainj Rd, Sainj, Himachal Pradesh 175121, India",https://www.google.co.kr/maps/place/%E0%A4%B8%E0%A4%B0%E0%A4%95%E0%A4%BE%E0%A4%B0%E0%A5%80+%E0%A4%85%E0%A4%B8%E0%A5%8D%E0%A4%AA%E0%A4%A4%E0%A4%BE%E0%A4%B2/data=!4m5!3m4!1s0x390453992713d6ad:0x62dfd76f1f6dc34f!8m2!3d31.7699548!4d77.3064844?authuser=0&hl=en&rclk=1,31.7699548,77.3064844,Himachal Pradesh
Hospital,Hospital,"F26G+GM2, Rohanda, Himachal Pradesh 175031, India",https://www.google.co.kr/maps/place/Hospital/data=!4m5!3m4!1s0x39050fd12076e81f:0x24d458ab4f29586b!8m2!3d31.4612606!4d77.0266542?authuser=0&hl=en&rclk=1,31.4612606,77.0266542,Himachal Pradesh
Hospital,Hospital,"J8PV+MMC, Banjar, Himachal Pradesh 175123, India",https://www.google.co.kr/maps/place/Hospital/data=!4m5!3m4!1s0x3905ad71b5436191:0x73d2b66b1f5d5b26!8m2!3d31.6366971!4d77.3441336?authuser=0&hl=en&rclk=1,31.6366971,77.3441336,Himachal Pradesh
New hospital,Hospital,"Navbhahar, Shimla, Himachal Pradesh 171002, India",https://www.google.co.kr/maps/place/New+hospital/data=!4m5!3m4!1s0x39057985392f89c5:0xcad6fa7643202761!8m2!3d31.0957478!4d77.1853599?authuser=0&hl=en&rclk=1,31.0957478,77.1853599,Himachal Pradesh
"Public Health Centre,Boileuganj",Hospital,"12/1, Shimla-Kangra Rd, Boileauganj, Shimla, Himachal Pradesh 171005, India","https://www.google.co.kr/maps/place/Public+Health+Centre,Boileuganj/data=!4m5!3m4!1s0x390579199b3aaf8b:0xb726611fccf1e0f6!8m2!3d31.0997007!4d77.1393962?authuser=0&hl=en&rclk=1",31.0997007,77.1393962,Himachal Pradesh
Health Centre,Hospital,"M44J+CMC, Jhulara, Himachal Pradesh 176319, India",https://www.google.co.kr/maps/place/Health+Centre/data=!4m5!3m4!1s0x391cbf8279906685:0x639bdc1ae5e4a306!8m2!3d32.6560593!4d76.1316467?authuser=0&hl=en&rclk=1,32.6560593,76.1316467,Himachal Pradesh
Ghandalwin,Hospital,"HJJV+P3J, Neel Medicos, Ghandalwin, Himachal Pradesh 176043, India",https://www.google.co.kr/maps/place/Ghandalwin/data=!4m5!3m4!1s0x3905261fecdedd53:0x363de0c329b5b1f5!8m2!3d31.5818458!4d76.642642?authuser=0&hl=en&rclk=1,31.5818458,76.642642,Himachal Pradesh
Health sub center,Hospital,"Chanaug, Himachal Pradesh 171103, India",https://www.google.co.kr/maps/place/Health+sub+center/data=!4m5!3m4!1s0x390571f856ba7511:0xa1eb64a627add270!8m2!3d31.2378261!4d77.0193372?authuser=0&hl=en&rclk=1,31.2378261,77.0193372,Himachal Pradesh
Shri Kant Memorial Hospital,Hospital,"2P6F+4HV, Khera, Himachal Pradesh 174102, India",https://www.google.co.kr/maps/place/Shri+Kant+Memorial+Hospital/data=!4m5!3m4!1s0x39055948f158f55f:0x77be6b87d01b5a92!8m2!3d31.0103679!4d76.723918?authuser=0&hl=en&rclk=1,31.0103679,76.723918,Himachal Pradesh
Government Hospital,Hospital,"SH11, Anni, Himachal Pradesh 172025, India",https://www.google.co.kr/maps/place/Government+Hospital/data=!4m5!3m4!1s0x3905bcf3c184f6dd:0x1b4ea3081ab48418!8m2!3d31.4332038!4d77.4169743?authuser=0&hl=en&rclk=1,31.4332038,77.4169743,Himachal Pradesh
Dhanwantari Health Clinic ( Dr.Dinesh Kumar),Hospital,"Dhirar, (, near middle School, Nagrota Gazian, Himachal Pradesh 176045, India",https://www.google.co.kr/maps/place/Dhanwantari+Health+Clinic+(+Dr.Dinesh+Kumar)/data=!4m5!3m4!1s0x39052780773482a3:0x39ab7c773bbff7c4!8m2!3d31.6519002!4d76.6686373?authuser=0&hl=en&rclk=1,31.6519002,76.6686373,Himachal Pradesh
Ayurvedic Hospital,Hospital,"Unnamed Road,, Dhar Tatoh, Himachal Pradesh 174013, India",https://www.google.co.kr/maps/place/Ayurvedic+Hospital/data=!4m5!3m4!1s0x39051515d4ae2b75:0x219c190a6a6a854f!8m2!3d31.3384461!4d76.8544826?authuser=0&hl=en&rclk=1,31.3384461,76.8544826,Himachal Pradesh
Hospital,Hospital,"RQQ8+7XX, Langna, Himachal Pradesh 175014, India",https://www.google.co.kr/maps/place/Hospital/data=!4m5!3m4!1s0x3904dccd926bc839:0x31faf7c9072670c!8m2!3d31.8382419!4d76.7674797?authuser=0&hl=en&rclk=1,31.8382419,76.7674797,Himachal Pradesh
Himalaya arthritis and Medical centre at Hamirpur,Hospital,"Aastha hospital and IVF Centre Pacca bharo Ward no 1, Krishna Nagar, Himachal Pradesh 177001, India",https://www.google.co.kr/maps/place/Himalaya+arthritis+and+Medical+centre+at+Hamirpur/data=!4m5!3m4!1s0x3904d50106de12e9:0xb65df74e6adbb1ab!8m2!3d31.6963532!4d76.5014809?authuser=0&hl=en&rclk=1,31.6963532,76.5014809,Himachal Pradesh
Hospital,Hospital,"SH 26, Margaraon, Himachal Pradesh 175142, India",https://www.google.co.kr/maps/place/Hospital/data=!4m5!3m4!1s0x390337acb66a282f:0x8ef65ac55b6fa82!8m2!3d32.7390593!4d76.6344804?authuser=0&hl=en&rclk=1,32.7390593,76.6344804,Himachal Pradesh
Government Hospital,Government hospital,"M7QJ+84M, Bali Chowki, Himachal Pradesh 175106, India",https://www.google.co.kr/maps/place/Government+Hospital/data=!4m5!3m4!1s0x3905ab9650f05795:0x56990a686b983b04!8m2!3d31.6883346!4d77.2802879?authuser=0&hl=en&rclk=1,31.6883346,77.2802879,Himachal Pradesh
Civil Hospital Bagsiad,Hospital,"H46C+5CJ, Bagsiad, Himachal Pradesh 175039, India",https://www.google.co.kr/maps/place/Civil+Hospital+Bagsiad/data=!4m5!3m4!1s0x3905073ac3ad2f1d:0xfc12d231a2cf406c!8m2!3d31.560451!4d77.1210113?authuser=0&hl=en&rclk=1,31.560451,77.1210113,Himachal Pradesh
Govt hospital,Hospital,"Primary Health Center, Shimla-Kangra Rd, Kandrour, Himachal Pradesh 174004, India",https://www.google.co.kr/maps/place/Govt+hospital/data=!4m5!3m4!1s0x39053d4a6aa64203:0x498c3261d77a144b!8m2!3d31.39309!4d76.7537986?authuser=0&hl=en&rclk=1,31.39309,76.7537986,Himachal Pradesh
ECHS POLYCLINIC,Hospital,"PX28+G42, Shila Kippar, Himachal Pradesh 175124, India",https://www.google.co.kr/maps/place/ECHS+POLYCLINIC/data=!4m5!3m4!1s0x3904e28a109d08ad:0x125fcf9fad123c1d!8m2!3d31.7012663!4d76.9652627?authuser=0&hl=en&rclk=1,31.7012663,76.9652627,Himachal Pradesh
ESI Dispensary,Hospital,"W3FX+V33, Chambaghat, Himachal Pradesh 173213, India",https://www.google.co.kr/maps/place/ESI+Dispensary/data=!4m5!3m4!1s0x390f86d3cc258cff:0xdc0b1998c4d24e8!8m2!3d30.9246481!4d77.0976819?authuser=0&hl=en&rclk=1,30.9246481,77.0976819,Himachal Pradesh
Dispensary (Sub Health Center),Hospital,"34V6+CVQ, Jathia Devi, Himachal Pradesh 171011, India",https://www.google.co.kr/maps/place/Dispensary+(Sub+Health+Center)/data=!4m5!3m4!1s0x39057967be711401:0xfd3a9dbd225dcd16!8m2!3d31.0935974!4d77.1122298?authuser=0&hl=en&rclk=1,31.0935974,77.1122298,Himachal Pradesh
"आयुर्वेदिक स्वास्थ्य केंद्र , कुंगरहट्टी",Hospital,"9P3W+PW9, Kothi, Himachal Pradesh 174004, India","https://www.google.co.kr/maps/place/%E0%A4%86%E0%A4%AF%E0%A5%81%E0%A4%B0%E0%A5%8D%E0%A4%B5%E0%A5%87%E0%A4%A6%E0%A4%BF%E0%A4%95+%E0%A4%B8%E0%A5%8D%E0%A4%B5%E0%A4%BE%E0%A4%B8%E0%A5%8D%E0%A4%A5%E0%A5%8D%E0%A4%AF+%E0%A4%95%E0%A5%87%E0%A4%82%E0%A4%A6%E0%A5%8D%E0%A4%B0+,+%E0%A4%95%E0%A5%81%E0%A4%82%E0%A4%97%E0%A4%B0%E0%A4%B9%E0%A4%9F%E0%A5%8D%E0%A4%9F%E0%A5%80/data=!4m5!3m4!1s0x39053f3cbbfbc713:0x892477acd9d52745!8m2!3d31.3542879!4d76.7473492?authuser=0&hl=en&rclk=1",31.3542879,76.7473492,Himachal Pradesh
District Ayurvedic Hospital Una,Hospital,"2B-1/1005, Una-Amb Rd, Ram Nagar, Una, Himachal Pradesh 174303, India",https://www.google.co.kr/maps/place/District+Ayurvedic+Hospital+Una/data=!4m5!3m4!1s0x391adb8171128af5:0x1042a2a39b58a4c9!8m2!3d31.4676165!4d76.2654145?authuser=0&hl=en&rclk=1,31.4676165,76.2654145,Himachal Pradesh
Health Sub Center Dargeel,Hospital,"3HG3+X7J, Dargil, Himachal Pradesh 176062, India",https://www.google.co.kr/maps/place/Health+Sub+Center+Dargeel/data=!4m5!3m4!1s0x3904b74d2ab822ab:0xb1b00d3184a180e3!8m2!3d32.077471!4d76.5531354?authuser=0&hl=en&rclk=1,32.077471,76.5531354,Himachal Pradesh
Health Sub Center Bhitlu,Hospital,"67PF+MMR, Kotla, Himachal Pradesh 176217, India",https://www.google.co.kr/maps/place/Health+Sub+Center+Bhitlu/data=!4m5!3m4!1s0x391b572859e727c9:0x3bbd31c84977e477!8m2!3d32.2367398!4d76.2741363?authuser=0&hl=en&rclk=1,32.2367398,76.2741363,Himachal Pradesh
ECHS POLYCLINIC MANDI,Hospital,"PX27+3PC, Saulikhad, Mandi, Himachal Pradesh 175124, India",https://www.google.co.kr/maps/place/ECHS+POLYCLINIC+MANDI/data=!4m5!3m4!1s0x3904e2616354c211:0x6221465420efd2aa!8m2!3d31.7001843!4d76.9642724?authuser=0&hl=en&rclk=1,31.7001843,76.9642724,Himachal Pradesh
Military Hospital,Hospital,"4443+8WF, Jutogh Cantt, Shimla, Himachal Pradesh 171006, India",https://www.google.co.kr/maps/place/Military+Hospital/data=!4m5!3m4!1s0x3905797daf3ab443:0x9282121504dbaf7b!8m2!3d31.1058!4d77.104782?authuser=0&hl=en&rclk=1,31.1058,77.104782,Himachal Pradesh
Bilaspur ECHS,Hospital,"Near, Bilaspur, India",https://www.google.co.kr/maps/place/Bilaspur+ECHS/data=!4m5!3m4!1s0x39053f1a252be129:0x6e0ee0fb83670066!8m2!3d31.3391168!4d76.7630307?authuser=0&hl=en&rclk=1,31.3391168,76.7630307,Himachal Pradesh
Krsnaa Diagnostics Pvt. Ltd. (Civil Hospital),Medical diagnostic imaging center,"Near Police Station, Nh 20 Rd, Palampur, Dist, Palampur, Himachal Pradesh 176061, India",https://www.google.co.kr/maps/place/Krsnaa+Diagnostics+Pvt.+Ltd.+(Civil+Hospital)/data=!4m5!3m4!1s0x3904b3c282eb66b9:0xdacc81d4fd1032f0!8m2!3d32.1108599!4d76.5362526?authuser=0&hl=en&rclk=1,32.1108599,76.5362526,Himachal Pradesh
Seema,Hospital,"453F+W9J, The Mall, Shimla, Himachal Pradesh 171001, India",https://www.google.co.kr/maps/place/Seema/data=!4m5!3m4!1s0x390579863cc9157f:0x846e4dba6280ae2a!8m2!3d31.1048294!4d77.1733901?authuser=0&hl=en&rclk=1,31.1048294,77.1733901,Himachal Pradesh
hospital,Hospital,"33J2+GM3, Syri, Himachal Pradesh 173207, India",https://www.google.co.kr/maps/place/hospital/data=!4m5!3m4!1s0x39057b7352b6eb67:0x98e108d7e8dca887!8m2!3d31.0812743!4d77.0516621?authuser=0&hl=en&rclk=1,31.0812743,77.0516621,Himachal Pradesh
Health Center,Hospital,"3MV2+P62, Amarpur, Himachal Pradesh 176081, India",https://www.google.co.kr/maps/place/Health+Center/data=!4m5!3m4!1s0x3904b9f9a5149561:0x374e637623d76db1!8m2!3d32.0942586!4d76.6505262?authuser=0&hl=en&rclk=1,32.0942586,76.6505262,Himachal Pradesh
Health Sub Center,Hospital,"56F5+W4C, Nerti, Himachal Pradesh 176208, India",https://www.google.co.kr/maps/place/Health+Sub+Center/data=!4m5!3m4!1s0x391b5b1d636a7a55:0xf5767ae42767ef60!8m2!3d32.1748179!4d76.2077574?authuser=0&hl=en&rclk=1,32.1748179,76.2077574,Himachal Pradesh
PRIMARY HEALTH CENTER SAI,Hospital,"2R9F+29H, Sai, Himachal Pradesh 174102, India",https://www.google.co.kr/maps/place/PRIMARY+HEALTH+CENTER+SAI/data=!4m5!3m4!1s0x39055faab94326ef:0x5c7fb35511b720ce!8m2!3d31.0175713!4d76.8234777?authuser=0&hl=en&rclk=1,31.0175713,76.8234777,Himachal Pradesh
ECHS,Hospital,"Himachal Pradesh 174303, India",https://www.google.co.kr/maps/place/ECHS/data=!4m5!3m4!1s0x391adaa19a7127c7:0xe117d893c1aaa780!8m2!3d31.4505589!4d76.266253?authuser=0&hl=en&rclk=1,31.4505589,76.266253,Himachal Pradesh
GOVT. CLINIC,Hospital,"XPRW+WG8, Baddi, Himachal Pradesh 174102, India",https://www.google.co.kr/maps/place/GOVT.+CLINIC/data=!4m5!3m4!1s0x39055fd67a03779f:0x65090e77b7a9dcd3!8m2!3d30.9922764!4d76.7463288?authuser=0&hl=en&rclk=1,30.9922764,76.7463288,Himachal Pradesh
Civil Hospital,Hospital,"3CXH+Q4J, Chailla, Himachal Pradesh 171220, India",https://www.google.co.kr/maps/place/Civil+Hospital/data=!4m5!3m4!1s0x3905892b19b30d0d:0xf4133a52b5eff369!8m2!3d31.0994642!4d77.4277655?authuser=0&hl=en&rclk=1,31.0994642,77.4277655,Himachal Pradesh
Health Sub Center Ganoh,Hospital,"Panjahra Damuwal, Himachal Pradesh 176051, India",https://www.google.co.kr/maps/place/Health+Sub+Center+Ganoh/data=!4m5!3m4!1s0x391b7d689d67135b:0x399927cc6da33674!8m2!3d32.2473218!4d75.8928402?authuser=0&hl=en&rclk=1,32.2473218,75.8928402,Himachal Pradesh
Health Sub Center Bhatechh,Hospital,"666R+6VM, Tharu, Himachal Pradesh 176217, India",https://www.google.co.kr/maps/place/Health+Sub+Center+Bhatechh/data=!4m5!3m4!1s0x391b5b55f73ddca9:0x9c44d7b6c9636d1f!8m2!3d32.210589!4d76.2421795?authuser=0&hl=en&rclk=1,32.210589,76.2421795,Himachal Pradesh
Primary health center,Hospital,"4997+8RV, Dharwas, Himachal Pradesh 176323, India",https://www.google.co.kr/maps/place/Primary+health+center/data=!4m5!3m4!1s0x391d2bef52c360d5:0x497b182abcad3671!8m2!3d33.1183592!4d76.3645623?authuser=0&hl=en&rclk=1,33.1183592,76.3645623,Himachal Pradesh
Medical Center,Hospital,"MDR38, Himachal Pradesh 177028, India",https://www.google.co.kr/maps/place/Medical+Center/data=!4m5!3m4!1s0x3904cdbaa8131983:0x75346d0d3c5cdaa7!8m2!3d31.8571791!4d76.5354809?authuser=0&hl=en&rclk=1,31.8571791,76.5354809,Himachal Pradesh
GOVERNMENT HOSPITAL,Government hospital,"H6X4+GMR, Shihl, Himachal Pradesh 175035, India",https://www.google.co.kr/maps/place/GOVERNMENT+HOSPITAL/data=!4m5!3m4!1s0x3905a93a5976a005:0xb309b892e17d54cf!8m2!3d31.5988717!4d77.2066325?authuser=0&hl=en&rclk=1,31.5988717,77.2066325,Himachal Pradesh
Hospital Mandhorghat,Hospital,"Shimla, Himachal Pradesh 171103, India",https://www.google.co.kr/maps/place/Hospital+Mandhorghat/data=!4m5!3m4!1s0x390573d53ba0bc19:0x4311629bd70cc10f!8m2!3d31.2460248!4d77.0574648?authuser=0&hl=en&rclk=1,31.2460248,77.0574648,Himachal Pradesh
Government Hospital,Hospital,"F87W+H29, Bishla Dhar, Himachal Pradesh 172026, India",https://www.google.co.kr/maps/place/Government+Hospital/data=!4m5!3m4!1s0x3905a49aa3d95369:0x65893bbe4358f6c8!8m2!3d31.4639242!4d77.3451176?authuser=0&hl=en&rclk=1,31.4639242,77.3451176,Himachal Pradesh
Rajehar government dispensary,Hospital,"4H5R+RR2, Rajehar, Himachal Pradesh 176081, India",https://www.google.co.kr/maps/place/Rajehar+government+dispensary/data=!4m5!3m4!1s0x3904b1f897126173:0xf7750faf0714b64a!8m2!3d32.1095153!4d76.5920043?authuser=0&hl=en&rclk=1,32.1095153,76.5920043,Himachal Pradesh
Hospital,Hospital,"H9JJ+32X, Skibba, Himachal Pradesh 172116, India",https://www.google.co.kr/maps/place/Hospital/data=!4m5!3m4!1s0x3906438bdfaf314b:0xbe6f539069b22064!8m2!3d31.5802332!4d78.3801103?authuser=0&hl=en&rclk=1,31.5802332,78.3801103,Himachal Pradesh
Health Sub Center Kathal,Hospital,"7R4W+82X, Bhaleta, Himachal Pradesh 176204, India",https://www.google.co.kr/maps/place/Health+Sub+Center+Kathal/data=!4m5!3m4!1s0x391b7de2bc3eaaef:0x1c201e0aa0142f6f!8m2!3d32.2558622!4d75.8451103?authuser=0&hl=en&rclk=1,32.2558622,75.8451103,Himachal Pradesh
Primary Health Centre Delath,Government hospital,"NH22, Himachal Pradesh 172028, India",https://www.google.co.kr/maps/place/Primary+Health+Centre+Delath/data=!4m5!3m4!1s0x390595560a4ce415:0x726a73855156db78!8m2!3d31.3403881!4d77.5416866?authuser=0&hl=en&rclk=1,31.3403881,77.5416866,Himachal Pradesh
Parvati Hospital,Hospital,"Himachal Pradesh 177025, India",https://www.google.co.kr/maps/place/Parvati+Hospital/data=!4m5!3m4!1s0x3904d78555555555:0xd694cbbc87d0604b!8m2!3d31.6821598!4d76.6297189?authuser=0&hl=en&rclk=1,31.6821598,76.6297189,Himachal Pradesh
Health Sub Center Kothi Molag,Hospital,"Samletr, Himachal Pradesh 176088, India",https://www.google.co.kr/maps/place/Health+Sub+Center+Kothi+Molag/data=!4m5!3m4!1s0x3904c774d4e5dbb7:0xf6d522bd19e36c89!8m2!3d31.9356846!4d76.6654391?authuser=0&hl=en&rclk=1,31.9356846,76.6654391,Himachal Pradesh
PRIMERY HEALTH CENTER,Hospital,"Nankhari Rd, Himachal Pradesh 172028, India",https://www.google.co.kr/maps/place/PRIMERY+HEALTH+CENTER/data=!4m5!3m4!1s0x39059582ad0b7e41:0x94406f1386bf6582!8m2!3d31.3488547!4d77.5493006?authuser=0&hl=en&rclk=1,31.3488547,77.5493006,Himachal Pradesh
First Add Center,Hospital,"66MQ+V24, Shimla, Himachal Pradesh 171001, India",https://www.google.co.kr/maps/place/First+Add+Center/data=!4m5!3m4!1s0x39059db47dea0b59:0x5b26eaf507c4ae4c!8m2!3d31.2346319!4d77.2375668?authuser=0&hl=en&rclk=1,31.2346319,77.2375668,Himachal Pradesh
"Sub- Health Centre, Chelang",Hospital,"WQPC+QQJ, Chelang, Himachal Pradesh 175016, India","https://www.google.co.kr/maps/place/Sub-+Health+Centre,+Chelang/data=!4m5!3m4!1s0x3904c17c70000001:0x5580e9ab3d45fd85!8m2!3d31.9369717!4d76.7718838?authuser=0&hl=en&rclk=1",31.9369717,76.7718838,Himachal Pradesh
Krsnaa Diagnostics Pvt. Ltd (Civil Hospital),Medical diagnostic imaging center,"Sundernagar, near lalit Chowk, Himachal Pradesh 175018, India",https://www.google.co.kr/maps/place/Krsnaa+Diagnostics+Pvt.+Ltd+(Civil+Hospital)/data=!4m5!3m4!1s0x390519c7dbd80ae1:0x136b77d0829ca9b2!8m2!3d31.5164781!4d76.8839871?authuser=0&hl=en&rclk=1,31.5164781,76.8839871,Himachal Pradesh
Primary Health Center Smaila,Government hospital,"GQC6+MQ6, Smaila, Himachal Pradesh 175034, India",https://www.google.co.kr/maps/place/Primary+Health+Center+Smaila/data=!4m5!3m4!1s0x3905230c1b05f861:0x68ea54f3c53a582e!8m2!3d31.5216519!4d76.7618762?authuser=0&hl=en&rclk=1,31.5216519,76.7618762,Himachal Pradesh
AIIMS BILASPUR,Hospital,"8QQ9+PG9, Kosrian Sector, Bilaspur, Himachal Pradesh 174001, India",https://www.google.co.kr/maps/place/AIIMS+BILASPUR/data=!4m5!3m4!1s0x39053ffd9652144d:0x915873c454e7fb7c!8m2!3d31.3392948!4d76.7688524?authuser=0&hl=en&rclk=1,31.3392948,76.7688524,Himachal Pradesh
Primary Health Center,Government hospital,"Bhambla Trifalghat Kalkhar Rd, Himachal Pradesh 175033, India",https://www.google.co.kr/maps/place/Primary+Health+Center/data=!4m5!3m4!1s0x3905213d0293da97:0xfdf62cca53963885!8m2!3d31.6034618!4d76.7539215?authuser=0&hl=en&rclk=1,31.6034618,76.7539215,Himachal Pradesh
Health Sub Center Sansai,Hospital,"WMG7+XX9, Kurang, Himachal Pradesh 176088, India",https://www.google.co.kr/maps/place/Health+Sub+Center+Sansai/data=!4m5!3m4!1s0x3904c7c7d9546463:0x814f2073220a9cf!8m2!3d31.9274172!4d76.6649945?authuser=0&hl=en&rclk=1,31.9274172,76.6649945,Himachal Pradesh
Health Sub Center Kamlota,Hospital,"R8HH+MVP, Basdi Kohala, Himachal Pradesh 176036, India",https://www.google.co.kr/maps/place/Health+Sub+Center+Kamlota/data=!4m5!3m4!1s0x391b31b8dfc0e69d:0x99439fd429531dbf!8m2!3d31.8292104!4d76.329711?authuser=0&hl=en&rclk=1,31.8292104,76.329711,Himachal Pradesh
Health Center,Hospital,"M883+M47, Manglor, Ratwah, Himachal Pradesh 175106, India",https://www.google.co.kr/maps/place/Health+Center/data=!4m5!3m4!1s0x3905ad7e91745b8f:0x2b248d9ab05f8894!8m2!3d31.6666661!4d77.3028091?authuser=0&hl=en&rclk=1,31.6666661,77.3028091,Himachal Pradesh
Government health centre,Hospital,"Village Pandwin, Ukhali Towenprari Road, P.O, Mair, Himachal Pradesh 176042, India",https://www.google.co.kr/maps/place/Government+health+centre/data=!4m5!3m4!1s0x390528dae700e575:0xe45a3010a1dd814e!8m2!3d31.5698216!4d76.6050009?authuser=0&hl=en&rclk=1,31.5698216,76.6050009,Himachal Pradesh
Primary Health Center Nehra (Delag),Hospital,"Primary health center, delag Panohi, Nehra, Himachal Pradesh 171103, India",https://www.google.co.kr/maps/place/Primary+Health+Center+Nehra+(Delag)/data=!4m5!3m4!1s0x390571a4bcbd0499:0xebda2d35cf8aef0f!8m2!3d31.2271352!4d77.0219877?authuser=0&hl=en&rclk=1,31.2271352,77.0219877,Himachal Pradesh
sub division hospital,Hospital,"89RC+W88, Baragaon, Himachal Pradesh 172027, India",https://www.google.co.kr/maps/place/sub+division+hospital/data=!4m5!3m4!1s0x390598226e7c774b:0xdd68b694ad510b21!8m2!3d31.3422961!4d77.3708331?authuser=0&hl=en&rclk=1,31.3422961,77.3708331,Himachal Pradesh
RRC & MSC TUTIKANDI,Hospital,"35Q3+4J4, Shimla, Himachal Pradesh 171004, India",https://www.google.co.kr/maps/place/RRC+%26+MSC+TUTIKANDI/data=!4m5!3m4!1s0x390578d981cc782b:0xbeb4474a1eff73c6!8m2!3d31.0877637!4d77.1540724?authuser=0&hl=en&rclk=1,31.0877637,77.1540724,Himachal Pradesh
Krsnaa Diagnostics Pvt. Ltd. (Regional Hospital),Diagnostic center,"Dholpur, Road, Kullu, 175101, India",https://www.google.co.kr/maps/place/Krsnaa+Diagnostics+Pvt.+Ltd.+(Regional+Hospital)/data=!4m5!3m4!1s0x3904f6afd157a0f1:0xb0366da7b08a8510!8m2!3d31.9566567!4d77.1114918?authuser=0&hl=en&rclk=1,31.9566567,77.1114918,Himachal Pradesh
Hamir Hospital - Laparoscopic / Major and Minor Surgeries / Major and Minor Surgeries in Hamirpur,Surgeon,"Bypass Road, near Basant Resort, Hamirpur, Himachal Pradesh 177001, India",https://www.google.co.kr/maps/place/Hamir+Hospital+-+Laparoscopic+%2F+Major+and+Minor+Surgeries+%2F+Major+and+Minor+Surgeries+in+Hamirpur/data=!4m5!3m4!1s0x3904d504a2c67af3:0xf40f7e39a47ce53a!8m2!3d31.683054!4d76.5139131?authuser=0&hl=en&rclk=1,31.683054,76.5139131,Himachal Pradesh
General Hospital,Hospital,"Kalka-Baddi Rd, Pinjore, Haryana 134104, India",https://www.google.co.kr/maps/place/General+Hospital/data=!4m5!3m4!1s0x390f8de0f427394d:0xac19e698a274859f!8m2!3d30.7997397!4d76.9152381?authuser=0&hl=en&rclk=1,30.7997397,76.9152381,Himachal Pradesh
Lag Valley Hospital,Hospital,"X385+37C, Dughilag, Himachal Pradesh 175102, India",https://www.google.co.kr/maps/place/Lag+Valley+Hospital/data=!4m5!3m4!1s0x3904f360c9a915bd:0x31bfa1fb451c66b2!8m2!3d31.9651907!4d77.0581273?authuser=0&hl=en&rclk=1,31.9651907,77.0581273,Himachal Pradesh
Civil hospital,Hospital,"RWQQ+95Q, Kurari Mohalla, Kalka, Haryana 133302, India",https://www.google.co.kr/maps/place/Civil+hospital/data=!4m5!3m4!1s0x390f8e926486ad45:0x33ab226441e8703c!8m2!3d30.8384566!4d76.9379961?authuser=0&hl=en&rclk=1,30.8384566,76.9379961,Himachal Pradesh
Krsnaa Diagnostics Pvt. Ltd. (Civil Hospital-Rajkiya Chikistalaya),Medical diagnostic imaging center,"6Q22+GW4, Rohru, Himachal Pradesh 171207, India",https://www.google.co.kr/maps/place/Krsnaa+Diagnostics+Pvt.+Ltd.+(Civil+Hospital-Rajkiya+Chikistalaya)/data=!4m5!3m4!1s0x3905faa21333f101:0x98ea60569defe329!8m2!3d31.2012678!4d77.752342?authuser=0&hl=en&rclk=1,31.2012678,77.752342,Himachal Pradesh
Government Hospital,Hospital,"Mashobra, Himachal Pradesh 171007, India",https://www.google.co.kr/maps/place/Government+Hospital/data=!4m5!3m4!1s0x390582f7245db511:0xdf17b00c8ad3a1b8!8m2!3d31.1309074!4d77.2265914?authuser=0&hl=en&rclk=1,31.1309074,77.2265914,Himachal Pradesh
DHARAM HOSPITAL,Private hospital,"#2040 sector 15 c, Chandigarh 160015, India",https://www.google.co.kr/maps/place/DHARAM+HOSPITAL/data=!4m5!3m4!1s0x390fed9b3fffffff:0xe0e216643c1ac722!8m2!3d30.7492297!4d76.7740115?authuser=0&hl=en&rclk=1,30.7492297,76.7740115,Himachal Pradesh
Krsnaa Diagnostics (Netaji Subhash Chandra Bose Zonal Hospital),Diagnostic center,"PW6G+HVC, Palace Colony, Mandi, Himachal Pradesh 175001, India",https://www.google.co.kr/maps/place/Krsnaa+Diagnostics+(Netaji+Subhash+Chandra+Bose+Zonal+Hospital)/data=!4m5!3m4!1s0x3904e22508dd4d0d:0xcb4b1b84509fdb96!8m2!3d31.7114297!4d76.9271274?authuser=0&hl=en&rclk=1,31.7114297,76.9271274,Himachal Pradesh
I N Hospital,Nursing home,"36W3+8GF, Jawahar Colony, Bhattakufer, Shimla, Himachal Pradesh 171006, India",https://www.google.co.kr/maps/place/I+N+Hospital/data=!4m5!3m4!1s0x390583c00e800393:0x7934817e819b663!8m2!3d31.0958101!4d77.2038044?authuser=0&hl=en&rclk=1,31.0958101,77.2038044,Himachal Pradesh
Asha,Hospital,"V3Q4+9VV, Kumarhatti, Himachal Pradesh 173229, India",https://www.google.co.kr/maps/place/Asha/data=!4m5!3m4!1s0x390f87509e549f31:0x392dde4f101283ec!8m2!3d30.8884975!4d77.0571659?authuser=0&hl=en&rclk=1,30.8884975,77.0571659,Himachal Pradesh
Healing Hospital- Best Super Speciality Hospital in Chandigarh,Hospital,"SCO 16-17-18-19-20, Sub. City Center, Sector 34A, Sector 35, Chandigarh, 160022, India",https://www.google.co.kr/maps/place/Healing+Hospital-+Best+Super+Speciality+Hospital+in+Chandigarh/data=!4m5!3m4!1s0x390fedae06440b71:0x96f0b99e412a2f99!8m2!3d30.7245935!4d76.7688916?authuser=0&hl=en&rclk=1,30.7245935,76.7688916,Himachal Pradesh
"Max Super Specialty Hospital, Mohali",Hospital,"Chandigarh Rd, near Civil Hospital, Phase 6, Sector 56, Sahibzada Ajit Singh Nagar, Punjab 160055, India","https://www.google.co.kr/maps/place/Max+Super+Specialty+Hospital,+Mohali/data=!4m5!3m4!1s0x390fee144e36fcd5:0xa254c2b1f858248a!8m2!3d30.74008!4d76.7142961?authuser=0&hl=en&rclk=1",30.74008,76.7142961,Himachal Pradesh
Mukat Hospital & Heart Institute,General hospital,"47, S.C.O, 49, Dakshin Marg, Sector 34A, Chandigarh, 160022, India",https://www.google.co.kr/maps/place/Mukat+Hospital+%26+Heart+Institute/data=!4m5!3m4!1s0x390fedb315555551:0x31a8410f96dd6b9!8m2!3d30.7229206!4d76.7705566?authuser=0&hl=en&rclk=1,30.7229206,76.7705566,Himachal Pradesh
Indus Super Speciality Hospital,General hospital,"opp. Old DC Office, Sector 55, Phase 1, Sector 55, Sahibzada Ajit Singh Nagar, Chandigarh 160055, India",https://www.google.co.kr/maps/place/Indus+Super+Speciality+Hospital/data=!4m5!3m4!1s0x390feda785d2ec5f:0x6301495b4669e0ed!8m2!3d30.7292742!4d76.7219871?authuser=0&hl=en&rclk=1,30.7292742,76.7219871,Himachal Pradesh
Civil Hospital,Hospice,"G68C+CX2, Janjehli, Himachal Pradesh 175047, India",https://www.google.co.kr/maps/place/Civil+Hospital/data=!4m5!3m4!1s0x3905a7c39afe8389:0x18f509114377e117!8m2!3d31.5160113!4d77.2223938?authuser=0&hl=en&rclk=1,31.5160113,77.2223938,Himachal Pradesh
SRL Diagnostics,Diagnostic center,"Sankhyan Complex, below BCS, New Shimla, Shimla, Himachal Pradesh 171009, India",https://www.google.co.kr/maps/place/SRL+Diagnostics/data=!4m5!3m4!1s0x3905798f6506af7d:0x1e815f02c10efe7c!8m2!3d31.0825156!4d77.1727808?authuser=0&hl=en&rclk=1,31.0825156,77.1727808,Himachal Pradesh
Indus Hospital,General hospital,"SCF 98-100, Near Chawla Chowk, Phase 3B-2, Sector 60, Sahibzada Ajit Singh Nagar, Punjab 160059, India",https://www.google.co.kr/maps/place/Indus+Hospital/data=!4m5!3m4!1s0x390fee8605689d5d:0xd59b4b3b1af58a09!8m2!3d30.7089058!4d76.7225259?authuser=0&hl=en&rclk=1,30.7089058,76.7225259,Himachal Pradesh
"Block A, Nehru Hospital PGI",Hospital,"Nehru Hospital PGI, Madhya Marg, Sector 12, Chandigarh, 160012, India","https://www.google.co.kr/maps/place/Block+A,+Nehru+Hospital+PGI/data=!4m5!3m4!1s0x390fed80e18baf6d:0x8f57a2f13e9f034e!8m2!3d30.761799!4d76.7758368?authuser=0&hl=en&rclk=1",30.761799,76.7758368,Himachal Pradesh
Civil hospital,Hospital,"QQ4Q+HWG, Sector 10A, Sector 10, Khamanon, Punjab 160011, India",https://www.google.co.kr/maps/place/Civil+hospital/data=!4m5!3m4!1s0x390fed9fe126cc8f:0x80d9b5944a9e1179!8m2!3d30.7564289!4d76.7898216?authuser=0&hl=en&rclk=1,30.7564289,76.7898216,Himachal Pradesh
PGI Chandigarh,Hospital,"New OPD PGI, Sector 12, Chandigarh, 160012, India",https://www.google.co.kr/maps/place/PGI+Chandigarh/data=!4m5!3m4!1s0x390ff38e8152b0cd:0xde151a432d7c2bec!8m2!3d30.766192!4d76.7783748?authuser=0&hl=en&rclk=1,30.766192,76.7783748,Himachal Pradesh
Hospital,Hospital,"22A, Sector 22, Chandigarh, 160062, India",https://www.google.co.kr/maps/place/Hospital/data=!4m5!3m4!1s0x390fee97717eccab:0x7d39d606bef34734!8m2!3d30.7345113!4d76.7724913?authuser=0&hl=en&rclk=1,30.7345113,76.7724913,Himachal Pradesh
Government Multi Specialty Hospital,Government hospital,"Madhya Marg, Sector 16 A, Sector 16, Chandigarh, 160015, India",https://www.google.co.kr/maps/place/Government+Multi+Specialty+Hospital/data=!4m5!3m4!1s0x390fed9e6aaaaaab:0xb69ac75e920cdba5!8m2!3d30.7515025!4d76.780409?authuser=0&hl=en&rclk=1,30.7515025,76.780409,Himachal Pradesh
"Fortis Medcentre Hospital in Chandigarh, Punjab",Medical clinic,"SCO, 11D, Sector 11, Chandigarh, 160011, India","https://www.google.co.kr/maps/place/Fortis+Medcentre+Hospital+in+Chandigarh,+Punjab/data=!4m5!3m4!1s0x390fed793fffff97:0x26ac8f25971112f6!8m2!3d30.7606565!4d76.7820387?authuser=0&hl=en&rclk=1",30.7606565,76.7820387,Himachal Pradesh
"PGI Hospital, Chandigarh",Hospital,"PGIMER, Madhya Marg, Sector 12, Chandigarh, 160012, India","https://www.google.co.kr/maps/place/PGI+Hospital,+Chandigarh/data=!4m5!3m4!1s0x390feddd2636254b:0xc6016b971a74b592!8m2!3d30.7604584!4d76.775389?authuser=0&hl=en&rclk=1",30.7604584,76.775389,Himachal Pradesh
Hospital,Hospital,"PVHR+CW2, Chandimandir Cantonment, Chandi Mandir, Haryana 134107, India",https://www.google.co.kr/maps/place/Hospital/data=!4m5!3m4!1s0x390f936fecb3be91:0x144137ed5ecf68ca!8m2!3d30.7285106!4d76.8922729?authuser=0&hl=en&rclk=1,30.7285106,76.8922729,Himachal Pradesh
Fortis Hospital Mohali,Hospital,"Sector 62, Sahibzada Ajit Singh Nagar, Punjab 160062, India",https://www.google.co.kr/maps/place/Fortis+Hospital+Mohali/data=!4m5!3m4!1s0x390fee9f04ed85e1:0x63296ed41f02307d!8m2!3d30.6952387!4d76.7314157?authuser=0&hl=en&rclk=1,30.6952387,76.7314157,Himachal Pradesh
Cloudnine Hospital - Chandigarh,Maternity hospital,"48, Phase-2, Industrial Area Phase I, Chandigarh, 160002, India",https://www.google.co.kr/maps/place/Cloudnine+Hospital+-+Chandigarh/data=!4m5!3m4!1s0x390fecf305a2d351:0x46dbd6e5ebd44ac4!8m2!3d30.700183!4d76.787673?authuser=0&hl=en&rclk=1,30.700183,76.787673,Himachal Pradesh
Civil Hospital Manimajra,Hospital,"PR7R+3XR, Sector 13, Chandigarh, Haryana 160101, India",https://www.google.co.kr/maps/place/Civil+Hospital+Manimajra/data=!4m5!3m4!1s0x390f933b70683ce9:0xe1cb4161a4fe0e32!8m2!3d30.7127379!4d76.8424016?authuser=0&hl=en&rclk=1,30.7127379,76.8424016,Himachal Pradesh
"Indus International Hospital, Derabassi",Private hospital,"Near Jawaharpur, Chandigarh - Ambala Road, National Highway No.22, Derabassi, MOHALI, Punjab 140507, India","https://www.google.co.kr/maps/place/Indus+International+Hospital,+Derabassi/data=!4m5!3m4!1s0x390fbf882d84d15d:0xbffbcec835386739!8m2!3d30.5566349!4d76.8268035?authuser=0&hl=en&rclk=1",30.5566349,76.8268035,Himachal Pradesh
Hospital,Hospital,"110, Civil Hospital Rd, Sector 6, Panchkula, Haryana 134109, India",https://www.google.co.kr/maps/place/Hospital/data=!4m5!3m4!1s0x390f931695d36993:0x4a7f6c1846a02731!8m2!3d30.7048918!4d76.8550743?authuser=0&hl=en&rclk=1,30.7048918,76.8550743,Himachal Pradesh
ANH 3D /4D Ultrasound - India's most Advanced 3D Ultrasound,Hospital,"SCO 31, SEC 15-C, Chandigarh, 160015, India",https://www.google.co.kr/maps/place/ANH+3D+%2F4D+Ultrasound+-+India's+most+Advanced+3D+Ultrasound/data=!4m5!3m4!1s0x390fedc5114235b3:0xcabe33c07e9f7740!8m2!3d30.7520565!4d76.7719939?authuser=0&hl=en&rclk=1,30.7520565,76.7719939,Himachal Pradesh
Fortis hospital,Hospital,"MQHQ+89Q, Chandigarh Airport Area, Chandigarh, 160003, India",https://www.google.co.kr/maps/place/Fortis+hospital/data=!4m5!3m4!1s0x390fede1040a7ca7:0x4865d99d3ac9840e!8m2!3d30.6783321!4d76.7884713?authuser=0&hl=en&rclk=1,30.6783321,76.7884713,Himachal Pradesh
Cloudnine Hospital (Paras/Pure Bliss) - Panchkula,Maternity hospital,"Room 4C,Sector -5,Swastik Vihar, Mansa Devi Complex, Panchkula, Haryana 134109, India",https://www.google.co.kr/maps/place/Cloudnine+Hospital+(Paras%2FPure+Bliss)+-+Panchkula/data=!4m5!3m4!1s0x390f931e90d77661:0xa3c4b4b48acc4d7d!8m2!3d30.716996!4d76.851485?authuser=0&hl=en&rclk=1,30.716996,76.851485,Himachal Pradesh
Cancer Hospital,Hospital,"7394+RM2, Shelaqui, Haripur, Nawada, Dehradun, Uttarakhand 248005, India",https://www.google.co.kr/maps/place/Cancer+Hospital/data=!4m5!3m4!1s0x3909292455555555:0x8e48cbf4c69460b2!8m2!3d30.2695026!4d78.0566344?authuser=0&hl=en&rclk=1,30.2695026,78.0566344,Himachal Pradesh
"Fortis Escorts Hospital, Dehradun",Hospital,"2nd Floor, Coronation Hospital, Curzon Rd, Dalanwala, Dehradun, Uttarakhand 248001, India","https://www.google.co.kr/maps/place/Fortis+Escorts+Hospital,+Dehradun/data=!4m5!3m4!1s0x390929b65632ccad:0xfd495f0b3dcf32ef!8m2!3d30.3206928!4d78.0576317?authuser=0&hl=en&rclk=1",30.3206928,78.0576317,Himachal Pradesh
Hospital,Diagnostic center,"344, Sector 4, Mansa Devi Complex, MDC Sector 4, Panchkula, Haryana 134114, India",https://www.google.co.kr/maps/place/Hospital/data=!4m5!3m4!1s0x390f92e1ff53da5b:0xf821ad6bf4027fc9!8m2!3d30.7278248!4d76.8547685?authuser=0&hl=en&rclk=1,30.7278248,76.8547685,Himachal Pradesh
"Dr. Harneet Singh GASTRO, LIVER & ENDOSCOPY CENTRE - Gastroenterology & Hepatology SPECIALIST",Gastroenterologist,"H.No. 156, Sector 27 A, Chandigarh 160019, India","https://www.google.co.kr/maps/place/Dr.+Harneet+Singh+GASTRO,+LIVER+%26+ENDOSCOPY+CENTRE+-+Gastroenterology+%26+Hepatology+SPECIALIST/data=!4m5!3m4!1s0x390fed1f12865d41:0x80c32b959d244c0c!8m2!3d30.725809!4d76.801272?authuser=0&hl=en&rclk=1",30.725809,76.801272,Himachal Pradesh
Fortis Hospital Ludhiana,Hospital,"Chandigarh Rd, near Radha Soami Satsang Bhavan, Village, Mundian Kalan, Ludhiana, Punjab 141010, India",https://www.google.co.kr/maps/place/Fortis+Hospital+Ludhiana/data=!4m5!3m4!1s0x391a8179bb6cc497:0x2b4288dfe693927a!8m2!3d30.8894461!4d75.9352818?authuser=0&hl=en&rclk=1,30.8894461,75.9352818,Himachal Pradesh
Medicos Centre,Diagnostic center,"SCO 801-802 Opposite Parade Ground, Sector 22A, Chandigarh, 160022, India",https://www.google.co.kr/maps/place/Medicos+Centre/data=!4m5!3m4!1s0x390feda4a4306505:0xedf57ac0d1f0ce61!8m2!3d30.7390088!4d76.7743492?authuser=0&hl=en&rclk=1,30.7390088,76.7743492,Himachal Pradesh
