Company_Name,Category,Address,Url,Latitude,Longitude,Territory
All India Institute of Medical Sciences,Government hospital,"Tehsil Badli, Badsa, Haryana 124105, India",https://www.google.co.kr/maps/place/All+India+Institute+of+Medical+Sciences/data=!4m5!3m4!1s0x390d137f56b3d8bd:0x2f6a61b5a8365b4b!8m2!3d28.4987734!4d76.8720675?authuser=0&hl=en&rclk=1,28.4987734,76.8720675,Haryana
Civil Hospital,Government hospital,"Jharsa Rd, near Bus Stand Road, Fountain Chowk, Police Lines, Gurugram, Haryana 122001, India",https://www.google.co.kr/maps/place/Civil+Hospital/data=!4m5!3m4!1s0x390d1836977d8f39:0x7df5f0f63f0b4074!8m2!3d28.4612172!4d77.0338363?authuser=0&hl=en&rclk=1,28.4612172,77.0338363,Haryana
Chhabra Hospital Panipat,General hospital,"1, Narain Singh Park, Near Ramlal Chowk, Assanth Road, Panipat, Haryana 132103, India",https://www.google.co.kr/maps/place/Chhabra+Hospital+Panipat/data=!4m5!3m4!1s0x390ddbb4253d035f:0x2318470719668b76!8m2!3d29.3950658!4d76.9591301?authuser=0&hl=en&rclk=1,29.3950658,76.9591301,Haryana
Central Medical Centre,Private hospital,"Near, Delhi Road, Dabra Chowk Rd, Bank Colony, Hisar, Haryana 125001, India",https://www.google.co.kr/maps/place/Central+Medical+Centre/data=!4m5!3m4!1s0x3912333c2a80de4d:0x266e02249150373e!8m2!3d29.1408879!4d75.7341024?authuser=0&hl=en&rclk=1,29.1408879,75.7341024,Haryana
FIMS Hospital,General hospital,"Sonipat Bahalgarh Road, Haryana 131001, India",https://www.google.co.kr/maps/place/FIMS+Hospital/data=!4m5!3m4!1s0x390dae10afe758b9:0xba086fb3c026624e!8m2!3d28.9726023!4d77.0687223?authuser=0&hl=en&rclk=1,28.9726023,77.0687223,Haryana
Aryan Hospital,General hospital,"78, Old Railway Rd, Rattan Garden, Shivpuri Extension, Sector 7, Gurugram, Haryana 122001, India",https://www.google.co.kr/maps/place/Aryan+Hospital/data=!4m5!3m4!1s0x390d19d2ed327641:0xe82baf86ae51842c!8m2!3d28.4695251!4d77.0195729?authuser=0&hl=en&rclk=1,28.4695251,77.0195729,Haryana
Ghai Hospital,General hospital,"29, 9-10 Dividing Road, J Block, Sector 9, Faridabad, Haryana 121006, India",https://www.google.co.kr/maps/place/Ghai+Hospital/data=!4m5!3m4!1s0x390cdc602c216763:0xeca3fb0cda0ee0b8!8m2!3d28.3769304!4d77.3294418?authuser=0&hl=en&rclk=1,28.3769304,77.3294418,Haryana
Mann MultiSpecialty Hospital,General hospital,"near Radio Station, Company Bagh, Rohtak, Haryana 124001, India",https://www.google.co.kr/maps/place/Mann+MultiSpecialty+Hospital/data=!4m5!3m4!1s0x390d85a6a10580ab:0xdc448fce36eebd10!8m2!3d28.8982732!4d76.5895775?authuser=0&hl=en&rclk=1,28.8982732,76.5895775,Haryana
Prabhakar Hospital,General hospital,"1, Assandh Rd, near Fly over, Diwan Nagar, Hari Bagh Colony, Panipat, Haryana 132103, India",https://www.google.co.kr/maps/place/Prabhakar+Hospital/data=!4m5!3m4!1s0x390ddbb936ef6ce5:0xbbcd309a42c49cd!8m2!3d29.3945632!4d76.9597958?authuser=0&hl=en&rclk=1,29.3945632,76.9597958,Haryana
Sapra Multispeciality Hospital,Private hospital,"Rajgarh Road, Sector 15A, near Court Complex, Hisar, Haryana 125001, India",https://www.google.co.kr/maps/place/Sapra+Multispeciality+Hospital/data=!4m5!3m4!1s0x39123335286cfcb9:0x91e6951275b67a5f!8m2!3d29.1366352!4d75.7149121?authuser=0&hl=en&rclk=1,29.1366352,75.7149121,Haryana
Haryana Multispeciality Hospital,General hospital,"Vivekanand Chowk, Delhi Rd, behind Bullet Showroom, Janta Colony, Sonipat, Haryana 131001, India",https://www.google.co.kr/maps/place/Haryana+Multispeciality+Hospital/data=!4m5!3m4!1s0x390db06b2b500203:0xff55aacbc0d07d2!8m2!3d28.9914163!4d77.032713?authuser=0&hl=en&rclk=1,28.9914163,77.032713,Haryana
Maharaja Agrasen Civil Hospital,General hospital,"Sirsa Rd, Tayal Bagh Colony, Hisar, Haryana 125001, India",https://www.google.co.kr/maps/place/Maharaja+Agrasen+Civil+Hospital/data=!4m5!3m4!1s0x391232cdc92daff3:0x10940781b6bf6106!8m2!3d29.1697504!4d75.7185033?authuser=0&hl=en&rclk=1,29.1697504,75.7185033,Haryana
SHAH HOSPITAL - Best Hospital In Kaithal,General hospital,"opp.old, bus stand, Jind - Kaithal Rd, Amar Garh Colony, Kaithal, Haryana 136027, India",https://www.google.co.kr/maps/place/SHAH+HOSPITAL+-+Best+Hospital+In+Kaithal/data=!4m5!3m4!1s0x3911e08c60c75425:0x420aa9676cd24534!8m2!3d29.8005907!4d76.4028874?authuser=0&hl=en&rclk=1,29.8005907,76.4028874,Haryana
Gaba Hospital,General hospital,"Bye pass road, Yamuna Nagar, Haryana 135001, India",https://www.google.co.kr/maps/place/Gaba+Hospital/data=!4m5!3m4!1s0x390efbd712027f39:0xd3ae88d92fa32990!8m2!3d30.147047!4d77.2900618?authuser=0&hl=en&rclk=1,30.147047,77.2900618,Haryana
Saraswati Mission Hospital,General hospital,"Kaithal - Ambala Rd, Dist, Pehowa, Haryana 136128, India",https://www.google.co.kr/maps/place/Saraswati+Mission+Hospital/data=!4m5!3m4!1s0x390e25ae12c3d317:0x97f3d4713f9d5ac2!8m2!3d29.9883294!4d76.5883534?authuser=0&hl=en&rclk=1,29.9883294,76.5883534,Haryana
Ujala Cygnus: Maharaja Agarsain Hospital,General hospital,"Devi Mandir Area, Desraj Colony, Panipat, Haryana 132103, India",https://www.google.co.kr/maps/place/Ujala+Cygnus:+Maharaja+Agarsain+Hospital/data=!4m5!3m4!1s0x390dda4808341ba7:0xe97df987c674be7f!8m2!3d29.399597!4d76.9756962?authuser=0&hl=en&rclk=1,29.399597,76.9756962,Haryana
Sanjivani Hospital,Hospital,"Under Railway Bridge, Hissar Rd, Sirsa, Haryana 125055, India",https://www.google.co.kr/maps/place/Sanjivani+Hospital/data=!4m5!3m4!1s0x39114dcac7e0fbfb:0xb21c376803f763e1!8m2!3d29.5341281!4d75.0393355?authuser=0&hl=en&rclk=1,29.5341281,75.0393355,Haryana
Sukhda,General hospital,"4QHP+MMX, Satrod, Satrod Khurd, Hisar, Haryana 125006, India",https://www.google.co.kr/maps/place/Sukhda/data=!4m5!3m4!1s0x391233f27e61adb3:0x86cffb3f594d8555!8m2!3d29.1292279!4d75.7867377?authuser=0&hl=en&rclk=1,29.1292279,75.7867377,Haryana
Medanta Institute of Liver Transplantation and Regenerative Medicine,Hospital,"14th Floor, Sector 38, Rajiv Chowk, Gurugram, Haryana 122001, India",https://www.google.co.kr/maps/place/Medanta+Institute+of+Liver+Transplantation+and+Regenerative+Medicine/data=!4m5!3m4!1s0x390d184004704edd:0x8fea7e9f6dfaed5b!8m2!3d28.4390985!4d77.0405702?authuser=0&hl=en&rclk=1,28.4390985,77.0405702,Haryana
IBS Ashwani Multi - Specialty Hospital,General hospital,"Plot No 8 D, 1, YMCA Rd, Pocket D, Sector 11, Faridabad, Haryana 121006, India",https://www.google.co.kr/maps/place/IBS+Ashwani+Multi+-+Specialty+Hospital/data=!4m5!3m4!1s0x390cdc7ad2e80e65:0x21039b4ca82993cd!8m2!3d28.369268!4d77.3232021?authuser=0&hl=en&rclk=1,28.369268,77.3232021,Haryana
सामान्य नागरिक हस्पताल,General hospital,"F49G+J2V, Uchana Khurd, Haryana 126115, India",https://www.google.co.kr/maps/place/%E0%A4%B8%E0%A4%BE%E0%A4%AE%E0%A4%BE%E0%A4%A8%E0%A5%8D%E0%A4%AF+%E0%A4%A8%E0%A4%BE%E0%A4%97%E0%A4%B0%E0%A4%BF%E0%A4%95+%E0%A4%B9%E0%A4%B8%E0%A5%8D%E0%A4%AA%E0%A4%A4%E0%A4%BE%E0%A4%B2/data=!4m5!3m4!1s0x3911f503c688cca1:0xe408428a24cfa8c0!8m2!3d29.4691002!4d76.1250572?authuser=0&hl=en&rclk=1,29.4691002,76.1250572,Haryana
Pushpanjali Hospital,Private hospital,"Civil Line Road, near Rajiv Chowk, Gurugram, Haryana 122001, India",https://www.google.co.kr/maps/place/Pushpanjali+Hospital/data=!4m5!3m4!1s0x390d183f507981ef:0x912528ff9570b224!8m2!3d28.4500952!4d77.0328441?authuser=0&hl=en&rclk=1,28.4500952,77.0328441,Haryana
Royal Multispeciality Hospital,General hospital,"B-5, Central Green, NH-5, near golden Estate, Block J, New Industrial Township 1, New Industrial Town, Faridabad, Haryana 121001, India",https://www.google.co.kr/maps/place/Royal+Multispeciality+Hospital/data=!4m5!3m4!1s0x390cdc318aad8529:0xafe680fb2495ba1d!8m2!3d28.3847667!4d77.3037192?authuser=0&hl=en&rclk=1,28.3847667,77.3037192,Haryana
Memorial Hospital,Private hospital,"SH 11, near Mama Bhanja Chowk, Nandwani Nagar, Anand Nagar,, Sonipat, Haryana 131001, India",https://www.google.co.kr/maps/place/Memorial+Hospital/data=!4m5!3m4!1s0x390db06cd5bf63e7:0xc398b9295688de11!8m2!3d28.9944102!4d77.0247626?authuser=0&hl=en&rclk=1,28.9944102,77.0247626,Haryana
Paras Hospitals,Hospital,"1, Block, Phase 1, Indian Airlines Pilots Society, Sushant Lok Phase I, Sector 43, Gurugram, Haryana 122002, India",https://www.google.co.kr/maps/place/Paras+Hospitals/data=!4m5!3m4!1s0x390d18e0987c8fd3:0x521754de967b147d!8m2!3d28.474985!4d77.075675?authuser=0&hl=en&rclk=1,28.474985,77.075675,Haryana
Govt. Hospital,Government hospital,"govt. hospital ,mohanaSonepat, Haryana, India",https://www.google.co.kr/maps/place/Govt.+Hospital/data=!4m5!3m4!1s0x390dbdd0fd936dc9:0x21a88230abb7359f!8m2!3d29.038769!4d76.8633848?authuser=0&hl=en&rclk=1,29.038769,76.8633848,Haryana
"Goswami Hospital – Best IVF & Test Tube Baby Center, Gyn Urologist, Physician, Laparoscopic Surgery",General hospital,"Bus Stand, Rishi Nagar Near, Hisar, Haryana 125011, India","https://www.google.co.kr/maps/place/Goswami+Hospital+%E2%80%93+Best+IVF+%26+Test+Tube+Baby+Center,+Gyn+Urologist,+Physician,+Laparoscopic+Surgery/data=!4m5!3m4!1s0x391232d39552546f:0x6f640d8b158e596b!8m2!3d29.163306!4d75.7182562?authuser=0&hl=en&rclk=1",29.163306,75.7182562,Haryana
Dinesh Hospital,General hospital,"Hisar - Tohana Road, NH52, Barwala, Haryana 125121, India",https://www.google.co.kr/maps/place/Dinesh+Hospital/data=!4m5!3m4!1s0x391227d723bddf13:0x1b88f4da96aefd62!8m2!3d29.3673702!4d75.904489?authuser=0&hl=en&rclk=1,29.3673702,75.904489,Haryana
Medanta -The Medicity,Hospital,"CH Baktawar Singh Rd, near Olympus, Medicity, Islampur Colony, Sector 38, Gurugram, Haryana 122001, India",https://www.google.co.kr/maps/place/Medanta+-The+Medicity/data=!4m5!3m4!1s0x390d186ec89f751b:0xdc2ab32fc4675cac!8m2!3d28.4395016!4d77.0408337?authuser=0&hl=en&rclk=1,28.4395016,77.0408337,Haryana
"Narayana Superspeciality Hospital, Gurugram",Hospital,"Block - V, DLF Phase - III, Plot 3201, Lane Number V-37, Nathupur, Sector 24, Gurugram, Haryana 122002, India","https://www.google.co.kr/maps/place/Narayana+Superspeciality+Hospital,+Gurugram/data=!4m5!3m4!1s0x390d194aaf07e26f:0x6eb838e6cbc7b64b!8m2!3d28.4978911!4d77.1018711?authuser=0&hl=en&rclk=1",28.4978911,77.1018711,Haryana
"Metro Hospital & Heart Institute, Rewari, Haryana | Metro Umkal Hospital",Hospital,"Kayasthwara Mohalla, Rewari, Haryana 123110, India","https://www.google.co.kr/maps/place/Metro+Hospital+%26+Heart+Institute,+Rewari,+Haryana+%7C+Metro+Umkal+Hospital/data=!4m5!3m4!1s0x390d50719ae37551:0x9f99dc0011d879ea!8m2!3d28.1977918!4d76.6241391?authuser=0&hl=en&rclk=1",28.1977918,76.6241391,Haryana
J B Gupta Hospital,General hospital,"Meham Gate, Circular Rd, Chiriya Ghar, Mor, Bhiwani, Haryana 127021, India",https://www.google.co.kr/maps/place/J+B+Gupta+Hospital/data=!4m5!3m4!1s0x391266d02fb7ab03:0xdfb93e67e0f01ad3!8m2!3d28.800218!4d76.1423691?authuser=0&hl=en&rclk=1,28.800218,76.1423691,Haryana
Hospital,Hospital,"8RHW+QQJ, Kalkha, Haryana 132107, India",https://www.google.co.kr/maps/place/Hospital/data=!4m5!3m4!1s0x390ddd4868852be1:0x19954906be3107aa!8m2!3d29.3294643!4d76.8469053?authuser=0&hl=en&rclk=1,29.3294643,76.8469053,Haryana
"Govt. Hospital, Badhana",General hospital,"F82Q+WXV, Badhana, Haryana 126125, India","https://www.google.co.kr/maps/place/Govt.+Hospital,+Badhana/data=!4m5!3m4!1s0x3911f97bae6b6d5d:0xe6d0ddf5909f4e01!8m2!3d29.452355!4d76.3399293?authuser=0&hl=en&rclk=1",29.452355,76.3399293,Haryana
haryana hospital,Hospital,"Badhra, Haryana 127308, India",https://www.google.co.kr/maps/place/haryana+hospital/data=!4m5!3m4!1s0x3912f0440e4ef401:0x84a5fe310183753c!8m2!3d28.5143472!4d75.9454162?authuser=0&hl=en&rclk=1,28.5143472,75.9454162,Haryana
"AMRITDHARA, my Hospital",Hospital,"Near ITI Chowk, Gahoon Vihar, Karnal, Haryana 132001, India","https://www.google.co.kr/maps/place/AMRITDHARA,+my+Hospital/data=!4m5!3m4!1s0x390e6ffbc79bddfd:0x15408a05cea7606c!8m2!3d29.7071303!4d77.0032523?authuser=0&hl=en&rclk=1",29.7071303,77.0032523,Haryana
Hospital,Hospital,"R3P8+J42, Ghatwasan, Haryana 122508, India",https://www.google.co.kr/maps/place/Hospital/data=!4m5!3m4!1s0x3972da505657b5b5:0x5d5f4f9e0f6e5914!8m2!3d27.8365039!4d77.0652546?authuser=0&hl=en&rclk=1,27.8365039,77.0652546,Haryana
Artemis Hospitals Dwarka,General hospital,"Sector 20 Dwarka, Dwarka, New Delhi, Delhi 110075, India",https://www.google.co.kr/maps/place/Artemis+Hospitals+Dwarka/data=!4m5!3m4!1s0x390d1b03c0000001:0x3eb1330d284a7209!8m2!3d28.5709273!4d77.0593246?authuser=0&hl=en&rclk=1,28.5709273,77.0593246,Haryana
Medicity Hospital,Hospital,"1705, Sector 16-17, Sector 16, Hisar, Haryana 125011, India",https://www.google.co.kr/maps/place/Medicity+Hospital/data=!4m5!3m4!1s0x39123343ca2f6565:0x244b5ac5155efebb!8m2!3d29.1281035!4d75.7338449?authuser=0&hl=en&rclk=1,29.1281035,75.7338449,Haryana
Haryana Hospital,Hospital,"Hospital Site, No. 5, Main Market Road, Sector 7, Karnal, Haryana 132001, India",https://www.google.co.kr/maps/place/Haryana+Hospital/data=!4m5!3m4!1s0x390e7ba225c30e83:0xefb967136a59f39f!8m2!3d29.6874805!4d77.0104253?authuser=0&hl=en&rclk=1,29.6874805,77.0104253,Haryana
Shandilya Hospital - General Physician In Jind,General hospital,"Vivekanand Nagar, Scheme No 19, Jind, Haryana 126102, India",https://www.google.co.kr/maps/place/Shandilya+Hospital+-+General+Physician+In+Jind/data=!4m5!3m4!1s0x391205bbb7d82e33:0x541140cc5cbabb4c!8m2!3d29.3096415!4d76.3228997?authuser=0&hl=en&rclk=1,29.3096415,76.3228997,Haryana
"Fortis Escorts Hospital, Faridabad",Hospital,"Neelam Bata Rd, AC Nagar, New Industrial Town, Faridabad, Haryana 121001, India","https://www.google.co.kr/maps/place/Fortis+Escorts+Hospital,+Faridabad/data=!4m5!3m4!1s0x390cdc50ffffffff:0x86a24e6de5b09f9e!8m2!3d28.391214!4d77.3068975?authuser=0&hl=en&rclk=1",28.391214,77.3068975,Haryana
"Max Hospital, Gurugram",Hospital,"B Block, Sushant Lok 1, Near Huda City Centre, MF Husain Marg, Near Huda City Centre, Sector 43, Gurugram, Haryana 122001, India","https://www.google.co.kr/maps/place/Max+Hospital,+Gurugram/data=!4m5!3m4!1s0x390d18e61094333f:0x1123ba8cd09898e2!8m2!3d28.4614566!4d77.0747393?authuser=0&hl=en&rclk=1",28.4614566,77.0747393,Haryana
Fortis hospital,Hospital,"4, Sector 28, Gurugram, Haryana 122002, India",https://www.google.co.kr/maps/place/Fortis+hospital/data=!4m5!3m4!1s0x390d19922e9ef9bd:0x19a8508ed440165b!8m2!3d28.4569523!4d77.0722648?authuser=0&hl=en&rclk=1,28.4569523,77.0722648,Haryana
Metro Heart Institute with Multispeciality,Heart hospital,"Sector 16 Rd, Nirman Kunj, ADB PWD Colony, Sector 16A, Faridabad, Haryana 121002, India",https://www.google.co.kr/maps/place/Metro+Heart+Institute+with+Multispeciality/data=!4m5!3m4!1s0x390cddb3ab5b8a31:0x5b4eaace8319745b!8m2!3d28.4060327!4d77.3180343?authuser=0&hl=en&rclk=1,28.4060327,77.3180343,Haryana
Mitral Valve Repair Center at Medanta,Hospital,"Medicity, Islampur Colony, Sector 38, Gurugram, Haryana 122018, India",https://www.google.co.kr/maps/place/Mitral+Valve+Repair+Center+at+Medanta/data=!4m5!3m4!1s0x390d186ec85d65cf:0x31cb47cfefa59188!8m2!3d28.4394532!4d77.0407569?authuser=0&hl=en&rclk=1,28.4394532,77.0407569,Haryana
Hospital,Hospital,"near Bus Stand, VPO, Matanhail, Haryana 124106, India",https://www.google.co.kr/maps/place/Hospital/data=!4m5!3m4!1s0x390d7d270c20d91b:0xc5b9ca084abd58ea!8m2!3d28.5752188!4d76.4649847?authuser=0&hl=en&rclk=1,28.5752188,76.4649847,Haryana
Privat Hospital,Hospital,"L-22, Mehrauli-Gurgaon Rd, DLF Phase 2, Sector 25, Gurugram, Haryana 122002, India",https://www.google.co.kr/maps/place/Privat+Hospital/data=!4m5!3m4!1s0x390d19196e44ad19:0xc683957b210b8fd5!8m2!3d28.4795433!4d77.0747332?authuser=0&hl=en&rclk=1,28.4795433,77.0747332,Haryana
Artemis Hospital,Hospital,"Jacobpura, Sector 12, Gurugram, Haryana 122001, India",https://www.google.co.kr/maps/place/Artemis+Hospital/data=!4m5!3m4!1s0x390d183124b3ce65:0xbce605a6cf3954b0!8m2!3d28.4594965!4d77.0266383?authuser=0&hl=en&rclk=1,28.4594965,77.0266383,Haryana
Saani Hospital (सानवी हस्पताल),General hospital,"CHC Rd, Barwala, Haryana 125121, India",https://www.google.co.kr/maps/place/Saani+Hospital+(%E0%A4%B8%E0%A4%BE%E0%A4%A8%E0%A4%B5%E0%A5%80+%E0%A4%B9%E0%A4%B8%E0%A5%8D%E0%A4%AA%E0%A4%A4%E0%A4%BE%E0%A4%B2)/data=!4m5!3m4!1s0x3912272c851bb159:0xe1b2dbfdd29ff6c5!8m2!3d29.3622194!4d75.9063807?authuser=0&hl=en&rclk=1,29.3622194,75.9063807,Haryana
Government Hospital,Hospital,"Basai Rd, Vikas Nagar, Sector 10, Gurugram, Haryana 122001, India",https://www.google.co.kr/maps/place/Government+Hospital/data=!4m5!3m4!1s0x390d179b1f877a29:0x12ab84b89660d2d1!8m2!3d28.4561228!4d76.9974248?authuser=0&hl=en&rclk=1,28.4561228,76.9974248,Haryana
Guru Nanak Hospital and Divine India IVF Centre,Hospital,"Opp. Police Lines, near Dyal Singh College, Karnal, Haryana 132001, India",https://www.google.co.kr/maps/place/Guru+Nanak+Hospital+and+Divine+India+IVF+Centre/data=!4m5!3m4!1s0x390e701f10a8f23b:0xac0419d0077c6e65!8m2!3d29.6942345!4d76.9896426?authuser=0&hl=en&rclk=1,29.6942345,76.9896426,Haryana
Hospital Amritdhara,Hospital,"Chaura Bazar Rd, Chaura Bazar New, Karnal, Haryana 132001, India",https://www.google.co.kr/maps/place/Hospital+Amritdhara/data=!4m5!3m4!1s0x390e70163c4a5625:0x96025bd55ba3940f!8m2!3d29.6827096!4d76.988385?authuser=0&hl=en&rclk=1,29.6827096,76.988385,Haryana
Saraswati Hospital,Specialized hospital,"299, 2, Delhi Rd, Anamika Enclave, Sector 14, Gurugram, Haryana 122022, India",https://www.google.co.kr/maps/place/Saraswati+Hospital/data=!4m5!3m4!1s0x390d19b4b3699725:0xd2bcf658a94d1109!8m2!3d28.4685241!4d77.0380218?authuser=0&hl=en&rclk=1,28.4685241,77.0380218,Haryana
Fortis Hospital,Hospital,"plot no35 um house, 45, Sector Rd, Block D, South City I, Sector 41, Gurugram, Haryana 122003, India",https://www.google.co.kr/maps/place/Fortis+Hospital/data=!4m5!3m4!1s0x390d1974bc5c9f0d:0xc841161266465556!8m2!3d28.4472879!4d77.0668937?authuser=0&hl=en&rclk=1,28.4472879,77.0668937,Haryana
Palwal Hospital,Hospital,"Moti Colony, Palwal, Haryana 121102, India",https://www.google.co.kr/maps/place/Palwal+Hospital/data=!4m5!3m4!1s0x390cd3adad4c89a3:0x435244c37c0a0512!8m2!3d28.1370894!4d77.3289164?authuser=0&hl=en&rclk=1,28.1370894,77.3289164,Haryana
Kurukshetra Nursing Home & Super Specialty Hospital,Hospital,"bus stand, Pipli Road, Near New, Kurukshetra, Haryana 136118, India",https://www.google.co.kr/maps/place/Kurukshetra+Nursing+Home+%26+Super+Specialty+Hospital/data=!4m5!3m4!1s0x390e46b9fef4fb7b:0xa403a181fedbb4bc!8m2!3d29.9739261!4d76.8615666?authuser=0&hl=en&rclk=1,29.9739261,76.8615666,Haryana
Signature Advanced Super Speciality Hospital,Hospital,"Near, Dwarka Expy, Harsaru, Sector 37D, Gurugram, Haryana 122006, India",https://www.google.co.kr/maps/place/Signature+Advanced+Super+Speciality+Hospital/data=!4m5!3m4!1s0x390d171d28d7657f:0xe24a50eeb3854e4a!8m2!3d28.4310287!4d76.9614584?authuser=0&hl=en&rclk=1,28.4310287,76.9614584,Haryana
Surya Multi Specialty And Poisining Centre,General hospital,"VW99+R2X, Tosham, Haryana 127040, India",https://www.google.co.kr/maps/place/Surya+Multi+Specialty+And+Poisining+Centre/data=!4m5!3m4!1s0x391245c935c937d3:0xe0f0895534903078!8m2!3d28.8696023!4d75.9176225?authuser=0&hl=en&rclk=1,28.8696023,75.9176225,Haryana
Rainbow Hospital,Hospital,"152 R, Near Lal Tanki Market Ram Lal Chowk, Model Town, Panipat, Haryana 132103, India",https://www.google.co.kr/maps/place/Rainbow+Hospital/data=!4m5!3m4!1s0x390ddbb6ad0bb6b5:0x921631161804c34c!8m2!3d29.392728!4d76.957853?authuser=0&hl=en&rclk=1,29.392728,76.957853,Haryana
Janta Hospital,General hospital,"4, Dharoli Khera, Haryana 126115, India",https://www.google.co.kr/maps/place/Janta+Hospital/data=!4m5!3m4!1s0x3911f59c7f02438b:0x76521f7fc4597bcb!8m2!3d29.4850383!4d76.1059004?authuser=0&hl=en&rclk=1,29.4850383,76.1059004,Haryana
HARYANA HOSPITAL,Hospital,"5P47+7GW, Prem Nagar, Hisar, Haryana 125001, India",https://www.google.co.kr/maps/place/HARYANA+HOSPITAL/data=!4m5!3m4!1s0x3913cd3da6d12e85:0x2f3ad383af825e94!8m2!3d29.155746!4d75.7138396?authuser=0&hl=en&rclk=1,29.155746,75.7138396,Haryana
Shree Shyam Clinic,General hospital,"Main Rd, Nidana, Haryana 126102, India",https://www.google.co.kr/maps/place/Shree+Shyam+Clinic/data=!4m5!3m4!1s0x391209e5921dfc89:0x4a0b749f490cd0dd!8m2!3d29.2558882!4d76.4524369?authuser=0&hl=en&rclk=1,29.2558882,76.4524369,Haryana
Civil Hospital Jhajjar,Hospital,"Jhajjar, Haryana 124103, India",https://www.google.co.kr/maps/place/Civil+Hospital+Jhajjar/data=!4m5!3m4!1s0x390d7078410001a9:0xf3618acf1d01024b!8m2!3d28.6079745!4d76.6429116?authuser=0&hl=en&rclk=1,28.6079745,76.6429116,Haryana
Kamla Hospital,Hospital,"Pataudi Road NEAR RADHA SWAMI SATSANG BHAVAN, Kadipur Industrial Area, Sector 37C, Gurugram, Haryana 122505, India",https://www.google.co.kr/maps/place/Kamla+Hospital/data=!4m5!3m4!1s0x390d1791591e065f:0x235c2aac2f0c3bba!8m2!3d28.4463903!4d76.9915686?authuser=0&hl=en&rclk=1,28.4463903,76.9915686,Haryana
Om Surgical Hospital,Private hospital,"Haryana 123027, India",https://www.google.co.kr/maps/place/Om+Surgical+Hospital/data=!4m5!3m4!1s0x3912a2959e863d03:0x15bc92469d4f5b52!8m2!3d28.3291269!4d76.2953784?authuser=0&hl=en&rclk=1,28.3291269,76.2953784,Haryana
Hospital,Hospital,"C2JX+W68, Babail, Haryana 132103, India",https://www.google.co.kr/maps/place/Hospital/data=!4m5!3m4!1s0x390dd72ce3c252ed:0x663bd0d8dae801f5!8m2!3d29.4322834!4d77.0480703?authuser=0&hl=en&rclk=1,29.4322834,77.0480703,Haryana
Hospital,Hospital,"439H+6J5, Bajarka, Haryana 122103, India",https://www.google.co.kr/maps/place/Hospital/data=!4m5!3m4!1s0x390d2da8ae1046dd:0x19a0c9101c858b00!8m2!3d28.1180015!4d77.0791085?authuser=0&hl=en&rclk=1,28.1180015,77.0791085,Haryana
Civil Hospital,Hospital,"Para Mohalla, Rohtak, Haryana 124001, India",https://www.google.co.kr/maps/place/Civil+Hospital/data=!4m5!3m4!1s0x390d85d4624ab251:0x8a2dc333dc3bea45!8m2!3d28.899364!4d76.5843136?authuser=0&hl=en&rclk=1,28.899364,76.5843136,Haryana
Aditya Neuro & Spine Speciality Hospital,Hospital,"Circular Rd, near Kanod gate, Raam Bagh Mahalla, Rewari, Haryana 123401, India",https://www.google.co.kr/maps/place/Aditya+Neuro+%26+Spine+Speciality+Hospital/data=!4m5!3m4!1s0x390d5a9db04b10f7:0x823e010849cfe28f!8m2!3d28.1996401!4d76.6106627?authuser=0&hl=en&rclk=1,28.1996401,76.6106627,Haryana
Jaipur Hospital,Hospital,"behind District court, Rishi Nagar, Kaithal, Haryana 136027, India",https://www.google.co.kr/maps/place/Jaipur+Hospital/data=!4m5!3m4!1s0x3911e066b41a40b1:0xf6cc325075c673c4!8m2!3d29.8033563!4d76.4160739?authuser=0&hl=en&rclk=1,29.8033563,76.4160739,Haryana
ESI hospital,Hospital,"Mohalla Kayam pura, near Paramjeet house, Mahendragarh, Haryana 123029, India",https://www.google.co.kr/maps/place/ESI+hospital/data=!4m5!3m4!1s0x3912bff2552a2881:0x1b81569ea6dc77a2!8m2!3d28.2711615!4d76.1516459?authuser=0&hl=en&rclk=1,28.2711615,76.1516459,Haryana
Medanta Medicity Exit NH8,Hospital,"CH Baktawar Singh Rd, Institutional Area, Sector 32, Gurugram, Haryana 122018, India",https://www.google.co.kr/maps/place/Medanta+Medicity+Exit+NH8/data=!4m5!3m4!1s0x390d19db44b5e3f3:0xd9ed9683b2657cff!8m2!3d28.444633!4d77.0367071?authuser=0&hl=en&rclk=1,28.444633,77.0367071,Haryana
Hospital,Hospital,"3579+QFR, Chhainsa, Haryana 121103, India",https://www.google.co.kr/maps/place/Hospital/data=!4m5!3m4!1s0x3972d50e44a73689:0xf580333886598a7a!8m2!3d28.0644847!4d77.1686472?authuser=0&hl=en&rclk=1,28.0644847,77.1686472,Haryana
Asian Institute of Medical Sciences,Hospital,"Badkal Flyover, Road, Sector 21A, Faridabad, Haryana 121001, India",https://www.google.co.kr/maps/place/Asian+Institute+of+Medical+Sciences/data=!4m5!3m4!1s0x390cdde9ae5f2175:0x25d73b332736f2df!8m2!3d28.4260095!4d77.2999836?authuser=0&hl=en&rclk=1,28.4260095,77.2999836,Haryana
Mission Hospital - Hospital in Bahadurgarh,Hospital,"Near main Bus Stand & City Metro Station, Rohtak Rd, Bahadurgarh, Haryana 124507, India",https://www.google.co.kr/maps/place/Mission+Hospital+-+Hospital+in+Bahadurgarh/data=!4m5!3m4!1s0x390d094c8a31e585:0x79e0c9ef41dd9411!8m2!3d28.6904401!4d76.9342403?authuser=0&hl=en&rclk=1,28.6904401,76.9342403,Haryana
Hospital,Hospital,"Salem Garh, Haryana 125001, India",https://www.google.co.kr/maps/place/Hospital/data=!4m5!3m4!1s0x3913d01d4806a843:0xd5bc671b2ea20728!8m2!3d29.1837341!4d75.5400211?authuser=0&hl=en&rclk=1,29.1837341,75.5400211,Haryana
Hospital,Hospital,"3FVF+P87, vpo, Rajgarh, Haryana 123412, India",https://www.google.co.kr/maps/place/Hospital/data=!4m5!3m4!1s0x390d576053f5fef9:0xdcb1aff60a2f7d5!8m2!3d28.0942965!4d76.4732997?authuser=0&hl=en&rclk=1,28.0942965,76.4732997,Haryana
Hospital,Hospital,"7265+6Q9, Panipat, Haryana 132101, India",https://www.google.co.kr/maps/place/Hospital/data=!4m5!3m4!1s0x390dc58905dd6f2b:0xc3149b691b771fb7!8m2!3d29.2605422!4d77.0094777?authuser=0&hl=en&rclk=1,29.2605422,77.0094777,Haryana
Pax Hospital,Hospital,"335P+G69, Garhi, Haryana 125033, India",https://www.google.co.kr/maps/place/Pax+Hospital/data=!4m5!3m4!1s0x39126b3b3fb60613:0xf3bac168b0dacc47!8m2!3d29.0587757!4d76.085601?authuser=0&hl=en&rclk=1,29.0587757,76.085601,Haryana
Hospital,Hospital,"GWRF+RX4, Bhareli, Haryana 134118, India",https://www.google.co.kr/maps/place/Hospital/data=!4m5!3m4!1s0x390fbdaaefea93dd:0x6b31b58c6b93f891!8m2!3d30.5420136!4d76.9249552?authuser=0&hl=en&rclk=1,30.5420136,76.9249552,Haryana
T.B. Hospital,Hospital,"Jind-Gohana Rd, Kirpal Nagar, Rohtak, Haryana 124001, India",https://www.google.co.kr/maps/place/T.B.+Hospital/data=!4m5!3m4!1s0x390d85993e07e1e3:0x95744cfc089b0b85!8m2!3d28.9076023!4d76.586211?authuser=0&hl=en&rclk=1,28.9076023,76.586211,Haryana
Hospital,Hospital,"25G3+M4V, Seka, Haryana 123001, India",https://www.google.co.kr/maps/place/Hospital/data=!4m5!3m4!1s0x3912b442e4496de9:0x9c883a6cbee61a8d!8m2!3d28.0267473!4d76.1528043?authuser=0&hl=en&rclk=1,28.0267473,76.1528043,Haryana
CHC Governmet Hospital,Hospital,"XX83+MJV, Jamalpur, Haryana 127035, India",https://www.google.co.kr/maps/place/CHC+Governmet+Hospital/data=!4m5!3m4!1s0x3912468f13972945:0xb5dbd8569000b217!8m2!3d28.9667402!4d75.9540465?authuser=0&hl=en&rclk=1,28.9667402,75.9540465,Haryana
Hospital,Hospital,"F82Q+WXW, Badhana, Haryana 126125, India",https://www.google.co.kr/maps/place/Hospital/data=!4m5!3m4!1s0x3911f89f84a1e41f:0xe3c791779b1067da!8m2!3d29.4523678!4d76.3399383?authuser=0&hl=en&rclk=1,29.4523678,76.3399383,Haryana
CHC Hospital,Hospital,"RPRQ+J6C, Bhiwani, Haryana 127043, India",https://www.google.co.kr/maps/place/CHC+Hospital/data=!4m5!3m4!1s0x39124d6065656427:0xe29133b75b18a436!8m2!3d28.8415565!4d75.738005?authuser=0&hl=en&rclk=1,28.8415565,75.738005,Haryana
Mann Multispeciality Hospital,Hospital,"Subhash Rd, Company Bagh, Rohtak, Haryana 124001, India",https://www.google.co.kr/maps/place/Mann+Multispeciality+Hospital/data=!4m5!3m4!1s0x390d850555555555:0x89204e9ea9d7ef68!8m2!3d28.8955152!4d76.606611?authuser=0&hl=en&rclk=1,28.8955152,76.606611,Haryana
Civil Hospital Panchkula,Hospital,"Sector 6, Panchkula, Haryana 134108, India",https://www.google.co.kr/maps/place/Civil+Hospital+Panchkula/data=!4m5!3m4!1s0x390f936cb37b348f:0x8ffd50108aac1859!8m2!3d30.7049758!4d76.8545986?authuser=0&hl=en&rclk=1,30.7049758,76.8545986,Haryana
S.M. Hospital,Private hospital,"Atlas Rd, Railway Quarters, Indira Colony, Sonipat, Haryana 131301, India",https://www.google.co.kr/maps/place/S.M.+Hospital/data=!4m5!3m4!1s0x390db00e1212e763:0x86d25c7464636b95!8m2!3d28.9872179!4d77.0207946?authuser=0&hl=en&rclk=1,28.9872179,77.0207946,Haryana
ESIC hospital,Hospital,"MXPW+V86, Sector 13, Karnal, Haryana 132001, India",https://www.google.co.kr/maps/place/ESIC+hospital/data=!4m5!3m4!1s0x390e7010810dd345:0xc40ecdcd3823e49b!8m2!3d29.6871745!4d76.9957516?authuser=0&hl=en&rclk=1,29.6871745,76.9957516,Haryana
Civil Hospital,Hospital,"NH 10, Bahadur Colony, Hansi, Haryana 125033, India",https://www.google.co.kr/maps/place/Civil+Hospital/data=!4m5!3m4!1s0x391239031d82e8eb:0xa12589dfd64f68f3!8m2!3d29.0935458!4d75.9559482?authuser=0&hl=en&rclk=1,29.0935458,75.9559482,Haryana
City Hospital,Hospital,"Jain Bagh Colony, Sonipat, Haryana 131304, India",https://www.google.co.kr/maps/place/City+Hospital/data=!4m5!3m4!1s0x390db0757c1918e7:0xbe1b41655afe1735!8m2!3d28.9952639!4d77.0106679?authuser=0&hl=en&rclk=1,28.9952639,77.0106679,Haryana
local hospital,Hospital,"JXW9+XPR, Golagarh, Haryana 127030, India",https://www.google.co.kr/maps/place/local+hospital/data=!4m5!3m4!1s0x3912f7ed8a3ac42b:0xb27a68f9077b4e03!8m2!3d28.6474848!4d75.9692506?authuser=0&hl=en&rclk=1,28.6474848,75.9692506,Haryana
Saini Hospital,Hospital,"Ward No-2 Opp. Badi Masjid Old Delhi -Alwar Road Sohna, Sohan, Haryana 122103, India",https://www.google.co.kr/maps/place/Saini+Hospital/data=!4m5!3m4!1s0x390d25846a5a165d:0xb4893375da363ab0!8m2!3d28.248699!4d77.063512?authuser=0&hl=en&rclk=1,28.248699,77.063512,Haryana
Hospital,Hospital,"6M3M+W9X, Jansui, Haryana 134003, India",https://www.google.co.kr/maps/place/Hospital/data=!4m5!3m4!1s0x390e32d6ebf68795:0xb98f1bbc696f92f2!8m2!3d30.204851!4d76.683489?authuser=0&hl=en&rclk=1,30.204851,76.683489,Haryana
Civil Hospital Fatehabad,Hospital,"Civil Hospital Rd, Model Town, Fatehabad, Haryana 125050, India",https://www.google.co.kr/maps/place/Civil+Hospital+Fatehabad/data=!4m5!3m4!1s0x391165e91cf66f8d:0x4c45c03381a25f75!8m2!3d29.5168065!4d75.4492857?authuser=0&hl=en&rclk=1,29.5168065,75.4492857,Haryana
Haseen hospital,Hospital,"Unnamed Road, Haryana 121103, India",https://www.google.co.kr/maps/place/Haseen+hospital/data=!4m5!3m4!1s0x3972d577161fb717:0x292bacaebefa09cd!8m2!3d28.0568!4d77.1728?authuser=0&hl=en&rclk=1,28.0568,77.1728,Haryana
Hospital,Hospital,"RJCX+P42, Bhambhewa, Haryana 124107, India",https://www.google.co.kr/maps/place/Hospital/data=!4m5!3m4!1s0x390d9d703b5a7401:0xff56820d7a9f47b1!8m2!3d28.8217595!4d76.647769?authuser=0&hl=en&rclk=1,28.8217595,76.647769,Haryana
Sidharth Hospital,Hospital,"Shahabad-Ladwa Rd, Markanda, Shahbad, Haryana 136135, India",https://www.google.co.kr/maps/place/Sidharth+Hospital/data=!4m5!3m4!1s0x390e4bcba5555555:0x60464f2c77d4c742!8m2!3d30.1582026!4d76.8747219?authuser=0&hl=en&rclk=1,30.1582026,76.8747219,Haryana
Shree Hari Hospital – Best Multispecialty Hospital | Orthopaedic Doctors | Urologist in Karnal,Hospital,"31, opp. Kalpana Chawla Medical College, Ashoka Colony, Dyal Singh Colony, Karnal, Haryana 132001, India",https://www.google.co.kr/maps/place/Shree+Hari+Hospital+%E2%80%93+Best+Multispecialty+Hospital+%7C+Orthopaedic+Doctors+%7C+Urologist+in+Karnal/data=!4m5!3m4!1s0x390e701efe7da31b:0xdccf61f7f74e8c2b!8m2!3d29.6954327!4d76.9906117?authuser=0&hl=en&rclk=1,29.6954327,76.9906117,Haryana
Hospital,Hospital,"QFCR+J83, Sardarewala, Haryana 125051, India",https://www.google.co.kr/maps/place/Hospital/data=!4m5!3m4!1s0x391112573db6bc15:0xd5468eaa6486f7e3!8m2!3d29.77151!4d75.4907985?authuser=0&hl=en&rclk=1,29.77151,75.4907985,Haryana
SSB Heart And Multispecialty Hospital,Hospital,"Plot No. 69 Mathura Road, near Neelam Flyover, Sector 20 A, New Industrial Town, Faridabad, Haryana 121001, India",https://www.google.co.kr/maps/place/SSB+Heart+And+Multispecialty+Hospital/data=!4m5!3m4!1s0x390cdc4836be0d4b:0x5acd8fcb2eee0ce7!8m2!3d28.3935176!4d77.3100765?authuser=0&hl=en&rclk=1,28.3935176,77.3100765,Haryana
"CIVIL HOSPITAL, PANIPAT",Hospital,"BEHIND BUS STAND OPPOSITE ARYA SENIOR SECONDARY SCHOOL, Panipat, Haryana 132103, India","https://www.google.co.kr/maps/place/CIVIL+HOSPITAL,+PANIPAT/data=!4m5!3m4!1s0x390dda36083df4a7:0xeb887aa702a1e324!8m2!3d29.399844!4d76.9699705?authuser=0&hl=en&rclk=1",29.399844,76.9699705,Haryana
Prakash hospital and trauma centre,Hospital,"Kasola Chowk, Company Bagh, Rewari, Haryana 123401, India",https://www.google.co.kr/maps/place/Prakash+hospital+and+trauma+centre/data=!4m5!3m4!1s0x390d51c20001b8b9:0x3a7d3abcfa48d222!8m2!3d28.1382513!4d76.6412557?authuser=0&hl=en&rclk=1,28.1382513,76.6412557,Haryana
Hospital,Government hospital,"76VG+H45, Rajpura Bhan, Haryana 126102, India",https://www.google.co.kr/maps/place/Hospital/data=!4m5!3m4!1s0x39121af899ad4249:0xfa022ee37e341200!8m2!3d29.293878!4d76.2253609?authuser=0&hl=en&rclk=1,29.293878,76.2253609,Haryana
Rajender Hospital,Hospital,"554/21, Near 35 Mile Stone, Om Nagar, Gurugram, Haryana 122018, India",https://www.google.co.kr/maps/place/Rajender+Hospital/data=!4m5!3m4!1s0x390d181f55e28845:0x512af3c2e1149f1e!8m2!3d28.4433123!4d77.0158479?authuser=0&hl=en&rclk=1,28.4433123,77.0158479,Haryana
Safdarjung Hospital,Government hospital,"Ansari Nagar East, near to AIIMS Metro Station, New Delhi, Delhi 110029, India",https://www.google.co.kr/maps/place/Safdarjung+Hospital/data=!4m5!3m4!1s0x390ce27b1527eb57:0xf71af9b11f97c064!8m2!3d28.5680405!4d77.2058155?authuser=0&hl=en&rclk=1,28.5680405,77.2058155,Haryana
AAROGYA HOSPITAL,Hospital,"NEAR LIC OFFICE, opposite VISHVAS SCHOOL, Urban Estate II, Hisar, Haryana 125001, India",https://www.google.co.kr/maps/place/AAROGYA+HOSPITAL/data=!4m5!3m4!1s0x3912333e2e8398e9:0xfd51beb076eff54c!8m2!3d29.140337!4d75.7446545?authuser=0&hl=en&rclk=1,29.140337,75.7446545,Haryana
Hospital,Hospital,"Baland, Haryana 124001, India",https://www.google.co.kr/maps/place/Hospital/data=!4m5!3m4!1s0x390d83b14c99aac5:0xff99448de7c17c7f!8m2!3d28.796469!4d76.5778221?authuser=0&hl=en&rclk=1,28.796469,76.5778221,Haryana
Alchemist Hospital Panchkula,Hospital,"Sector 21, Budanpur, Panchkula, Punjab 134112, India",https://www.google.co.kr/maps/place/Alchemist+Hospital+Panchkula/data=!4m5!3m4!1s0x390f9485b41fb363:0xd0c6c25a18b74ed2!8m2!3d30.6745927!4d76.8647413?authuser=0&hl=en&rclk=1,30.6745927,76.8647413,Haryana
HOSPITAL,Hospital,"PJ2J+CC3, Kaithal, Haryana 136027, India",https://www.google.co.kr/maps/place/HOSPITAL/data=!4m5!3m4!1s0x390e1a85e870945b:0x773487ba9d740b6!8m2!3d29.7010098!4d76.6310324?authuser=0&hl=en&rclk=1,29.7010098,76.6310324,Haryana
ESI Hospital Hisar,Hospital,"Industrial Area, Hisar, Haryana 125005, India",https://www.google.co.kr/maps/place/ESI+Hospital+Hisar/data=!4m5!3m4!1s0x3912339cf6e1ed87:0xdeb3f4c2583f2db1!8m2!3d29.1296792!4d75.7642259?authuser=0&hl=en&rclk=1,29.1296792,75.7642259,Haryana
Hospital,Hospital,"R4Q8+WC7, Biana, Haryana 132054, India",https://www.google.co.kr/maps/place/Hospital/data=!4m5!3m4!1s0x390e6125b995685b:0xed4cb048196ead4!8m2!3d29.839785!4d77.11606?authuser=0&hl=en&rclk=1,29.839785,77.11606,Haryana
District Civil Hospital,Government hospital,"216, BK Chowk, Narela Rajeev Nagar, New Industrial Town, Faridabad, Haryana 121001, India",https://www.google.co.kr/maps/place/District+Civil+Hospital/data=!4m5!3m4!1s0x390cdc303421ac79:0x80e72362471060f7!8m2!3d28.3922273!4d77.2984702?authuser=0&hl=en&rclk=1,28.3922273,77.2984702,Haryana
Malhotra Mother & Child Hospital,Hospital,"656-R, Pruthi Chowk, Model Town, Panipat, Haryana 132103, India",https://www.google.co.kr/maps/place/Malhotra+Mother+%26+Child+Hospital/data=!4m5!3m4!1s0x390ddbac2112bf75:0xc6ee16f8529784cf!8m2!3d29.3832785!4d76.9588033?authuser=0&hl=en&rclk=1,29.3832785,76.9588033,Haryana
hospital,Hospital,"Unnamed Road, Nauranga Bas Jattan, Unn, Haryana 127310, India",https://www.google.co.kr/maps/place/hospital/data=!4m5!3m4!1s0x3912ed5ccdd9af13:0x33fc093bebeecda7!8m2!3d28.4228818!4d76.0691136?authuser=0&hl=en&rclk=1,28.4228818,76.0691136,Haryana
Hospital,Hospital,"293R+6V4, Balbehra, Haryana 136033, India",https://www.google.co.kr/maps/place/Hospital/data=!4m5!3m4!1s0x3911d7d995eb8e47:0x28927ac52ed940e!8m2!3d30.0030119!4d76.3922135?authuser=0&hl=en&rclk=1,30.0030119,76.3922135,Haryana
Jain Sant Phool Chand Ji Charitable Hospital,Hospital,"526/9, Old Railway Rd, Urban Estate, Sector 4, Gurugram, Haryana 122022, India",https://www.google.co.kr/maps/place/Jain+Sant+Phool+Chand+Ji+Charitable+Hospital/data=!4m5!3m4!1s0x390d19d7527e9555:0x42573450dcee8b00!8m2!3d28.4771195!4d77.0159224?authuser=0&hl=en&rclk=1,28.4771195,77.0159224,Haryana
Hospital,Hospital,"127, Atali, Haryana 123021, India",https://www.google.co.kr/maps/place/Hospital/data=!4m5!3m4!1s0x3912ba11f03e5ae1:0x9f416c8da9bdf715!8m2!3d28.1676339!4d76.1951858?authuser=0&hl=en&rclk=1,28.1676339,76.1951858,Haryana
Upker Hospital,Hospital,"NH 48, Power Supply Colony, Imt Manesar, Gurugram, Haryana 122050, India",https://www.google.co.kr/maps/place/Upker+Hospital/data=!4m5!3m4!1s0x390d3c39e19469bd:0x63157d5eb7391c05!8m2!3d28.355308!4d76.936651?authuser=0&hl=en&rclk=1,28.355308,76.936651,Haryana
Navjeevan Hospital,Hospital,"X2H7+33X, Sector 24, Sonipat, Haryana 131001, India",https://www.google.co.kr/maps/place/Navjeevan+Hospital/data=!4m5!3m4!1s0x390db0071be6f1f1:0xe60af037d5350162!8m2!3d28.9777374!4d77.0127469?authuser=0&hl=en&rclk=1,28.9777374,77.0127469,Haryana
Rawal Multi Specialty Hospital,Hospital,"O2, Old Rohtak Rd, Industrial Area, Sonipat, Haryana 131001, India",https://www.google.co.kr/maps/place/Rawal+Multi+Specialty+Hospital/data=!4m5!3m4!1s0x390db006cdf5e603:0x7dc76e65e6ee0d6b!8m2!3d28.9763094!4d77.0139115?authuser=0&hl=en&rclk=1,28.9763094,77.0139115,Haryana
hospital,Hospital,"X632+38M, Palwal, Haryana 121103, India",https://www.google.co.kr/maps/place/hospital/data=!4m5!3m4!1s0x397329ddd3cbb5f5:0xa1f890b5b1467d6a!8m2!3d27.9527114!4d77.2007968?authuser=0&hl=en&rclk=1,27.9527114,77.2007968,Haryana
Civil Hospital Narnaul,Hospital,"3482+8H9, Tara Nagar, Canal Colony, Narnaul, Haryana 123001, India",https://www.google.co.kr/maps/place/Civil+Hospital+Narnaul/data=!4m5!3m4!1s0x3912b7d0949febdb:0x9001d0623f1aed6a!8m2!3d28.0657961!4d76.1014781?authuser=0&hl=en&rclk=1,28.0657961,76.1014781,Haryana
Signature Hospital,Hospital,"Sector 37 C Rd, Sector 37D, Gurugram, Haryana 122006, India",https://www.google.co.kr/maps/place/Signature+Hospital/data=!4m5!3m4!1s0x390d17d1bc2d3e3d:0x8568c2ca19415fa5!8m2!3d28.4543066!4d76.9732684?authuser=0&hl=en&rclk=1,28.4543066,76.9732684,Haryana
Sub center Behbalpur,General hospital,"7RH3+588, Behbalpur, Haryana 125121, India",https://www.google.co.kr/maps/place/Sub+center+Behbalpur/data=!4m5!3m4!1s0x39122d158d1fa661:0x477c7ac7597f540d!8m2!3d29.2779215!4d75.8033282?authuser=0&hl=en&rclk=1,29.2779215,75.8033282,Haryana
kartik hospital,Hospital,"CWFP+JMQ, Gurugram, Haryana 122004, India",https://www.google.co.kr/maps/place/kartik+hospital/data=!4m5!3m4!1s0x390d1619e1aaaaab:0xe22741dd8a39dfe6!8m2!3d28.4240998!4d76.936749?authuser=0&hl=en&rclk=1,28.4240998,76.936749,Haryana
Shanti Mission Hospital,Hospital,"4PPV+3HX, Model Town, Hisar, Haryana 125005, India",https://www.google.co.kr/maps/place/Shanti+Mission+Hospital/data=!4m5!3m4!1s0x3912336cbbe0ce41:0xf9d6b19a68fd35d7!8m2!3d29.1352415!4d75.7439994?authuser=0&hl=en&rclk=1,29.1352415,75.7439994,Haryana
Jiva Ayurvedic Clinic,Hospital,"X2JG+3QH, SS Park Extn, Sujan Singh Park Colony, Sonipat, Haryana 131001, India",https://www.google.co.kr/maps/place/Jiva+Ayurvedic+Clinic/data=!4m5!3m4!1s0x390db01a2d67dd07:0xcd3b6f4f96ecc8e4!8m2!3d28.9801843!4d77.0269831?authuser=0&hl=en&rclk=1,28.9801843,77.0269831,Haryana
Jatindera Hospital,Hospital,"Plot No-126, Sukhdev Nagar, Old Housing Board Colony, Panipat, Haryana 132103, India",https://www.google.co.kr/maps/place/Jatindera+Hospital/data=!4m5!3m4!1s0x390dda49819c3df1:0x7932948ad0442a87!8m2!3d29.3972126!4d76.9703793?authuser=0&hl=en&rclk=1,29.3972126,76.9703793,Haryana
PDM General Hospital,Hospital,"A Unit of Pdmrea Sarai Aurangabad, Sector 3A, Bahadurgarh, Haryana 124507, India",https://www.google.co.kr/maps/place/PDM+General+Hospital/data=!4m5!3m4!1s0x390d0b8c0a5d0117:0xcd072dba734b59b8!8m2!3d28.6893556!4d76.8907795?authuser=0&hl=en&rclk=1,28.6893556,76.8907795,Haryana
National Hospital,Hospital,"Plot.167 indira complex, Main, Kheri Rd, near Kheri Pul Bridge, Sector 87, Neharpar Faridabad, Faridabad, Haryana 121002, India",https://www.google.co.kr/maps/place/National+Hospital/data=!4m5!3m4!1s0x390cdd09f29672d3:0x1f539fda8219fa04!8m2!3d28.4211611!4d77.3343155?authuser=0&hl=en&rclk=1,28.4211611,77.3343155,Haryana
Hospital,Hospital,"MDR122, Chhara, Haryana 124504, India",https://www.google.co.kr/maps/place/Hospital/data=!4m5!3m4!1s0x390d7699701b0159:0x5e28545db8a2ab86!8m2!3d28.6950298!4d76.7256832?authuser=0&hl=en&rclk=1,28.6950298,76.7256832,Haryana
Artemis hospital,Hospital,"Artemis Hospital Rd, Indira Colony, Indira Colony 1, Sector 52, Gurugram, Haryana 122003, India",https://www.google.co.kr/maps/place/Artemis+hospital/data=!4m5!3m4!1s0x390d1987b12e6b7b:0x66eac6b4198e79c1!8m2!3d28.4317983!4d77.072413?authuser=0&hl=en&rclk=1,28.4317983,77.072413,Haryana
Global Hospital,Private hospital,"Kaimari Rd, Housing Board Colony, Sector 15A, Hisar, Haryana 125001, India",https://www.google.co.kr/maps/place/Global+Hospital/data=!4m5!3m4!1s0x39123336762d858d:0x802cfd36b6a0aa11!8m2!3d29.1356072!4d75.7197677?authuser=0&hl=en&rclk=1,29.1356072,75.7197677,Haryana
Hospital,Hospital,"Unnamed Road, Sisar Khas, Haryana 124112, India",https://www.google.co.kr/maps/place/Hospital/data=!4m5!3m4!1s0x39126f5aa110ef4d:0x84ae45fdb360bb6!8m2!3d28.9218845!4d76.2658828?authuser=0&hl=en&rclk=1,28.9218845,76.2658828,Haryana
A-Block,Hospital,"Medical College, Maha Raja Agarshan, Agroha, Haryana 125047, India",https://www.google.co.kr/maps/place/A-Block/data=!4m5!3m4!1s0x3913d589ec5b711d:0x61f3b2f4af3bbeb7!8m2!3d29.3371693!4d75.6232735?authuser=0&hl=en&rclk=1,29.3371693,75.6232735,Haryana
Private Hospital,Heart hospital,"VM68+6CR, Kheri Sadh, Haryana 124021, India",https://www.google.co.kr/maps/place/Private+Hospital/data=!4m5!3m4!1s0x390d9b699257be61:0x271b1f045cf2ec54!8m2!3d28.8606133!4d76.6660037?authuser=0&hl=en&rclk=1,28.8606133,76.6660037,Haryana
"Shingal Hospital ,Best Hospital In Asandh",Hospital,"GJF5+4Q7, Assandh, Asandh, Haryana 132039, India","https://www.google.co.kr/maps/place/Shingal+Hospital+,Best+Hospital+In+Asandh/data=!4m5!3m4!1s0x390e07b2d613d80d:0x5c6c52630dd09426!8m2!3d29.5227854!4d76.6094319?authuser=0&hl=en&rclk=1",29.5227854,76.6094319,Haryana
Churamani visnhudevi materniti hospital hisar,Maternity hospital,"Krishna Nagar Colony, Hisar, Haryana 125001, India",https://www.google.co.kr/maps/place/Churamani+visnhudevi+materniti+hospital+hisar/data=!4m5!3m4!1s0x391233253a3faa13:0x801c31a537bc6d74!8m2!3d29.146531!4d75.7274575?authuser=0&hl=en&rclk=1,29.146531,75.7274575,Haryana
National Cancer Institute,Hospital,"Badsa, Haryana 124105, India",https://www.google.co.kr/maps/place/National+Cancer+Institute/data=!4m5!3m4!1s0x390d1381bd8a750b:0xebef01c569aaf383!8m2!3d28.4987578!4d76.872079?authuser=0&hl=en&rclk=1,28.4987578,76.872079,Haryana
Shree Hari Hospital,Hospital,"Dyal Singh Colony, Karnal, Haryana 132001, India",https://www.google.co.kr/maps/place/Shree+Hari+Hospital/data=!4m5!3m4!1s0x390e7017742333a1:0xf8a94b34ae93923e!8m2!3d29.6856929!4d76.9904825?authuser=0&hl=en&rclk=1,29.6856929,76.9904825,Haryana
"Old Civil Hospital, Kaithal & Medicine Warehouse",Hospital,"old civil hospital road,, Kaithal, Haryana, India","https://www.google.co.kr/maps/place/Old+Civil+Hospital,+Kaithal+%26+Medicine+Warehouse/data=!4m5!3m4!1s0x3911e08fde758015:0xc943e358d98fbf4b!8m2!3d29.8066086!4d76.3995444?authuser=0&hl=en&rclk=1",29.8066086,76.3995444,Haryana
INDIA,Hospital,"Model Town, Narwana, Haryana 126116, India",https://www.google.co.kr/maps/place/INDIA/data=!4m5!3m4!1s0x3911f293ffffffff:0xead686d0c564eec7!8m2!3d29.5910963!4d76.1145993?authuser=0&hl=en&rclk=1,29.5910963,76.1145993,Haryana
Jain Orthopaedic Hospital,Hospital,"Near Gujari Mahal, Hisar Tohana Road, Tayal Bagh Colony, Vikas Nagar, Hisar, Haryana 125001, India",https://www.google.co.kr/maps/place/Jain+Orthopaedic+Hospital/data=!4m5!3m4!1s0x39123374cf96f151:0xfc0f464b48a3f2a8!8m2!3d29.1688522!4d75.7203778?authuser=0&hl=en&rclk=1,29.1688522,75.7203778,Haryana
Dr Jitender Kumar,General hospital,"Railway Rd, तिरंगा कलोनी, Uchana, Haryana 126115, India",https://www.google.co.kr/maps/place/Dr+Jitender+Kumar/data=!4m5!3m4!1s0x3911f7576c90d73b:0xc4d44786415ffc6b!8m2!3d29.4716604!4d76.187154?authuser=0&hl=en&rclk=1,29.4716604,76.187154,Haryana
civil Hospital,Hospital,"Govt Hospital Rd, Haryana 124501, India",https://www.google.co.kr/maps/place/civil+Hospital/data=!4m5!3m4!1s0x390d745719f09ab7:0x3dbc9d4353c2ece!8m2!3d28.7086908!4d76.7758197?authuser=0&hl=en&rclk=1,28.7086908,76.7758197,Haryana
Hospital,Hospital,"MJ97+4WM, Surpura Khurd, Haryana 127028, India",https://www.google.co.kr/maps/place/Hospital/data=!4m5!3m4!1s0x3913a938cb57d1d1:0x3105d9d12b1a978f!8m2!3d28.6678453!4d75.6148004?authuser=0&hl=en&rclk=1,28.6678453,75.6148004,Haryana
Medical,Hospital,"QV2C+J29, Sungarpur, Haryana 127043, India",https://www.google.co.kr/maps/place/Medical/data=!4m5!3m4!1s0x3912578c42c47071:0x5065c617a1b5fc96!8m2!3d28.7515471!4d75.8700941?authuser=0&hl=en&rclk=1,28.7515471,75.8700941,Haryana
CHC loharu,Hospital,"Loharu, Haryana 127201, India",https://www.google.co.kr/maps/place/CHC+loharu/data=!4m5!3m4!1s0x3912e4790cf235f7:0xd0bbd542ba32c05a!8m2!3d28.4279232!4d75.8111207?authuser=0&hl=en&rclk=1,28.4279232,75.8111207,Haryana
Rama Hospital Sonipat,Hospital,"Bahalgarh, Sonipat, Haryana 131001, India",https://www.google.co.kr/maps/place/Rama+Hospital+Sonipat/data=!4m5!3m4!1s0x390dae10539af445:0x8f1c4be814888a1d!8m2!3d28.9640052!4d77.0881466?authuser=0&hl=en&rclk=1,28.9640052,77.0881466,Haryana
Max Hospital,Hospital,"B Block, Sushant Lok 1, Near Huda City Centre, Gurugram, 122001, India",https://www.google.co.kr/maps/place/Max+Hospital/data=!4m5!3m4!1s0x390d18e7ab019555:0x25f376ae432c48fc!8m2!3d28.4634412!4d77.0767557?authuser=0&hl=en&rclk=1,28.4634412,77.0767557,Haryana
Dhamija Chest Hospital,Hospital,"Rohtak Gate, Near Aggarsain Chowk, Bhiwani, Haryana 127021, India",https://www.google.co.kr/maps/place/Dhamija+Chest+Hospital/data=!4m5!3m4!1s0x391266cdd7758703:0xb461d01291efe5f!8m2!3d28.7968013!4d76.1458094?authuser=0&hl=en&rclk=1,28.7968013,76.1458094,Haryana
"Max Super Speciality Hospital, Patparganj",General hospital,"108A, I.P.Extension, Patparganj, Delhi, 110092, India","https://www.google.co.kr/maps/place/Max+Super+Speciality+Hospital,+Patparganj/data=!4m5!3m4!1s0x390cfb3558b5ac9d:0x8d590e3c6772a3c5!8m2!3d28.632938!4d77.3090026?authuser=0&hl=en&rclk=1",28.632938,77.3090026,Haryana
ESI DISPENSARY REWARI HARYANA,Hospital,"Raam Bagh Mahalla, Rewari, Haryana 123401, India",https://www.google.co.kr/maps/place/ESI+DISPENSARY+REWARI+HARYANA/data=!4m5!3m4!1s0x390d5a9d73ef1d27:0x959bcf1463feb099!8m2!3d28.1981612!4d76.6090792?authuser=0&hl=en&rclk=1,28.1981612,76.6090792,Haryana
Dayanand hospital (Advance cancer center),Hospital,"Kakroi Rd, Prem Nagar, West Ram Nagar, Sonipat, Haryana 131001, India",https://www.google.co.kr/maps/place/Dayanand+hospital+(Advance+cancer+center)/data=!4m5!3m4!1s0x390dbaa14df468c3:0xe7aa3a38490e3f13!8m2!3d28.9876433!4d77.006369?authuser=0&hl=en&rclk=1,28.9876433,77.006369,Haryana
Yadav Hospital Charkhi Dadri,Hospital,"MDR 124, Charkhi Dadri - Rohtak Rd, Charkhi Dadri, Haryana 127306, India",https://www.google.co.kr/maps/place/Yadav+Hospital+Charkhi+Dadri/data=!4m5!3m4!1s0x391285f3eec8ddc3:0x38a96a755231499d!8m2!3d28.6040396!4d76.2780695?authuser=0&hl=en&rclk=1,28.6040396,76.2780695,Haryana
Dharamputra Hospital,Hospital,"Distt, Sonipat, Haryana 131301, India",https://www.google.co.kr/maps/place/Dharamputra+Hospital/data=!4m5!3m4!1s0x390d93b7aee9762d:0x5455d06f08280a01!8m2!3d29.1001866!4d76.7105632?authuser=0&hl=en&rclk=1,29.1001866,76.7105632,Haryana
ESI Hospital,Hospital,"Bhiwani - Hansi Rd, Housing Board Colony, Bhiwani, Haryana 127021, India",https://www.google.co.kr/maps/place/ESI+Hospital/data=!4m5!3m4!1s0x391267209f872d33:0xfbadef6d8a62395d!8m2!3d28.8082119!4d76.1319047?authuser=0&hl=en&rclk=1,28.8082119,76.1319047,Haryana
Dr. Subhash Numberdar,General hospital,"27VJ+5V9, Saman, Haryana 124112, India",https://www.google.co.kr/maps/place/Dr.+Subhash+Numberdar/data=!4m5!3m4!1s0x3912732a42cf9e25:0x66a7e777523f8aa3!8m2!3d29.0429158!4d76.2822443?authuser=0&hl=en&rclk=1,29.0429158,76.2822443,Haryana
"Fortis Escorts Heart Institute, Okhla Road",Hospital,"Okhla road, Sukhdev Vihar Metro Station, New Delhi, Delhi 110025, India","https://www.google.co.kr/maps/place/Fortis+Escorts+Heart+Institute,+Okhla+Road/data=!4m5!3m4!1s0x390ce392b869bbaf:0x865db71ba6f271b2!8m2!3d28.5606583!4d77.2739036?authuser=0&hl=en&rclk=1",28.5606583,77.2739036,Haryana
Rama Hospital,Hospital,"Indira colony, Sonipat Bypass Rd, Bahalgarh, Sonipat, Haryana 131021, India",https://www.google.co.kr/maps/place/Rama+Hospital/data=!4m5!3m4!1s0x390db1acffce828f:0xb1e0a133e3ce2aba!8m2!3d28.9641838!4d77.0876616?authuser=0&hl=en&rclk=1,28.9641838,77.0876616,Haryana
Malhotra Hospital,Hospital,"Panipat, Sukhdev Nagar, Old Housing Board Colony, Panipat, Haryana 132103, India",https://www.google.co.kr/maps/place/Malhotra+Hospital/data=!4m5!3m4!1s0x390dda49af918f57:0x92b595f3d39a8135!8m2!3d29.3979028!4d76.9722798?authuser=0&hl=en&rclk=1,29.3979028,76.9722798,Haryana
Manish Hospital,Hospital,"Jain Colony, Ballabhgarh, Faridabad, Haryana 121004, India",https://www.google.co.kr/maps/place/Manish+Hospital/data=!4m5!3m4!1s0x390cdb9873ea8c83:0x7a94d964848b874f!8m2!3d28.3353468!4d77.322686?authuser=0&hl=en&rclk=1,28.3353468,77.322686,Haryana
Medical,Hospital,"Unnamed Road, Bhaklana, Haryana 125042, India",https://www.google.co.kr/maps/place/Medical/data=!4m5!3m4!1s0x3912134bf99b997d:0xae1baf12924fe7e7!8m2!3d29.1507482!4d76.2395472?authuser=0&hl=en&rclk=1,29.1507482,76.2395472,Haryana
Haryana clinic,Hospital,"8G25+GJQ, Baldhan Khurd, Haryana 123401, India",https://www.google.co.kr/maps/place/Haryana+clinic/data=!4m5!3m4!1s0x390d5f35257d0a73:0x4b2817477c661318!8m2!3d28.3013293!4d76.5091153?authuser=0&hl=en&rclk=1,28.3013293,76.5091153,Haryana
Sub centre,Hospital,"Unnamed Road, Bhaklana, Haryana 125042, India",https://www.google.co.kr/maps/place/Sub+centre/data=!4m5!3m4!1s0x391213798fac02cb:0x7c47a8bde4f2f679!8m2!3d29.1507574!4d76.2395356?authuser=0&hl=en&rclk=1,29.1507574,76.2395356,Haryana
Jindal Surgical Hospital,Hospital,"Inderprastha Colony, near Bus Stand, Hisar, Haryana 125001, India",https://www.google.co.kr/maps/place/Jindal+Surgical+Hospital/data=!4m5!3m4!1s0x391232d21af34b93:0x576e795ce66c6e88!8m2!3d29.1666453!4d75.7191044?authuser=0&hl=en&rclk=1,29.1666453,75.7191044,Haryana
An as,Hospital,"NH152, Huda Sector 19, Huda, Kaithal, Haryana 136027, India",https://www.google.co.kr/maps/place/An+as/data=!4m5!3m4!1s0x3911e06faaaaaaab:0xa7f607df633ba0a5!8m2!3d29.8037666!4d76.4162622?authuser=0&hl=en&rclk=1,29.8037666,76.4162622,Haryana
Esi hospital,Hospital,"MDR108, Khanak, Haryana 127040, India",https://www.google.co.kr/maps/place/Esi+hospital/data=!4m5!3m4!1s0x39124fcdab475a8d:0x7ee35c31063c2334!8m2!3d28.909931!4d75.86304?authuser=0&hl=en&rclk=1,28.909931,75.86304,Haryana
"Janta Hospital Gurmandi,Sonepat",Hospital,"Janta Charitable Hospital gurmandi, Sonipat, Haryana, India","https://www.google.co.kr/maps/place/Janta+Hospital+Gurmandi,Sonepat/data=!4m5!3m4!1s0x390db00be516dc41:0x197de8cee1d520a8!8m2!3d28.9881206!4d77.0153159?authuser=0&hl=en&rclk=1",28.9881206,77.0153159,Haryana
Suriya Hospital,Hospital,"Jind-Gohana Rd, Tej Colony, Rohtak, Haryana 124001, India",https://www.google.co.kr/maps/place/Suriya+Hospital/data=!4m5!3m4!1s0x390d85980dc92aeb:0xa7be41ed71007180!8m2!3d28.9052994!4d76.5846506?authuser=0&hl=en&rclk=1,28.9052994,76.5846506,Haryana
QRG Hospital,Hospital,"Plot no. 1, Sector 16, Faridabad, Haryana 121002, India",https://www.google.co.kr/maps/place/QRG+Hospital/data=!4m5!3m4!1s0x390cddba90e276bb:0xcc2f94ad63876f0f!8m2!3d28.4082904!4d77.3188689?authuser=0&hl=en&rclk=1,28.4082904,77.3188689,Haryana
Sub Center,Hospital,"Haryana 127309, India",https://www.google.co.kr/maps/place/Sub+Center/data=!4m5!3m4!1s0x391287cd1577ef63:0xd30a17871d99a118!8m2!3d28.6698389!4d76.2842935?authuser=0&hl=en&rclk=1,28.6698389,76.2842935,Haryana
ECHS Polyclinic Kurukshetra,Hospital,"Sector-5 Market, Section 5, Sector 5, Kurukshetra, Haryana 136118, India",https://www.google.co.kr/maps/place/ECHS+Polyclinic+Kurukshetra/data=!4m5!3m4!1s0x390e46d06aaaaaab:0x9c005e988d314773!8m2!3d29.9700744!4d76.8819897?authuser=0&hl=en&rclk=1,29.9700744,76.8819897,Haryana
Shivam EH Hospital,Hospital,"92W9+JH5, Gopalwas, Haryana 127310, India",https://www.google.co.kr/maps/place/Shivam+EH+Hospital/data=!4m5!3m4!1s0x3912eb0096476311:0xe9e3ee4deeaccd01!8m2!3d28.3965001!4d76.0189875?authuser=0&hl=en&rclk=1,28.3965001,76.0189875,Haryana
Rana Hospital Kalka,Hospital,"518/B, Zirakpur-Panchkula-Kalka Highway, Main Bazar, Near Canara Bank, Kalka, Panchkula, Haryana 133302, India",https://www.google.co.kr/maps/place/Rana+Hospital+Kalka/data=!4m5!3m4!1s0x390f8e8fb65a3c59:0x3582f74e70545246!8m2!3d30.8362131!4d76.9385416?authuser=0&hl=en&rclk=1,30.8362131,76.9385416,Haryana
Sunshine Hospital,Hospital,"Kot, Haryana 121105, India",https://www.google.co.kr/maps/place/Sunshine+Hospital/data=!4m5!3m4!1s0x39732962b5fee959:0x6893efe19e7102f8!8m2!3d27.9642916!4d77.2283714?authuser=0&hl=en&rclk=1,27.9642916,77.2283714,Haryana
Shri Krishna Hospital,Hospital,"748R+PF8, Mohlla Khatikan, Mahendragarh, Haryana 123029, India",https://www.google.co.kr/maps/place/Shri+Krishna+Hospital/data=!4m5!3m4!1s0x3912bee7aefdd8b7:0x9797fcf898a92d6f!8m2!3d28.2667836!4d76.1412131?authuser=0&hl=en&rclk=1,28.2667836,76.1412131,Haryana
Pgims,Hospital,"PGIMS Complex, Maharshi Dayanand University, Dev Colony, Rohtak, Haryana 124001, India",https://www.google.co.kr/maps/place/Pgims/data=!4m5!3m4!1s0x390d855962c505df:0x7a643996246c16f8!8m2!3d28.8820619!4d76.6095952?authuser=0&hl=en&rclk=1,28.8820619,76.6095952,Haryana
E.C.H.S. Polyclinic,Hospital,"SH 20, Kharkhoda, Haryana 131402, India",https://www.google.co.kr/maps/place/E.C.H.S.+Polyclinic/data=!4m5!3m4!1s0x390da3f85eb9ebd5:0x12e9203e2b0ac05e!8m2!3d28.8708821!4d76.9073878?authuser=0&hl=en&rclk=1,28.8708821,76.9073878,Haryana
Cattle Hospital,Hospital,"Nidani, Haryana 126102, India",https://www.google.co.kr/maps/place/Cattle+Hospital/data=!4m5!3m4!1s0x391208651c6537d9:0x38f188c17fc800e5!8m2!3d29.2625546!4d76.4190199?authuser=0&hl=en&rclk=1,29.2625546,76.4190199,Haryana
Cmc,Hospital,"Haryana 125033, India",https://www.google.co.kr/maps/place/Cmc/data=!4m5!3m4!1s0x39126b81b7d597b1:0xd885f80b6dd332b3!8m2!3d29.0587757!4d76.085601?authuser=0&hl=en&rclk=1,29.0587757,76.085601,Haryana
"Max Super Speciality Hospital, Saket (Max Saket)",Hospital,"1 2, Press Enclave Marg, Saket Institutional Area, Saket, New Delhi, Delhi 110017, India","https://www.google.co.kr/maps/place/Max+Super+Speciality+Hospital,+Saket+(Max+Saket)/data=!4m5!3m4!1s0x390ce1f427d4c5fb:0x582d47bbf4970bc1!8m2!3d28.527549!4d77.2119946?authuser=0&hl=en&rclk=1",28.527549,77.2119946,Haryana
Government Hospital,Government hospital,"Sangaria, Sadul Shahar-Sangriya Rd, near Bus Stand, Sangaria, 335063, India",https://www.google.co.kr/maps/place/Government+Hospital/data=!4m5!3m4!1s0x3916e590021cf09d:0x309a9973ad0eb33!8m2!3d29.7954421!4d74.4646668?authuser=0&hl=en&rclk=1,29.7954421,74.4646668,Haryana
Doctor,Hospital,"Sonipat Rd, Vikas Nagar, Rohtak, Haryana 124001, India",https://www.google.co.kr/maps/place/Doctor/data=!4m5!3m4!1s0x390d858745caff23:0x5dc6c4aeb3f7e1b5!8m2!3d28.89634!4d76.6013447?authuser=0&hl=en&rclk=1,28.89634,76.6013447,Haryana
Sharda Child Hospital,Children's hospital,"4PMV+MP6, Model Town, Hisar, Haryana 125011, India",https://www.google.co.kr/maps/place/Sharda+Child+Hospital/data=!4m5!3m4!1s0x3912336c8eaf2e75:0x24e81e0cbc1f2959!8m2!3d29.134159!4d75.744269?authuser=0&hl=en&rclk=1,29.134159,75.744269,Haryana
PHC BIHTA,Hospital,"7XC3+MF7, Bihta, Haryana 133101, India",https://www.google.co.kr/maps/place/PHC+BIHTA/data=!4m5!3m4!1s0x390fb321269c63c9:0xdbacf1520f0fb98e!8m2!3d30.2716552!4d76.9536781?authuser=0&hl=en&rclk=1,30.2716552,76.9536781,Haryana
ECHS Polyclinic,Hospital,"KV, CGO Complex NH-4, Opposite Kendriya Vidyalaya, Street Number 1, Faridabad, Haryana 121001, India",https://www.google.co.kr/maps/place/ECHS+Polyclinic/data=!4m5!3m4!1s0x390cddcdf9ca3e21:0xab46bb0b96f0f3d3!8m2!3d28.4065815!4d77.2981756?authuser=0&hl=en&rclk=1,28.4065815,77.2981756,Haryana
ECHS Polyclinic,Government hospital,"169, krishna Nagar, Rewari, Haryana 123401, India",https://www.google.co.kr/maps/place/ECHS+Polyclinic/data=!4m5!3m4!1s0x390d500fe4db1129:0x2d77fa193b6c183a!8m2!3d28.1950708!4d76.5960538?authuser=0&hl=en&rclk=1,28.1950708,76.5960538,Haryana
"Shalby Hospital, Mohali",Hospital,"near PCA Stadium, Phase 9, Sector 63, Sahibzada Ajit Singh Nagar, Chandigarh 160062, India","https://www.google.co.kr/maps/place/Shalby+Hospital,+Mohali/data=!4m5!3m4!1s0x390feea000764e3f:0xd0f04b8e00abed86!8m2!3d30.6923537!4d76.7334135?authuser=0&hl=en&rclk=1",30.6923537,76.7334135,Haryana
Doctor,Hospital,"Jatin hospital, Ram Nagar, Jind, Haryana 126102, India",https://www.google.co.kr/maps/place/Doctor/data=!4m5!3m4!1s0x391205a9c2f715d7:0xfa6446e771eab0bc!8m2!3d29.303606!4d76.3178586?authuser=0&hl=en&rclk=1,29.303606,76.3178586,Haryana
ECHS Polyclinic Palwal,Hospital,"Near HUDA Chowk, Paana Vihar, Palwal, Haryana 121102, India",https://www.google.co.kr/maps/place/ECHS+Polyclinic+Palwal/data=!4m5!3m4!1s0x390cd3ceacbd1799:0x73e083e8b45df5aa!8m2!3d28.1570475!4d77.3262892?authuser=0&hl=en&rclk=1,28.1570475,77.3262892,Haryana
Soni Hospital,Medical clinic,"Hisar, Chandigarh Rd, Barwala, Haryana 126010, India",https://www.google.co.kr/maps/place/Soni+Hospital/data=!4m5!3m4!1s0x3912277e06aee663:0x4e9091f9a3ce4774!8m2!3d29.3686077!4d75.902523?authuser=0&hl=en&rclk=1,29.3686077,75.902523,Haryana
Sub Center,Hospital,"VX5M+RVR, Dang Kalan, Haryana 127040, India",https://www.google.co.kr/maps/place/Sub+Center/data=!4m5!3m4!1s0x39125b517c62ab81:0x876c002d09e291af!8m2!3d28.8596101!4d75.9846561?authuser=0&hl=en&rclk=1,28.8596101,75.9846561,Haryana
Deen Dayal Upadhyay Hospital,General hospital,"Shaheed Mangal Pandey Marg, Nanak Pura, Hari Nagar, New Delhi, Delhi 110064, India",https://www.google.co.kr/maps/place/Deen+Dayal+Upadhyay+Hospital/data=!4m5!3m4!1s0x390cfd309eebed77:0xc8559980f0b50535!8m2!3d28.6280643!4d77.1122969?authuser=0&hl=en&rclk=1,28.6280643,77.1122969,Haryana
PSRI Hospital,Hospital,"Press Enclave Marg, J Pocket, Phase II, Sheikh Sarai, New Delhi, Delhi 110017, India",https://www.google.co.kr/maps/place/PSRI+Hospital/data=!4m5!3m4!1s0x390ce2276532a245:0xd0cd7116d6474347!8m2!3d28.533387!4d77.2253254?authuser=0&hl=en&rclk=1,28.533387,77.2253254,Haryana
Sub Center,Hospital,"7CXX+MF3, Kishangarh, Haryana 125052, India",https://www.google.co.kr/maps/place/Sub+Center/data=!4m5!3m4!1s0x3913d930b20a3f11:0x99487e6fe56923e4!8m2!3d29.2991407!4d75.4486772?authuser=0&hl=en&rclk=1,29.2991407,75.4486772,Haryana
BLK-Max Super Speciality Hospital,Hospital,"Pusa Rd, Radha Soami Satsang, Rajendra Place, New Delhi, Delhi 110005, India",https://www.google.co.kr/maps/place/BLK-Max+Super+Speciality+Hospital/data=!4m5!3m4!1s0x390d029633b6af21:0x9a67323b63bcc188!8m2!3d28.6433105!4d77.1796932?authuser=0&hl=en&rclk=1,28.6433105,77.1796932,Haryana
Geetanjali Hospital,Doctor,"270, Model Town, Hisar, Haryana 125005, India",https://www.google.co.kr/maps/place/Geetanjali+Hospital/data=!4m5!3m4!1s0x3912336c77b3e11b:0xab31901f64390f7c!8m2!3d29.1322478!4d75.7431085?authuser=0&hl=en&rclk=1,29.1322478,75.7431085,Haryana
Dr. Ram Manohar Lohia Hospital,Government hospital,"Baba Kharak Singh Rd, near Gurudwara Bangla Sahib, Ram Manohar Lohia Hospital, Type III, Connaught Place, New Delhi, Delhi 110001, India",https://www.google.co.kr/maps/place/Dr.+Ram+Manohar+Lohia+Hospital/data=!4m5!3m4!1s0x390cfd54897b42ab:0xaba569ad339668ef!8m2!3d28.6258438!4d77.2027074?authuser=0&hl=en&rclk=1,28.6258438,77.2027074,Haryana
"Fortis Flt. Lt. Rajan Dhall Hospital, Vasant Kunj",Hospital,"Fortis Flt Lt Rajan Dhall Hospital, Aruna Asaf Ali Marg, Pocket 1, Sector B, Vasant Kunj, New Delhi, Delhi 110070, India","https://www.google.co.kr/maps/place/Fortis+Flt.+Lt.+Rajan+Dhall+Hospital,+Vasant+Kunj/data=!4m5!3m4!1s0x390d1d080c000001:0xdc68ebc7ff708935!8m2!3d28.5192105!4d77.1602895?authuser=0&hl=en&rclk=1",28.5192105,77.1602895,Haryana
Game,Hospital,"Rawalwas Khurd, Haryana 120061, India",https://www.google.co.kr/maps/place/Game/data=!4m5!3m4!1s0x3913cfcaab11de89:0x94cbac1fe2109c07!8m2!3d29.099503!4d75.5887989?authuser=0&hl=en&rclk=1,29.099503,75.5887989,Haryana
Ayurvedic dawa,Hospital,"H7WF+GX9, Charkhi Dadri, Haryana 127306, India",https://www.google.co.kr/maps/place/Ayurvedic+dawa/data=!4m5!3m4!1s0x3912854dada9693f:0x170e0386ae5658e2!8m2!3d28.5962886!4d76.2749911?authuser=0&hl=en&rclk=1,28.5962886,76.2749911,Haryana
Satyawadi Raja Harish Chandra Hospital,Government hospital,"Satyawadi raja harish chandar hospital Campus, Narela, Delhi, 110040, India",https://www.google.co.kr/maps/place/Satyawadi+Raja+Harish+Chandra+Hospital/data=!4m5!3m4!1s0x390daa2aaf85c671:0xf308066ae782a6ad!8m2!3d28.8405736!4d77.1033339?authuser=0&hl=en&rclk=1,28.8405736,77.1033339,Haryana
"Max Super Speciality Hospital, Vaishali",Hospital,"W-3, Ashok Marg, near Radisson Blu Hotel, Sector-1, Vaishali, Ghaziabad, Uttar Pradesh 201012, India","https://www.google.co.kr/maps/place/Max+Super+Speciality+Hospital,+Vaishali/data=!4m5!3m4!1s0x390ce52ab59613c9:0xe042397c001c2d99!8m2!3d28.6345866!4d77.3330912?authuser=0&hl=en&rclk=1",28.6345866,77.3330912,Haryana
"Abhinav ENT, Head & Neck Cancer Hospital",Otolaryngologist,"Near Vaishno Hotel, Bawal-Rewari Rd, in front of Nagpal Sound, Model Town, Rewari, Haryana 123401, India","https://www.google.co.kr/maps/place/Abhinav+ENT,+Head+%26+Neck+Cancer+Hospital/data=!4m5!3m4!1s0x390d5072735902a9:0xaceda78e9cb95aad!8m2!3d28.186664!4d76.613809?authuser=0&hl=en&rclk=1",28.186664,76.613809,Haryana
OPD Tb Hospital,Hospital,"TB Hospital Rd, Seth Sarai, Mehrauli, New Delhi, Delhi 110016, India",https://www.google.co.kr/maps/place/OPD+Tb+Hospital/data=!4m5!3m4!1s0x390d1f1bc73a409b:0x3c56712ce6632df1!8m2!3d28.5288603!4d77.1885812?authuser=0&hl=en&rclk=1,28.5288603,77.1885812,Haryana
G.C. Gupta Hospital,Doctor,"372-373, Huda Sector 11, Panipat, Haryana 132103, India",https://www.google.co.kr/maps/place/G.C.+Gupta+Hospital/data=!4m5!3m4!1s0x390dda59cad8b73d:0x5e34ac8ef490b99f!8m2!3d29.380617!4d76.9770944?authuser=0&hl=en&rclk=1,29.380617,76.9770944,Haryana
"A block, gmch",Hospital,"1157-B, Chandi Path, 32B, Sector 32, Chandigarh, 160047, India","https://www.google.co.kr/maps/place/A+block,+gmch/data=!4m5!3m4!1s0x390fed14591a4e55:0x257ffd6c5aad0301!8m2!3d30.7096526!4d76.7814621?authuser=0&hl=en&rclk=1",30.7096526,76.7814621,Haryana
Any,Medical Center,"Vpo, Khidwali, Haryana 124001, India",https://www.google.co.kr/maps/place/Any/data=!4m5!3m4!1s0x390d8ff0ad3da8e9:0xacc5248772938970!8m2!3d29.0100045!4d76.5806097?authuser=0&hl=en&rclk=1,29.0100045,76.5806097,Haryana
Delhi Heart & Lung Institute,General hospital,"Rolex, 3, Panchkuian Marg, Type 4, Block B, Aram Bagh, Paharganj, New Delhi, Delhi 110055, India",https://www.google.co.kr/maps/place/Delhi+Heart+%26+Lung+Institute/data=!4m5!3m4!1s0x390cfd5cda95cbd5:0xe47138854cec7a5f!8m2!3d28.6416491!4d77.2053679?authuser=0&hl=en&rclk=1,28.6416491,77.2053679,Haryana
"Chaudhary Ortho & General Hospital,Sirsa(Haryana)",Nursing home,"B-5, Ambedkar Chowk, Nandan Vatika, Sirsa, Haryana 125055, India","https://www.google.co.kr/maps/place/Chaudhary+Ortho+%26+General+Hospital,Sirsa(Haryana)/data=!4m5!3m4!1s0x39114d0e721d8d63:0x975424a763412991!8m2!3d29.5319474!4d75.0350646?authuser=0&hl=en&rclk=1",29.5319474,75.0350646,Haryana
"Asian Institute of Medical Sciences,Noida",Hospital,"D-141 A, &, Sector 41 Block B Rd, Noida, Uttar Pradesh 201301, India","https://www.google.co.kr/maps/place/Asian+Institute+of+Medical+Sciences,Noida/data=!4m5!3m4!1s0x390ce50fa60aa82b:0xd3ddbb37380821ce!8m2!3d28.5653359!4d77.3594833?authuser=0&hl=en&rclk=1",28.5653359,77.3594833,Haryana
CGHS Dispensary No 9 & Ayurvedic Hospital,Hospital,"Aliganj, South Delhi, New Delhi, Delhi 110003, India",https://www.google.co.kr/maps/place/CGHS+Dispensary+No+9+%26+Ayurvedic+Hospital/data=!4m5!3m4!1s0x390ce25f36aaaaab:0x41c43478e2ead19a!8m2!3d28.5822586!4d77.2200073?authuser=0&hl=en&rclk=1,28.5822586,77.2200073,Haryana
"Dr Udgeath Dhir, Fortis Hospital Gurugram",Doctor,"OPD-15 Sector - 44, Opposite HUDA City Centre, Gurugram, Haryana 122002, India","https://www.google.co.kr/maps/place/Dr+Udgeath+Dhir,+Fortis+Hospital+Gurugram/data=!4m5!3m4!1s0x390d190efe569c13:0xe5f7259b6ac51f29!8m2!3d28.4575827!4d77.0735425?authuser=0&hl=en&rclk=1",28.4575827,77.0735425,Haryana
Laptop,Hospital,"NH352, Dyal Bagh Colony, Jind, Haryana 126110, India",https://www.google.co.kr/maps/place/Laptop/data=!4m5!3m4!1s0x391204f9f5ca6bb7:0x49fa70ca56827401!8m2!3d29.3205827!4d76.3117885?authuser=0&hl=en&rclk=1,29.3205827,76.3117885,Haryana
Medical,Medical Center,"WCRJ+825, Madina, Haryana 124111, India",https://www.google.co.kr/maps/place/Medical/data=!4m5!3m4!1s0x391277b92a2cc76d:0x6f1a38f313344823!8m2!3d28.9407749!4d76.4301001?authuser=0&hl=en&rclk=1,28.9407749,76.4301001,Haryana
Dr. Vandana Narula,Obstetrician-gynecologist,"No. 2, Narula Hospital, Sector 15, Part-2, Opp. Rail Vihar Apartments, Gurugram, Haryana 122001, India",https://www.google.co.kr/maps/place/Dr.+Vandana+Narula/data=!4m5!3m4!1s0x390d184fbfffffc3:0xe4574a3794350272!8m2!3d28.458052!4d77.0410513?authuser=0&hl=en&rclk=1,28.458052,77.0410513,Haryana
Doctor Professor Arvind Kumar,Oncologist,"Room No 12, 4th Floor, OPD Building Medanta Hospital Medanta-the, Medicity, Gurugram, Haryana 122001, India",https://www.google.co.kr/maps/place/Doctor+Professor+Arvind+Kumar/data=!4m5!3m4!1s0x390d02a147c73d55:0x10233da13c9b5bbb!8m2!3d28.4394868!4d77.0406885?authuser=0&hl=en&rclk=1,28.4394868,77.0406885,Haryana
CGHS Dispensary,Hospital,"H5CP+RFC, Block A, Netaji Nagar, New Delhi, Delhi 110023, India",https://www.google.co.kr/maps/place/CGHS+Dispensary/data=!4m5!3m4!1s0x390d1d82513bf399:0xde6a3b146c5e191!8m2!3d28.5720609!4d77.1861466?authuser=0&hl=en&rclk=1,28.5720609,77.1861466,Haryana
Dr. Rajiva Gupta,Doctor,"Clinical Immunology and Rheumatology, Medanta - The Medicity, CH Baktawar Singh Rd, Medicity, Chowk, Sector 38, Gurugram, Haryana 122001, India",https://www.google.co.kr/maps/place/Dr.+Rajiva+Gupta/data=!4m5!3m4!1s0x390d190396f6e4bd:0xd6f602edf1c12e19!8m2!3d28.439681!4d77.04122?authuser=0&hl=en&rclk=1,28.439681,77.04122,Haryana
Best Hospital in Delhi|Multi speciality Hospital in Ghaziabad|Yashoda Hospital,Hospital,"near, Metro Station, Kaushambi, Ghaziabad, Uttar Pradesh 201012, India",https://www.google.co.kr/maps/place/Best+Hospital+in+Delhi%7CMulti+speciality+Hospital+in+Ghaziabad%7CYashoda+Hospital/data=!4m5!3m4!1s0x390cfb8dd20ecc37:0xe0da5b28ea150e49!8m2!3d28.6462371!4d77.3323047?authuser=0&hl=en&rclk=1,28.6462371,77.3323047,Haryana
Book New Appointment,Hospital,"AIIMS Campus Temple, Central Lawn Ln, Ansari Nagar East, New Delhi, Delhi 110016, India",https://www.google.co.kr/maps/place/Book+New+Appointment/data=!4m5!3m4!1s0x390ce3fd017ae8e7:0x4010051fce4e1e4e!8m2!3d28.5674239!4d77.2110467?authuser=0&hl=en&rclk=1,28.5674239,77.2110467,Haryana
Jeewan Mala Hospital,Private hospital,"67/1 New Rohtak Road, Guru Gobind Singh Marg, Karol Bagh, New Delhi, Delhi 110005, India",https://www.google.co.kr/maps/place/Jeewan+Mala+Hospital/data=!4m5!3m4!1s0x390d0282839881cf:0x2c1be8860b8e3bb5!8m2!3d28.6579666!4d77.1942862?authuser=0&hl=en&rclk=1,28.6579666,77.1942862,Haryana
Government Hospital,General hospital,"M3FJ+R2F, Camp No 5, Jwalapuri, Paschim Vihar, New Delhi, Delhi 110087, India",https://www.google.co.kr/maps/place/Government+Hospital/data=!4m5!3m4!1s0x390d046a0d0c8753:0x5d6384cf7e27327d!8m2!3d28.674571!4d77.08006?authuser=0&hl=en&rclk=1,28.674571,77.08006,Haryana
"Fortis Hospital, Shalimar Bagh",General hospital,"AA-299, Shaheed Udham Singh Marg, AA Block, Poorbi Shalimar Bag, Shalimar Bagh, Delhi, 110088, India","https://www.google.co.kr/maps/place/Fortis+Hospital,+Shalimar+Bagh/data=!4m5!3m4!1s0x390d02206e9e71cf:0xb096542618cd68b4!8m2!3d28.7095568!4d77.169913?authuser=0&hl=en&rclk=1",28.7095568,77.169913,Haryana
ORTHO OPD Safdarjung Hospital,Hospice,"Safdarjung Hospital, Yusuf Sarai, Block C 1, Ansari Nagar East, New Delhi, Delhi 110029, India",https://www.google.co.kr/maps/place/ORTHO+OPD+Safdarjung+Hospital/data=!4m5!3m4!1s0x390ce26525fc115d:0x47a044fec7067fce!8m2!3d28.5674905!4d77.2067693?authuser=0&hl=en&rclk=1,28.5674905,77.2067693,Haryana
Asha Hospital,Hospital,"Ph-II, Bhagwan Parshuram Marg, Vikas Nagar, Uttam Nagar, Hastsal, New Delhi, Delhi 110059, India",https://www.google.co.kr/maps/place/Asha+Hospital/data=!4m5!3m4!1s0x390d051c220e2ee1:0xb40b80fe59ce7286!8m2!3d28.6366676!4d77.0516081?authuser=0&hl=en&rclk=1,28.6366676,77.0516081,Haryana
Sir Ganga Ram Hospital,Private hospital,"Sir Ganga Ram Hospital Marg, Old Rajinder Nagar, New Rajinder Nagar, New Delhi, Delhi 110060, India",https://www.google.co.kr/maps/place/Sir+Ganga+Ram+Hospital/data=!4m5!3m4!1s0x390d02a17c4ab835:0xecd838535c0fa0f6!8m2!3d28.6384582!4d77.1895559?authuser=0&hl=en&rclk=1,28.6384582,77.1895559,Haryana
Medical Testing Lab Yashoda Superspeciality Hospital,Hospital,"H-1, near Metro, Kaushambi, Ghaziabad, Uttar Pradesh 201010, India",https://www.google.co.kr/maps/place/Medical+Testing+Lab+Yashoda+Superspeciality+Hospital/data=!4m5!3m4!1s0x390cfb305ac70c29:0x242672337ee39b12!8m2!3d28.6424143!4d77.3187435?authuser=0&hl=en&rclk=1,28.6424143,77.3187435,Haryana
