Company_Name,Category,Address,Url,Latitude,Longitude,State
INDIA HOSPITAL ( Unit of Manhattan Hospital Pvt Ltd),General hospital,"Mele Thampanoor,EMS road, near Subramonia temple, Thampanoor, Thiruvananthapuram, Kerala 695001, India",https://www.google.co.kr/maps/place/INDIA+HOSPITAL+(+Unit+of+Manhattan+Hospital+Pvt+Ltd)/data=!4m5!3m4!1s0x3b05bba538017d2b:0x6b8ce7b43986759c!8m2!3d8.4928179!4d76.9513267?authuser=0&hl=en&rclk=1,8.4928179,76.9513267,Kerala
Specialists' Hospital Kochi,Hospital,"Haji K C M Mather Road, Xavier Arakkal Rd, Ernakulam North, Opp, Kacheripady, Kochi, Kerala 682018, India",https://www.google.co.kr/maps/place/Specialists'+Hospital+Kochi/data=!4m5!3m4!1s0x3b080d4383385a6f:0x7206e12aa393d2d4!8m2!3d9.9904987!4d76.2859211?authuser=0&hl=en&rclk=1,9.9904987,76.2859211,Kerala
Rajagiri Hospital,Private hospital,"Near GTN Junction, Chunangamvely Aluva, Kochi, Kerala 683112, India",https://www.google.co.kr/maps/place/Rajagiri+Hospital/data=!4m5!3m4!1s0x3b080915485f087b:0xe9ea47ec734cd857!8m2!3d10.0876205!4d76.388183?authuser=0&hl=en&rclk=1,10.0876205,76.388183,Kerala
Krishna Hospital,Hospital,"Chittoor Rd, opposite Maharajas College Ground, Shenoys, Kochi, Kerala 682016, India",https://www.google.co.kr/maps/place/Krishna+Hospital/data=!4m5!3m4!1s0x3b080d5cdc429b33:0xb2a2ea0e315b08d2!8m2!3d9.974997!4d76.2848193?authuser=0&hl=en&rclk=1,9.974997,76.2848193,Kerala
VPS Lakeshore Hospital,General hospital,"NH-66 Bypass, near Police Station, Nettoor, Maradu, Kochi, Kerala 682040, India",https://www.google.co.kr/maps/place/VPS+Lakeshore+Hospital/data=!4m5!3m4!1s0x3b0873b2953388a7:0xce77188e8376bcfa!8m2!3d9.9190543!4d76.3189326?authuser=0&hl=en&rclk=1,9.9190543,76.3189326,Kerala
Medical Trust Hospital,Private hospital,"Mahatma Gandhi Rd, Pallimukku, Kochi, Kerala 682016, India",https://www.google.co.kr/maps/place/Medical+Trust+Hospital/data=!4m5!3m4!1s0x3b0872b0e0cadceb:0xc89d826b91562e56!8m2!3d9.9642983!4d76.2878082?authuser=0&hl=en&rclk=1,9.9642983,76.2878082,Kerala
Holy Cross Super Speciality Hospital,General hospital,"Hollycross Hospital Rd, Kottiyam, Kerala 691571, India",https://www.google.co.kr/maps/place/Holy+Cross+Super+Speciality+Hospital/data=!4m5!3m4!1s0x3b05e3628cb39fbb:0x7f7bd709efaad381!8m2!3d8.8616392!4d76.6734037?authuser=0&hl=en&rclk=1,8.8616392,76.6734037,Kerala
Ernakulam General Hospital,General hospital,"Hospital Rd, Marine Drive, Ernakulam, Kerala 682011, India",https://www.google.co.kr/maps/place/Ernakulam+General+Hospital/data=!4m5!3m4!1s0x3b0873718cab2255:0x5c5f0341e45659bf!8m2!3d9.9720244!4d76.2815409?authuser=0&hl=en&rclk=1,9.9720244,76.2815409,Kerala
Cochin Hospital,General hospital,"Mahatma Gandhi Rd, Opp: Pallimukku Bus Stop, Pallimukku, Kochi, Kerala 682016, India",https://www.google.co.kr/maps/place/Cochin+Hospital/data=!4m5!3m4!1s0x3b0872b0ddcd6225:0xa7ea218f2afef06a!8m2!3d9.9648801!4d76.2874371?authuser=0&hl=en&rclk=1,9.9648801,76.2874371,Kerala
P S Mission Hospital,General hospital,"Maradu, Ernakulam, Kerala 682304, India",https://www.google.co.kr/maps/place/P+S+Mission+Hospital/data=!4m5!3m4!1s0x3b087303f27ba213:0xd163e2ff8e59c028!8m2!3d9.9377613!4d76.322699?authuser=0&hl=en&rclk=1,9.9377613,76.322699,Kerala
Sunrise Hospital,Private hospital,"Seaport - Airport Rd, Thrikkakara, Kakkanad, Kerala 682030, India",https://www.google.co.kr/maps/place/Sunrise+Hospital/data=!4m5!3m4!1s0x3b080c5ddc66e4e1:0x534abac4429d539d!8m2!3d10.02554!4d76.338871?authuser=0&hl=en&rclk=1,10.02554,76.338871,Kerala
KIMS Alshifa Super Speciality Hospital കിംസ് അൽശിഫ ആശുപത്രി,Private hospital,"Ootty, Road, Perintalmanna, Kerala 679322, India",https://www.google.co.kr/maps/place/KIMS+Alshifa+Super+Speciality+Hospital+%E0%B4%95%E0%B4%BF%E0%B4%82%E0%B4%B8%E0%B5%8D+%E0%B4%85%E0%B5%BD%E0%B4%B6%E0%B4%BF%E0%B4%AB+%E0%B4%86%E0%B4%B6%E0%B5%81%E0%B4%AA%E0%B4%A4%E0%B5%8D%E0%B4%B0%E0%B4%BF/data=!4m5!3m4!1s0x3ba7ccfe23b4a40d:0x654e3d22d658f6ed!8m2!3d10.9847999!4d76.2238788?authuser=0&hl=en&rclk=1,10.9847999,76.2238788,Kerala
Aster MIMS Hospital,General hospital,"Mini Bypass Rd, Govindapuram, Kozhikode, Kerala 673016, India",https://www.google.co.kr/maps/place/Aster+MIMS+Hospital/data=!4m5!3m4!1s0x3ba65967a64af73d:0xea773473d8c60b15!8m2!3d11.245785!4d75.798546?authuser=0&hl=en&rclk=1,11.245785,75.798546,Kerala
Edappal Hospitals Pvt Ltd,Hospital,"Pattambi Rd, Edappal, Kerala 679576, India",https://www.google.co.kr/maps/place/Edappal+Hospitals+Pvt+Ltd/data=!4m5!3m4!1s0x3ba7b96de95d216d:0x1c0fcb1613dbc86d!8m2!3d10.782446!4d76.0108389?authuser=0&hl=en&rclk=1,10.782446,76.0108389,Kerala
Royal Hospital,General hospital,"Guruvayur, Kunnamkulam, Kerala 680503, India",https://www.google.co.kr/maps/place/Royal+Hospital/data=!4m5!3m4!1s0x3ba79540d8178e77:0x6094f595b0cc47b5!8m2!3d10.64592!4d76.0674009?authuser=0&hl=en&rclk=1,10.64592,76.0674009,Kerala
C A Hospital,Private hospital,"salem kochi highway, Ernakulam District, Desom PO, Aluva, Kunnumpuram, Kerala 680102, India",https://www.google.co.kr/maps/place/C+A+Hospital/data=!4m5!3m4!1s0x3b080f408317abb9:0x6876686348312bf!8m2!3d10.1289517!4d76.3442744?authuser=0&hl=en&rclk=1,10.1289517,76.3442744,Kerala
Aswini Hospital Limited,Private hospital,"Karunakaran Nambiar Rd,aswani junction, Patturaikkal, opposite to Big Bazaar, Thrissur, Kerala 680020, India",https://www.google.co.kr/maps/place/Aswini+Hospital+Limited/data=!4m5!3m4!1s0x3ba7ee574bd2ac0d:0x6643970cb3eb2aad!8m2!3d10.534769!4d76.214143?authuser=0&hl=en&rclk=1,10.534769,76.214143,Kerala
Apollo Hospitals,General hospital,"SH 1, Pandalam, Kerala 689501, India",https://www.google.co.kr/maps/place/Apollo+Hospitals/data=!4m5!3m4!1s0x3b061722f3b44d63:0xe91a283afb99bd48!8m2!3d9.2261834!4d76.6782819?authuser=0&hl=en&rclk=1,9.2261834,76.6782819,Kerala
Renai Medicity Hospital,Private hospital,"Palarivattom Edapally Road Near Palarivattom Metro Station Palarivattom P.O, Kochi, Kerala 682025, India",https://www.google.co.kr/maps/place/Renai+Medicity+Hospital/data=!4m5!3m4!1s0x3b080d0fd2a4228d:0xffc1e2c1b23954bd!8m2!3d10.007744!4d76.30331?authuser=0&hl=en&rclk=1,10.007744,76.30331,Kerala
Taluk hospital,General hospital,"near SP Fort Hospital, Prasanthi Nagar, Pazhavangadi, Thiruvananthapuram, Kerala 695023, India",https://www.google.co.kr/maps/place/Taluk+hospital/data=!4m5!3m4!1s0x3b05bb0aeaaaaaab:0x387c12e1ae014bdc!8m2!3d8.4862646!4d76.9408406?authuser=0&hl=en&rclk=1,8.4862646,76.9408406,Kerala
Nadakkavil Hospital,Hospital,"Valanchery, Kerala 676552, India",https://www.google.co.kr/maps/place/Nadakkavil+Hospital/data=!4m5!3m4!1s0x3ba7b62e31a203a5:0x58f11ba5d18b5759!8m2!3d10.89348!4d76.074904?authuser=0&hl=en&rclk=1,10.89348,76.074904,Kerala
SK Hospital,General hospital,"Thiruvananthapuram - Neyyar Dam Rd, Edapazhanji, Thiruvananthapuram, Kerala 695006, India",https://www.google.co.kr/maps/place/SK+Hospital/data=!4m5!3m4!1s0x3b05b9f3be189657:0x60ab5f03d2143ad5!8m2!3d8.5055121!4d76.9712901?authuser=0&hl=en&rclk=1,8.5055121,76.9712901,Kerala
Poyanil Hospital,Private hospital,"15, Poyanil Junction Pathanamthitta District Beside St.Thomas Higher Secondary School, Kozhencherry, Kerala 689641, India",https://www.google.co.kr/maps/place/Poyanil+Hospital/data=!4m5!3m4!1s0x3b063db52f498b33:0x13367febf4164614!8m2!3d9.3367747!4d76.7080611?authuser=0&hl=en&rclk=1,9.3367747,76.7080611,Kerala
Devamatha Hospital,Private hospital,"Koothattukulam, Kerala 686662, India",https://www.google.co.kr/maps/place/Devamatha+Hospital/data=!4m5!3m4!1s0x3b07dba7ffa3cab1:0xe017e0acdfbfca0d!8m2!3d9.86159!4d76.5956642?authuser=0&hl=en&rclk=1,9.86159,76.5956642,Kerala
Indira Gandhi Co-Operative Hospital,General hospital,"Gandhi Nagar Road, Opposite Rajiv Gandhi Indoor Stadium, Gandhi Nagar, Kadavanthra, Kochi, Kerala 682020, India",https://www.google.co.kr/maps/place/Indira+Gandhi+Co-Operative+Hospital/data=!4m5!3m4!1s0x3b0872cbe7649605:0xf668223fb040ff61!8m2!3d9.9686079!4d76.2987362?authuser=0&hl=en&rclk=1,9.9686079,76.2987362,Kerala
St. Gregorios Medical Mission Multi-Speciality Hospital,Private hospital,"Church, Post Office Rd, near Parumala, Parumala, Kerala 689626, India",https://www.google.co.kr/maps/place/St.+Gregorios+Medical+Mission+Multi-Speciality+Hospital/data=!4m5!3m4!1s0x3b06218371a8e90b:0x7cb93f3b25a8761d!8m2!3d9.3271707!4d76.5395795?authuser=0&hl=en&rclk=1,9.3271707,76.5395795,Kerala
Dhanya Mission Hospital,General hospital,"Post Office, Old Hwy, opp. Potta, Potta, Kerala 680722, India",https://www.google.co.kr/maps/place/Dhanya+Mission+Hospital/data=!4m5!3m4!1s0x3ba7f884093e740f:0x895f53c5337e5301!8m2!3d10.331106!4d76.324003?authuser=0&hl=en&rclk=1,10.331106,76.324003,Kerala
KIMS Multi Speciality Hospital,General hospital,"Thoothutty Junction, Kudamaloor, Kerala 686017, India",https://www.google.co.kr/maps/place/KIMS+Multi+Speciality+Hospital/data=!4m5!3m4!1s0x3b062b309bd3eba3:0x2566795d28c9b9be!8m2!3d9.6241373!4d76.5179924?authuser=0&hl=en&rclk=1,9.6241373,76.5179924,Kerala
Moulana Hospital,Hospital,"Mysuru - Ooty Rd, Perintalmanna, Kerala 679322, India",https://www.google.co.kr/maps/place/Moulana+Hospital/data=!4m5!3m4!1s0x3ba7cdaabc46b50d:0x1406bc8ead36e580!8m2!3d10.9796387!4d76.2260068?authuser=0&hl=en&rclk=1,10.9796387,76.2260068,Kerala
Thrissur District Co-Operative Hospital,General hospital,"306, Kodungallur - Shornur Rd, Naikkanal, Thrissur, Kerala 680020, India",https://www.google.co.kr/maps/place/Thrissur+District+Co-Operative+Hospital/data=!4m5!3m4!1s0x3ba7ee4540f67817:0x4a2773ce087653b!8m2!3d10.527616!4d76.2118069?authuser=0&hl=en&rclk=1,10.527616,76.2118069,Kerala
Amala Institute of Medical Sciences Thrissur,General hospital,"SH69, Amalanagar, Thrissur, Kerala 680555, India",https://www.google.co.kr/maps/place/Amala+Institute+of+Medical+Sciences+Thrissur/data=!4m5!3m4!1s0x3ba7ec1866a86d1f:0x705e95270b8c70e4!8m2!3d10.5617822!4d76.1675183?authuser=0&hl=en&rclk=1,10.5617822,76.1675183,Kerala
Mary Queens Mission Hospital Kanjirappally,Private hospital,"Kanjirapally - Erumely Road, Palampra Rd, Kottayam, Kerala 686518, India",https://www.google.co.kr/maps/place/Mary+Queens+Mission+Hospital+Kanjirappally/data=!4m5!3m4!1s0x3b0636081317fa2d:0xcdafeb35eb6fcd16!8m2!3d9.5580678!4d76.8137857?authuser=0&hl=en&rclk=1,9.5580678,76.8137857,Kerala
Indira Gandhi Co-Operative Hospital Thalassery,Private hospital,"Manjodi, Thiruvangad, Illathaazha, Thalassery, Kerala 670103, India",https://www.google.co.kr/maps/place/Indira+Gandhi+Co-Operative+Hospital+Thalassery/data=!4m5!3m4!1s0x3ba42635b8aa170d:0x22af551dd5c807e2!8m2!3d11.7468713!4d75.5060087?authuser=0&hl=en&rclk=1,11.7468713,75.5060087,Kerala
Okay Mission Hospital Ltd,General hospital,"Kodungallur, Kerala 680668, India",https://www.google.co.kr/maps/place/Okay+Mission+Hospital+Ltd/data=!4m5!3m4!1s0x3b081bf83de00cbf:0x75179718b8b9242c!8m2!3d10.2304159!4d76.1887888?authuser=0&hl=en&rclk=1,10.2304159,76.1887888,Kerala
National Hospital,Hospital,"Mavoor Rd, Near KSRTC Bus Stand, Tazhekkod, Kozhikode, Kerala 673001, India",https://www.google.co.kr/maps/place/National+Hospital/data=!4m5!3m4!1s0x3ba659379b97f227:0x289f1c125026f075!8m2!3d11.2595096!4d75.7812429?authuser=0&hl=en&rclk=1,11.2595096,75.7812429,Kerala
Sukapuram Hospital,General hospital,"Sukapuram P O, Edappal, Kerala 679576, India",https://www.google.co.kr/maps/place/Sukapuram+Hospital/data=!4m5!3m4!1s0x3ba7b97a49a8af7d:0x47088ee7bc957d08!8m2!3d10.7788505!4d76.0090959?authuser=0&hl=en&rclk=1,10.7788505,76.0090959,Kerala
Tata Global Beverages Limited High Range Hospital,General hospital,"General Hospital Road, Nullatanni, Munnar, Kerala 685612, India",https://www.google.co.kr/maps/place/Tata+Global+Beverages+Limited+High+Range+Hospital/data=!4m5!3m4!1s0x3b07997f16cfb9b9:0x381a3b7446396c6b!8m2!3d10.0885099!4d77.0564689?authuser=0&hl=en&rclk=1,10.0885099,77.0564689,Kerala
Poyanil Hospital,General hospital,"Chemmanthoor, Punalur, Kerala 691305, India",https://www.google.co.kr/maps/place/Poyanil+Hospital/data=!4m5!3m4!1s0x3b0674188232c4f5:0x3fe79a598b761617!8m2!3d9.0199927!4d76.909746?authuser=0&hl=en&rclk=1,9.0199927,76.909746,Kerala
Cherpulassery Co-Operative Hospital,General hospital,"Bus Stand, AKG Rd, near Cherpulassery, Cherpulassery, Kerala 679303, India",https://www.google.co.kr/maps/place/Cherpulassery+Co-Operative+Hospital/data=!4m5!3m4!1s0x3ba7d05edb4f3aa3:0xf918d3fe366b2da6!8m2!3d10.8788211!4d76.3133801?authuser=0&hl=en&rclk=1,10.8788211,76.3133801,Kerala
Punarnava Ayurveda Hospital Pvt. Ltd.,Hospital,"Old NH17, Edappally North, Amrita Nagar, P.O, Kochi, Kerala 682024, India",https://www.google.co.kr/maps/place/Punarnava+Ayurveda+Hospital+Pvt.+Ltd./data=!4m5!3m4!1s0x3b080dc1710e2b39:0xeade6e255f1f4b7!8m2!3d10.0441007!4d76.2977519?authuser=0&hl=en&rclk=1,10.0441007,76.2977519,Kerala
Nizar Hospital,General hospital,"Pattambi - Perinthalmanna Rd, Vadakancheri, Valanchery, Kerala 676552, India",https://www.google.co.kr/maps/place/Nizar+Hospital/data=!4m5!3m4!1s0x3ba7b632aa8bacf7:0xc0e13321780f6406!8m2!3d10.8858098!4d76.074009?authuser=0&hl=en&rclk=1,10.8858098,76.074009,Kerala
Devamatha Hospital,General hospital,"Old NH Road, Thrissur, Koratty, Kerala 680308, India",https://www.google.co.kr/maps/place/Devamatha+Hospital/data=!4m5!3m4!1s0x3b0803dd4daa64f3:0x682ca6bbb90f2510!8m2!3d10.2615055!4d76.3525289?authuser=0&hl=en&rclk=1,10.2615055,76.3525289,Kerala
Marina Hospital,Private hospital,"Railway Station Road, Irinjalakuda, Kerala 680121, India",https://www.google.co.kr/maps/place/Marina+Hospital/data=!4m5!3m4!1s0x3ba7f64bfd99f94d:0xf406210a8afd02f8!8m2!3d10.347545!4d76.2190739?authuser=0&hl=en&rclk=1,10.347545,76.2190739,Kerala
Metropolitan Hospital,Private hospital,"Koorkenchery Rd, Koorkenchery, Thrissur, Kerala 680007, India",https://www.google.co.kr/maps/place/Metropolitan+Hospital/data=!4m5!3m4!1s0x3ba7ee3a4dd297cd:0xe2df0bf91f3e08ac!8m2!3d10.5104051!4d76.2103405?authuser=0&hl=en&rclk=1,10.5104051,76.2103405,Kerala
Taluk Head Quarters Hospital,General hospital,"Police Station Road Oppo. Govt. Boys Higher Secondary School, Cherthala, Kerala 688524, India",https://www.google.co.kr/maps/place/Taluk+Head+Quarters+Hospital/data=!4m5!3m4!1s0x3b087c47fa525879:0x38033d1c07db52f8!8m2!3d9.6819228!4d76.3400984?authuser=0&hl=en&rclk=1,9.6819228,76.3400984,Kerala
Silverline Hospital,Hospital,"KP Vallon Rd, Giri Nagar, Kadavanthra, Ernakulam, Kerala 682020, India",https://www.google.co.kr/maps/place/Silverline+Hospital/data=!4m5!3m4!1s0x3b0872cf2c48ca19:0x4c9716406db19d43!8m2!3d9.9653492!4d76.3003242?authuser=0&hl=en&rclk=1,9.9653492,76.3003242,Kerala
Unity Hospital,Hospital,"Thrissur-Kunnamkulam Road, Kanipayyur Post, Thrissur District, Kunnamkulam, Kerala 680517, India",https://www.google.co.kr/maps/place/Unity+Hospital/data=!4m5!3m4!1s0x3ba795324d41e789:0x28435020437f539b!8m2!3d10.6354586!4d76.0817737?authuser=0&hl=en&rclk=1,10.6354586,76.0817737,Kerala
Bharath Hospital,General hospital,"Azad Ln, Puthenangady, Kottayam, Kerala 686001, India",https://www.google.co.kr/maps/place/Bharath+Hospital/data=!4m5!3m4!1s0x3b062ba737d93049:0x192e2aa58f5573cd!8m2!3d9.5895411!4d76.5195303?authuser=0&hl=en&rclk=1,9.5895411,76.5195303,Kerala
Meditrina Hospital,Private hospital,"TC 2, 2367, 1st Street, Vrindavan Gardens, Pattom, Thiruvananthapuram, Kerala 695004, India",https://www.google.co.kr/maps/place/Meditrina+Hospital/data=!4m5!3m4!1s0x3b05bbdcd8fa769d:0x608cdff187459627!8m2!3d8.5154775!4d76.9443128?authuser=0&hl=en&rclk=1,8.5154775,76.9443128,Kerala
Indo American Hospital,Hospital,"Chemmanakary, Akkarappadam P.O, Vaikom, Kerala 686143, India",https://www.google.co.kr/maps/place/Indo+American+Hospital/data=!4m5!3m4!1s0x3b0879ef92ec9559:0xc003ec5891bb9af2!8m2!3d9.791175!4d76.377085?authuser=0&hl=en&rclk=1,9.791175,76.377085,Kerala
"District Hospital, Kozhencherry",General hospital,"Thiruvalla-Kumbazha Hwy, Kozhencherry, Kerala 689641, India","https://www.google.co.kr/maps/place/District+Hospital,+Kozhencherry/data=!4m5!3m4!1s0x3b063db5b6d0f0bb:0xd3aabb8b01fc90f0!8m2!3d9.335813!4d76.7063834?authuser=0&hl=en&rclk=1",9.335813,76.7063834,Kerala
St. Joseph's Hospital Kothamangalam,Hospital,"Kochi - Madurai - Dhanushkodi Rd, Angady, Dharmagiri, Kothamangalam, Kerala 686691, India",https://www.google.co.kr/maps/place/St.+Joseph's+Hospital+Kothamangalam/data=!4m5!3m4!1s0x3b07e60fcb5492bf:0xd82567afb272f7eb!8m2!3d10.0648688!4d76.6270192?authuser=0&hl=en&rclk=1,10.0648688,76.6270192,Kerala
Kinder Multispeciality Hospital,Hospital,"Salem - Kochi Hwy, Changampuzha Nagar, Pathadipalam, Kalamassery, Kochi, Kerala 682033, India",https://www.google.co.kr/maps/place/Kinder+Multispeciality+Hospital/data=!4m5!3m4!1s0x3b080d24cd320f47:0x1600ceb39502568a!8m2!3d10.0382175!4d76.3158798?authuser=0&hl=en&rclk=1,10.0382175,76.3158798,Kerala
Lifeline Superspeciality Hospital (Kerala),Hospital,"Dist Melood P.O, No.46, 14th Mile, Kayamkulam - Pathanapuram Rd, Adoor, Kerala 691554, India",https://www.google.co.kr/maps/place/Lifeline+Superspeciality+Hospital+(Kerala)/data=!4m5!3m4!1s0x3b0611a0a3abd27b:0x3ecabe4980083f51!8m2!3d9.1634556!4d76.7063254?authuser=0&hl=en&rclk=1,9.1634556,76.7063254,Kerala
Kottakkal Co-Operative Hospital,General hospital,"Parappur Road, Kottakkal, Malappuram, Kerala 676503, India",https://www.google.co.kr/maps/place/Kottakkal+Co-Operative+Hospital/data=!4m5!3m4!1s0x3ba7b4a552b327f3:0xa83558c0e1f90b24!8m2!3d11.0030825!4d76.0043164?authuser=0&hl=en&rclk=1,11.0030825,76.0043164,Kerala
Bharath Rural Hospital,General hospital,"Kuriyapilly South, Paravoor, Moothakunnam P.O, Eranakulam, Kerala 683516, India",https://www.google.co.kr/maps/place/Bharath+Rural+Hospital/data=!4m5!3m4!1s0x3b081a491f2659cb:0x5bdad50d22c53af3!8m2!3d10.1806773!4d76.2056967?authuser=0&hl=en&rclk=1,10.1806773,76.2056967,Kerala
Thrissur District Hospital,Government hospital,"Palakkal Angadi Road, near Josco Jewellers, Thrissur, High Road, Thrissur, Kerala 680001, India",https://www.google.co.kr/maps/place/Thrissur+District+Hospital/data=!4m5!3m4!1s0x3ba7ee4939ff9f2d:0x52defab2537e3ee8!8m2!3d10.5228266!4d76.2168983?authuser=0&hl=en&rclk=1,10.5228266,76.2168983,Kerala
West Fort Hi-Tech Hospital,Private hospital,"Guruayoor Road, Punkunnam, Thrissur, Kerala 680002, India",https://www.google.co.kr/maps/place/West+Fort+Hi-Tech+Hospital/data=!4m5!3m4!1s0x3ba7ee619f1e0edb:0xacc01ffb8f538061!8m2!3d10.5362878!4d76.1971161?authuser=0&hl=en&rclk=1,10.5362878,76.1971161,Kerala
Ashwini Hospital,General hospital,"Palakkad - Guruvayur Road, Ottapalam, Kerala 679101, India",https://www.google.co.kr/maps/place/Ashwini+Hospital/data=!4m5!3m4!1s0x3ba7d9522cac6907:0xb84c95e75f828886!8m2!3d10.7720428!4d76.3724095?authuser=0&hl=en&rclk=1,10.7720428,76.3724095,Kerala
India Hospital,Hospital,"GX52+R7H, LMS Compound, PMG, Thiruvananthapuram, Kerala 695033, India",https://www.google.co.kr/maps/place/India+Hospital/data=!4m5!3m4!1s0x3b05bbc5d844eff5:0x4a1285cdf0a9f861!8m2!3d8.5095729!4d76.9507499?authuser=0&hl=en&rclk=1,8.5095729,76.9507499,Kerala
KIMSHEALTH Trivandrum,Private hospital,"1, Vinod Nagar Rd, Anayara, Thiruvananthapuram, Kerala 695029, India",https://www.google.co.kr/maps/place/KIMSHEALTH+Trivandrum/data=!4m5!3m4!1s0x3b05bc0578a58de1:0x1171d7b1d8b4145a!8m2!3d8.5137118!4d76.9093451?authuser=0&hl=en&rclk=1,8.5137118,76.9093451,Kerala
ESIC Hospital,Government hospital,"Eloor Road Udyogamandal, Pathalam, Kochi, Kerala 683501, India",https://www.google.co.kr/maps/place/ESIC+Hospital/data=!4m5!3m4!1s0x3b080e89e3819817:0xd9790125c00fb7e9!8m2!3d10.0776925!4d76.3177081?authuser=0&hl=en&rclk=1,10.0776925,76.3177081,Kerala
St. Joseph's Hospital,General hospital,"J38W+P2J, Choondal, Kerala 680504, India",https://www.google.co.kr/maps/place/St.+Joseph's+Hospital/data=!4m5!3m4!1s0x3ba7eb2f2b5f3331:0xb9fdbe52c5185112!8m2!3d10.6168406!4d76.0950104?authuser=0&hl=en&rclk=1,10.6168406,76.0950104,Kerala
V.G Saraf Memorial Hospital,Hospital,"39, 4603, Sreekandath Rd, Ravipuram, Perumanoor, Kochi, Kerala 682016, India",https://www.google.co.kr/maps/place/V.G+Saraf+Memorial+Hospital/data=!4m5!3m4!1s0x3b0872ba19d86627:0xe5d4d59d2cae81b8!8m2!3d9.9615352!4d76.2877809?authuser=0&hl=en&rclk=1,9.9615352,76.2877809,Kerala
Kinder Women's Hospital And Fertility Centre,Hospital,"Maruthorvattam Temple Road, Near, NH 47, Cherthala, Kerala 688539, India",https://www.google.co.kr/maps/place/Kinder+Women's+Hospital+And+Fertility+Centre/data=!4m5!3m4!1s0x3b087dc995313659:0x29153fc8908a0618!8m2!3d9.6631916!4d76.3411907?authuser=0&hl=en&rclk=1,9.6631916,76.3411907,Kerala
Maria Theresa Hospital Kuzhikkattussery,General hospital,"Ward No 13, Kodakara - Kodungallur Highway, Kundai, Kuzhikkattussery, Mala, Thrissur, Kerala 680697, India",https://www.google.co.kr/maps/place/Maria+Theresa+Hospital+Kuzhikkattussery/data=!4m5!3m4!1s0x3b0802d1f6a4e235:0xd3e078c7d223f60c!8m2!3d10.2892401!4d76.2772953?authuser=0&hl=en&rclk=1,10.2892401,76.2772953,Kerala
St Vincent De Paul Hospital,General hospital,"W Bazar Ollur Rd, Near St. Antony Church, Pallinada, Ollur, Thrissur, Kerala 680306, India",https://www.google.co.kr/maps/place/St+Vincent+De+Paul+Hospital/data=!4m5!3m4!1s0x3ba7f0304a333927:0x18a1ad90b43335b2!8m2!3d10.4842877!4d76.2337282?authuser=0&hl=en&rclk=1,10.4842877,76.2337282,Kerala
Lisie Hospital,Private hospital,"Lisie Hospital Rd, North Kaloor, Kaloor, Ernakulam, Kerala 682018, India",https://www.google.co.kr/maps/place/Lisie+Hospital/data=!4m5!3m4!1s0x3b080d4426eb9ac7:0x2fd5f19bce123610!8m2!3d9.9882866!4d76.2881449?authuser=0&hl=en&rclk=1,9.9882866,76.2881449,Kerala
Saroja Multi-Speciality Hospital,Hospital,"Shoranur Rd, Naikkanal, Thrissur, Kerala 680020, India",https://www.google.co.kr/maps/place/Saroja+Multi-Speciality+Hospital/data=!4m5!3m4!1s0x3ba7ee5ab621d343:0x61cbfaa8234a75ae!8m2!3d10.529317!4d76.21172?authuser=0&hl=en&rclk=1,10.529317,76.21172,Kerala
"Government Distic Hospital,Perinthalmanna",Government hospital,"X6FJ+PQ4, Shanti Nagar, Perintalmanna, Kerala 679322, India","https://www.google.co.kr/maps/place/Government+Distic+Hospital,Perinthalmanna/data=!4m5!3m4!1s0x3ba7cdaebffaee37:0x33d450813b062997!8m2!3d10.9742556!4d76.2319422?authuser=0&hl=en&rclk=1",10.9742556,76.2319422,Kerala
Irinjalakuda Co-operative Hospital,Hospital,"Kolothumpady,Nadavaramba, Irinjalakuda, Kerala 680661, India",https://www.google.co.kr/maps/place/Irinjalakuda+Co-operative+Hospital/data=!4m5!3m4!1s0x3ba7f631c7fb0a6d:0xbdf8f81800da8095!8m2!3d10.3327635!4d76.2168153?authuser=0&hl=en&rclk=1,10.3327635,76.2168153,Kerala
Harrison Medical Centre,Private hospital,"Edarikode, Kottakkal, Malappuram, Kerala 676501, India",https://www.google.co.kr/maps/place/Harrison+Medical+Centre/data=!4m5!3m4!1s0x3ba7b35ceb3f3c15:0xac2c8fd6daff9f32!8m2!3d10.9957308!4d75.9828722?authuser=0&hl=en&rclk=1,10.9957308,75.9828722,Kerala
Providence Hospital,General hospital,"Vattiyoorkavu Puliyarakkonam Road, Thoppumukku Junction, Maruthankuzhi, Thiruvananthapuram, Kerala 695013, India",https://www.google.co.kr/maps/place/Providence+Hospital/data=!4m5!3m4!1s0x3b05ba1e0dab249f:0x509ffba5138706c!8m2!3d8.5263242!4d76.9924661?authuser=0&hl=en&rclk=1,8.5263242,76.9924661,Kerala
Mother Hospital (P) Ltd,Private hospital,"P.O, Olari - Pullazhi Rd, Pullazhi, Thrissur, Kerala 680012, India",https://www.google.co.kr/maps/place/Mother+Hospital+(P)+Ltd/data=!4m5!3m4!1s0x3ba7ee739e820203:0x436c138368349602!8m2!3d10.5194232!4d76.185198?authuser=0&hl=en&rclk=1,10.5194232,76.185198,Kerala
Apollo Adlux Hospital,Hospital,"Near Adlux convention center Cable Junction Ernakulam District, National Highway 47 Karukutty, Angamaly, Kerala 683576, India",https://www.google.co.kr/maps/place/Apollo+Adlux+Hospital/data=!4m5!3m4!1s0x3b080725823ffa3f:0x5c9ff49849b69126!8m2!3d10.2396817!4d76.372493?authuser=0&hl=en&rclk=1,10.2396817,76.372493,Kerala
Nyle Hospital,Hospital,"Thrissur - Kaiparambu Road, Kaiparambu, Kerala 680546, India",https://www.google.co.kr/maps/place/Nyle+Hospital/data=!4m5!3m4!1s0x3ba7eba7b947c463:0xe95ba2540de32261!8m2!3d10.61113!4d76.1337338?authuser=0&hl=en&rclk=1,10.61113,76.1337338,Kerala
Nila Hospital Pvt Ltd,General hospital,"Pallipuram Road, Palakkad, Pattambi, Kerala 679303, India",https://www.google.co.kr/maps/place/Nila+Hospital+Pvt+Ltd/data=!4m5!3m4!1s0x3ba7c6800c208f65:0x71d39eb58b3d713c!8m2!3d10.80096!4d76.174505?authuser=0&hl=en&rclk=1,10.80096,76.174505,Kerala
TM Hospital (MES),Hospital,"E Tippusultan Rd, Chettuva, Kerala 680616, India",https://www.google.co.kr/maps/place/TM+Hospital+(MES)/data=!4m5!3m4!1s0x3ba792fb3addf769:0xb92d7d30501d72a7!8m2!3d10.5251189!4d76.0503493?authuser=0&hl=en&rclk=1,10.5251189,76.0503493,Kerala
Sree Chitra Tirunal Institute for Medical Sciences & Technology,Government hospital,"Jai Nagar W Rd, Chalakkuzhi, Thiruvananthapuram, Kerala 695011, India",https://www.google.co.kr/maps/place/Sree+Chitra+Tirunal+Institute+for+Medical+Sciences+%26+Technology/data=!4m5!3m4!1s0x3b05bbfc50981f59:0x1f6a83b4d9c09672!8m2!3d8.5212446!4d76.9263697?authuser=0&hl=en&rclk=1,8.5212446,76.9263697,Kerala
Aster Medcity,Specialized hospital,"Kuttisahib Road Cheranelloor, South Chittoor, Kochi, Kerala 682027, India",https://www.google.co.kr/maps/place/Aster+Medcity/data=!4m5!3m4!1s0x3b08121955555593:0x58437a57aa75f29b!8m2!3d10.0441292!4d76.2778812?authuser=0&hl=en&rclk=1,10.0441292,76.2778812,Kerala
Seventh Day Adventist Hospital,General hospital,"Post, Kanniyampuram, Ottapalam, Kerala 679104, India",https://www.google.co.kr/maps/place/Seventh+Day+Adventist+Hospital/data=!4m5!3m4!1s0x3ba7dbfb45b257b9:0xb04615be18b13f34!8m2!3d10.7770942!4d76.3581209?authuser=0&hl=en&rclk=1,10.7770942,76.3581209,Kerala
Paul's Hospital,Private hospital,"Vattakkattu Road, Kathrikadavu, Kaloor, Kochi, Kerala 682017, India",https://www.google.co.kr/maps/place/Paul's+Hospital/data=!4m5!3m4!1s0x3b080d38ecf95191:0xbe61280d736bc2c2!8m2!3d9.988293!4d76.29588?authuser=0&hl=en&rclk=1,9.988293,76.29588,Kerala
M.A.J. Hospital,Private hospital,"Market Rd, Edappally, Kochi, Kerala 682024, India",https://www.google.co.kr/maps/place/M.A.J.+Hospital/data=!4m5!3m4!1s0x3b080d047a1f1221:0x84a9e49ad5bb9d01!8m2!3d10.021296!4d76.3078324?authuser=0&hl=en&rclk=1,10.021296,76.3078324,Kerala
Elite Mission Hospital Thrissur - Hospitals in Thrissur,Hospital,"Koorkenchery Rd, Koorkenchery, Thrissur, Kerala 680007, India",https://www.google.co.kr/maps/place/Elite+Mission+Hospital+Thrissur+-+Hospitals+in+Thrissur/data=!4m5!3m4!1s0x3ba7ee251698f395:0xfbf64cfcfea5fd47!8m2!3d10.50237!4d76.21108?authuser=0&hl=en&rclk=1,10.50237,76.21108,Kerala
Sree Uthradom Thirunal (SUT) Hospital Pattom Thiruvananthapuram,Private hospital,"Near, Palace View Rd, Vrindavan Gardens, Pattom, Thiruvananthapuram, Kerala 695004, India",https://www.google.co.kr/maps/place/Sree+Uthradom+Thirunal+(SUT)+Hospital+Pattom+Thiruvananthapuram/data=!4m5!3m4!1s0x3b05bbdd9a575f8f:0xd12f348b01e017e7!8m2!3d8.516323!4d76.94036?authuser=0&hl=en&rclk=1,8.516323,76.94036,Kerala
BABY MEMORIAL HOSPITAL,Hospital,"Indira Gandhi Rd, Arayidathupalam, Kozhikode, Kerala 673004, India",https://www.google.co.kr/maps/place/BABY+MEMORIAL+HOSPITAL/data=!4m5!3m4!1s0x3ba6594f77867809:0x54b4b574095ae85c!8m2!3d11.260237!4d75.7925731?authuser=0&hl=en&rclk=1,11.260237,75.7925731,Kerala
RIMS Hospital,Hospital,"Pala - Ponkunnam Rd, Kaduvamuzhi, Erattupetta, Kerala 686121, India",https://www.google.co.kr/maps/place/RIMS+Hospital/data=!4m5!3m4!1s0x3b07cb00c35eb4f5:0x104d2210748fd70!8m2!3d9.6925228!4d76.7746961?authuser=0&hl=en&rclk=1,9.6925228,76.7746961,Kerala
Meitra Hospital,Private hospital,"Building No. 38/2208-B Karaparamba – Kunduparamba, Mini Bypass Rd, Edakkad, Kerala 673005, India",https://www.google.co.kr/maps/place/Meitra+Hospital/data=!4m5!3m4!1s0x3ba65ef1de5acd3b:0x177902e4b9f485f0!8m2!3d11.3015185!4d75.7749188?authuser=0&hl=en&rclk=1,11.3015185,75.7749188,Kerala
Aster Medicity,Hospital,"South Chittoor, Kochi, Kerala 682027, India",https://www.google.co.kr/maps/place/Aster+Medicity/data=!4m5!3m4!1s0x3b080df3e6adaeaf:0x822ebac62acbdb00!8m2!3d10.0441415!4d76.2779399?authuser=0&hl=en&rclk=1,10.0441415,76.2779399,Kerala
City Hospital,Hospital,"Mahatma Gandhi Rd, opp. Padma Theatre, Padma Junction, Pullepady, Ernakulam, Kerala 682035, India",https://www.google.co.kr/maps/place/City+Hospital/data=!4m5!3m4!1s0x3b080d4e3276c92f:0xe5d856c824721298!8m2!3d9.9812585!4d76.2834017?authuser=0&hl=en&rclk=1,9.9812585,76.2834017,Kerala
St.Antony's Mission,General hospital,"St. Anthony's, Church Road, Pazhuvil, Kerala 680564, India",https://www.google.co.kr/maps/place/St.Antony's+Mission/data=!4m5!3m4!1s0x3ba7f392a5b478a9:0x834c1672a4d45284!8m2!3d10.4168858!4d76.1542275?authuser=0&hl=en&rclk=1,10.4168858,76.1542275,Kerala
Sree Gokulam Urban Medical Centre,Hospital,"Palace Rd, near Kalivilakam Temple, Kizhakkupuram, Attingal, Kerala 695101, India",https://www.google.co.kr/maps/place/Sree+Gokulam+Urban+Medical+Centre/data=!4m5!3m4!1s0x3b05e9f7c2b36833:0x5b2111aeb1adbf3b!8m2!3d8.6934869!4d76.8129549?authuser=0&hl=en&rclk=1,8.6934869,76.8129549,Kerala
District Hospital Thrissur,Hospital,"St Thomas College Rd, Keerankulangara, Thrissur, Kerala 680020, India",https://www.google.co.kr/maps/place/District+Hospital+Thrissur/data=!4m5!3m4!1s0x3ba7ef599a5c231d:0x8e2a4e2f082b0db1!8m2!3d10.5240385!4d76.2191249?authuser=0&hl=en&rclk=1,10.5240385,76.2191249,Kerala
Daya General Hospital & Speciality Surgical Centre-Thrissur,Hospital,"State Highway 22, Viyyoor-Peringavu Rd, Peringavu, Thrissur, Kerala 680022, India",https://www.google.co.kr/maps/place/Daya+General+Hospital+%26+Speciality+Surgical+Centre-Thrissur/data=!4m5!3m4!1s0x3ba7eefa3d678f8d:0xbe3c105f7e4caf8f!8m2!3d10.546102!4d76.214621?authuser=0&hl=en&rclk=1,10.546102,76.214621,Kerala
Ernakulam Medical Centre,Private hospital,"National Highway Bypass, NH 66, Palarivattom, Kochi, Kerala 682028, India",https://www.google.co.kr/maps/place/Ernakulam+Medical+Centre/data=!4m5!3m4!1s0x3b080d1e5609dfa1:0xe1a3b8645715518a!8m2!3d9.9995404!4d76.3145778?authuser=0&hl=en&rclk=1,9.9995404,76.3145778,Kerala
Shanthi Clinic Dr.Chandrika Joy,General hospital,"PCJQ+M5J, Thrissur, Kerala 680588, India",https://www.google.co.kr/maps/place/Shanthi+Clinic+Dr.Chandrika+Joy/data=!4m5!3m4!1s0x3ba7df73f17eaf9b:0x1b4ca83e3783e5e0!8m2!3d10.7317199!4d76.4378902?authuser=0&hl=en&rclk=1,10.7317199,76.4378902,Kerala
Government District Hospital,General hospital,"Ottupara, Kodungallur - Shornur Rd, Ottupara, Wadackanchery, Kerala 680590, India",https://www.google.co.kr/maps/place/Government+District+Hospital/data=!4m5!3m4!1s0x3ba7e8190db22e3b:0x202179d85595aac6!8m2!3d10.6657216!4d76.2520212?authuser=0&hl=en&rclk=1,10.6657216,76.2520212,Kerala
Hospitals,Hospital,"VGXR+932, Kalladikode, Kerala 678596, India",https://www.google.co.kr/maps/place/Hospitals/data=!4m5!3m4!1s0x3ba87984ffffffff:0xd093850c3a6fb9ea!8m2!3d10.8983826!4d76.5401525?authuser=0&hl=en&rclk=1,10.8983826,76.5401525,Kerala
Amrita Institute of Medical Science (Amrita Hospital),Hospital,"Ponekkara, P. O, Kochi, Kerala 682041, India",https://www.google.co.kr/maps/place/Amrita+Institute+of+Medical+Science+(Amrita+Hospital)/data=!4m5!3m4!1s0x3b080d9435ab9d67:0x3f9432b104f24fa2!8m2!3d10.0328923!4d76.293442?authuser=0&hl=en&rclk=1,10.0328923,76.293442,Kerala
Apollo Adlux Hospital,Hospital,"Near Adlux convention center, Karukutty, Angamaly, Karukutty, Kerala 683576, India",https://www.google.co.kr/maps/place/Apollo+Adlux+Hospital/data=!4m5!3m4!1s0x3b08016eea07f62d:0xc4b87993aaa7cd3a!8m2!3d10.2458734!4d76.3926668?authuser=0&hl=en&rclk=1,10.2458734,76.3926668,Kerala
Amrita Hospital,Private hospital,"C379+6JX, Ponekkara, P. O, Kochi, Kerala 682041, India",https://www.google.co.kr/maps/place/Amrita+Hospital/data=!4m5!3m4!1s0x3b065b9775c85121:0x438e484cf3531575!8m2!3d9.4131165!4d77.0691186?authuser=0&hl=en&rclk=1,9.4131165,77.0691186,Kerala
Evershine Hospital (Kochi),Hospital,"No:962A, Manimala Road, Near Edapally Post Office, Edappally, Kochi, Kerala 682024, India",https://www.google.co.kr/maps/place/Evershine+Hospital+(Kochi)/data=!4m5!3m4!1s0x3b080da7c15c8de5:0x3978be16a3484253!8m2!3d10.0191245!4d76.3044412?authuser=0&hl=en&rclk=1,10.0191245,76.3044412,Kerala
Chaithanya ENT Hospital,Private hospital,"38, 685 A, Sahodaran Ayyappan Rd, Kadavanthra, Kochi, Kerala 682016, India",https://www.google.co.kr/maps/place/Chaithanya+ENT+Hospital/data=!4m5!3m4!1s0x3b0872c9a8437471:0x868c269260230984!8m2!3d9.9664482!4d76.2970796?authuser=0&hl=en&rclk=1,9.9664482,76.2970796,Kerala
Avitis Institute Of Medical Sciences,Hospital,"Building#: XX/882, Pollachi- Trissur Main Road, near Japamalarani Church, Nenmara, Kerala 678508, India",https://www.google.co.kr/maps/place/Avitis+Institute+Of+Medical+Sciences/data=!4m5!3m4!1s0x3ba80e9ac7012d57:0xe17c2802d6e8a2b6!8m2!3d10.5904084!4d76.5824724?authuser=0&hl=en&rclk=1,10.5904084,76.5824724,Kerala
"Dr.T.S.LEKHA RAJ'S Homoeopathic Medical Centre,",General hospital,"Ottappalam Mannarkkad Rd, Sreekrishnapuram, Kerala 679514, India","https://www.google.co.kr/maps/place/Dr.T.S.LEKHA+RAJ'S+Homoeopathic+Medical+Centre,/data=!4m5!3m4!1s0x3ba7d79939d62ce5:0xb5b9aa4f84ad8d6c!8m2!3d10.8976799!4d76.4018743?authuser=0&hl=en&rclk=1",10.8976799,76.4018743,Kerala
NIMS Hospital,Private hospital,"Aralumoodu, Neyyattinkara, Kerala 695123, India",https://www.google.co.kr/maps/place/NIMS+Hospital/data=!4m5!3m4!1s0x3b05af08ada78f17:0x266275e9e01868be!8m2!3d8.4122195!4d77.0659184?authuser=0&hl=en&rclk=1,8.4122195,77.0659184,Kerala
Sreerudra Ayurveda Multi Speciality Hospital,Hospital,"Kaithavana, Alappuzha, Kerala 688003, India",https://www.google.co.kr/maps/place/Sreerudra+Ayurveda+Multi+Speciality+Hospital/data=!4m5!3m4!1s0x3b0884bedf9402bd:0x759b1a377a112d72!8m2!3d9.471198!4d76.3442735?authuser=0&hl=en&rclk=1,9.471198,76.3442735,Kerala
St. Mary's Hospital,Private hospital,"Thodupuzha - Moolamattom Road, Thodupuzha, Kerala 685584, India",https://www.google.co.kr/maps/place/St.+Mary's+Hospital/data=!4m5!3m4!1s0x3b07c4120547b1f9:0x64f8e8435fa47b91!8m2!3d9.8921271!4d76.7157045?authuser=0&hl=en&rclk=1,9.8921271,76.7157045,Kerala
Sree Subramania Ayurvedic Nursing Home,Hospital,"Kozhikode Balussery Rd, Karikkamkulam, Karuvissery, Kozhikode, Kerala 673010, India",https://www.google.co.kr/maps/place/Sree+Subramania+Ayurvedic+Nursing+Home/data=!4m5!3m4!1s0x3ba65938563d4747:0x4f85f03c99d40df5!8m2!3d11.2941041!4d75.7903965?authuser=0&hl=en&rclk=1,11.2941041,75.7903965,Kerala
R V Hospital,Hospital,"Pulimoodu, Chirayinkeezhu, Kerala 695304, India",https://www.google.co.kr/maps/place/R+V+Hospital/data=!4m5!3m4!1s0x3b05ea445dfb2d11:0xd62b9a01d6d18270!8m2!3d8.6631096!4d76.7956566?authuser=0&hl=en&rclk=1,8.6631096,76.7956566,Kerala
St. Thomas Hospital; Chethipuzha.,Private hospital,"Chethipuzha Kurussummoodu P O, Changanassery, Kerala 686104, India",https://www.google.co.kr/maps/place/St.+Thomas+Hospital;+Chethipuzha./data=!4m5!3m4!1s0x3b062f5591e588e5:0x3976fba36fc090d3!8m2!3d9.462236!4d76.5525681?authuser=0&hl=en&rclk=1,9.462236,76.5525681,Kerala
Divine Medical Mission Hospital,Hospital,"HFQM+P76, Vadakkencherry, Kerala 678683, India",https://www.google.co.kr/maps/place/Divine+Medical+Mission+Hospital/data=!4m5!3m4!1s0x3ba8098c6f9704b9:0x995fa90894b481a6!8m2!3d10.5892767!4d76.4831344?authuser=0&hl=en&rclk=1,10.5892767,76.4831344,Kerala
Jubilee Memorial Hospital,Hospital,"Sunny Meads Ln, University of Kerala Senate House Campus, Palayam, Thiruvananthapuram, Kerala 695034, India",https://www.google.co.kr/maps/place/Jubilee+Memorial+Hospital/data=!4m5!3m4!1s0x3b05bbb82dc52a2f:0xb02e069e2157e4cb!8m2!3d8.5020263!4d76.9523279?authuser=0&hl=en&rclk=1,8.5020263,76.9523279,Kerala
Chest Hospital,Private hospital,"Pavamani Rd, opposite EMS Stadium, Palayam, Kozhikode, Kerala 673004, India",https://www.google.co.kr/maps/place/Chest+Hospital/data=!4m5!3m4!1s0x3ba65c7a04010585:0x5629148c5cf2c1ce!8m2!3d11.2551114!4d75.7857375?authuser=0&hl=en&rclk=1,11.2551114,75.7857375,Kerala
"Providence Hospital, Thumpoly, Alappuzha",Hospital,"Thumpoly Road, Near Pomkavu NH66 Junction, Thumpoly, Alappuzha, Kerala 688521, India","https://www.google.co.kr/maps/place/Providence+Hospital,+Thumpoly,+Alappuzha/data=!4m5!3m4!1s0x3b088430890149e5:0x1d8a89fa6acac820!8m2!3d9.5260443!4d76.3286143?authuser=0&hl=en&rclk=1",9.5260443,76.3286143,Kerala
SP Fort Hospital,Private hospital,"Anakottil St, West Fort, Pazhavangadi, Thiruvananthapuram, Kerala 695023, India",https://www.google.co.kr/maps/place/SP+Fort+Hospital/data=!4m5!3m4!1s0x3b05bba02be0f243:0x82c084336ea69a94!8m2!3d8.4846928!4d76.9414602?authuser=0&hl=en&rclk=1,8.4846928,76.9414602,Kerala
PRS Hospital,Hospital,"NH 47, Killipalam, Thiruvananthapuram, Kerala 695002, India",https://www.google.co.kr/maps/place/PRS+Hospital/data=!4m5!3m4!1s0x3b05baff9bc72e2f:0x9f235923a08c86b2!8m2!3d8.4809296!4d76.9590428?authuser=0&hl=en&rclk=1,8.4809296,76.9590428,Kerala
Thriprayar Government Hospital,General hospital,"Cherpu Thriprayar Road, Peringottukara, Thanniyam, Kerala 680564, India",https://www.google.co.kr/maps/place/Thriprayar+Government+Hospital/data=!4m5!3m4!1s0x3ba7f37ab7315963:0xdc3f1ac6ec275d11!8m2!3d10.4141617!4d76.1219662?authuser=0&hl=en&rclk=1,10.4141617,76.1219662,Kerala
"Jubilee Mission Hospital, Eastfort Thrissur",Hospital,"P.B, No.737, Jubilee Mission Rd, Thrissur, Kerala 680005, India","https://www.google.co.kr/maps/place/Jubilee+Mission+Hospital,+Eastfort+Thrissur/data=!4m5!3m4!1s0x3ba7efb50b8b1fdf:0x62bc4cc94f71fd3d!8m2!3d10.520068!4d76.227283?authuser=0&hl=en&rclk=1",10.520068,76.227283,Kerala
Chari's Medical Mission Hospital,Private hospital,"SH 1, Mudavoor Rd, Muvattupuzha, Kerala 6866673, India",https://www.google.co.kr/maps/place/Chari's+Medical+Mission+Hospital/data=!4m5!3m4!1s0x3b07e73f843a31cb:0x20c76730b2611ed2!8m2!3d10.0074949!4d76.5694791?authuser=0&hl=en&rclk=1,10.0074949,76.5694791,Kerala
"Chazhikattu Hospital, Thodupuzha",Hospital,"River View Rd, Thodupuzha, Kerala 685584, India","https://www.google.co.kr/maps/place/Chazhikattu+Hospital,+Thodupuzha/data=!4m5!3m4!1s0x3b07c474a8b4265b:0x74a9939d1bcaece6!8m2!3d9.8980972!4d76.7098732?authuser=0&hl=en&rclk=1",9.8980972,76.7098732,Kerala
Aster MIMS Kottakkal,Hospital,"NH 66, Calicut, Thrissur Road, Changuvetty, Kerala 676501, India",https://www.google.co.kr/maps/place/Aster+MIMS+Kottakkal/data=!4m5!3m4!1s0x3ba7b4a094bcf0ef:0x88e0cb44559a419f!8m2!3d10.9958562!4d75.9939897?authuser=0&hl=en&rclk=1,10.9958562,75.9939897,Kerala
Ahalia Diabetes Hospital,Hospital,"P O, Ahalia Campus, Kozhippara, Kerala 678557, India",https://www.google.co.kr/maps/place/Ahalia+Diabetes+Hospital/data=!4m5!3m4!1s0x3ba84200b63faad5:0xf1a6ec5806a1bc53!8m2!3d10.7918328!4d76.8275683?authuser=0&hl=en&rclk=1,10.7918328,76.8275683,Kerala
Hospital Site,Hospital,"Ernakulam - Thekkady Rd, Padamughal, Vazhakkala, Kochi, Kerala 682021, India",https://www.google.co.kr/maps/place/Hospital+Site/data=!4m5!3m4!1s0x3b080d1833cf2b23:0x668a040cb37dd9cb!8m2!3d10.0126795!4d76.3286624?authuser=0&hl=en&rclk=1,10.0126795,76.3286624,Kerala
Taluk Head Quarters Hospital,General hospital,"Ottapalam - Cherppulassery Rd, Aditya Nagar, Ottapalam, Kerala 679102, India",https://www.google.co.kr/maps/place/Taluk+Head+Quarters+Hospital/data=!4m5!3m4!1s0x3ba7d95acf68f3b7:0x675d8abdf7911082!8m2!3d10.7796254!4d76.3746707?authuser=0&hl=en&rclk=1,10.7796254,76.3746707,Kerala
Meditrina Hospitals Pvt. Ltd.,Private hospital,"Kollam - Ayoor Road, Bypass Road, Ayathil, Kollam, Kerala 691021, India",https://www.google.co.kr/maps/place/Meditrina+Hospitals+Pvt.+Ltd./data=!4m5!3m4!1s0x3b05fc551f34daad:0x21bc9a36d8222e6d!8m2!3d8.8922135!4d76.6324605?authuser=0&hl=en&rclk=1,8.8922135,76.6324605,Kerala
Samaritan Hospital,Hospital,"Pukkattupady Kizhakkambalam Road Pazhanganad, Kizhakkambalam, Kochi, Kerala 680562, India",https://www.google.co.kr/maps/place/Samaritan+Hospital/data=!4m5!3m4!1s0x3b080bc78e42da87:0xc77d251d08b8292b!8m2!3d10.0440694!4d76.3975194?authuser=0&hl=en&rclk=1,10.0440694,76.3975194,Kerala
KIMS Kollam Multispeciality Hospital,Specialized hospital,"Sithara Jn, Kottiyam, Kerala 691571, India",https://www.google.co.kr/maps/place/KIMS+Kollam+Multispeciality+Hospital/data=!4m5!3m4!1s0x3b05e37c2229f57d:0x98af3ad9bfa8ef3d!8m2!3d8.8645264!4d76.6813372?authuser=0&hl=en&rclk=1,8.8645264,76.6813372,Kerala
"MAGJ Hospital, Mookkannoor, Angamaly",Hospital,"P.O, Mookkannoor, Mookkannoor Ezhattumugham Rd, Angamaly, Kerala 683577, India","https://www.google.co.kr/maps/place/MAGJ+Hospital,+Mookkannoor,+Angamaly/data=!4m5!3m4!1s0x3b080721c88ae3fb:0xe4528a43d4364960!8m2!3d10.2205562!4d76.4135571?authuser=0&hl=en&rclk=1",10.2205562,76.4135571,Kerala
CIMAR EDAPPAL HOSPITAL,Hospital,"Edappal Hospitals Pvt. Ltd., Edappal, Malappuram District,, Edappal, Kerala 679576, India",https://www.google.co.kr/maps/place/CIMAR+EDAPPAL+HOSPITAL/data=!4m5!3m4!1s0x3ba7b96df0647947:0x1bb932a64927ab95!8m2!3d10.782913!4d76.011001?authuser=0&hl=en&rclk=1,10.782913,76.011001,Kerala
S N Hospital,Private hospital,"Kadapra Niranam Road Post Office Near Niranam Niranam, Thiruvalla, Kerala 689621, India",https://www.google.co.kr/maps/place/S+N+Hospital/data=!4m5!3m4!1s0x3b06216e318f3329:0x48b8dcbb1a3f63d!8m2!3d9.3423061!4d76.5340118?authuser=0&hl=en&rclk=1,9.3423061,76.5340118,Kerala
Dr Arwari`s Nam Hospital,Hospital,"8/352, Thirumalai Devesom East Sannidhi Road, Mattancherry, Mattancherry, Ernakulam, Kerala 680002, India",https://www.google.co.kr/maps/place/Dr+Arwari%60s+Nam+Hospital/data=!4m5!3m4!1s0x3b086d440f430077:0x5a3d80a2d027cdeb!8m2!3d9.9563139!4d76.2544067?authuser=0&hl=en&rclk=1,9.9563139,76.2544067,Kerala
Futureace Hospital,Hospital,"ECRA-67, Nethaji Nagar, Edappally, Kochi, Kerala 682024, India",https://www.google.co.kr/maps/place/Futureace+Hospital/data=!4m5!3m4!1s0x3b080d06333ded47:0x9635c55a74f45bd9!8m2!3d10.0319047!4d76.3041837?authuser=0&hl=en&rclk=1,10.0319047,76.3041837,Kerala
SNIMS,Hospital,"Chalakka - Kuthiathode Rd, North Kuthiathode, Kunnukara, Kerala 683594, India",https://www.google.co.kr/maps/place/SNIMS/data=!4m5!3m4!1s0x3b0805507dd96c2b:0xc5c2ab52b0eae991!8m2!3d10.1563404!4d76.2821922?authuser=0&hl=en&rclk=1,10.1563404,76.2821922,Kerala
Imbichibava Memorial Taluk Hospital,General hospital,"Malappuram, Ponnani, Kerala 679583, India",https://www.google.co.kr/maps/place/Imbichibava+Memorial+Taluk+Hospital/data=!4m5!3m4!1s0x3ba7bb3defe830bd:0xf240e0950ba2c7c6!8m2!3d10.7748299!4d75.9222745?authuser=0&hl=en&rclk=1,10.7748299,75.9222745,Kerala
Stoners Hospital,Hospital,"Thrissur, Kerala 680722, India",https://www.google.co.kr/maps/place/Stoners+Hospital/data=!4m5!3m4!1s0x3ba7f90b1aca4b7f:0xaa4a0ef397ea386d!8m2!3d10.3281641!4d76.3184069?authuser=0&hl=en&rclk=1,10.3281641,76.3184069,Kerala
H M L Hospital,Hospital,"H2M7+GQM, Parakkunn, Pozhuthana, Kerala 673575, India",https://www.google.co.kr/maps/place/H+M+L+Hospital/data=!4m5!3m4!1s0x3ba673b2c8b0bdb9:0x85856f8bbddda9e5!8m2!3d11.5838447!4d76.0144083?authuser=0&hl=en&rclk=1,11.5838447,76.0144083,Kerala
St. John's Hospital,Private hospital,"Kattappana, Kerala 685515, India",https://www.google.co.kr/maps/place/St.+John's+Hospital/data=!4m5!3m4!1s0x3b07a9565907dbdd:0x3d3acbc5e35d2abf!8m2!3d9.746985!4d77.1097959?authuser=0&hl=en&rclk=1,9.746985,77.1097959,Kerala
Kalliyath Hospital,General hospital,"Pookkayil, Tirur, Kerala 676107, India",https://www.google.co.kr/maps/place/Kalliyath+Hospital/data=!4m5!3m4!1s0x3ba7b21d1e27f40d:0x156a12a915910432!8m2!3d10.9251477!4d75.9131683?authuser=0&hl=en&rclk=1,10.9251477,75.9131683,Kerala
GMH HOSPITAL,Hospital,"Kanakakkunnu Rd, Kerala 680732, India",https://www.google.co.kr/maps/place/GMH+HOSPITAL/data=!4m5!3m4!1s0x3b0803c399898b5b:0x576f54139d212f5c!8m2!3d10.2354657!4d76.2727101?authuser=0&hl=en&rclk=1,10.2354657,76.2727101,Kerala
Salys Surgical Maternity Hospital,Hospital,"Rajagiri Road, Kochi, Kerala 682104, India",https://www.google.co.kr/maps/place/Salys+Surgical+Maternity+Hospital/data=!4m5!3m4!1s0x3b086d7aa98fd715:0xef00fa64df53ab1b!8m2!3d9.9312328!4d76.2673042?authuser=0&hl=en&rclk=1,9.9312328,76.2673042,Kerala
C. K. P. Hospital,Private hospital,"Kallukadavu Rd, Pulinchode Junction, Kunnathery Thikavu, Kochi, Kerala 683101, India",https://www.google.co.kr/maps/place/C.+K.+P.+Hospital/data=!4m5!3m4!1s0x3b080edb9183a87b:0xad1d2922b0019e8a!8m2!3d10.0999204!4d76.3472543?authuser=0&hl=en&rclk=1,10.0999204,76.3472543,Kerala
Ahalia Ayurveda Hospital,Hospital,"QRRH+MH4, Ahalia Campus, Elappully, Kerala 678556, India",https://www.google.co.kr/maps/place/Ahalia+Ayurveda+Hospital/data=!4m5!3m4!1s0x3ba8420127c42251:0xf173c9cd7fe7f362!8m2!3d10.7916284!4d76.8289677?authuser=0&hl=en&rclk=1,10.7916284,76.8289677,Kerala
St. Joseph's Hospital,Hospital,"Amballoor Kallayi Road, Kallur, Kerala 680302, India",https://www.google.co.kr/maps/place/St.+Joseph's+Hospital/data=!4m5!3m4!1s0x3ba7fa7bf35d90a7:0x14b0eeac03aca543!8m2!3d10.4489342!4d76.2782371?authuser=0&hl=en&rclk=1,10.4489342,76.2782371,Kerala
Dhathri Ayurveda Hospital,Hospital,"Puthiyavila, Alappuzha, Kerala 690531, India",https://www.google.co.kr/maps/place/Dhathri+Ayurveda+Hospital/data=!4m5!3m4!1s0x3b061de4dbaacbbb:0xe0b7ca7b5c139025!8m2!3d9.1914695!4d76.4689533?authuser=0&hl=en&rclk=1,9.1914695,76.4689533,Kerala
ANBU Airport Hospital,Hospital,"Airport Road, Opp.to CIAL, Nedumbassery, Kerala 683572, India",https://www.google.co.kr/maps/place/ANBU+Airport+Hospital/data=!4m5!3m4!1s0x3b0806226c14f96d:0x7810f60a4c84434d!8m2!3d10.1597707!4d76.3878827?authuser=0&hl=en&rclk=1,10.1597707,76.3878827,Kerala
ESI Hospital MG Kavu,Hospital,"Athani - Medical College Rd, Velappaya, Thangaloor, Kerala 680596, India",https://www.google.co.kr/maps/place/ESI+Hospital+MG+Kavu/data=!4m5!3m4!1s0x3ba7e972d1a8d857:0x20d4b1bcf204f3b0!8m2!3d10.6183779!4d76.2002895?authuser=0&hl=en&rclk=1,10.6183779,76.2002895,Kerala
"RAHA CFAAR - Ayurveda Hospital Kochi, Kerala",Hospital,"S Panampilly Nagar Rd, near Passport Office, Shastri Nagar, Kadavanthra, Kochi, Kerala 682020, India","https://www.google.co.kr/maps/place/RAHA+CFAAR+-+Ayurveda+Hospital+Kochi,+Kerala/data=!4m5!3m4!1s0x3b087317efe84013:0xbbb642a928e1c57f!8m2!3d9.9485177!4d76.3006316?authuser=0&hl=en&rclk=1",9.9485177,76.3006316,Kerala
Ascent ENT Hospital,Hospital,"Junction, Malaparamba, Kozhikode, Kerala 673009, India",https://www.google.co.kr/maps/place/Ascent+ENT+Hospital/data=!4m5!3m4!1s0x3ba65ea3e0e9ff1d:0xac6a1d7f053718b9!8m2!3d11.2879815!4d75.8008247?authuser=0&hl=en&rclk=1,11.2879815,75.8008247,Kerala
Providence Endocrine & Diabetes Specialty Centre,Hospital,"Prasanth Nagar Pongumoodu Rd, Prasanth Nagar, Ulloor, Thiruvananthapuram, Kerala 695011, India",https://www.google.co.kr/maps/place/Providence+Endocrine+%26+Diabetes+Specialty+Centre/data=!4m5!3m4!1s0x3b05b9535295095d:0xf522734b7f75aba9!8m2!3d8.5314993!4d76.9207774?authuser=0&hl=en&rclk=1,8.5314993,76.9207774,Kerala
MEDICAL TRUST HOSPITAL (ANNEX),Hospital,"45PR+GX7, Cherai, Kochi, Kerala 683514, India",https://www.google.co.kr/maps/place/MEDICAL+TRUST+HOSPITAL+(ANNEX)/data=!4m5!3m4!1s0x3b0810a5a99ed3e5:0x3b1b36855ab8eeef!8m2!3d10.1362838!4d76.1924241?authuser=0&hl=en&rclk=1,10.1362838,76.1924241,Kerala
GYNO SPECIALITY HOSPITAL,Fertility clinic,"Near Cochin International Airport Junction,Athani, Kochi, Kerala 683585, India",https://www.google.co.kr/maps/place/GYNO+SPECIALITY+HOSPITAL/data=!4m5!3m4!1s0x3b0809667c91ee39:0x6711ed1380d5c17a!8m2!3d10.1555706!4d76.3541056?authuser=0&hl=en&rclk=1,10.1555706,76.3541056,Kerala
Co - Operative Hospital.,Hospital,"Kozhikode - Palakkad Hwy, Nediyiruppu, Kerala 673638, India",https://www.google.co.kr/maps/place/Co+-+Operative+Hospital./data=!4m5!3m4!1s0x3ba6493740ad4aad:0xe2bde865926d327e!8m2!3d11.1295426!4d76.0029717?authuser=0&hl=en&rclk=1,11.1295426,76.0029717,Kerala
K A Speciality Hospital,Hospital,"Puzhayoram Rd, Porathissery, Kerala 680712, India",https://www.google.co.kr/maps/place/K+A+Speciality+Hospital/data=!4m5!3m4!1s0x3ba7f6deda83cb41:0xc7fc25601eee309d!8m2!3d10.3912724!4d76.2212708?authuser=0&hl=en&rclk=1,10.3912724,76.2212708,Kerala
Karuna Hospital,Hospital,"Palakkad - Ponnani Rd, Moothanthara, Melamuri, Palakkad, Kerala 678006, India",https://www.google.co.kr/maps/place/Karuna+Hospital/data=!4m5!3m4!1s0x3ba8720125d53479:0x3ae2bcd8df95a367!8m2!3d10.7741922!4d76.6380621?authuser=0&hl=en&rclk=1,10.7741922,76.6380621,Kerala
CHC Thrikkanapuram,Hospital,"VX2M+VG9, Tavanur, Kerala 679573, India",https://www.google.co.kr/maps/place/CHC+Thrikkanapuram/data=!4m5!3m4!1s0x3ba7b0b0e3cd95b5:0xc485bd8e8f04fc32!8m2!3d10.8521602!4d75.9838613?authuser=0&hl=en&rclk=1,10.8521602,75.9838613,Kerala
Kpkm Hospital,Hospital,"Aluva, Kochi, Kerala 680524, India",https://www.google.co.kr/maps/place/Kpkm+Hospital/data=!4m5!3m4!1s0x3b080f2807210b77:0x787d1c303044115c!8m2!3d10.1049398!4d76.3511945?authuser=0&hl=en&rclk=1,10.1049398,76.3511945,Kerala
Al Salama Hospital,Hospital,"Valanchery - Nilambur Rd, Pallikuth, Pattikkad, Kerala 679325, India",https://www.google.co.kr/maps/place/Al+Salama+Hospital/data=!4m5!3m4!1s0x3ba7cd29384e27ab:0x488a0fc9aa0ff3c1!8m2!3d11.0181524!4d76.2296298?authuser=0&hl=en&rclk=1,11.0181524,76.2296298,Kerala
Muvattupuzha,Hospital,"Muvattupuzha, Velloorkunnam, Kerala 686673, India",https://www.google.co.kr/maps/place/Muvattupuzha/data=!4m5!3m4!1s0x3b07e1b3987fc8f9:0xb1a1e8f5f2075867!8m2!3d10.0047378!4d76.5473781?authuser=0&hl=en&rclk=1,10.0047378,76.5473781,Kerala
Evershine Hospital,Hospital,"Manimala Rd, Edappally, Ernakulam, Kerala 682024, India",https://www.google.co.kr/maps/place/Evershine+Hospital/data=!4m5!3m4!1s0x3b0872d7eaaaaaab:0xa357ff60aa610cdf!8m2!3d10.0195994!4d76.3046883?authuser=0&hl=en&rclk=1,10.0195994,76.3046883,Kerala
Atreya Hospital,Hospital,"Guruvayur Road, near Pipeline Jn, East Fort, Thrissur, Kerala 680005, India",https://www.google.co.kr/maps/place/Atreya+Hospital/data=!4m5!3m4!1s0x3ba7ee4b3bffffff:0x670304e02e9951c1!8m2!3d10.5286196!4d76.2264299?authuser=0&hl=en&rclk=1,10.5286196,76.2264299,Kerala
Guardian Multi Speciality Hospital,Hospital,"Guardian Road, NH17, Moonnupeedika Kaipamangalam, Thrissur, Kerala 680681, India",https://www.google.co.kr/maps/place/Guardian+Multi+Speciality+Hospital/data=!4m5!3m4!1s0x3ba7f584486f1285:0xf45e5c7e64a6fa70!8m2!3d10.3241246!4d76.1400584?authuser=0&hl=en&rclk=1,10.3241246,76.1400584,Kerala
SANTHI Clinic and Hospital,Hospital,"Canal Rd, near PoliceQuarters And Shanthi Hospital, North Paravur, Kerala 683513, India",https://www.google.co.kr/maps/place/SANTHI+Clinic+and+Hospital/data=!4m5!3m4!1s0x3b081b6be1ba690f:0xa5570752549e1dd6!8m2!3d10.1467449!4d76.2290355?authuser=0&hl=en&rclk=1,10.1467449,76.2290355,Kerala
ALMAS Hospital,Hospital,"Changuvetty, Kottakkal, Kerala 676503, India",https://www.google.co.kr/maps/place/ALMAS+Hospital/data=!4m5!3m4!1s0x3ba7b358f3edd1ed:0xb1cd065a2cb8c0a3!8m2!3d10.9999524!4d75.9909965?authuser=0&hl=en&rclk=1,10.9999524,75.9909965,Kerala
CHC SACHIVOTHAMAPURAM,Hospital,"Govt Hospital, Near, Mandiram Jn, Kurichy, Kerala, India",https://www.google.co.kr/maps/place/CHC+SACHIVOTHAMAPURAM/data=!4m5!3m4!1s0x3b062921cd5712ef:0x5a3e6d330b200594!8m2!3d9.5066922!4d76.5264346?authuser=0&hl=en&rclk=1,9.5066922,76.5264346,Kerala
Hospital Maintenance,Hospital,"27MV+78W, Amrita Nagar, Edappally, Ernakulam, Kerala 682041, India",https://www.google.co.kr/maps/place/Hospital+Maintenance/data=!4m5!3m4!1s0x3b080d960e45e0e5:0x32e33f900683528f!8m2!3d10.0332338!4d76.2933183?authuser=0&hl=en&rclk=1,10.0332338,76.2933183,Kerala
A P Varkey Mission Hospital,Hospital,"Thottapady, Arakkunnam, Kerala 682313, India",https://www.google.co.kr/maps/place/A+P+Varkey+Mission+Hospital/data=!4m5!3m4!1s0x3b087605c92ccebf:0xe89401a0bf00d132!8m2!3d9.8862754!4d76.4471349?authuser=0&hl=en&rclk=1,9.8862754,76.4471349,Kerala
Stella Maris Hospital,Hospital,"792W+WCF, Edakkunnu, Kerala 683582, India",https://www.google.co.kr/maps/place/Stella+Maris+Hospital/data=!4m5!3m4!1s0x3b086d7aa98fd715:0x5994a0f6118e90cf!8m2!3d10.2523087!4d76.3960387?authuser=0&hl=en&rclk=1,10.2523087,76.3960387,Kerala
Avitis Hospital Road,Hospital,"HHPM+8M4, Palakkad, Kerala 678508, India",https://www.google.co.kr/maps/place/Avitis+Hospital+Road/data=!4m5!3m4!1s0x3ba80e8e2e21c8fb:0x85edf4ca85d37c08!8m2!3d10.5857688!4d76.5842078?authuser=0&hl=en&rclk=1,10.5857688,76.5842078,Kerala
"East Block, Medical Trust.",Hospital,"SH15, Pallimukku, Kochi, Kerala 682036, India","https://www.google.co.kr/maps/place/East+Block,+Medical+Trust./data=!4m5!3m4!1s0x3b0872b0cd2e2179:0xa98292bb2a084992!8m2!3d9.9644811!4d76.2884411?authuser=0&hl=en&rclk=1",9.9644811,76.2884411,Kerala
ALL HOSPITALS,Hospital,"X7JX+MX2, Railway Quarter, Ponnurunni, Vyttila, Ernakulam, Kerala 682017, India",https://www.google.co.kr/maps/place/ALL+HOSPITALS/data=!4m5!3m4!1s0x3b080d466ab084d7:0xae012a1b8bda635b!8m2!3d9.9816358!4d76.2998842?authuser=0&hl=en&rclk=1,9.9816358,76.2998842,Kerala
Jesus Hospital,Hospital,"Karuvelippady Kochi Karuvelippady, 13/744, Thoppumpady, Thoppumpady, Ernakulam, Kerala 680005, India",https://www.google.co.kr/maps/place/Jesus+Hospital/data=!4m5!3m4!1s0x3b086d7aa98fd715:0xec85570757aa326d!8m2!3d10.01486!4d76.303467?authuser=0&hl=en&rclk=1,10.01486,76.303467,Kerala
Government Hospital/Clinic,Hospital,"6CXP+RQJ, Kochi, Kerala 683581, India",https://www.google.co.kr/maps/place/Government+Hospital%2FClinic/data=!4m5!3m4!1s0x3b0801e05b22c8df:0xe4da97a151da48cf!8m2!3d10.249578!4d76.4368965?authuser=0&hl=en&rclk=1,10.249578,76.4368965,Kerala
Mar Themotheus Charitable Hospital,Hospital,"G68R+GH2, Nellikunnu, Thrissur, Kerala 680005, India",https://www.google.co.kr/maps/place/Mar+Themotheus+Charitable+Hospital/data=!4m5!3m4!1s0x3ba7efc6d81dc60d:0xf2a4cd0564359454!8m2!3d10.5162576!4d76.2413861?authuser=0&hl=en&rclk=1,10.5162576,76.2413861,Kerala
Prathyasa Cancer ESI Hospital,Hospital,"Green Garden's, Salem - Kochi Hwy, Maruthorvattom, Muttathiparambu, Cherthala, Kerala 688524, India",https://www.google.co.kr/maps/place/Prathyasa+Cancer+ESI+Hospital/data=!4m5!3m4!1s0x3b087dca00ae0bef:0x5d3bffdd0ca1f011!8m2!3d9.6641635!4d76.3393481?authuser=0&hl=en&rclk=1,9.6641635,76.3393481,Kerala
Gokulam Hospital Trivandrum,Hospital,"MWR7+MJ6, Venjarammoodu, Kerala 695607, India",https://www.google.co.kr/maps/place/Gokulam+Hospital+Trivandrum/data=!4m5!3m4!1s0x3b05c1546d629d05:0x69d026897eaf5427!8m2!3d8.6916564!4d76.9140145?authuser=0&hl=en&rclk=1,8.6916564,76.9140145,Kerala
St. Camillus Hospital,Hospital,"VRVG+236, chungakunnu, Kottiyoor, Kerala 670674, India",https://www.google.co.kr/maps/place/St.+Camillus+Hospital/data=!4m5!3m4!1s0x3ba5ce1e0332e5c5:0xd775db49d3439c83!8m2!3d11.8925496!4d75.8251387?authuser=0&hl=en&rclk=1,11.8925496,75.8251387,Kerala
Eros Homoeopathy,General hospital,"Chethallur-Poovathani Road, Thachanattukara-II, Kerala 678583, India",https://www.google.co.kr/maps/place/Eros+Homoeopathy/data=!4m5!3m4!1s0x3ba7d1d812d1a31d:0x29be73ea9ea7ce72!8m2!3d10.9370476!4d76.3336387?authuser=0&hl=en&rclk=1,10.9370476,76.3336387,Kerala
Dhathri Hospital,Hospital,"X8W8+GF9, Vennala, Kochi, Kerala 682028, India",https://www.google.co.kr/maps/place/Dhathri+Hospital/data=!4m5!3m4!1s0x3b080df376fb0921:0xa5fc1286f53a1477!8m2!3d9.996282!4d76.3162246?authuser=0&hl=en&rclk=1,9.996282,76.3162246,Kerala
Vaidhyamana Ayurveda,Hospital,"Mekkattu Lane, Kochi, Kerala 683105, India",https://www.google.co.kr/maps/place/Vaidhyamana+Ayurveda/data=!4m5!3m4!1s0x3b08090866fd9f47:0xf516615eebf085a2!8m2!3d10.09754!4d76.407643?authuser=0&hl=en&rclk=1,10.09754,76.407643,Kerala
Echs Polyclinic,Hospital,"echs polyclinic near Mavelikara, Kerala, India",https://www.google.co.kr/maps/place/Echs+Polyclinic/data=!4m5!3m4!1s0x3b061f25e78b226d:0x9bda9415a265caac!8m2!3d9.2451384!4d76.5381478?authuser=0&hl=en&rclk=1,9.2451384,76.5381478,Kerala
Govt. Hospital,Hospital,"559J+WP3, Vypin, Pallippuram, Kerala 683515, India",https://www.google.co.kr/maps/place/Govt.+Hospital/data=!4m5!3m4!1s0x3b081a2118f3a165:0xf44e1aa755933612!8m2!3d10.1697631!4d76.1817954?authuser=0&hl=en&rclk=1,10.1697631,76.1817954,Kerala
"Dr.Anwar A M ,Raha Ayurveda Hospital.",Hospital,"682024, Kadavil Ln, Nethaji Nagar, Edappally, Ernakulam, Kerala 682024, India","https://www.google.co.kr/maps/place/Dr.Anwar+A+M+,Raha+Ayurveda+Hospital./data=!4m5!3m4!1s0x3b080dfd31700365:0xbdf161f4fe0c1cdc!8m2!3d10.0265379!4d76.3066632?authuser=0&hl=en&rclk=1",10.0265379,76.3066632,Kerala
مستشفى الايورفيدا Ayur bethaniya,Hospital,"Athani, Minalur, Kerala 680581, India",https://www.google.co.kr/maps/place/%D9%85%D8%B3%D8%AA%D8%B4%D9%81%D9%89+%D8%A7%D9%84%D8%A7%D9%8A%D9%88%D8%B1%D9%81%D9%8A%D8%AF%D8%A7+Ayur+bethaniya%E2%80%AD/data=!4m5!3m4!1s0x3ba7e91a551cb0f9:0xd298c172dfbe5dd3!8m2!3d10.6196735!4d76.2127937?authuser=0&hl=en&rclk=1,10.6196735,76.2127937,Kerala
"Darshitha Ayurveda Hospital, Thalore,Thrissur",Hospital,"High Rd, near Sbi, Thalore, Kerala 680306, India","https://www.google.co.kr/maps/place/Darshitha+Ayurveda+Hospital,+Thalore,Thrissur/data=!4m5!3m4!1s0x3ba7f1fa26532cf1:0xbae7d5f8f0cd889b!8m2!3d10.4542366!4d76.2545991?authuser=0&hl=en&rclk=1",10.4542366,76.2545991,Kerala
Nellikuzhi Institute Of Medical Sciences,Hospital,"Nellikuzhi-Cheruvattoor Rd, Eramalloor, Kerala 686691, India",https://www.google.co.kr/maps/place/Nellikuzhi+Institute+Of+Medical+Sciences/data=!4m5!3m4!1s0x3b07e42919c1b977:0x8141a7fc1f07106!8m2!3d10.0771953!4d76.5870351?authuser=0&hl=en&rclk=1,10.0771953,76.5870351,Kerala
Goverment ayuveda hospital,Hospital,"Puthoyakavu, North Paravur, Kerala 683522, India",https://www.google.co.kr/maps/place/Goverment+ayuveda+hospital/data=!4m5!3m4!1s0x3b081a6aa5383c6d:0x79d45888335be108!8m2!3d10.1659932!4d76.2023791?authuser=0&hl=en&rclk=1,10.1659932,76.2023791,Kerala
district hospital canteen,Hospital,"Unnamed Road, Periyar Nagar, Aluva, Kerala 683101, India",https://www.google.co.kr/maps/place/district+hospital+canteen/data=!4m5!3m4!1s0x3b080f2abe3955e3:0x8c63e9631b2f3b34!8m2!3d10.1049461!4d76.355161?authuser=0&hl=en&rclk=1,10.1049461,76.355161,Kerala
Krishnendu Ayurveda hospital,Hospital,"Karthikappally, Chingoli, Kerala 690532, India",https://www.google.co.kr/maps/place/Krishnendu+Ayurveda+hospital/data=!4m5!3m4!1s0x3b08a1ce75924a19:0x5c33adc61b57f460!8m2!3d9.2488862!4d76.4530744?authuser=0&hl=en&rclk=1,9.2488862,76.4530744,Kerala
GOV. HOSPITAL KOLLENGODE,Hospital,"Primary Health Centres ,Puthunagaram، rode، Kollengode, Kerala 678506, India",https://www.google.co.kr/maps/place/GOV.+HOSPITAL+KOLLENGODE/data=!4m5!3m4!1s0x3ba813d028a9793b:0x18bf124029d222ac!8m2!3d10.6152869!4d76.6969833?authuser=0&hl=en&rclk=1,10.6152869,76.6969833,Kerala
Prathyasha Hospit,Hospital,"Mathilakam - Shappupadi Rd, Maruthorvattom, Muttathiparambu, Cherthala, Kerala 688539, India",https://www.google.co.kr/maps/place/Prathyasha+Hospit/data=!4m5!3m4!1s0x3b087d5512c3cdf7:0x2a43c79ff8454805!8m2!3d9.6606147!4d76.3398638?authuser=0&hl=en&rclk=1,9.6606147,76.3398638,Kerala
St.gregorios Medical Mission Hospital,Hospital,"Church, Near Parumala, Mannar, Kerala 689626, India",https://www.google.co.kr/maps/place/St.gregorios+Medical+Mission+Hospital/data=!4m5!3m4!1s0x3b0621820db19025:0x8e24c0dfa968bd19!8m2!3d9.3304376!4d76.5418316?authuser=0&hl=en&rclk=1,9.3304376,76.5418316,Kerala
"Dr. Ligeesh MBBS,MD Changaramkulam",General hospital,"Changaramkulam - Kakkidippuram Rd, Changaramkulam, Kerala 679574, India","https://www.google.co.kr/maps/place/Dr.+Ligeesh+MBBS,MD+Changaramkulam/data=!4m5!3m4!1s0x3ba7bfe35302ad43:0x8b22075fa203d562!8m2!3d10.738542!4d76.030271?authuser=0&hl=en&rclk=1",10.738542,76.030271,Kerala
ESI Hospital,Hospital,"Kadalundi Road, Feroke, Kerala 673631, India",https://www.google.co.kr/maps/place/ESI+Hospital/data=!4m5!3m4!1s0x3ba65a0b33d68f7d:0x1bfce788f6b49459!8m2!3d11.1868245!4d75.8298813?authuser=0&hl=en&rclk=1,11.1868245,75.8298813,Kerala
"ESI Dispensary No.1, Ernakulam",Hospital,"Power House Ext Rd, Ernakulam North, Ayyappankavu, Kochi, Kerala 682018, India","https://www.google.co.kr/maps/place/ESI+Dispensary+No.1,+Ernakulam/data=!4m5!3m4!1s0x3b080d428c567dbb:0xeb7e74ef8a668fb0!8m2!3d9.9932747!4d76.2850215?authuser=0&hl=en&rclk=1",9.9932747,76.2850215,Kerala
"Apollo Hospitals, Health Center",Hospital,"Gudalore Road, Sultan Bathery, Kerala 673592, India","https://www.google.co.kr/maps/place/Apollo+Hospitals,+Health+Center/data=!4m5!3m4!1s0x3ba6097652e7d94f:0xf499e23f79b5ce0!8m2!3d11.663905!4d76.2651717?authuser=0&hl=en&rclk=1",11.663905,76.2651717,Kerala
"ESI Hospital,Palakkad",Hospital,"Jainmedu, Vadakkanthara, Palakkad, Kerala 678012, India","https://www.google.co.kr/maps/place/ESI+Hospital,Palakkad/data=!4m5!3m4!1s0x3ba871fd6df53bef:0x1ce3d84d3aa7ee3e!8m2!3d10.7877088!4d76.6403551?authuser=0&hl=en&rclk=1",10.7877088,76.6403551,Kerala
Deintel hospital,Hospital,"8CJF+XVP, Kuttichira, Kerala 680724, India",https://www.google.co.kr/maps/place/Deintel+hospital/data=!4m5!3m4!1s0x3ba7ff890171fd1b:0x3f1fc6fc5a0beffd!8m2!3d10.332465!4d76.424717?authuser=0&hl=en&rclk=1,10.332465,76.424717,Kerala
Cooperate Hospital (സഹകരണ ആശുപത്രി),Hospital,"Athani Mekkad Elavoor Road, Mekkad, Angamaly, Kerala 683589, India",https://www.google.co.kr/maps/place/Cooperate+Hospital+(%E0%B4%B8%E0%B4%B9%E0%B4%95%E0%B4%B0%E0%B4%A3+%E0%B4%86%E0%B4%B6%E0%B5%81%E0%B4%AA%E0%B4%A4%E0%B5%8D%E0%B4%B0%E0%B4%BF)/data=!4m5!3m4!1s0x3b080585cb19f049:0xe453e93338c178d3!8m2!3d10.1589496!4d76.3562227?authuser=0&hl=en&rclk=1,10.1589496,76.3562227,Kerala
ECHS Polyclinic,Hospital,"V974+M7J, Payyambalam, Kannur, Kerala 670003, India",https://www.google.co.kr/maps/place/ECHS+Polyclinic/data=!4m5!3m4!1s0x3ba422b3cb098aa1:0x321eaae6d366e949!8m2!3d11.8642033!4d75.3556336?authuser=0&hl=en&rclk=1,11.8642033,75.3556336,Kerala
KG Hospital & Vaccination center,Hospital,"Angamaly, Ernakulam District, Kochi, Kerala 683572, India",https://www.google.co.kr/maps/place/KG+Hospital+%26+Vaccination+center/data=!4m5!3m4!1s0x3b08070aafbf9703:0xd552fc754a369ea9!8m2!3d10.1978694!4d76.3840613?authuser=0&hl=en&rclk=1,10.1978694,76.3840613,Kerala
"Dr Mathews John, The Lifeline Super speciality Hospital, Adoor",Hospital,"The Lifelíne Super Speciality Hospital, Adoor, Kerala 691554, India","https://www.google.co.kr/maps/place/Dr+Mathews+John,+The+Lifeline+Super+speciality+Hospital,+Adoor/data=!4m5!3m4!1s0x3b0611348eb10713:0x80ed4d3e93bc2d!8m2!3d9.1634556!4d76.7063254?authuser=0&hl=en&rclk=1",9.1634556,76.7063254,Kerala
health centre,Hospital,"Koorikuzhi, Kerala 680681, India",https://www.google.co.kr/maps/place/health+centre/data=!4m5!3m4!1s0x3ba7f5702841852f:0xcaa325ea218a112!8m2!3d10.3414097!4d76.1242662?authuser=0&hl=en&rclk=1,10.3414097,76.1242662,Kerala
"Medical Trust Hospital, Kodungallur",Hospital,"65HW+3RH, Kodungallur, Kerala 680669, India","https://www.google.co.kr/maps/place/Medical+Trust+Hospital,+Kodungallur/data=!4m5!3m4!1s0x3b081bf4f104fd29:0xd1a2270961eb5dfc!8m2!3d10.2276998!4d76.1971221?authuser=0&hl=en&rclk=1",10.2276998,76.1971221,Kerala
ECHS Polyclinic,Hospital,"84P5+36W, Karattuvayal, Kanhangad, Kerala 671531, India",https://www.google.co.kr/maps/place/ECHS+Polyclinic/data=!4m5!3m4!1s0x3ba47cf879d88317:0x5f30021a6d7c9ece!8m2!3d12.3352251!4d75.1080752?authuser=0&hl=en&rclk=1,12.3352251,75.1080752,Kerala
Jeeva Unani Hospital,Hospital,"PWD Rd, near S.N Jn, Nettoor, Maradu, Kochi, Kerala 682040, India",https://www.google.co.kr/maps/place/Jeeva+Unani+Hospital/data=!4m5!3m4!1s0x3b0871973956e7fd:0x645902e1e4f3fbaa!8m2!3d9.9262225!4d76.3119391?authuser=0&hl=en&rclk=1,9.9262225,76.3119391,Kerala
Saint Thomas Hospital,Hospital,"8MG3+RVQ, Nellickal, Kerala 689532, India",https://www.google.co.kr/maps/place/Saint+Thomas+Hospital/data=!4m5!3m4!1s0x3b063d2509c30787:0xd71c9cc78e30ef7e!8m2!3d9.327088!4d76.6547311?authuser=0&hl=en&rclk=1,9.327088,76.6547311,Kerala
St george hospital,Hospital,"RCV5+444, Kerala 682315, India",https://www.google.co.kr/maps/place/St+george+hospital/data=!4m5!3m4!1s0x3b0877f7f446cf29:0x17aa0a634801465f!8m2!3d9.8427699!4d76.4078343?authuser=0&hl=en&rclk=1,9.8427699,76.4078343,Kerala
Helth Center,Hospital,"QXGG+725, Thiruvananthapuram, Kerala 695609, India",https://www.google.co.kr/maps/place/Helth+Center/data=!4m5!3m4!1s0x3b05c5e0c24b319d:0x4599d398ebd906b0!8m2!3d8.7756475!4d76.9751038?authuser=0&hl=en&rclk=1,8.7756475,76.9751038,Kerala
ESI Dispensary wadakkanchery,Government hospital,"M782+45R, Ottupara, Wadakkanchery, Kerala 680590, India",https://www.google.co.kr/maps/place/ESI+Dispensary+wadakkanchery/data=!4m5!3m4!1s0x3ba7e9f55d41fae7:0xdf405ec3fdb9c21!8m2!3d10.6653704!4d76.2503887?authuser=0&hl=en&rclk=1,10.6653704,76.2503887,Kerala
PPVM Hospital,Hospital,"Kodungallur - Shornur Rd, Karuppadanna, Kerala 680670, India",https://www.google.co.kr/maps/place/PPVM+Hospital/data=!4m5!3m4!1s0x3b081d6abe9b7a35:0x7a024ca9af852b64!8m2!3d10.2606165!4d76.2034194?authuser=0&hl=en&rclk=1,10.2606165,76.2034194,Kerala
ESI Hospital Olarikkara,Hospital,"Olarikkara, Thrissur, Kerala 680012, India",https://www.google.co.kr/maps/place/ESI+Hospital+Olarikkara/data=!4m5!3m4!1s0x3ba7ee74b14a7433:0x7946cb1ceebf7a1d!8m2!3d10.51683!4d76.183168?authuser=0&hl=en&rclk=1,10.51683,76.183168,Kerala
ECHS Polyclinic perinthalmanna,Military hospital,"X6GV+63Q, Kuttippara, Pathaikkara, Perintalmanna, Kerala 679322, India",https://www.google.co.kr/maps/place/ECHS+Polyclinic+perinthalmanna/data=!4m5!3m4!1s0x3ba7cd9e98a5b97b:0x5042a2bfea5c6445!8m2!3d10.9755794!4d76.2427431?authuser=0&hl=en&rclk=1,10.9755794,76.2427431,Kerala
Malik Deenar Charitable Hospital,Hospital,"F4MM+XPF, Iriyanni, Kerala 671542, India",https://www.google.co.kr/maps/place/Malik+Deenar+Charitable+Hospital/data=!4m5!3m4!1s0x3ba485e12bacf81d:0xc4887f67749f417c!8m2!3d12.48495!4d75.1343?authuser=0&hl=en&rclk=1,12.48495,75.1343,Kerala
Public Health Centre,Hospital,"Viyyur - Thanikkudam Rd, Mannumkad, Ramavarmapuram, Thrissur, Kerala 680631, India",https://www.google.co.kr/maps/place/Public+Health+Centre/data=!4m5!3m4!1s0x3ba7ef1851824135:0xc7f4cd286b57277b!8m2!3d10.5603055!4d76.233978?authuser=0&hl=en&rclk=1,10.5603055,76.233978,Kerala
Sajeev Doctor,Hospital,"Q8MF+862, Vaniyamkulam-I, Kerala 679522, India",https://www.google.co.kr/maps/place/Sajeev+Doctor/data=!4m5!3m4!1s0x3ba7db43b7a63ab7:0x3b7e6a3432f02a34!8m2!3d10.7832619!4d76.3230141?authuser=0&hl=en&rclk=1,10.7832619,76.3230141,Kerala
Bone and spine hospital MettupalayamDr Arjun,Hospital,"Unnamed Road, Padma Junction, Kacheripady, Kochi, Kerala 682035, India",https://www.google.co.kr/maps/place/Bone+and+spine+hospital+MettupalayamDr+Arjun/data=!4m5!3m4!1s0x3b080d503950ad51:0x7d710d94afd39f73!8m2!3d9.9840014!4d76.2815332?authuser=0&hl=en&rclk=1,9.9840014,76.2815332,Kerala
V C Hospital,Hospital,"Edappally, Ernakulam, Kerala 680024, India",https://www.google.co.kr/maps/place/V+C+Hospital/data=!4m5!3m4!1s0x3b080d047a1f1221:0xe9ab3c6096ed32b2!8m2!3d10.0167904!4d76.3059223?authuser=0&hl=en&rclk=1,10.0167904,76.3059223,Kerala
ESI Dispensary,Hospital,"NH 66, Pathirappally, Aikyabharatham, Alappuzha, Kerala 688008, India",https://www.google.co.kr/maps/place/ESI+Dispensary/data=!4m5!3m4!1s0x3b08842f73a07bcf:0xbf8a6fb0f0232b30!8m2!3d9.5319135!4d76.3277292?authuser=0&hl=en&rclk=1,9.5319135,76.3277292,Kerala
futureace,Hospital,"Near Lulu Mall, Edappally, Ernakulam, Kerala 682024, India",https://www.google.co.kr/maps/place/futureace/data=!4m5!3m4!1s0x3b080d2bfe548d3b:0xb06af860931f0357!8m2!3d10.0317483!4d76.3087282?authuser=0&hl=en&rclk=1,10.0317483,76.3087282,Kerala
Kalpa Ayurveda Hospital,Hospital,"5C47+F5P, Vengoor, Thuravumkara, Nedumbassery, Kerala 683111, India",https://www.google.co.kr/maps/place/Kalpa+Ayurveda+Hospital/data=!4m5!3m4!1s0x3b0807d5aa7e6411:0xa269c3146be7e3e!8m2!3d10.1562117!4d76.4129384?authuser=0&hl=en&rclk=1,10.1562117,76.4129384,Kerala
Rural Helth Center,Hospital,"QXGG+725, Thiruvananthapuram, Kerala 695609, India",https://www.google.co.kr/maps/place/Rural+Helth+Center/data=!4m5!3m4!1s0x3b05c54c8ca9bf17:0x2c2f57b5b0ce01f4!8m2!3d8.7756475!4d76.9751038?authuser=0&hl=en&rclk=1,8.7756475,76.9751038,Kerala
Neurosurgery OPD Sree Chitra Tirunal Institute,Specialized hospital,"GWCG+J8C, Chalakkuzhi, Thiruvananthapuram, Kerala 695011, India",https://www.google.co.kr/maps/place/Neurosurgery+OPD+Sree+Chitra+Tirunal+Institute/data=!4m5!3m4!1s0x3b05bbfc49327601:0x64ec5c010ea70fe1!8m2!3d8.5215745!4d76.9257582?authuser=0&hl=en&rclk=1,8.5215745,76.9257582,Kerala
DDRC SRL Diagnosis Centre,Hospital,"st marys hospital, Manarcadu, Kerala, India",https://www.google.co.kr/maps/place/DDRC+SRL+Diagnosis+Centre/data=!4m5!3m4!1s0x3b062d2c1a29e45f:0xc6d2554de70c444d!8m2!3d9.5987612!4d76.5856521?authuser=0&hl=en&rclk=1,9.5987612,76.5856521,Kerala
Sub center,Hospital,"chappara, Kurancherry - Nayarangadi Rd, Thekkumkara, Kerala 680581, India",https://www.google.co.kr/maps/place/Sub+center/data=!4m5!3m4!1s0x3ba7e9dc6d9238f7:0xd8542a565a3dad01!8m2!3d10.6181279!4d76.245355?authuser=0&hl=en&rclk=1,10.6181279,76.245355,Kerala
PRS Fertility & IVF,Fertility clinic,"PRS Hospital Pathway, Near PRS Hospital, Killipalam, Karamana, Thiruvananthapuram, Kerala 695002, India",https://www.google.co.kr/maps/place/PRS+Fertility+%26+IVF/data=!4m5!3m4!1s0x3b05bb00dab73d77:0xc4df1efc539d362!8m2!3d8.480859!4d76.959338?authuser=0&hl=en&rclk=1,8.480859,76.959338,Kerala
LIFE,Medical Center,"Little Feet Fertility & Endoscopy Centre P.B. NO.833, West Fort, Thrissur, Kerala 680004, India",https://www.google.co.kr/maps/place/LIFE/data=!4m5!3m4!1s0x3ba7ee69f0000001:0xbab05f06cc72ea7c!8m2!3d10.5234561!4d76.2008328?authuser=0&hl=en&rclk=1,10.5234561,76.2008328,Kerala
DDRC SRL IRITTY,Hospital,"Thalassery - Coorg Hwy, Nerambokku, Iritty, Kerala 670703, India",https://www.google.co.kr/maps/place/DDRC+SRL+IRITTY/data=!4m5!3m4!1s0x3ba435ef6ca64c83:0xc54096980a3f1217!8m2!3d11.9898232!4d75.6763857?authuser=0&hl=en&rclk=1,11.9898232,75.6763857,Kerala
Cooperativehospitaltcr.1969,Hospital,"G6H5+2RX, Naikkanal, Thrissur, Kerala 680020, India",https://www.google.co.kr/maps/place/Cooperativehospitaltcr.1969/data=!4m5!3m4!1s0x3ba7ee44db601c6b:0xd0a3d14063c21a74!8m2!3d10.52762!4d76.20962?authuser=0&hl=en&rclk=1,10.52762,76.20962,Kerala
"Ascent ENT Hospital, Perintalmanna",Otolaryngologist,"Calicut Road, Shanti Nagar, Perintalmanna, Kerala 679322, India","https://www.google.co.kr/maps/place/Ascent+ENT+Hospital,+Perintalmanna/data=!4m5!3m4!1s0x3ba86de5cc43cdd9:0x9f3cb06e94d39012!8m2!3d10.9769464!4d76.2207956?authuser=0&hl=en&rclk=1",10.9769464,76.2207956,Kerala
Gov: homeo dispensary venkulam,Hospital,"5, Karathode-Navodaya Road, Venkulam, Oorakam, Kerala 676519, India",https://www.google.co.kr/maps/place/Gov:+homeo+dispensary+venkulam/data=!4m5!3m4!1s0x3ba64b5a068c8111:0xccb1b7af2baa6a86!8m2!3d11.0548874!4d76.0169618?authuser=0&hl=en&rclk=1,11.0548874,76.0169618,Kerala
Urologist - Rajagiri Hospital,Urologist,"Syamantaka (38/356), Edapally Arkakkadavu road, edapally, Kochi, Kerala 682024, India",https://www.google.co.kr/maps/place/Urologist+-+Rajagiri+Hospital/data=!4m5!3m4!1s0x3b080da82ba4ff95:0xbd9d5755bca67d37!8m2!3d10.018309!4d76.308513?authuser=0&hl=en&rclk=1,10.018309,76.308513,Kerala
Kottakkal aryavaidyasala,Medical Center,"Naduvattam, Koppam - Valanchery Rd, India",https://www.google.co.kr/maps/place/Kottakkal+aryavaidyasala/data=!4m5!3m4!1s0x3ba7c92bdd08fe65:0x51148ac86fbd159c!8m2!3d10.8693192!4d76.1522626?authuser=0&hl=en&rclk=1,10.8693192,76.1522626,Kerala
kottakkal aryavaidyashala,Medical Center,"Cheruthuruthi - Perumpilavu Rd, Arangottukara, Kerala 679532, India",https://www.google.co.kr/maps/place/kottakkal+aryavaidyashala/data=!4m5!3m4!1s0x3ba7c40aaeddf18b:0x2a9bd71cec8df2a1!8m2!3d10.7596396!4d76.2010408?authuser=0&hl=en&rclk=1,10.7596396,76.2010408,Kerala
Health center,Hospital,"W7XH+9Q7, Odamala, Kerala 679357, India",https://www.google.co.kr/maps/place/Health+center/data=!4m5!3m4!1s0x3ba7d3dde8f7857b:0xd3a048197fcfe2aa!8m2!3d10.9484133!4d76.2794102?authuser=0&hl=en&rclk=1,10.9484133,76.2794102,Kerala
Kottakkal Arya Vaidya Sala,Medical Center,"Poovathur - Amala Nagar Road, Harisree Nagar, Tholur, Kerala 680552, India",https://www.google.co.kr/maps/place/Kottakkal+Arya+Vaidya+Sala/data=!4m5!3m4!1s0x3ba7ec8e5ffa1c35:0x8515008353fa234a!8m2!3d10.5646789!4d76.1232742?authuser=0&hl=en&rclk=1,10.5646789,76.1232742,Kerala
Kottakkal Aryavaidya Sala കോട്ടക്കൽ ആര്യവൈദ്യശാല,Medical Center,"679503, Cherpulassery, Kerala 679503, India",https://www.google.co.kr/maps/place/Kottakkal+Aryavaidya+Sala+%E0%B4%95%E0%B5%8B%E0%B4%9F%E0%B5%8D%E0%B4%9F%E0%B4%95%E0%B5%8D%E0%B4%95%E0%B5%BD+%E0%B4%86%E0%B4%B0%E0%B5%8D%E0%B4%AF%E0%B4%B5%E0%B5%88%E0%B4%A6%E0%B5%8D%E0%B4%AF%E0%B4%B6%E0%B4%BE%E0%B4%B2/data=!4m5!3m4!1s0x3ba7d1eae6a9afcb:0x4469e345da24b990!8m2!3d10.8787673!4d76.3124634?authuser=0&hl=en&rclk=1,10.8787673,76.3124634,Kerala
Itoozhi Ayurveda Nursing Home,Nursing home,"Chirakkal - Mayyil - Kololam Rd, Mayyil, Kerala 670602, India",https://www.google.co.kr/maps/place/Itoozhi+Ayurveda+Nursing+Home/data=!4m5!3m4!1s0x3ba4393adb89f8fb:0xa5c05ba1d2965ad5!8m2!3d11.9940952!4d75.4499844?authuser=0&hl=en&rclk=1,11.9940952,75.4499844,Kerala
Military Hospital,Hospital,"Tamil Nadu 643231, India",https://www.google.co.kr/maps/place/Military+Hospital/data=!4m5!3m4!1s0x3ba89507208c2299:0x265b0786f947874!8m2!3d11.3672585!4d76.7826319?authuser=0&hl=en&rclk=1,11.3672585,76.7826319,Kerala
Centre for Epilepsy and Neurology,Neurologist,"Bank Road, Manorana Junction, Near St.mary's CSI Church, Nadakkave, Kerala 673011, India",https://www.google.co.kr/maps/place/Centre+for+Epilepsy+and+Neurology/data=!4m5!3m4!1s0x3ba659334d5ee63f:0xd1d431e9d3b4f38c!8m2!3d11.2689002!4d75.7771055?authuser=0&hl=en&rclk=1,11.2689002,75.7771055,Kerala
Dr Gasnafar Hussain,Gastrointestinal surgeon,"Fiza, Perumunderi, New Mahe, Kerala 673311, India",https://www.google.co.kr/maps/place/Dr+Gasnafar+Hussain/data=!4m5!3m4!1s0x3ba429b421938537:0x6d27f53833a33e05!8m2!3d11.713891!4d75.5349077?authuser=0&hl=en&rclk=1,11.713891,75.5349077,Kerala
ESI Hospital,General hospital,"58, Kamarajar Rd, Varadharajapuram, Tamil Nadu 641005, India",https://www.google.co.kr/maps/place/ESI+Hospital/data=!4m5!3m4!1s0x3ba8577d78406bb3:0x5428d3ecd59d25ca!8m2!3d11.0092483!4d77.0241703?authuser=0&hl=en&rclk=1,11.0092483,77.0241703,Kerala
Mata Amritanandamayi Math,Ashram,"Q2X6+7V6, Mananthavady, Kerala 670645, India",https://www.google.co.kr/maps/place/Mata+Amritanandamayi+Math/data=!4m5!3m4!1s0x3ba5debc47e1814b:0xe2c3838c72dfc7c4!8m2!3d11.7981697!4d76.0121368?authuser=0&hl=en&rclk=1,11.7981697,76.0121368,Kerala
GEM Hospital Coimbatore,Hospital,"45, Pankaja Mills Rd, Palaniappa Nagar, Sowripalayam Pirivu, Ramanathapuram, Tamil Nadu 641045, India",https://www.google.co.kr/maps/place/GEM+Hospital+Coimbatore/data=!4m5!3m4!1s0x3ba85905a88facf7:0xf1d213fbbca5444c!8m2!3d10.9996215!4d76.9954638?authuser=0&hl=en&rclk=1,10.9996215,76.9954638,Kerala
VGM Hospital,Hospital,"VGM Hospital Busstop, 2100, Trichy Rd, Rajiv Gandhi Nagar, Singanallur, Tamil Nadu 641005, India",https://www.google.co.kr/maps/place/VGM+Hospital/data=!4m5!3m4!1s0x3ba857616b086c8f:0x8621e46420fb434b!8m2!3d10.9985957!4d77.0143737?authuser=0&hl=en&rclk=1,10.9985957,77.0143737,Kerala
Dakshin - The Veg,·₩₩,"17, 43, Mavoor Rd, opposite National Hospital, Mavoor Road Junction, Opposite National Hospital, Tazhekkod, Kozhikode, Kerala 673001, India",https://www.google.co.kr/maps/place/Dakshin+-+The+Veg/data=!4m5!3m4!1s0x3ba659378f821ccd:0xc78329f17cc49419!8m2!3d11.2586838!4d75.7814992?authuser=0&hl=en&rclk=1,11.2586838,75.7814992,Kerala
Rex Ortho Hospital,Hospital,"Bus Stop, 43, Shanmugam Rd, RR Layout, Sukrawar Pettai, R S Puram West, Coimbatore, Tamil Nadu 641002, India",https://www.google.co.kr/maps/place/Rex+Ortho+Hospital/data=!4m5!3m4!1s0x3ba8590373629609:0x3af6643641fd5d74!8m2!3d11.0084749!4d76.9562221?authuser=0&hl=en&rclk=1,11.0084749,76.9562221,Kerala
Aravind Vision Centre - Periyakulam,Hospital,"Old Saleem Hospital, Theni Main Rd, near Sudhan Hostel, Periyakulam, Tamil Nadu 625601, India",https://www.google.co.kr/maps/place/Aravind+Vision+Centre+-+Periyakulam/data=!4m5!3m4!1s0x3b0769ec46d33b2f:0x3d67a1b5cac5016e!8m2!3d10.1176505!4d77.5461633?authuser=0&hl=en&rclk=1,10.1176505,77.5461633,Kerala
