Company_Name,Category,Address,Url,Latitude,Longitude,State
"Civil Hospital, Aizawl",General hospital,"Bazar Bungkawn, Bara Bazar, Dawrpui, Aizawl, Mizoram 796001, India","https://www.google.co.kr/maps/place/Civil+Hospital,+Aizawl/data=!4m5!3m4!1s0x374d94b665e20dd9:0xb3325bc46c2ccb75!8m2!3d23.7323402!4d92.7165256?authuser=0&hl=en&rclk=1",23.7323402,92.7165256,Mizoram
Synod Hospital Durtlang,General hospital,"NH-54, Durtlang Leitan, Aizawl, Mizoram 796025, India",https://www.google.co.kr/maps/place/Synod+Hospital+Durtlang/data=!4m5!3m4!1s0x374deb1b210503d7:0x494329e0d07f4050!8m2!3d23.7722288!4d92.7310205?authuser=0&hl=en&rclk=1,23.7722288,92.7310205,Mizoram
Greenwood Hospital,General hospital,"Bawngkawn, Aizawl, Mizoram 796014, India",https://www.google.co.kr/maps/place/Greenwood+Hospital/data=!4m5!3m4!1s0x374deb245dd0de29:0xfc1fb8ba4393f1d7!8m2!3d23.7554782!4d92.731041?authuser=0&hl=en&rclk=1,23.7554782,92.731041,Mizoram
Fari Pute In,General hospital,"PPFF+7FJ, College Veng, Aizawl, Mizoram 796005, India",https://www.google.co.kr/maps/place/Fari+Pute+In/data=!4m5!3m4!1s0x374d95493eead95b:0xa635a73aecbf7d94!8m2!3d23.7232005!4d92.7236331?authuser=0&hl=en&rclk=1,23.7232005,92.7236331,Mizoram
Kulikawn Hospital,Government hospital,"Kulikawn, Aizawl, Mizoram 796005, India",https://www.google.co.kr/maps/place/Kulikawn+Hospital/data=!4m5!3m4!1s0x374d94939f1a3373:0x53fb21bf7b15d056!8m2!3d23.7084855!4d92.7155763?authuser=0&hl=en&rclk=1,23.7084855,92.7155763,Mizoram
Bethesda Hospital,Hospital,"Bawngkawn Chhimveng Rd, Bawngkawn Chhim Veng, Aizawl, Mizoram 796012, India",https://www.google.co.kr/maps/place/Bethesda+Hospital/data=!4m5!3m4!1s0x374deb309acb7b69:0xae84fca9270a97df!8m2!3d23.7504706!4d92.7266318?authuser=0&hl=en&rclk=1,23.7504706,92.7266318,Mizoram
Nazareth Hospital,Private hospital,"Bethel Lung, Chaltlang, Aizawl, Mizoram 796012, India",https://www.google.co.kr/maps/place/Nazareth+Hospital/data=!4m5!3m4!1s0x374deb30d8b48953:0xf58b3289b25baf32!8m2!3d23.7490147!4d92.7223908?authuser=0&hl=en&rclk=1,23.7490147,92.7223908,Mizoram
Ebenezer Medical Center,Hospital,"Chawnpui Veng, Aizawl, Mizoram 796009, India",https://www.google.co.kr/maps/place/Ebenezer+Medical+Center/data=!4m5!3m4!1s0x374d95a7002ade77:0xc087b3aaf46c3b4a!8m2!3d23.7312!4d92.707833?authuser=0&hl=en&rclk=1,23.7312,92.707833,Mizoram
Health office. Mizoram,Hospital,"Bethel Rd, Chawnpui Veng, Aizawl, Mizoram 796009, India",https://www.google.co.kr/maps/place/Health+office.+Mizoram/data=!4m5!3m4!1s0x374d95c69568099b:0x184e67005e9812f7!8m2!3d23.7311995!4d92.7078328?authuser=0&hl=en&rclk=1,23.7311995,92.7078328,Mizoram
CITY HOSPITAL,Specialized hospital,"Rev Chhuahkhama Rd, Mission Veng, Model Veng, Aizawl, Mizoram 796005, India",https://www.google.co.kr/maps/place/CITY+HOSPITAL/data=!4m5!3m4!1s0x374d94bfc4f959e5:0x260c85f3da2476!8m2!3d23.7165206!4d92.7164313?authuser=0&hl=en&rclk=1,23.7165206,92.7164313,Mizoram
Trinity Hospital,Hospital,"Aizawl, Mizoram 796005, India",https://www.google.co.kr/maps/place/Trinity+Hospital/data=!4m5!3m4!1s0x374d950f74629a55:0x387fcbd150937daf!8m2!3d23.6807524!4d92.7250209?authuser=0&hl=en&rclk=1,23.6807524,92.7250209,Mizoram
Redeem Hospital,Hospital,"College Veng, Aizawl, Mizoram 796005, India",https://www.google.co.kr/maps/place/Redeem+Hospital/data=!4m5!3m4!1s0x374d94c4e23bedcd:0xf3dd3a1ec302f745!8m2!3d23.7242564!4d92.7266844?authuser=0&hl=en&rclk=1,23.7242564,92.7266844,Mizoram
Christian Hospital Serkawn,Hospital,"WQ45+R85, Serkawn, Lunglei, Mizoram 796691, India",https://www.google.co.kr/maps/place/Christian+Hospital+Serkawn/data=!4m5!3m4!1s0x374d40954e84b81b:0x8f7b6f65818a185a!8m2!3d22.907003!4d92.7583677?authuser=0&hl=en&rclk=1,22.907003,92.7583677,Mizoram
Champhai District Hospital,Hospital,"F8J5+CVG, Vengsang, Champhai, Mizoram 796321, India",https://www.google.co.kr/maps/place/Champhai+District+Hospital/data=!4m5!3m4!1s0x374c5ba573a2fff3:0xb0fbc752fb07c7ac!8m2!3d23.4810501!4d93.3097003?authuser=0&hl=en&rclk=1,23.4810501,93.3097003,Mizoram
Bukpui PHC,Hospital,"Serkhan - Bagha Rd, Bukpui, Mizoram 796007, India",https://www.google.co.kr/maps/place/Bukpui+PHC/data=!4m5!3m4!1s0x374ddfc8b1617f3b:0x5d37e12d09fdb8be!8m2!3d24.0818779!4d92.7932417?authuser=0&hl=en&rclk=1,24.0818779,92.7932417,Mizoram
LRM Hospital Aizawl,Hospital,"Chanmari - Ramhlun Rd, Ramhlun Venglai, Chaltlang, Aizawl, Mizoram 796012, India",https://www.google.co.kr/maps/place/LRM+Hospital+Aizawl/data=!4m5!3m4!1s0x374deb33f6979755:0xf5e0809c7a5b5ead!8m2!3d23.7444191!4d92.7235053?authuser=0&hl=en&rclk=1,23.7444191,92.7235053,Mizoram
Health sub centre,Hospital,"CQ2V+3CQ, Saiphai, Mizoram 796101, India",https://www.google.co.kr/maps/place/Health+sub+centre/data=!4m5!3m4!1s0x374e6ca125e694cf:0xec0033796e01f5a2!8m2!3d24.400201!4d92.793606?authuser=0&hl=en&rclk=1,24.400201,92.793606,Mizoram
Public Health Centre,Hospital,"CQ4W+J53, Saiphai, Mizoram 796101, India",https://www.google.co.kr/maps/place/Public+Health+Centre/data=!4m5!3m4!1s0x374e6b5e55555555:0x9f280afb1c9c1614!8m2!3d24.4065055!4d92.7954106?authuser=0&hl=en&rclk=1,24.4065055,92.7954106,Mizoram
Ma & AM,Hospital,"PMPV+P34, Aizawl, Mizoram 796009, India",https://www.google.co.kr/maps/place/Ma+%26+AM/data=!4m5!3m4!1s0x374d93539ce6ffc3:0xf20cffce4cff1b9b!8m2!3d23.7367548!4d92.6927079?authuser=0&hl=en&rclk=1,23.7367548,92.6927079,Mizoram
District Hospital Kolasib,Hospital,"Venglai, Kolasib, Mizoram 796081, India",https://www.google.co.kr/maps/place/District+Hospital+Kolasib/data=!4m5!3m4!1s0x374e0ec710ffffff:0x393d81f66c9fed0b!8m2!3d24.2314191!4d92.6768014?authuser=0&hl=en&rclk=1,24.2314191,92.6768014,Mizoram
Med-Aim Hospital,Hospital,"F8FM+2QM, New Champhai, Champhai, Mizoram 796321, India",https://www.google.co.kr/maps/place/Med-Aim+Hospital/data=!4m5!3m4!1s0x374c5bf6ebb6746d:0x374eab3dbdae2bd3!8m2!3d23.4725763!4d93.3344371?authuser=0&hl=en&rclk=1,23.4725763,93.3344371,Mizoram
District Hospital Saitual,Hospital,"Saitual-Phullen-Suangpuilawn Rd, Saitual, Mizoram 796261, India",https://www.google.co.kr/maps/place/District+Hospital+Saitual/data=!4m5!3m4!1s0x374db70951b46b3d:0xbb20dc2d8c72a9f!8m2!3d23.6820624!4d92.9630899?authuser=0&hl=en&rclk=1,23.6820624,92.9630899,Mizoram
Synod Hospital,Hospital,"Durtlang Rd, Durtlang Leitan, Aizawl, Mizoram 796025, India",https://www.google.co.kr/maps/place/Synod+Hospital/data=!4m5!3m4!1s0x374deb1b1b1dd601:0xce95054aea022996!8m2!3d23.772153!4d92.7310195?authuser=0&hl=en&rclk=1,23.772153,92.7310195,Mizoram
Civil Hospital,Hospital,"Lunglei-Thenzawl Rd, Lunglei, Mizoram 796701, India",https://www.google.co.kr/maps/place/Civil+Hospital/data=!4m5!3m4!1s0x374d40d396a3ee31:0x3715ce142400932c!8m2!3d22.8863676!4d92.7441089?authuser=0&hl=en&rclk=1,22.8863676,92.7441089,Mizoram
Nazareth Hospital,Hospital,"C-50/A, K. Laihnuna Road, Ramhlun North, Aizawl, Mizoram 796012, India",https://www.google.co.kr/maps/place/Nazareth+Hospital/data=!4m5!3m4!1s0x374debebe5c990b3:0xfa638bf0c3452ea5!8m2!3d23.7486623!4d92.724242?authuser=0&hl=en&rclk=1,23.7486623,92.724242,Mizoram
Health Sub-Centre,Hospital,"MXV8+4GQ, Saitual, Mizoram 796261, India",https://www.google.co.kr/maps/place/Health+Sub-Centre/data=!4m5!3m4!1s0x374db7a60cdabdd5:0xa52e2282481e6f21!8m2!3d23.6928342!4d92.9663502?authuser=0&hl=en&rclk=1,23.6928342,92.9663502,Mizoram
JN Hospital,Government hospital,"8V54+5CG, Serchhip, Mizoram 796181, India",https://www.google.co.kr/maps/place/JN+Hospital/data=!4m5!3m4!1s0x374d0bd5469b65a1:0x749c4d651fb6e344!8m2!3d23.3079464!4d92.8560816?authuser=0&hl=en&rclk=1,23.3079464,92.8560816,Mizoram
Seventh day Adventist Hospital,Hospital,"Hill St, 7th Day Tlang, Vaivakawn, Aizawl, Mizoram 796009, India",https://www.google.co.kr/maps/place/Seventh+day+Adventist+Hospital/data=!4m5!3m4!1s0x374d94b2f7c000db:0xd59176c38c79669a!8m2!3d23.7365857!4d92.7093945?authuser=0&hl=en&rclk=1,23.7365857,92.7093945,Mizoram
Sub District Hospital Hnahthial,Hospital,"NH2, Lungleng, Hnahthial, Mizoram 796571, India",https://www.google.co.kr/maps/place/Sub+District+Hospital+Hnahthial/data=!4m5!3m4!1s0x374d3d502f444c5b:0x18be681d6f55b87a!8m2!3d22.9627894!4d92.9295087?authuser=0&hl=en&rclk=1,22.9627894,92.9295087,Mizoram
Kawrtethawveng PHC,Hospital,"V9FF+Q3P, Kawrtethawveng, Mizoram 796441, India",https://www.google.co.kr/maps/place/Kawrtethawveng+PHC/data=!4m5!3m4!1s0x37520ecf95519091:0x358ef8c53c1e0980!8m2!3d23.8744586!4d92.3726925?authuser=0&hl=en&rclk=1,23.8744586,92.3726925,Mizoram
Sub Center,Hospital,"94HJ+PQQ, New Chalrang, Mizoram 796310, India",https://www.google.co.kr/maps/place/Sub+Center/data=!4m5!3m4!1s0x374c550c6cc2fec3:0xc6961253ed8d8ff1!8m2!3d23.3793416!4d93.1319692?authuser=0&hl=en&rclk=1,23.3793416,93.1319692,Mizoram
Sub Centre,Hospital,"PVC4+768, Seling, Mizoram 796161, India",https://www.google.co.kr/maps/place/Sub+Centre/data=!4m5!3m4!1s0x374dbf4c8cb72bc7:0x950fd5ad2f245345!8m2!3d23.7206605!4d92.8555921?authuser=0&hl=en&rclk=1,23.7206605,92.8555921,Mizoram
CHC SAITUAL,Hospital,"MXJ7+V68, Saitual, Mizoram 796261, India",https://www.google.co.kr/maps/place/CHC+SAITUAL/data=!4m5!3m4!1s0x374db7a0aa37418b:0x5f984aadc7360a53!8m2!3d23.6821643!4d92.9630829?authuser=0&hl=en&rclk=1,23.6821643,92.9630829,Mizoram
Public Health Centre,Hospital,"W3FP+QJC, Thingsai, Mizoram 796581, India",https://www.google.co.kr/maps/place/Public+Health+Centre/data=!4m5!3m4!1s0x374d2062bd4aa255:0x571f1a01f13c01f0!8m2!3d22.9244365!4d93.0865021?authuser=0&hl=en&rclk=1,22.9244365,93.0865021,Mizoram
"District Hospital, Siaha",Hospital,"FXQM+928, Siaha, Mizoram 796901, India","https://www.google.co.kr/maps/place/District+Hospital,+Siaha/data=!4m5!3m4!1s0x30b2d17bd5c5b67d:0x8ec051789018425c!8m2!3d22.4884113!4d92.9825842?authuser=0&hl=en&rclk=1",22.4884113,92.9825842,Mizoram
"Health Centre, Mission Veng",Hospital,"PP79+J87, Mission Veng, Model Veng, Aizawl, Mizoram 796001, India","https://www.google.co.kr/maps/place/Health+Centre,+Mission+Veng/data=!4m5!3m4!1s0x374d94eacb29eef1:0xd53646fd9eaa2f2f!8m2!3d23.7140437!4d92.7182954?authuser=0&hl=en&rclk=1",23.7140437,92.7182954,Mizoram
Khatla Health Sub Centre,Hospital,"PP97+GX2, Khatla, Aizawl, Mizoram 796005, India",https://www.google.co.kr/maps/place/Khatla+Health+Sub+Centre/data=!4m5!3m4!1s0x374d94bef6023381:0x172591260260f1fe!8m2!3d23.7187632!4d92.7148773?authuser=0&hl=en&rclk=1,23.7187632,92.7148773,Mizoram
Sub- Centre,Hospital,"Tuikual North, Aizawl, Mizoram, India",https://www.google.co.kr/maps/place/Sub-+Centre/data=!4m5!3m4!1s0x374d94b7030d12e5:0x8e3d80afd92c42d2!8m2!3d23.7303637!4d92.715284?authuser=0&hl=en&rclk=1,23.7303637,92.715284,Mizoram
"BN Hospital, Kulikawn, Aizawl",Hospital,"MPR9+8RP, Melthum Kawn, Zion Veng, Aizawl, Mizoram 796005, India","https://www.google.co.kr/maps/place/BN+Hospital,+Kulikawn,+Aizawl/data=!4m5!3m4!1s0x374d945f935beaaf:0x5c28bb9be7704846!8m2!3d23.6908282!4d92.7195695?authuser=0&hl=en&rclk=1",23.6908282,92.7195695,Mizoram
Public Health Centre,Hospital,"2QWM+FGH, Haulawng, Mizoram 796691, India",https://www.google.co.kr/maps/place/Public+Health+Centre/data=!4m5!3m4!1s0x374d14c990c7b46f:0xcc12c57bde9d69c7!8m2!3d23.0461905!4d92.7838639?authuser=0&hl=en&rclk=1,23.0461905,92.7838639,Mizoram
Tualte sub centre,Hospital,"C675+94J, Tualte, Mizoram 796310, India",https://www.google.co.kr/maps/place/Tualte+sub+centre/data=!4m5!3m4!1s0x374c56ef673518a7:0x79f5e981b72da233!8m2!3d23.4134744!4d93.2077802?authuser=0&hl=en&rclk=1,23.4134744,93.2077802,Mizoram
Sub Centre,Hospital,"RJMJ+9G8, Vengthar, Lengpui, Mizoram 796410, India",https://www.google.co.kr/maps/place/Sub+Centre/data=!4m5!3m4!1s0x374dedec69e2366f:0x69374219cdf01268!8m2!3d23.8334119!4d92.6313382?authuser=0&hl=en&rclk=1,23.8334119,92.6313382,Mizoram
Lairam Christian Medical Centre,Hospital,"L-3 Road, Lawngtlai Bazar, Bazar Veng, Lawngtlai, Mizoram 796891, India",https://www.google.co.kr/maps/place/Lairam+Christian+Medical+Centre/data=!4m5!3m4!1s0x30b2cdb2ca201161:0xdd188194414ca402!8m2!3d22.5327181!4d92.8979341?authuser=0&hl=en&rclk=1,22.5327181,92.8979341,Mizoram
Hospital,Hospital,"43H9+X3F, North Vanlaiphai, Mizoram 796181, India",https://www.google.co.kr/maps/place/Hospital/data=!4m5!3m4!1s0x374d1d10828ee151:0x1d0dd70c2bcc3cae!8m2!3d23.1299389!4d93.0676873?authuser=0&hl=en&rclk=1,23.1299389,93.0676873,Mizoram
Health Sub Centre,Hospital,"JV62+VF3, Tlungvel, Mizoram 796161, India",https://www.google.co.kr/maps/place/Health+Sub+Centre/data=!4m5!3m4!1s0x374dbc7161894be9:0x6307609016f62fdc!8m2!3d23.6121401!4d92.8511836?authuser=0&hl=en&rclk=1,23.6121401,92.8511836,Mizoram
Alpha Hospital,Hospital,"Kulikawn Rd, Kulikawn, Aizawl, Mizoram 796005, India",https://www.google.co.kr/maps/place/Alpha+Hospital/data=!4m5!3m4!1s0x374d94eca272614b:0xfc7b2d017dc3d069!8m2!3d23.7092758!4d92.719481?authuser=0&hl=en&rclk=1,23.7092758,92.719481,Mizoram
John Williams Hospital,Private hospital,"VPMX+56M, Chanmari, Lunglei, Mizoram 796701, India",https://www.google.co.kr/maps/place/John+Williams+Hospital/data=!4m5!3m4!1s0x374d40d2a7dd0f9f:0x736a4fdcd4d38fe!8m2!3d22.8829562!4d92.748043?authuser=0&hl=en&rclk=1,22.8829562,92.748043,Mizoram
Christian Hospital Lawngtlai,Hospital,"Lawngtlai,, Vengpui, Lawngtlai, Mizoram 796891, India",https://www.google.co.kr/maps/place/Christian+Hospital+Lawngtlai/data=!4m5!3m4!1s0x30b2cdad47d4fe7b:0xa8a82b44da18ca81!8m2!3d22.5356206!4d92.8982618?authuser=0&hl=en&rclk=1,22.5356206,92.8982618,Mizoram
Lengpui PHC,Hospital,"RJQM+V57, Lengpui, Mizoram 796410, India",https://www.google.co.kr/maps/place/Lengpui+PHC/data=!4m5!3m4!1s0x374dee0971836481:0x2d48634f11aa9b66!8m2!3d23.8396589!4d92.6329191?authuser=0&hl=en&rclk=1,23.8396589,92.6329191,Mizoram
"District Hospital, Serchhip",Hospital,"8V54+5C2, Serchhip, Mizoram 796181, India","https://www.google.co.kr/maps/place/District+Hospital,+Serchhip/data=!4m5!3m4!1s0x374d0bd53bab8263:0x1619e3d9c8d6c981!8m2!3d23.3078914!4d92.8560138?authuser=0&hl=en&rclk=1",23.3078914,92.8560138,Mizoram
District Hospital,Hospital,"WF5V+PXW, New Mamit, Mamit, Mizoram 796441, India",https://www.google.co.kr/maps/place/District+Hospital/data=!4m5!3m4!1s0x374df78542eabda9:0x8638b87f18fd313f!8m2!3d23.9093742!4d92.4949516?authuser=0&hl=en&rclk=1,23.9093742,92.4949516,Mizoram
Hospital,Hospital,"6MJG+GMM, Venglai, Kolasib, Mizoram 796081, India",https://www.google.co.kr/maps/place/Hospital/data=!4m5!3m4!1s0x374e0ec710733e3d:0xc31e747ce6236202!8m2!3d24.2313324!4d92.6766701?authuser=0&hl=en&rclk=1,24.2313324,92.6766701,Mizoram
New Life Hospital New Building,Hospital,"PPJ5+F42, Chawnpui Veng, Aizawl, Mizoram 796009, India",https://www.google.co.kr/maps/place/New+Life+Hospital+New+Building/data=!4m5!3m4!1s0x374d9536f3eeea27:0xf0b98ce5fb498816!8m2!3d23.7311443!4d92.7077698?authuser=0&hl=en&rclk=1,23.7311443,92.7077698,Mizoram
Lawngtlai District Hospital,Hospital,"GVPQ+M7F, Chandmary, Lawngtlai, Mizoram 796891, India",https://www.google.co.kr/maps/place/Lawngtlai+District+Hospital/data=!4m5!3m4!1s0x30b2cc50707373df:0xeb25c6db824b2097!8m2!3d22.5366838!4d92.8881812?authuser=0&hl=en&rclk=1,22.5366838,92.8881812,Mizoram
Aizawl Adventist Hospital,Hospital,"PPP5+JQC, 7th Day Tlang, Aizawl, Mizoram 796009, India",https://www.google.co.kr/maps/place/Aizawl+Adventist+Hospital/data=!4m5!3m4!1s0x374d94b261ba9d0f:0x35b2f3439586d4c3!8m2!3d23.736554!4d92.709377?authuser=0&hl=en&rclk=1,23.736554,92.709377,Mizoram
ITI Veng Health Sub Centre,Hospital,"PPCJ+2XX, I.T.I Veng, Aizawl, Mizoram 796005, India",https://www.google.co.kr/maps/place/ITI+Veng+Health+Sub+Centre/data=!4m5!3m4!1s0x374d94dc170a8ddf:0x94a1ea96d784994b!8m2!3d23.7201205!4d92.7324857?authuser=0&hl=en&rclk=1,23.7201205,92.7324857,Mizoram
Civil Hospital,Hospital,"1, Hospital Rd, Tlabung, Mizoram 796751, India",https://www.google.co.kr/maps/place/Civil+Hospital/data=!4m5!3m4!1s0x374d5f5cc91be2a5:0xd552a90205ee72d4!8m2!3d22.9064001!4d92.4698639?authuser=0&hl=en&rclk=1,22.9064001,92.4698639,Mizoram
DM Hospital,Hospital,"F8HF+4CG, Vengthlang, Champhai, Mizoram 796321, India",https://www.google.co.kr/maps/place/DM+Hospital/data=!4m5!3m4!1s0x374c5b975443b82d:0xf5703d1239ed4cae!8m2!3d23.4778047!4d93.3235913?authuser=0&hl=en&rclk=1,23.4778047,93.3235913,Mizoram
Falkawn Referal Hospital,Hospital,"Lunglei Rd, Falkawn, Mizoram 796005, India",https://www.google.co.kr/maps/place/Falkawn+Referal+Hospital/data=!4m5!3m4!1s0x374d969a0a5555af:0xfa3c4552d2885dcb!8m2!3d23.6242269!4d92.7287832?authuser=0&hl=en&rclk=1,23.6242269,92.7287832,Mizoram
"Synod Hospital, Durtlang",Hospital,"Durtlang Rd, Zuangtui, Aizawl, Mizoram 796014, India","https://www.google.co.kr/maps/place/Synod+Hospital,+Durtlang/data=!4m5!3m4!1s0x374deb274b645553:0x2423a95edd690973!8m2!3d23.7568784!4d92.7372054?authuser=0&hl=en&rclk=1",23.7568784,92.7372054,Mizoram
"Public Health Centre, Mualkawi",Hospital,"C88M+V87, Mualkawi, Mizoram 796321, India","https://www.google.co.kr/maps/place/Public+Health+Centre,+Mualkawi/data=!4m5!3m4!1s0x374c59360d9414d5:0x9b30ad28fbbb214f!8m2!3d23.4171698!4d93.3332884?authuser=0&hl=en&rclk=1",23.4171698,93.3332884,Mizoram
Nazareth Hospital,Hospital,"Helipad Rd, Tumpui, Kolasib, Mizoram 796081, India",https://www.google.co.kr/maps/place/Nazareth+Hospital/data=!4m5!3m4!1s0x374e0ec6ad5aa31b:0x8c7573c9e26f7067!8m2!3d24.2334587!4d92.6741275?authuser=0&hl=en&rclk=1,24.2334587,92.6741275,Mizoram
Bawngkawn,Hospital,"Ramhlun N Rd, Chaltlang, Aizawl, Mizoram 796012, India",https://www.google.co.kr/maps/place/Bawngkawn/data=!4m5!3m4!1s0x374deb36c80d8b67:0xafb600f910d13fae!8m2!3d23.7469333!4d92.7226617?authuser=0&hl=en&rclk=1,23.7469333,92.7226617,Mizoram
Blessino Nursing Home,Hospital,"PPC2+XXF, Maubawk, Aizawl, Mizoram 796005, India",https://www.google.co.kr/maps/place/Blessino+Nursing+Home/data=!4m5!3m4!1s0x374d94a6b132d453:0xf797d881a401918f!8m2!3d23.7224423!4d92.7024262?authuser=0&hl=en&rclk=1,23.7224423,92.7024262,Mizoram
HOPE HOSPITAL,Hospital,"Chanmari, Lunglei, Mizoram 796701, India",https://www.google.co.kr/maps/place/HOPE+HOSPITAL/data=!4m5!3m4!1s0x374d40d3b20aebcd:0x8124103940437f26!8m2!3d22.8869115!4d92.7441173?authuser=0&hl=en&rclk=1,22.8869115,92.7441173,Mizoram
AYUSH BUILDING,Hospital,"F8H6+V97, Vengsang, Champhai, Mizoram 796321, India",https://www.google.co.kr/maps/place/AYUSH+BUILDING/data=!4m5!3m4!1s0x374c5ba5219baf0b:0x5af44743bbf79c1e!8m2!3d23.4796629!4d93.3109312?authuser=0&hl=en&rclk=1,23.4796629,93.3109312,Mizoram
Hospital,Hospital,"QMFG+C6X, Aizawl, Mizoram 796009, India",https://www.google.co.kr/maps/place/Hospital/data=!4m5!3m4!1s0x374decedaf6b6e81:0xd9b3a9e335d8be8!8m2!3d23.7736009!4d92.6756212?authuser=0&hl=en&rclk=1,23.7736009,92.6756212,Mizoram
Khawzawl CHC,Hospital,"Hermon Rd, Khawzawl, Mizoram 796310, India",https://www.google.co.kr/maps/place/Khawzawl+CHC/data=!4m5!3m4!1s0x374c51f01abda98d:0x54f24162657c129f!8m2!3d23.5032747!4d93.1964534?authuser=0&hl=en&rclk=1,23.5032747,93.1964534,Mizoram
MIMER,Hospital,"JPFH+MC8, Falkawn, Mizoram 796005, India",https://www.google.co.kr/maps/place/MIMER/data=!4m5!3m4!1s0x374d974e75370629:0x135033f6a0bff94!8m2!3d23.6241737!4d92.7285827?authuser=0&hl=en&rclk=1,23.6241737,92.7285827,Mizoram
John William Hospital,Hospital,"chanmari III,, Lunglei, Mizoram, India",https://www.google.co.kr/maps/place/John+William+Hospital/data=!4m5!3m4!1s0x374d5f5d7373a0f7:0x339a14a293c825f0!8m2!3d22.9093031!4d92.468209?authuser=0&hl=en&rclk=1,22.9093031,92.468209,Mizoram
Urban Primary Health Centre,Hospital,"Aizawl,, I.T.I Veng, Aizawl, Mizoram 796005, India",https://www.google.co.kr/maps/place/Urban+Primary+Health+Centre/data=!4m5!3m4!1s0x374d94dc19f030d5:0x5c4e24d45ecce6a9!8m2!3d23.7202574!4d92.7326178?authuser=0&hl=en&rclk=1,23.7202574,92.7326178,Mizoram
Rosewood Hospital,Hospital,"Saron Veng - Bungkawn Rd, Aizawl, Mizoram 796001, India",https://www.google.co.kr/maps/place/Rosewood+Hospital/data=!4m5!3m4!1s0x374d9577be655491:0xedc8204a110be7ed!8m2!3d23.7311476!4d92.717897?authuser=0&hl=en&rclk=1,23.7311476,92.717897,Mizoram
Civil Hospital,Hospital,"west, New Saiha- Saihatlangkawn Rd, Siaha, Mizoram 796901, India",https://www.google.co.kr/maps/place/Civil+Hospital/data=!4m5!3m4!1s0x30b2d1797fc99953:0xc1762c49a22425d3!8m2!3d22.4882688!4d92.9824863?authuser=0&hl=en&rclk=1,22.4882688,92.9824863,Mizoram
CHC,Hospital,"Aizawl - Lunglei Rd, Thenzawl, Mizoram 796181, India",https://www.google.co.kr/maps/place/CHC/data=!4m5!3m4!1s0x374d74b58f2dbff1:0xc1daf7589390d42!8m2!3d23.2892089!4d92.7714441?authuser=0&hl=en&rclk=1,23.2892089,92.7714441,Mizoram
Leprosy Hospital,Hospital,"Chanmari, Tlabung, Mizoram 796751, India",https://www.google.co.kr/maps/place/Leprosy+Hospital/data=!4m5!3m4!1s0x374d5f43f603436d:0x21604be0a3065af3!8m2!3d22.9045964!4d92.4743539?authuser=0&hl=en&rclk=1,22.9045964,92.4743539,Mizoram
"Sub- Centre, Chhiahtlang",Hospital,"Chhiahtlang, Serchhip, Mizoram 796181, India","https://www.google.co.kr/maps/place/Sub-+Centre,+Chhiahtlang/data=!4m5!3m4!1s0x374da0b8f5a48747:0xfb6ba84630f1a80f!8m2!3d23.3787267!4d92.8451129?authuser=0&hl=en&rclk=1",23.3787267,92.8451129,Mizoram
Public Health Centre,Hospital,"VR59+8WM, Zobawk, Lunglei, Mizoram 796701, India",https://www.google.co.kr/maps/place/Public+Health+Centre/data=!4m5!3m4!1s0x374d39f0973420d9:0xad0c6772a42dfc6f!8m2!3d22.858344!4d92.819809?authuser=0&hl=en&rclk=1,22.858344,92.819809,Mizoram
Aizawl District TB Centre,Hospital,"JPFH+V8J, Falkawn, Mizoram 796005, India",https://www.google.co.kr/maps/place/Aizawl+District+TB+Centre/data=!4m5!3m4!1s0x374d968d8a51dd51:0xecc98d46864b3a2b!8m2!3d23.6247005!4d92.7282619?authuser=0&hl=en&rclk=1,23.6247005,92.7282619,Mizoram
District Hospital,Hospital,"G53W+9G2, Khawzawl, Mizoram 796310, India",https://www.google.co.kr/maps/place/District+Hospital/data=!4m5!3m4!1s0x374c51deefe0c0d9:0x5e686b5440330398!8m2!3d23.503388!4d93.196251?authuser=0&hl=en&rclk=1,23.503388,93.196251,Mizoram
P H C SAIRANG,Hospital,"Sairang Rd, Sairang, Mizoram 796410, India",https://www.google.co.kr/maps/place/P+H+C+SAIRANG/data=!4m5!3m4!1s0x374dedb687d4620b:0x2ca1b3e0887f794e!8m2!3d23.811675!4d92.6551207?authuser=0&hl=en&rclk=1,23.811675,92.6551207,Mizoram
CHC HNAHTHIAL,Hospital,"XW6H+WJ8, Hnahthial, Mizoram 796571, India",https://www.google.co.kr/maps/place/CHC+HNAHTHIAL/data=!4m5!3m4!1s0x374d3d59f33b27f3:0x62defaa9fae72781!8m2!3d22.9622825!4d92.9290851?authuser=0&hl=en&rclk=1,22.9622825,92.9290851,Mizoram
PHC Reiek,Hospital,"MJX3+QHX, Reiek, Mizoram 796501, India",https://www.google.co.kr/maps/place/PHC+Reiek/data=!4m5!3m4!1s0x374d8d7401f71dcb:0xb5283469cc3d0788!8m2!3d23.6994816!4d92.6039958?authuser=0&hl=en&rclk=1,23.6994816,92.6039958,Mizoram
CITY POLYCLINIC,Hospital,"Bara Bazar, Dawrpui, Aizawl, Mizoram 796001, India",https://www.google.co.kr/maps/place/CITY+POLYCLINIC/data=!4m5!3m4!1s0x374d95a1049c537f:0x43a30f2890c71312!8m2!3d23.7316748!4d92.7171137?authuser=0&hl=en&rclk=1,23.7316748,92.7171137,Mizoram
Urban Primary Health Center,Hospital,"RPCM+5QR, Sihphir, Mizoram 796036, India",https://www.google.co.kr/maps/place/Urban+Primary+Health+Center/data=!4m5!3m4!1s0x374debcdc760ce4d:0xd0dc28143ef59cd5!8m2!3d23.8204993!4d92.7343935?authuser=0&hl=en&rclk=1,23.8204993,92.7343935,Mizoram
Lunglei,Hospital,"VPMX+57G, Chanmari, Lunglei, Mizoram 796701, India",https://www.google.co.kr/maps/place/Lunglei/data=!4m5!3m4!1s0x374d41dc750dc723:0x5646c75a5ac79741!8m2!3d22.882932!4d92.7481983?authuser=0&hl=en&rclk=1,22.882932,92.7481983,Mizoram
Maraland Gospel Centenary Hospital,Medical Center,"opposite to Post Office, New Colony 2, Siaha, Mizoram 796901, India",https://www.google.co.kr/maps/place/Maraland+Gospel+Centenary+Hospital/data=!4m5!3m4!1s0x30b2d178e4ae8a8b:0x3fcd57cfd9f6211c!8m2!3d22.4889276!4d92.979637?authuser=0&hl=en&rclk=1,22.4889276,92.979637,Mizoram
Urban Public Health Centre,Hospital,"VQ2V+QP8, Hrangchalkawn, Lunglei, Mizoram 796701, India",https://www.google.co.kr/maps/place/Urban+Public+Health+Centre/data=!4m5!3m4!1s0x374d39fbdf206e15:0x98bf9da7dcfa0782!8m2!3d22.8519005!4d92.7943435?authuser=0&hl=en&rclk=1,22.8519005,92.7943435,Mizoram
"Trauma Center, Serchhip",Hospital,"8V54+47Q, Serchhip, Mizoram 796181, India","https://www.google.co.kr/maps/place/Trauma+Center,+Serchhip/data=!4m5!3m4!1s0x374d0b40799f7263:0xfca796229fdf22c8!8m2!3d23.3078461!4d92.8557433?authuser=0&hl=en&rclk=1",23.3078461,92.8557433,Mizoram
Integrated Ayush Hospital,Hospital,"7QCF+8VF, Thenzawl, Mizoram 796186, India",https://www.google.co.kr/maps/place/Integrated+Ayush+Hospital/data=!4m5!3m4!1s0x374d74ac45913473:0x28fb9ca126090bfa!8m2!3d23.270801!4d92.7746617?authuser=0&hl=en&rclk=1,23.270801,92.7746617,Mizoram
Sub center,Hospital,"Unnamed Road, Serte, Mizoram 796701, India",https://www.google.co.kr/maps/place/Sub+center/data=!4m5!3m4!1s0x374d6d762eef8743:0x59e1d21ab2d2c894!8m2!3d23.0836378!4d92.7006777?authuser=0&hl=en&rclk=1,23.0836378,92.7006777,Mizoram
Hospital,Hospital,"Vengchhak Rd, Thenzawl, Mizoram 796186, India",https://www.google.co.kr/maps/place/Hospital/data=!4m5!3m4!1s0x374d74c9be66adf1:0x3f8ef08ba5627d64!8m2!3d23.2883282!4d92.7716231?authuser=0&hl=en&rclk=1,23.2883282,92.7716231,Mizoram
Hospital,Hospital,"7429+MVG, Biate, Mizoram 796370, India",https://www.google.co.kr/maps/place/Hospital/data=!4m5!3m4!1s0x374cfda50d02debf:0xb50fe0e2e751bb63!8m2!3d23.2516851!4d93.1197021?authuser=0&hl=en&rclk=1,23.2516851,93.1197021,Mizoram
"Urban Hospital, Hlimen",Hospital,"Hlimen, Dam Veng, Aizawl, Mizoram, India","https://www.google.co.kr/maps/place/Urban+Hospital,+Hlimen/data=!4m5!3m4!1s0x374d95890e12ef55:0xe283361a9b7be66b!8m2!3d23.6862731!4d92.7191487?authuser=0&hl=en&rclk=1",23.6862731,92.7191487,Mizoram
ART Center,Medical Center,"Hospital Rd, Vengsang, Champhai, Mizoram 796321, India",https://www.google.co.kr/maps/place/ART+Center/data=!4m5!3m4!1s0x374c5ba56c40c151:0xf7dec70e2d4683ed!8m2!3d23.4803255!4d93.3097064?authuser=0&hl=en&rclk=1,23.4803255,93.3097064,Mizoram
HEALTH SUB CENTRE,Hospital,"Saichal, Mizoram 796310, India",https://www.google.co.kr/maps/place/HEALTH+SUB+CENTRE/data=!4m5!3m4!1s0x374db5cf6dbc6f37:0x553b6636d11b4f16!8m2!3d23.7189759!4d93.0680686?authuser=0&hl=en&rclk=1,23.7189759,93.0680686,Mizoram
Health Sub Center,Hospital,"Vengthar Rd, Sailam, Mizoram 796186, India",https://www.google.co.kr/maps/place/Health+Sub+Center/data=!4m5!3m4!1s0x374d750e2a1afdd9:0x1d3a0bab2f8120af!8m2!3d23.2944219!4d92.7684233?authuser=0&hl=en&rclk=1,23.2944219,92.7684233,Mizoram
Health Clinic,Hospital,"C88M+W84, Mualkawi, Mizoram 796321, India",https://www.google.co.kr/maps/place/Health+Clinic/data=!4m5!3m4!1s0x374c5984d7e8ffcb:0x988491b314bf826!8m2!3d23.4172728!4d93.3333203?authuser=0&hl=en&rclk=1,23.4172728,93.3333203,Mizoram
Clinic Centre,Hospital,"Lamchhip - Chawilung Rd, Chawilung, Mizoram 796161, India",https://www.google.co.kr/maps/place/Clinic+Centre/data=!4m5!3m4!1s0x374da3da22a9e145:0x4f817c3e7262dabc!8m2!3d23.4575451!4d92.807961?authuser=0&hl=en&rclk=1,23.4575451,92.807961,Mizoram
Health sub centre,Hospital,"QJXW+MVM, Sihhmui, Mizoram 796009, India",https://www.google.co.kr/maps/place/Health+sub+centre/data=!4m5!3m4!1s0x374ded305bc59e5d:0x6587dcb0d7fc3b99!8m2!3d23.7992172!4d92.6471774?authuser=0&hl=en&rclk=1,23.7992172,92.6471774,Mizoram
Health Sub. Centre,Hospital,"Zote, Mizoram 796321, India",https://www.google.co.kr/maps/place/Health+Sub.+Centre/data=!4m5!3m4!1s0x374c5cf355eec5f3:0x9ea19a67f542a063!8m2!3d23.4952032!4d93.3593069?authuser=0&hl=en&rclk=1,23.4952032,93.3593069,Mizoram
"CHC,Thenzawl",Hospital,"Thenzawl Vengchhak, Vengthar Rd, Zote Veng, Thenzawl, Mizoram 796186, India","https://www.google.co.kr/maps/place/CHC,Thenzawl/data=!4m5!3m4!1s0x374d74c91f702df1:0xa235111675fdea64!8m2!3d23.2903743!4d92.7707353?authuser=0&hl=en&rclk=1",23.2903743,92.7707353,Mizoram
"Health Sub-Centre, Chalrang",Hospital,"Chalrang, Mizoram 796310, India","https://www.google.co.kr/maps/place/Health+Sub-Centre,+Chalrang/data=!4m5!3m4!1s0x374c5580632748f1:0xdbdd724688659d82!8m2!3d23.3843323!4d93.1485005?authuser=0&hl=en&rclk=1",23.3843323,93.1485005,Mizoram
Sub Center,Hospital,"8847+J6G, Khuangleng, Mizoram 796321, India",https://www.google.co.kr/maps/place/Sub+Center/data=!4m5!3m4!1s0x374cf73d0b308649:0x7c804b0bd698a39a!8m2!3d23.3065745!4d93.3130828?authuser=0&hl=en&rclk=1,23.3065745,93.3130828,Mizoram
Christian Hospital Chandraghona,Hospital,"JJFX+V43, Chawngte L, Mizoram 796770, India",https://www.google.co.kr/maps/place/Christian+Hospital+Chandraghona/data=!4m5!3m4!1s0x374d4d17c8b034dd:0x889d65a6a6577711!8m2!3d22.6246457!4d92.6478003?authuser=0&hl=en&rclk=1,22.6246457,92.6478003,Mizoram
East Lungdat Hospital,Hospital,"632V+RP3, Mizoram 796370, India",https://www.google.co.kr/maps/place/East+Lungdat+Hospital/data=!4m5!3m4!1s0x374d03fc15f64829:0xea7148b16e13e0e5!8m2!3d23.2020036!4d93.094309?authuser=0&hl=en&rclk=1,23.2020036,93.094309,Mizoram
Primary Health Centre,Hospital,"6XCR+JHG, Khawlailung, Mizoram 796181, India",https://www.google.co.kr/maps/place/Primary+Health+Centre/data=!4m5!3m4!1s0x374d045b40297433:0xc1fd3e532233ce77!8m2!3d23.2215565!4d92.9914402?authuser=0&hl=en&rclk=1,23.2215565,92.9914402,Mizoram
Primary Health Centre,Hospital,"633R+6FH, East Lungdar, Mizoram 796370, India",https://www.google.co.kr/maps/place/Primary+Health+Centre/data=!4m5!3m4!1s0x374d0381dd0d3d67:0x7cf1177c3b62c3bd!8m2!3d23.2030544!4d93.0912499?authuser=0&hl=en&rclk=1,23.2030544,93.0912499,Mizoram
ECHS polyclinic,Hospital,"PPWP+QMW, Aizawl, Mizoram 796007, India",https://www.google.co.kr/maps/place/ECHS+polyclinic/data=!4m5!3m4!1s0x374deb29bed892dd:0xa8d59e25da0a2e34!8m2!3d23.7469898!4d92.736702?authuser=0&hl=en&rclk=1,23.7469898,92.736702,Mizoram
Health Sub-centre,Hospital,"South Zote, Mizoram 796691, India",https://www.google.co.kr/maps/place/Health+Sub-centre/data=!4m5!3m4!1s0x374d0d668c5697eb:0x1d6548c2d9646dd2!8m2!3d23.2162441!4d92.7943532?authuser=0&hl=en&rclk=1,23.2162441,92.7943532,Mizoram
HSC,Hospital,"G328+FX8, Chhawrtui, Mizoram 796310, India",https://www.google.co.kr/maps/place/HSC/data=!4m5!3m4!1s0x374dad66e31e89cf:0xa922fd769cc95dc1!8m2!3d23.501173!4d93.067443?authuser=0&hl=en&rclk=1,23.501173,93.067443,Mizoram
Health Subcentre,Hospital,"JJFF+Q5Q, Khawrihnim, Mizoram 796501, India",https://www.google.co.kr/maps/place/Health+Subcentre/data=!4m5!3m4!1s0x374d91e0db5400cb:0xb579dff455a110a6!8m2!3d23.6244643!4d92.6229781?authuser=0&hl=en&rclk=1,23.6244643,92.6229781,Mizoram
Primary Health Centre,Hospital,"J2C4+3MP, South Lungpher, Mizoram 796901, India",https://www.google.co.kr/maps/place/Primary+Health+Centre/data=!4m5!3m4!1s0x374d2d508f8a57ad:0x6f808defa68b07b3!8m2!3d22.6202134!4d93.0067184?authuser=0&hl=en&rclk=1,22.6202134,93.0067184,Mizoram
Hospital (C.H.C) Tzl.,Hospital,"7QRC+C73, Thenzawl, Mizoram 796186, India",https://www.google.co.kr/maps/place/Hospital+(C.H.C)+Tzl./data=!4m5!3m4!1s0x374d756b688e4d4b:0x33e8e4b245178fbe!8m2!3d23.2910182!4d92.7706592?authuser=0&hl=en&rclk=1,23.2910182,92.7706592,Mizoram
PHC Chhaolo,Hospital,"C3RX+XH4, Chhaolo, Mizoram 796901, India",https://www.google.co.kr/maps/place/PHC+Chhaolo/data=!4m5!3m4!1s0x30b329348f272fc1:0xad799f5eb036a974!8m2!3d22.4423821!4d93.0989462?authuser=0&hl=en&rclk=1,22.4423821,93.0989462,Mizoram
Urban PHC,Hospital,"Mizoram University, Aizawl, Mizoram 796004, India",https://www.google.co.kr/maps/place/Urban+PHC/data=!4m5!3m4!1s0x374d9306353d4add:0x3335e4d6500aae61!8m2!3d23.7332381!4d92.6654329?authuser=0&hl=en&rclk=1,23.7332381,92.6654329,Mizoram
"Health Sub-Centre, Venghnuai",Hospital,"PP7F+6J5, Venghnuai, Aizawl, Mizoram 796005, India","https://www.google.co.kr/maps/place/Health+Sub-Centre,+Venghnuai/data=!4m5!3m4!1s0x374d94e99bf58225:0x8cd36bad637665a8!8m2!3d23.7130184!4d92.7241105?authuser=0&hl=en&rclk=1",23.7130184,92.7241105,Mizoram
Health Sub-Center,Hospital,"HR3X+9W8, Khumtung, Mizoram 796161, India",https://www.google.co.kr/maps/place/Health+Sub-Center/data=!4m5!3m4!1s0x374dbcae7b0e5d87:0xe47cfd81bfc20c71!8m2!3d23.5534137!4d92.8498162?authuser=0&hl=en&rclk=1,23.5534137,92.8498162,Mizoram
PHC HOSPITAL,Hospital,"NH306, Sairang, Mizoram 796015, India",https://www.google.co.kr/maps/place/PHC+HOSPITAL/data=!4m5!3m4!1s0x374dedddb52b8175:0x818e82b9074953be!8m2!3d23.811656!4d92.6551345?authuser=0&hl=en&rclk=1,23.811656,92.6551345,Mizoram
MPRO Champhai,Hospital,"Darthlalang, TB Tlang Rd, Vengsang, Champhai, Mizoram 796321, India",https://www.google.co.kr/maps/place/MPRO+Champhai/data=!4m5!3m4!1s0x374c5b106533114d:0xfa6d4b3a7a64120d!8m2!3d23.4781532!4d93.3128074?authuser=0&hl=en&rclk=1,23.4781532,93.3128074,Mizoram
Primary Health Centre,Hospital,"J3FM+PQW, Kawlkulh, Mizoram 796310, India",https://www.google.co.kr/maps/place/Primary+Health+Centre/data=!4m5!3m4!1s0x374db344c31d0735:0x6419469db5fcacd7!8m2!3d23.6243688!4d93.0844384?authuser=0&hl=en&rclk=1,23.6243688,93.0844384,Mizoram
Pangzawl PHE,Hospital,"NH2, Pangzawl, Mizoram 796571, India",https://www.google.co.kr/maps/place/Pangzawl+PHE/data=!4m5!3m4!1s0x374d11f20c2c76ff:0x6a2a3e17e29a7ebf!8m2!3d23.0747349!4d92.9009693?authuser=0&hl=en&rclk=1,23.0747349,92.9009693,Mizoram
PHC CHHIPPHIR,Hospital,"Chhipphir, Mizoram 796691, India",https://www.google.co.kr/maps/place/PHC+CHHIPPHIR/data=!4m5!3m4!1s0x374d0d5fb8f75d09:0x1cf38af3780cb64e!8m2!3d23.1691251!4d92.7965507?authuser=0&hl=en&rclk=1,23.1691251,92.7965507,Mizoram
P.H.C,Hospital,"P2XX+W35, Sangau, Mizoram 796571, India",https://www.google.co.kr/maps/place/P.H.C/data=!4m5!3m4!1s0x374d292d7ec879af:0x80dd00a451a689e4!8m2!3d22.7497629!4d93.0477405?authuser=0&hl=en&rclk=1,22.7497629,93.0477405,Mizoram
Maternity Ward,Maternity hospital,"QPFJ+56W, Durtlang Leitan, Aizawl, Mizoram 796025, India",https://www.google.co.kr/maps/place/Maternity+Ward/data=!4m5!3m4!1s0x374deb1ae24c13c7:0xaa49619b260da83d!8m2!3d23.7729805!4d92.7305659?authuser=0&hl=en&rclk=1,23.7729805,92.7305659,Mizoram
"HOSPITAL, PHC",Hospital,"PG4H+JMX, Borapansury II, Mizoram 796770, India","https://www.google.co.kr/maps/place/HOSPITAL,+PHC/data=!4m5!3m4!1s0x374d57b7084e6c15:0x2fbf8ec582d9ba11!8m2!3d22.7066133!4d92.5292306?authuser=0&hl=en&rclk=1",22.7066133,92.5292306,Mizoram
Health Sub-Center (Dispensary),Hospital,"VPJ7+GC2, Hauruang, Mizoram 796701, India",https://www.google.co.kr/maps/place/Health+Sub-Center+(Dispensary)/data=!4m5!3m4!1s0x374d46b49f6caa27:0xca1b598acd308767!8m2!3d22.8812634!4d92.7135137?authuser=0&hl=en&rclk=1,22.8812634,92.7135137,Mizoram
Primary Health Centre (PHC) Zobawk,Hospital,"VR59+FXG, Zobawk, Lunglei, Mizoram 796701, India",https://www.google.co.kr/maps/place/Primary+Health+Centre+(PHC)+Zobawk/data=!4m5!3m4!1s0x374d392049e18245:0x8523afad250c82db!8m2!3d22.8586888!4d92.8199492?authuser=0&hl=en&rclk=1,22.8586888,92.8199492,Mizoram
Khawruhlian PHC,Hospital,"Khawruhlian, Mizoram 796017, India",https://www.google.co.kr/maps/place/Khawruhlian+PHC/data=!4m5!3m4!1s0x374dc48ac20c9767:0xfd2ff5f5551ae73a!8m2!3d23.8811481!4d92.876527?authuser=0&hl=en&rclk=1,23.8811481,92.876527,Mizoram
Medical Superintendent Office,Hospital,"Chanmari, Lunglei, Mizoram 796701, India",https://www.google.co.kr/maps/place/Medical+Superintendent+Office/data=!4m5!3m4!1s0x374d418962de9691:0xc1244aa11d5393a5!8m2!3d22.8867746!4d92.7438251?authuser=0&hl=en&rclk=1,22.8867746,92.7438251,Mizoram
CH. Hospital,Hospital,"QPRH+XR8, Durtlang North, Aizawl, Mizoram 796025, India",https://www.google.co.kr/maps/place/CH.+Hospital/data=!4m5!3m4!1s0x374deba8c98506f5:0x2bc930560486501d!8m2!3d23.7924028!4d92.7295869?authuser=0&hl=en&rclk=1,23.7924028,92.7295869,Mizoram
Primary Health Centre,Hospital,"M6H3+836, Rabung, Mizoram 796310, India",https://www.google.co.kr/maps/place/Primary+Health+Centre/data=!4m5!3m4!1s0x374c490a0774052d:0xe6749a125be8d44b!8m2!3d23.6782842!4d93.2026323?authuser=0&hl=en&rclk=1,23.6782842,93.2026323,Mizoram
LCMC Hospital,Hospital,"AOC Veng, Lawngtlai, Mizoram 796891, India",https://www.google.co.kr/maps/place/LCMC+Hospital/data=!4m5!3m4!1s0x30b2cc5a3a051375:0xf78a84e3264182f4!8m2!3d22.539399!4d92.8858048?authuser=0&hl=en&rclk=1,22.539399,92.8858048,Mizoram
Urban Primary Health Centre,Hospital,"VPPM+349, Lunglei, Mizoram 796701, India",https://www.google.co.kr/maps/place/Urban+Primary+Health+Centre/data=!4m5!3m4!1s0x374d4189822df7b3:0xbb49f12e8997f956!8m2!3d22.8851712!4d92.7328612?authuser=0&hl=en&rclk=1,22.8851712,92.7328612,Mizoram
Primary Health Centre,Hospital,"2QWM+HF8, Haulawng, Mizoram 796691, India",https://www.google.co.kr/maps/place/Primary+Health+Centre/data=!4m5!3m4!1s0x374d14c99185cec7:0x3125c1f8e3a11182!8m2!3d23.046409!4d92.7836887?authuser=0&hl=en&rclk=1,23.046409,92.7836887,Mizoram
PHC Haulawng,Hospital,"2QXJ+5G8, Haulawng, Mizoram 796691, India",https://www.google.co.kr/maps/place/PHC+Haulawng/data=!4m5!3m4!1s0x374d15b1336435df:0xe6370be2b5f45b53!8m2!3d23.047913!4d92.7813153?authuser=0&hl=en&rclk=1,23.047913,92.7813153,Mizoram
Primary Health Centre,Hospital,"7MG3+8H6, Buarpui, Mizoram 796701, India",https://www.google.co.kr/maps/place/Primary+Health+Centre/data=!4m5!3m4!1s0x374d770c45e3c69f:0xeded6b69ff8cd906!8m2!3d23.2757875!4d92.6538828?authuser=0&hl=en&rclk=1,23.2757875,92.6538828,Mizoram
Lifeline,Medical clinic,"Upper Bazar, Dawrpui, Aizawl, Mizoram 796001, India",https://www.google.co.kr/maps/place/Lifeline/data=!4m5!3m4!1s0x374d94b639f79d73:0x1048e336a07eb419!8m2!3d23.7313939!4d92.717331?authuser=0&hl=en&rclk=1,23.7313939,92.717331,Mizoram
Bunghmun Primary Health Centre,Hospital,"Lunglei, Mizoram 796710, India",https://www.google.co.kr/maps/place/Bunghmun+Primary+Health+Centre/data=!4m5!3m4!1s0x374d7d24d2900ba9:0xf24037b8e5fc0dfc!8m2!3d23.187789!4d92.4902061?authuser=0&hl=en&rclk=1,23.187789,92.4902061,Mizoram
Sub-Center,Hospital,"5767+4X7, Samthang, Mizoram 796320, India",https://www.google.co.kr/maps/place/Sub-Center/data=!4m5!3m4!1s0x374cf00246110b11:0xaa4a4b5b8114f3a6!8m2!3d23.160297!4d93.2649136?authuser=0&hl=en&rclk=1,23.160297,93.2649136,Mizoram
"Health Sub-Center, New Serchhip",Hospital,"New Serchhip, Serchhip, Mizoram 796181, India","https://www.google.co.kr/maps/place/Health+Sub-Center,+New+Serchhip/data=!4m5!3m4!1s0x374d0a1f86bd4209:0x778a89d2c2e3bbe1!8m2!3d23.3333825!4d92.8555173?authuser=0&hl=en&rclk=1",23.3333825,92.8555173,Mizoram
Rih Station Hospital,Hospital,"အမွတ္(၁)ရပ္ကြက္၊ရိဒ္ေခါဒါျမိဳ႔နယ္ခြဲ၊ဖလမ္းျမိဳ႔၊ခ်င္းျပည္နယ္။, Myanmar (Burma)",https://www.google.co.kr/maps/place/Rih+Station+Hospital/data=!4m5!3m4!1s0x374cf57bf5834c63:0x973c0d062368ce78!8m2!3d23.3514955!4d93.3816755?authuser=0&hl=en&rclk=1,23.3514955,93.3816755,Mizoram
Tikri hospital,Hospital,"Unnamed Road, Myanmar (Burma)",https://www.google.co.kr/maps/place/Tikri+hospital/data=!4m5!3m4!1s0x374cd39bb4a3a233:0xf1cb3931ef2f2497!8m2!3d22.6571129!4d93.1789786?authuser=0&hl=en&rclk=1,22.6571129,93.1789786,Mizoram
Health Sub-Center,Hospital,"Bahzar, Hmuntha, Mizoram 796161, India",https://www.google.co.kr/maps/place/Health+Sub-Center/data=!4m5!3m4!1s0x374daf78e3b72b2f:0xd282d41755ef6a36!8m2!3d23.4947951!4d92.9442286?authuser=0&hl=en&rclk=1,23.4947951,92.9442286,Mizoram
Health Sub-Center,Hospital,"Thiltlang, Mizoram 796571, India",https://www.google.co.kr/maps/place/Health+Sub-Center/data=!4m5!3m4!1s0x374d1775eba55c3b:0x331fe01c1e9ce20!8m2!3d23.0232409!4d92.9214778?authuser=0&hl=en&rclk=1,23.0232409,92.9214778,Mizoram
Hman Em?Hman E. Hq,Medical Center,"Unnamed Road, Khatla, Aizawl, Mizoram 796001, India",https://www.google.co.kr/maps/place/Hman+Em%3FHman+E.+Hq/data=!4m5!3m4!1s0x374d952c88febcbf:0xfd3643dc2c2b011c!8m2!3d23.7254752!4d92.7044098?authuser=0&hl=en&rclk=1,23.7254752,92.7044098,Mizoram
Dr Lal PathLabs Ltd,Diagnostic center,"Dr Lal PathLabs, KT Khuma Building, Hospital Road Dawrpui, Bara Bazar, Near Apex bank Dawrpui, Branch, Aizawl, Mizoram 796001, India",https://www.google.co.kr/maps/place/Dr+Lal+PathLabs+Ltd/data=!4m5!3m4!1s0x374d95302f5f3943:0x79654a0747303587!8m2!3d23.7309305!4d92.7170685?authuser=0&hl=en&rclk=1,23.7309305,92.7170685,Mizoram
"Vanghmun,Tripura",Hospital,"Bethel Veng Zampui tlang, Vanghmun, Tripura 799269, India","https://www.google.co.kr/maps/place/Vanghmun,Tripura/data=!4m5!3m4!1s0x37521b1bb850b439:0x51d925e3d32279a6!8m2!3d23.9902398!4d92.2766942?authuser=0&hl=en&rclk=1",23.9902398,92.2766942,Mizoram
Hill Crest Medical Center,Hospital,"X76G+PWF, Jampui, Tripura 799269, India",https://www.google.co.kr/maps/place/Hill+Crest+Medical+Center/data=!4m5!3m4!1s0x37521aeca3691d59:0x97bcde04efffd5f0!8m2!3d23.9618054!4d92.2772863?authuser=0&hl=en&rclk=1,23.9618054,92.2772863,Mizoram
RHC,Hospital,"Unnamed Road, Tlangkhua, Myanmar (Burma)",https://www.google.co.kr/maps/place/RHC/data=!4m5!3m4!1s0x374cbf90f688b21b:0xe09a880570ee0691!8m2!3d22.9288167!4d93.4404065?authuser=0&hl=en&rclk=1,22.9288167,93.4404065,Mizoram
Burrows Memorial Christian Hospital,Hospital,"RWFX+GHF, Monipur Pt II, Assam 788101, India",https://www.google.co.kr/maps/place/Burrows+Memorial+Christian+Hospital/data=!4m5!3m4!1s0x374e5263166999d7:0xd1a644d5dc448a9c!8m2!3d24.8238108!4d92.9489172?authuser=0&hl=en&rclk=1,24.8238108,92.9489172,Mizoram
"ILS Hospitals, Agartala",General hospital,"Capital Complex Extension P.O - New Secretariat, Agartala, Tripura 799010, India","https://www.google.co.kr/maps/place/ILS+Hospitals,+Agartala/data=!4m5!3m4!1s0x3753f14d1a5ccdad:0x1d6e81bdd9eaa78c!8m2!3d23.867536!4d91.289606?authuser=0&hl=en&rclk=1",23.867536,91.289606,Mizoram
