Company_Name,Category,Address,Url,Latitude,Longitude,Territory
Rajasthan Hospital,General hospital,"Udyog Nagar Rd, Shri Niwas Nagar, Vishwakarma Industrial Area, Murlipura, Jaipur, Rajasthan 302013, India",https://www.google.co.kr/maps/place/Rajasthan+Hospital/data=!4m5!3m4!1s0x396db25d45f9ff89:0x3424c95182206bdf!8m2!3d26.9843422!4d75.7712369?authuser=0&hl=en&rclk=1,26.9843422,75.7712369,Rajasthan
Apex Hospitals,General hospital,"SP-4 & 6, Central Road, Malviya Nagar Industrial Area, Malviya Nagar, Jaipur, Rajasthan 302017, India",https://www.google.co.kr/maps/place/Apex+Hospitals/data=!4m5!3m4!1s0x396db66b6d706811:0xcd772b82cdece6c4!8m2!3d26.8547999!4d75.8250586?authuser=0&hl=en&rclk=1,26.8547999,75.8250586,Rajasthan
Aravali Hospital,General hospital,"332, Ambamata Scheme - A Rd, Ambamata, Udaipur, Rajasthan 313004, India",https://www.google.co.kr/maps/place/Aravali+Hospital/data=!4m5!3m4!1s0x3967e5447320b717:0x69ef793d5cdf7111!8m2!3d24.5848277!4d73.6705646?authuser=0&hl=en&rclk=1,24.5848277,73.6705646,Rajasthan
Marudhar Hospital,General hospital,"A 93-99, Khatipura Rd, Singh Bhoomi, Khatipura, Jaipur, Rajasthan 302012, India",https://www.google.co.kr/maps/place/Marudhar+Hospital/data=!4m5!3m4!1s0x396db36fa38f9461:0x1fb07cc22445da6e!8m2!3d26.9269229!4d75.7463238?authuser=0&hl=en&rclk=1,26.9269229,75.7463238,Rajasthan
"Narayana Multispeciality Hospital, Jaipur",General hospital,"Kumbha Marg, Rana Sanga Marg, Sector 28, Sanganer, Pratap Nagar, Jaipur, Rajasthan 302033, India","https://www.google.co.kr/maps/place/Narayana+Multispeciality+Hospital,+Jaipur/data=!4m5!3m4!1s0x396dc999fe90f309:0x91760491563438ac!8m2!3d26.7949218!4d75.8247122?authuser=0&hl=en&rclk=1",26.7949218,75.8247122,Rajasthan
Medipulse Hospital,General hospital,"E4, MIA , Basni II Phase,Opposite, AIIMS Link Rd, Jodhpur, Rajasthan 342005, India",https://www.google.co.kr/maps/place/Medipulse+Hospital/data=!4m5!3m4!1s0x39418bf12cf13351:0x1e4b12fd63e3bacd!8m2!3d26.233819!4d73.008562?authuser=0&hl=en&rclk=1,26.233819,73.008562,Rajasthan
GBH American Hospital Udaipur,Private hospital,"101, Kothi Bagh Bhatt Ji Ki Bari Meera Girls College Road, Kothi Bagh, Udaipur, Rajasthan 313001, India",https://www.google.co.kr/maps/place/GBH+American+Hospital+Udaipur/data=!4m5!3m4!1s0x3967e574e91f2925:0xab096d9c0153b0cf!8m2!3d24.5935621!4d73.6964309?authuser=0&hl=en&rclk=1,24.5935621,73.6964309,Rajasthan
Global Heart & General Hospital,General hospital,"C1/27-29, Opposite Bharat Apartments, Gandhi Path, Vaishali Nagar, Jaipur, Rajasthan 302021, India",https://www.google.co.kr/maps/place/Global+Heart+%26+General+Hospital/data=!4m5!3m4!1s0x396db4a23c541363:0x231d7092f6f4951b!8m2!3d26.90566!4d75.738694?authuser=0&hl=en&rclk=1,26.90566,75.738694,Rajasthan
Santokba Durlabhji Memorial Hospital (SDMH),Private hospital,"Near, Bhawani Singh Rd, Rambagh, Jaipur, Rajasthan 302015, India",https://www.google.co.kr/maps/place/Santokba+Durlabhji+Memorial+Hospital+(SDMH)/data=!4m5!3m4!1s0x396db69ecfd32ee7:0x3423f6c55d37fd06!8m2!3d26.8942695!4d75.8125914?authuser=0&hl=en&rclk=1,26.8942695,75.8125914,Rajasthan
Shubh Hospital,General hospital,"A-35, Ajmer Rd, Purani Chungi, Vidhyut Nagar, Jaipur, Rajasthan 302021, India",https://www.google.co.kr/maps/place/Shubh+Hospital/data=!4m5!3m4!1s0x396db48e83a8a4f9:0x6c4d0114ff4773f1!8m2!3d26.8971385!4d75.7523495?authuser=0&hl=en&rclk=1,26.8971385,75.7523495,Rajasthan
Surendera general hospital,General hospital,"H H Gardens, Power House Road, , Rajasthan, India,, Sri Ganganagar, Rajasthan 335001, India",https://www.google.co.kr/maps/place/Surendera+general+hospital/data=!4m5!3m4!1s0x39418c17a48a083d:0x50ecbf8de4bdf093!8m2!3d26.260163!4d73.0070178?authuser=0&hl=en&rclk=1,26.260163,73.0070178,Rajasthan
Apex Hospitals Mansarovar,General hospital,"Ward 27, 55, Rajat Path, Ward 27, Mansarovar Sector 5, Mansarovar, Jaipur, Rajasthan 302020, India",https://www.google.co.kr/maps/place/Apex+Hospitals+Mansarovar/data=!4m5!3m4!1s0x396db5a253fd9edb:0x76da252ec3e87e10!8m2!3d26.8657969!4d75.7627418?authuser=0&hl=en&rclk=1,26.8657969,75.7627418,Rajasthan
Jaipur Hospital,General hospital,"Tonk Rd, Near SMS Stadium, Jaipur Nagar Nigam, Lalkothi, Jaipur, Rajasthan 302015, India",https://www.google.co.kr/maps/place/Jaipur+Hospital/data=!4m5!3m4!1s0x396db420e65e5acb:0x2b5b8e5dec74b037!8m2!3d26.8923934!4d75.8046456?authuser=0&hl=en&rclk=1,26.8923934,75.8046456,Rajasthan
Geetanjali Hospital Udaipur,General hospital,"Hiranmagri Extension, Manwakhera NH-8 Bypass, Near Eklingpura Chouraha, Rajasthan 313001, India",https://www.google.co.kr/maps/place/Geetanjali+Hospital+Udaipur/data=!4m5!3m4!1s0x3967e57ee3ca168f:0xa8434ae1ded1926b!8m2!3d24.5533678!4d73.7319123?authuser=0&hl=en&rclk=1,24.5533678,73.7319123,Rajasthan
"Fortis Escorts Hospital, Jaipur",Hospital,"Jawahar Lal Nehru Marg, Sector 5, Malviya Nagar, Jaipur, Rajasthan 302017, India","https://www.google.co.kr/maps/place/Fortis+Escorts+Hospital,+Jaipur/data=!4m5!3m4!1s0x396db5e10592b4d5:0xa3d690090ae7b75d!8m2!3d26.8462877!4d75.8033762?authuser=0&hl=en&rclk=1",26.8462877,75.8033762,Rajasthan
Health Hospital,Private hospital,"60 Feet Rd, C-Block, Mahesh Nagar, Gopal Pura Mode, Jaipur, Rajasthan 302015, India",https://www.google.co.kr/maps/place/Health+Hospital/data=!4m5!3m4!1s0x396db44915a98325:0x72bc5bc61a77ecb5!8m2!3d26.8784174!4d75.7793693?authuser=0&hl=en&rclk=1,26.8784174,75.7793693,Rajasthan
Soni Hospital,Hospital,"Kanota Bagh, 38, Jawahar Lal Nehru Marg, Rambagh, Jaipur, Rajasthan 302004, India",https://www.google.co.kr/maps/place/Soni+Hospital/data=!4m5!3m4!1s0x396db6988073f6b5:0xbbff153c76dd72a6!8m2!3d26.8956711!4d75.8148576?authuser=0&hl=en&rclk=1,26.8956711,75.8148576,Rajasthan
S M S Hospital Jaipur,Hospital,"XQMF+XGJ, Vishwakarma Industrial Area, Jaipur, Rajasthan 302032, India",https://www.google.co.kr/maps/place/S+M+S+Hospital+Jaipur/data=!4m5!3m4!1s0x396db36a7ba6d849:0xbfa9f1637abdd3ee!8m2!3d26.9849661!4d75.773777?authuser=0&hl=en&rclk=1,26.9849661,75.773777,Rajasthan
RAMAKRISHNA Multispeciality Hospital,Hospital,"257-A, Sheela Choudhary Rd, New Rajeev Gandhi Nagar, VIP Colony, Talwandi, Kota, Rajasthan 324005, India",https://www.google.co.kr/maps/place/RAMAKRISHNA+Multispeciality+Hospital/data=!4m5!3m4!1s0x396f84d84ed882af:0x83824da421fa31b5!8m2!3d25.1529078!4d75.8518964?authuser=0&hl=en&rclk=1,25.1529078,75.8518964,Rajasthan
SG Hospital Jaipur,Hospital,"K8, Tonk Rd, Income Tax Colony, Durgapura, Jaipur, Rajasthan 302018, India",https://www.google.co.kr/maps/place/SG+Hospital+Jaipur/data=!4m5!3m4!1s0x396dc845915bd3d9:0xbcc13628ceb5dec7!8m2!3d26.8519358!4d75.7948031?authuser=0&hl=en&rclk=1,26.8519358,75.7948031,Rajasthan
sdmh,Hospital,"Bhawani Singh, Circle, Marg, Rambagh, Jaipur, Rajasthan 302005, India",https://www.google.co.kr/maps/place/sdmh/data=!4m5!3m4!1s0x396db419a387c0a3:0x344aa586914aca7a!8m2!3d26.9003777!4d75.7976155?authuser=0&hl=en&rclk=1,26.9003777,75.7976155,Rajasthan
Saket Hospital,General hospital,"Sector 10, Meera Marg, Ward Number 43, Agarwal Farm, Mansarovar, Jaipur, Rajasthan 302020, India",https://www.google.co.kr/maps/place/Saket+Hospital/data=!4m5!3m4!1s0x396db5a19b43fe4b:0x65132521df20778c!8m2!3d26.8490822!4d75.765205?authuser=0&hl=en&rclk=1,26.8490822,75.765205,Rajasthan
SDMH Hospital,Hospital,"Bhawani Singh Rd, Rambagh, Jaipur, Rajasthan 302007, India",https://www.google.co.kr/maps/place/SDMH+Hospital/data=!4m5!3m4!1s0x396db698d1075fa5:0xe2debe00666af291!8m2!3d26.8935728!4d75.8122663?authuser=0&hl=en&rclk=1,26.8935728,75.8122663,Rajasthan
SR Kalla Memorial,Private hospital,"78-79, Dhuleshwar Garden, Behind HSBC Bank, Panch Batti, C Scheme, Jaipur, Rajasthan 302001, India",https://www.google.co.kr/maps/place/SR+Kalla+Memorial/data=!4m5!3m4!1s0x396db6adbe0a7c29:0xda7b9963af490350!8m2!3d26.9130368!4d75.797124?authuser=0&hl=en&rclk=1,26.9130368,75.797124,Rajasthan
Station Dispensary Ajmer,Hospital,"Station Road, near Bank Of India, Ajmer, Rajasthan 305001, India",https://www.google.co.kr/maps/place/Station+Dispensary+Ajmer/data=!4m5!3m4!1s0x396be71e61076395:0xeeab8bc04429e916!8m2!3d26.4551781!4d74.6372995?authuser=0&hl=en&rclk=1,26.4551781,74.6372995,Rajasthan
Rukmani Birla Hospital CK Birla,General hospital,"Gopalpura Bypass Rd, Near Triveni Flyover, Shanthi Nagar, Gopal Pura Mode, Jaipur, Rajasthan 302018, India",https://www.google.co.kr/maps/place/Rukmani+Birla+Hospital+CK+Birla/data=!4m5!3m4!1s0x396db5c832f28ec5:0x37e25df9b2082f6d!8m2!3d26.8627282!4d75.7847499?authuser=0&hl=en&rclk=1,26.8627282,75.7847499,Rajasthan
Star Hospital,General hospital,"NH52, Sanganer, Sector 5, Pratap Nagar, Jaipur, Rajasthan 302033, India",https://www.google.co.kr/maps/place/Star+Hospital/data=!4m5!3m4!1s0x396dc98af215edff:0x94eb5a649cf0dd8d!8m2!3d26.8025329!4d75.8087103?authuser=0&hl=en&rclk=1,26.8025329,75.8087103,Rajasthan
Eternal Multispeciality Hospital,Heart hospital,"3A, Jagatpura Rd, near Jawahar Circle, Chainpura, Malviya Nagar, Jaipur, Rajasthan 302017, India",https://www.google.co.kr/maps/place/Eternal+Multispeciality+Hospital/data=!4m5!3m4!1s0x396db5e2958ac373:0x20db688f984cae39!8m2!3d26.8405587!4d75.8057697?authuser=0&hl=en&rclk=1,26.8405587,75.8057697,Rajasthan
Gopinath Hospital,Private hospital,"Gopinath Hospital sector 8, Chetak Marg, Pratap Nagar, Sanganer, Pratap Nagar, Jaipur, Rajasthan 302033, India",https://www.google.co.kr/maps/place/Gopinath+Hospital/data=!4m5!3m4!1s0x396dc98c7b072d45:0x5afdc334827670ba!8m2!3d26.8019302!4d75.8132349?authuser=0&hl=en&rclk=1,26.8019302,75.8132349,Rajasthan
Apollo Hospital Delhi,Hospital,"Delhi - Jaipur Expy, Mordha, Rajasthan 303108, India",https://www.google.co.kr/maps/place/Apollo+Hospital+Delhi/data=!4m5!3m4!1s0x396d4f935b4b23cb:0xbefa523e9d3a38de!8m2!3d27.8097967!4d76.2469032?authuser=0&hl=en&rclk=1,27.8097967,76.2469032,Rajasthan
Lucky Hospital Muhana Sanganer Jaipur Rajasthan,Hospital,"Muhana, Rajasthan 302029, India",https://www.google.co.kr/maps/place/Lucky+Hospital+Muhana+Sanganer+Jaipur+Rajasthan/data=!4m5!3m4!1s0x396dcab815e8573d:0x5d375cdd8f02321f!8m2!3d26.7981844!4d75.7263884?authuser=0&hl=en&rclk=1,26.7981844,75.7263884,Rajasthan
Asopa Hospital,General hospital,"93 B, Ajmer Rd, near DCM, Heera Nagar, Tagore Nagar, Jaipur, Rajasthan 302024, India",https://www.google.co.kr/maps/place/Asopa+Hospital/data=!4m5!3m4!1s0x396db494c08ae05d:0xc286b96c1d3f5efe!8m2!3d26.8914658!4d75.741445?authuser=0&hl=en&rclk=1,26.8914658,75.741445,Rajasthan
Ag Hospital Jodhpur,Government hospital,"72M9+2MQ, Jaswant Sarai, Ratanada, Jodhpur, Rajasthan 342001, India",https://www.google.co.kr/maps/place/Ag+Hospital+Jodhpur/data=!4m5!3m4!1s0x39418dcec4a31215:0x2f98c0fb21837ab3!8m2!3d26.2825973!4d73.0192298?authuser=0&hl=en&rclk=1,26.2825973,73.0192298,Rajasthan
Rajdhani Hospital,General hospital,"C-30, Bhagwan Das Road, C Scheme, Panch Batti, C Scheme, Ashok Nagar, Jaipur, Rajasthan 302001, India",https://www.google.co.kr/maps/place/Rajdhani+Hospital/data=!4m5!3m4!1s0x396db6adbe0a7c29:0x33cd477dba9782ec!8m2!3d26.9117351!4d75.807102?authuser=0&hl=en&rclk=1,26.9117351,75.807102,Rajasthan
Metro Mas Hospital,Hospital,"Shipra Path, Near इंडस जयपुर हॉस्पिटल, Shanthi Nagar, Mansarovar, Jaipur, Rajasthan 302020, India",https://www.google.co.kr/maps/place/Metro+Mas+Hospital/data=!4m5!3m4!1s0x396db5acf0f25487:0xe0f830ecc595e65e!8m2!3d26.8681622!4d75.7683366?authuser=0&hl=en&rclk=1,26.8681622,75.7683366,Rajasthan
Maharana Bhupal Govt Hospital,Government hospital,"Chohtta Chetak Rd, City's Prime Health Care Area, Udaipur, Rajasthan 313001, India",https://www.google.co.kr/maps/place/Maharana+Bhupal+Govt+Hospital/data=!4m5!3m4!1s0x3967e573d642772d:0xb045c6915069788e!8m2!3d24.5884717!4d73.6926228?authuser=0&hl=en&rclk=1,24.5884717,73.6926228,Rajasthan
Shri Ram Hospital,General hospital,"8, Pal Rd, Opposite Hanwant School, Shastri Nagar, Jodhpur, Rajasthan 342001, India",https://www.google.co.kr/maps/place/Shri+Ram+Hospital/data=!4m5!3m4!1s0x39418c2744ce585f:0xf991d6207490619e!8m2!3d26.2677205!4d72.9939125?authuser=0&hl=en&rclk=1,26.2677205,72.9939125,Rajasthan
Sevayatan Maternity & General Hospital,General hospital,"3, Ajmer Rd, Siddharth Colony, Mittal Colony, Sodala, Jaipur, Rajasthan 302006, India",https://www.google.co.kr/maps/place/Sevayatan+Maternity+%26+General+Hospital/data=!4m5!3m4!1s0x396db46fa3d9b975:0xfb47787d3f67e079!8m2!3d26.901223!4d75.7703278?authuser=0&hl=en&rclk=1,26.901223,75.7703278,Rajasthan
R K Government Hospital,General hospital,"Housing Board Road, RIICO Area, Kankroli, Rajasthan 313324, India",https://www.google.co.kr/maps/place/R+K+Government+Hospital/data=!4m5!3m4!1s0x39686cf6b7ae1c4d:0x14898447ab490b49!8m2!3d25.02416!4d73.883653?authuser=0&hl=en&rclk=1,25.02416,73.883653,Rajasthan
"Shalby Multi-Specialty Hospital, Jaipur",Hospital,"Under Pass, Delhi - Ajmer Expressway, 200 Feet Bypass Rd, near Gandhi Path, Chitrakoot Sector 3, Vaishali Nagar, Jaipur, Rajasthan 302021, India","https://www.google.co.kr/maps/place/Shalby+Multi-Specialty+Hospital,+Jaipur/data=!4m5!3m4!1s0x396db4a4585f1267:0x1a772cfdc188beb8!8m2!3d26.9034506!4d75.729337?authuser=0&hl=en&rclk=1",26.9034506,75.729337,Rajasthan
Hospital,Hospital,"Behind Maru Mandir, Hada Chowk State Bank Of India Street, Station Rd, Sikar, Rajasthan 332001, India",https://www.google.co.kr/maps/place/Hospital/data=!4m5!3m4!1s0x396ca596d74795a7:0x7bc22bfd6a9a3985!8m2!3d27.6116739!4d75.1469248?authuser=0&hl=en&rclk=1,27.6116739,75.1469248,Rajasthan
Arora Hospital,General hospital,"42, Krishna Nagar, Bharatpur, Rajasthan 321001, India",https://www.google.co.kr/maps/place/Arora+Hospital/data=!4m5!3m4!1s0x3973a3063e370077:0x4bcb38a9cd7e6f5f!8m2!3d27.217524!4d77.505824?authuser=0&hl=en&rclk=1,27.217524,77.505824,Rajasthan
Krishna Hospital,Hospital,"Love Garden Road, Devriya Balaji, Near private bus stand, Bhilwara, Rajasthan 311001, India",https://www.google.co.kr/maps/place/Krishna+Hospital/data=!4m5!3m4!1s0x3968c24a4e001d3f:0xc12acda572360a57!8m2!3d25.3562829!4d74.6453749?authuser=0&hl=en&rclk=1,25.3562829,74.6453749,Rajasthan
Rajiv Gandhi Government General Hospital,Government hospital,"Lalitpur Bijli Ghar Ka choraha, Mangal Marg, Indra Colony, Alwar, Rajasthan 301001, India",https://www.google.co.kr/maps/place/Rajiv+Gandhi+Government+General+Hospital/data=!4m5!3m4!1s0x3972998dfcdc74cb:0x395710471f80c3cb!8m2!3d27.5634458!4d76.6124927?authuser=0&hl=en&rclk=1,27.5634458,76.6124927,Rajasthan
Hospital,Hospital,"8H94+PGH, Rarah, Rajasthan 321025, India",https://www.google.co.kr/maps/place/Hospital/data=!4m5!3m4!1s0x3973a02b1e356ea9:0xe3ed1ce4fd9c0395!8m2!3d27.3193176!4d77.5563741?authuser=0&hl=en&rclk=1,27.3193176,77.5563741,Rajasthan
Govt. Hospital,Hospital,"98RC+7FF, Alwar, Rajasthan 301022, India",https://www.google.co.kr/maps/place/Govt.+Hospital/data=!4m5!3m4!1s0x396d7b0112563421:0x958f27ec8956b236!8m2!3d27.3906766!4d76.3211813?authuser=0&hl=en&rclk=1,27.3906766,76.3211813,Rajasthan
Vasundhara Hospital,General hospital,"Nandanvan, Sector 11, Near Central Academy School, Chopasni Housing Board, Jodhpur, Rajasthan 342008, India",https://www.google.co.kr/maps/place/Vasundhara+Hospital/data=!4m5!3m4!1s0x39418c3779f664b7:0x1df83c61fe59a5c8!8m2!3d26.2661049!4d72.9786416?authuser=0&hl=en&rclk=1,26.2661049,72.9786416,Rajasthan
Hospital,Hospital,"627W+6QH, Borada, Rajasthan 305412, India",https://www.google.co.kr/maps/place/Hospital/data=!4m5!3m4!1s0x396eade8d1182a81:0xcf5e5a78e1964623!8m2!3d26.2130585!4d75.0469794?authuser=0&hl=en&rclk=1,26.2130585,75.0469794,Rajasthan
Govt.hospital,Hospital,"2HVM+C9R, Bhakrod, Rajasthan 341028, India",https://www.google.co.kr/maps/place/Govt.hospital/data=!4m5!3m4!1s0x396a84202ec44f67:0x9d2f2365285b7b52!8m2!3d27.0436238!4d73.5833972?authuser=0&hl=en&rclk=1,27.0436238,73.5833972,Rajasthan
City Hospital,Hospital,"9-A-40, opp. Rajiv Gandhi Auditorium, R C Vyas Colony, Bhilwara, Rajasthan 311001, India",https://www.google.co.kr/maps/place/City+Hospital/data=!4m5!3m4!1s0x3968c3ae6ee16fe1:0x65689ab10bd27c73!8m2!3d25.3582553!4d74.6467968?authuser=0&hl=en&rclk=1,25.3582553,74.6467968,Rajasthan
Mathuradas Mathur Hospital,Government hospital,"Main Road, Sector-C, Shastri Nagar, Jodhpur, Rajasthan 342003, India",https://www.google.co.kr/maps/place/Mathuradas+Mathur+Hospital/data=!4m5!3m4!1s0x39418c3c4613b30b:0x4679016e36279c48!8m2!3d26.2659383!4d73.0091252?authuser=0&hl=en&rclk=1,26.2659383,73.0091252,Rajasthan
Paras JK Hospital,Hospital,"Plot No.1, JK Lane, Shobhagpura, Udaipur, Rajasthan 313001, India",https://www.google.co.kr/maps/place/Paras+JK+Hospital/data=!4m5!3m4!1s0x3967e5a515d01af3:0x86ec6584a797caf5!8m2!3d24.6065822!4d73.7108664?authuser=0&hl=en&rclk=1,24.6065822,73.7108664,Rajasthan
Jain Hospital,Hospital,"605/606, Shanti Path Raja Park, Sindhi Colony, Jaipur, Rajasthan 302004, India",https://www.google.co.kr/maps/place/Jain+Hospital/data=!4m5!3m4!1s0x396db695aab5a725:0xfa494e978ee9f71a!8m2!3d26.8967481!4d75.8373554?authuser=0&hl=en&rclk=1,26.8967481,75.8373554,Rajasthan
"Narayana Multispeciality Hospital, Jaipur",Hospital,"28, Kumbha Marg, Pratap Nagar, Sanganer, Sector 6, Pratap Nagar, Jaipur, Rajasthan 302033, India","https://www.google.co.kr/maps/place/Narayana+Multispeciality+Hospital,+Jaipur/data=!4m5!3m4!1s0x396dc993a350b54b:0x5fab79ac66801f3b!8m2!3d26.7949768!4d75.8246893?authuser=0&hl=en&rclk=1",26.7949768,75.8246893,Rajasthan
Tantia General Hospital,Private hospital,"2-A-6, Sukhadia Nagar, Indira Colony, Sri Ganganagar, Rajasthan 335001, India",https://www.google.co.kr/maps/place/Tantia+General+Hospital/data=!4m5!3m4!1s0x3917b5191b8d3c91:0x4cceee54d6805059!8m2!3d29.918857!4d73.8811187?authuser=0&hl=en&rclk=1,29.918857,73.8811187,Rajasthan
Fortis Hospital,Hospital,"HPV8+27J, Mount Abu, Rajasthan 307501, India",https://www.google.co.kr/maps/place/Fortis+Hospital/data=!4m5!3m4!1s0x395d2a7c00000001:0x3f30f231c6eebae5!8m2!3d24.5925909!4d72.7156274?authuser=0&hl=en&rclk=1,24.5925909,72.7156274,Rajasthan
Hospital,Hospital,"872M+QP4, Alsisar, Rajasthan 331025, India",https://www.google.co.kr/maps/place/Hospital/data=!4m5!3m4!1s0x39136ba52031887d:0xacb4cb8dc53fbf52!8m2!3d28.3018815!4d75.2843158?authuser=0&hl=en&rclk=1,28.3018815,75.2843158,Rajasthan
"Gynaecologist in Jaipur Dr. Supriya Ghiya, Top #Gynaecologist ,Obstetricians In Jaipur, Maternity Hospital in jaipur",Hospital,"E-68, Malviya Nagar Rd, Sector 13, Siddharth Nagar, Sector 12, Malviya Nagar, Jaipur, Rajasthan 302017, India","https://www.google.co.kr/maps/place/Gynaecologist+in+Jaipur+Dr.+Supriya+Ghiya,+Top+%23Gynaecologist+,Obstetricians+In+Jaipur,+Maternity+Hospital+in+jaipur/data=!4m5!3m4!1s0x396c1c5f95555555:0x5a0e1f0761768de2!8m2!3d26.8464254!4d75.8123852?authuser=0&hl=en&rclk=1",26.8464254,75.8123852,Rajasthan
Hospital,Hospital,"5P9C+99W, Naya BaJar, Chomu, Rajasthan 303702, India",https://www.google.co.kr/maps/place/Hospital/data=!4m5!3m4!1s0x396daab694779b33:0x93e030f3e12b5c4!8m2!3d27.1684774!4d75.720942?authuser=0&hl=en&rclk=1,27.1684774,75.720942,Rajasthan
Hospital,Hospital,"Karera - Bhim Rd, Chitamba, Rajasthan 311804, India",https://www.google.co.kr/maps/place/Hospital/data=!4m5!3m4!1s0x3969ab39a5e8796f:0x8009e5641a3260a3!8m2!3d25.5876337!4d74.1496203?authuser=0&hl=en&rclk=1,25.5876337,74.1496203,Rajasthan
Rajnish Hospital,General hospital,"National Highway 8, Jaipur – Delhi Highway, Shahpura Bus Stand, Shahpura, Jaipur, Rajasthan 303103, India",https://www.google.co.kr/maps/place/Rajnish+Hospital/data=!4m5!3m4!1s0x396d0e38292ce847:0x56bcfcf7fc994d3a!8m2!3d27.3753836!4d75.9583451?authuser=0&hl=en&rclk=1,27.3753836,75.9583451,Rajasthan
hospital,Hospital,"Unnamed Road, Bedawari, Rajasthan 341511, India",https://www.google.co.kr/maps/place/hospital/data=!4m5!3m4!1s0x396a45dde3ed0fbf:0x4f7c27b259312048!8m2!3d26.730316!4d74.0054901?authuser=0&hl=en&rclk=1,26.730316,74.0054901,Rajasthan
Hospital,Hospital,"Jawal, Rajasthan 307801, India",https://www.google.co.kr/maps/place/Hospital/data=!4m5!3m4!1s0x3942dfb6ba653d23:0xd4addad5b39df00b!8m2!3d24.9881166!4d72.7501308?authuser=0&hl=en&rclk=1,24.9881166,72.7501308,Rajasthan
Government Hospital,Hospital,"XVQ4+X79, Amer, Jaipur, Rajasthan 302028, India",https://www.google.co.kr/maps/place/Government+Hospital/data=!4m5!3m4!1s0x396db04b0d07ab07:0x777caef62c36efc4!8m2!3d26.9899077!4d75.8557208?authuser=0&hl=en&rclk=1,26.9899077,75.8557208,Rajasthan
Jeevan Rekha Superspeciality Hospital,General hospital,"S24, Jeevan Rekha Marg, Mahal Yojana, सेंट्रल स्पाइन, Jagatpura, Jaipur, Rajasthan 302025, India",https://www.google.co.kr/maps/place/Jeevan+Rekha+Superspeciality+Hospital/data=!4m5!3m4!1s0x396dc84e4b60c5ed:0xbe4b7b9fc3ed7d85!8m2!3d26.8007993!4d75.8620587?authuser=0&hl=en&rclk=1,26.8007993,75.8620587,Rajasthan
Vishwas Hospital(Gynae Specialist),Hospital,"#45, Ranthambhore Circle, Sawai Madhopur, Rajasthan 322021, India",https://www.google.co.kr/maps/place/Vishwas+Hospital(Gynae+Specialist)/data=!4m5!3m4!1s0x396e242efe4ab485:0xad7517e47b746f25!8m2!3d26.011928!4d76.355226?authuser=0&hl=en&rclk=1,26.011928,76.355226,Rajasthan
HOSPITAL,Hospital,"3Q2C+WP7, Bhinai, Rajasthan 305622, India",https://www.google.co.kr/maps/place/HOSPITAL/data=!4m5!3m4!1s0x39694618f59abf37:0x8eecf8239ee30bfa!8m2!3d26.0522835!4d74.771793?authuser=0&hl=en&rclk=1,26.0522835,74.771793,Rajasthan
Apollo Hospital,Hospital,"Rawatbhada, Kota, SH-33, Kota Road, Kota, Kota, Rajasthan 324005, India",https://www.google.co.kr/maps/place/Apollo+Hospital/data=!4m5!3m4!1s0x396f837c743c555d:0xa3610ead42c5b967!8m2!3d25.1225!4d75.801357?authuser=0&hl=en&rclk=1,25.1225,75.801357,Rajasthan
Bharat Vikas Parishad Hospital,Private hospital,"Pratap Nagar, Dadabari, Kota, Rajasthan 324009, India",https://www.google.co.kr/maps/place/Bharat+Vikas+Parishad+Hospital/data=!4m5!3m4!1s0x396f84ca938058c1:0x916fea37eef65dff!8m2!3d25.1624838!4d75.8314471?authuser=0&hl=en&rclk=1,25.1624838,75.8314471,Rajasthan
Nahar Hospital And Reserch Center,General hospital,"X7W7+QCJ, Bhinmal, Rajasthan 343029, India",https://www.google.co.kr/maps/place/Nahar+Hospital+And+Reserch+Center/data=!4m5!3m4!1s0x39436a497bb110f3:0xa79fb4ba78e6e85!8m2!3d24.9969587!4d72.2635197?authuser=0&hl=en&rclk=1,24.9969587,72.2635197,Rajasthan
Ghar Par Hospital,Hospital,"Arya Nagar, Murlipura, Jaipur, Rajasthan 302039, India",https://www.google.co.kr/maps/place/Ghar+Par+Hospital/data=!4m5!3m4!1s0x396db3a86631704b:0xf7274f8ff9b508bb!8m2!3d26.9678872!4d75.7599633?authuser=0&hl=en&rclk=1,26.9678872,75.7599633,Rajasthan
E.S.I HOSPITAL,Hospital,"76/B Ram Bhawan, Lohagal Road, Ganpati Vihar Colony, Civil Lines, Ajmer, Rajasthan 305001, India",https://www.google.co.kr/maps/place/E.S.I+HOSPITAL/data=!4m5!3m4!1s0x396be74ca855d67b:0xc4efa4d06a4b60d2!8m2!3d26.4773152!4d74.6401438?authuser=0&hl=en&rclk=1,26.4773152,74.6401438,Rajasthan
Goyal Hospital,Hospital,"961/3, Residency Road, Opp. Rotary Hall, Jodhpur, Nasirabad, Rajasthan 342003, India",https://www.google.co.kr/maps/place/Goyal+Hospital/data=!4m5!3m4!1s0x396958554d4cb48b:0xa86a27d6ebb507ce!8m2!3d26.3000903!4d74.7345027?authuser=0&hl=en&rclk=1,26.3000903,74.7345027,Rajasthan
ESI Hospital,General hospital,"3-H-3, Jhalawar Road, Chhatrapura, Dhanmandi, Kota, Rajasthan 324005, India",https://www.google.co.kr/maps/place/ESI+Hospital/data=!4m5!3m4!1s0x396f84d7d46bc745:0x49423d51e0902246!8m2!3d25.1573083!4d75.8530323?authuser=0&hl=en&rclk=1,25.1573083,75.8530323,Rajasthan
Govt Hospital,Hospital,"2MGC+RGV, Borawar, Makrana, Rajasthan 341542, India",https://www.google.co.kr/maps/place/Govt+Hospital/data=!4m5!3m4!1s0x396b9e89bbb9d1cd:0xcd4576e2b5158e3f!8m2!3d27.0271115!4d74.6712828?authuser=0&hl=en&rclk=1,27.0271115,74.6712828,Rajasthan
Hospital,Hospital,"Karlu - Thirod Rd, Karlu, Rajasthan 341026, India",https://www.google.co.kr/maps/place/Hospital/data=!4m5!3m4!1s0x396a88542dd1dee7:0xf8f0595c05e6df12!8m2!3d27.0056261!4d73.6954049?authuser=0&hl=en&rclk=1,27.0056261,73.6954049,Rajasthan
GOVT HOSPITAL,Hospital,"M26P+GX9, Nagaur, Rajasthan 341510, India",https://www.google.co.kr/maps/place/GOVT+HOSPITAL/data=!4m5!3m4!1s0x396a4873120bf437:0xc18499da10b5856!8m2!3d26.6612763!4d74.0374865?authuser=0&hl=en&rclk=1,26.6612763,74.0374865,Rajasthan
Govt. Hospital,Government hospital,"WHG2+9HM, Parihara, Rajasthan 331505, India",https://www.google.co.kr/maps/place/Govt.+Hospital/data=!4m5!3m4!1s0x3914c9abe2c6202b:0x7d02444d200f29ab!8m2!3d27.9259565!4d74.5514081?authuser=0&hl=en&rclk=1,27.9259565,74.5514081,Rajasthan
उप स्वास्थय केन्दृ,Hospital,"3H44+HQG, Huriya, Rajasthan 341504, India",https://www.google.co.kr/maps/place/%E0%A4%89%E0%A4%AA+%E0%A4%B8%E0%A5%8D%E0%A4%B5%E0%A4%BE%E0%A4%B8%E0%A5%8D%E0%A4%A5%E0%A4%AF+%E0%A4%95%E0%A5%87%E0%A4%A8%E0%A5%8D%E0%A4%A6%E0%A5%83/data=!4m5!3m4!1s0x396ba079f6008f3b:0xed7257caffcb2fc7!8m2!3d27.0564436!4d74.5569503?authuser=0&hl=en&rclk=1,27.0564436,74.5569503,Rajasthan
Shrawan hospital,Hospital,"5R93+MPM, Housing Board, Kha Ngar, Tonk, Rajasthan 304001, India",https://www.google.co.kr/maps/place/Shrawan+hospital/data=!4m5!3m4!1s0x396e61e8a4a3ecbf:0x396f36801c9fb6b8!8m2!3d26.1692151!4d75.8042982?authuser=0&hl=en&rclk=1,26.1692151,75.8042982,Rajasthan
Nahar Hospital,Hospital,"Near Nagar Palika, Khari Road, Bhinmal, Rajasthan 343029, India",https://www.google.co.kr/maps/place/Nahar+Hospital/data=!4m5!3m4!1s0x39436bb35d96dabd:0x2e98208b3c6b0f4a!8m2!3d24.9969347!4d72.2636458?authuser=0&hl=en&rclk=1,24.9969347,72.2636458,Rajasthan
"OPD Building AIIMS, Jodhpur",Hospital,"Basni Phase 2, M.I.A. 1st Phase, Basni, Basni, Jodhpur, Rajasthan 342005, India","https://www.google.co.kr/maps/place/OPD+Building+AIIMS,+Jodhpur/data=!4m5!3m4!1s0x39418c0820c4e257:0x1e55441209360a25!8m2!3d26.2397095!4d73.0068923?authuser=0&hl=en&rclk=1",26.2397095,73.0068923,Rajasthan
Manipal Hospital Jaipur,Private hospital,"Sikar Rd, Sector 2, Sector 5, Vidyadhar Nagar, Jaipur, Rajasthan 302039, India",https://www.google.co.kr/maps/place/Manipal+Hospital+Jaipur/data=!4m5!3m4!1s0x396db24e7525bee7:0xe317cb2b004c9f43!8m2!3d26.9687055!4d75.7734221?authuser=0&hl=en&rclk=1,26.9687055,75.7734221,Rajasthan
Arogya Hospital,General hospital,"Gandhi Path, Guru Jhambeshwar Nagar A, Vaishali Nagar, Jaipur, Rajasthan 302021, India",https://www.google.co.kr/maps/place/Arogya+Hospital/data=!4m5!3m4!1s0x396db49916976c4b:0x93ac88ccb8e1fcd0!8m2!3d26.9056414!4d75.7493893?authuser=0&hl=en&rclk=1,26.9056414,75.7493893,Rajasthan
SMS HOSPITAL VATIKA,Hospital,"PQ7W+F7V, Jaipur, Rajasthan 303905, India",https://www.google.co.kr/maps/place/SMS+HOSPITAL+VATIKA/data=!4m5!3m4!1s0x396dcc184135c9d7:0xf18a6dbc02667816!8m2!3d26.7137362!4d75.7956812?authuser=0&hl=en&rclk=1,26.7137362,75.7956812,Rajasthan
Govt. Hospital,Hospital,"near old police station, Bagor, Rajasthan, India",https://www.google.co.kr/maps/place/Govt.+Hospital/data=!4m5!3m4!1s0x3968f1ee2eac289f:0x231262a8384fb02a!8m2!3d25.3564626!4d74.3823321?authuser=0&hl=en&rclk=1,25.3564626,74.3823321,Rajasthan
City Hospital,Hospital,"FPVW+C8W, Lunkaransar, Rajasthan 334603, India",https://www.google.co.kr/maps/place/City+Hospital/data=!4m5!3m4!1s0x39159c20f1330ae3:0xb1a943c8c8ede9a0!8m2!3d28.4936037!4d73.7458258?authuser=0&hl=en&rclk=1,28.4936037,73.7458258,Rajasthan
Fortis Hospital,Hospital,"Fortis Hospital J.L.N Marg, Jawahar Lal Nehru Marg, Mata colony, Jaipur, Rajasthan 302018, India",https://www.google.co.kr/maps/place/Fortis+Hospital/data=!4m5!3m4!1s0x396db5362083d167:0x67d67f484e2e3ac!8m2!3d26.8462294!4d75.8034731?authuser=0&hl=en&rclk=1,26.8462294,75.8034731,Rajasthan
Government Hospital,Hospital,"F93J+J2G, Govindgarh, Rajasthan 305201, India",https://www.google.co.kr/maps/place/Government+Hospital/data=!4m5!3m4!1s0x396bd1e53acbc343:0xd1202e2c306be266!8m2!3d26.4540703!4d74.3800737?authuser=0&hl=en&rclk=1,26.4540703,74.3800737,Rajasthan
Surajpole Govt. Dispensary,Hospital,"Amal Ka Kanta Rd, Old City, Surajpole, Brahmpuri, Udaipur, Rajasthan 313001, India",https://www.google.co.kr/maps/place/Surajpole+Govt.+Dispensary/data=!4m5!3m4!1s0x3967e57ba75ba995:0xeb037e468d8c804d!8m2!3d24.5792624!4d73.6919147?authuser=0&hl=en&rclk=1,24.5792624,73.6919147,Rajasthan
T B Hospital,Hospital,"Akh Campus, Champa Nagar, Champa Nagar, Beawar, Rajasthan 305901, India",https://www.google.co.kr/maps/place/T+B+Hospital/data=!4m5!3m4!1s0x396970b1256936fd:0xd03fbc19628f04ee!8m2!3d26.1!4d74.32?authuser=0&hl=en&rclk=1,26.1,74.32,Rajasthan
Jain MM Emitra,Hospital,"Shop.44 Jain M M Emitra, near Sawai Mansing Hospital ke Bhar, Jaipur, Rajasthan 302004, India",https://www.google.co.kr/maps/place/Jain+MM+Emitra/data=!4m5!3m4!1s0x396db6a458921159:0x8b4d8236456e6f3a!8m2!3d26.9060665!4d75.8151019?authuser=0&hl=en&rclk=1,26.9060665,75.8151019,Rajasthan
RHL - Rajasthan Hospital,Hospital,"Hospital Rd, opp. Jaipuria Hospital, Kailash Puri Colony, Milap Nagar, Jaipur, Rajasthan 302018, India",https://www.google.co.kr/maps/place/RHL+-+Rajasthan+Hospital/data=!4m5!3m4!1s0x396db5d959acfaab:0xc1f9740077a2f97f!8m2!3d26.8555227!4d75.8019039?authuser=0&hl=en&rclk=1,26.8555227,75.8019039,Rajasthan
RAJASTHAN GOVT. PRIMARY HOSPITALS,Hospital,"8 Sdr, Rajasthan 335511, India",https://www.google.co.kr/maps/place/RAJASTHAN+GOVT.+PRIMARY+HOSPITALS/data=!4m5!3m4!1s0x3913e58c3a343855:0x5612fd3762ff592a!8m2!3d29.2298787!4d75.1723674?authuser=0&hl=en&rclk=1,29.2298787,75.1723674,Rajasthan
Vasundhara Hospital,Hospital,"Sector 11, Nandanwan, Chopasni Housing Board, Jodhpur, Rajasthan 342001, India",https://www.google.co.kr/maps/place/Vasundhara+Hospital/data=!4m5!3m4!1s0x39418e9770000001:0xf0fd6668fddfd610!8m2!3d26.2628849!4d72.9807496?authuser=0&hl=en&rclk=1,26.2628849,72.9807496,Rajasthan
Esi Dispensary,Hospital,"RH54+M92, Bagru, Rajasthan 303007, India",https://www.google.co.kr/maps/place/Esi+Dispensary/data=!4m5!3m4!1s0x396c4963bb2c0efd:0xb21651f7b976b3c1!8m2!3d26.8091404!4d75.555889?authuser=0&hl=en&rclk=1,26.8091404,75.555889,Rajasthan
उपस्वास्थ्य केंद्र,General hospital,"45VX+4VX, 16 Ams, Rajasthan 335501, India",https://www.google.co.kr/maps/place/%E0%A4%89%E0%A4%AA%E0%A4%B8%E0%A5%8D%E0%A4%B5%E0%A4%BE%E0%A4%B8%E0%A5%8D%E0%A4%A5%E0%A5%8D%E0%A4%AF+%E0%A4%95%E0%A5%87%E0%A4%82%E0%A4%A6%E0%A5%8D%E0%A4%B0/data=!4m5!3m4!1s0x3913efcdca86ddf3:0x1fdbf28fffdc8401!8m2!3d29.1428622!4d75.1997212?authuser=0&hl=en&rclk=1,29.1428622,75.1997212,Rajasthan
DA V Hospital,Hospital,"Pragpura-Bansur Rd, Bansur, Rajasthan 301402, India",https://www.google.co.kr/maps/place/DA+V+Hospital/data=!4m5!3m4!1s0x396d5c3b5c694ceb:0xe4ce34a7f1dd9150!8m2!3d27.6825385!4d76.3509977?authuser=0&hl=en&rclk=1,27.6825385,76.3509977,Rajasthan
Sanjeevni Hospital,Hospital,"F58, Kali Das Marg, Sindhi Colony, Bani Park, Jaipur, Rajasthan 302016, India",https://www.google.co.kr/maps/place/Sanjeevni+Hospital/data=!4m5!3m4!1s0x0:0xbfd6c1018f44c3de!8m2!3d26.9320421!4d75.7919266?authuser=0&hl=en&rclk=1,26.9320421,75.7919266,Rajasthan
Pinkcity Heart And General Hospital,Hospital,"Sikar Rd, Murlipura, Jaipur, Rajasthan 302013, India",https://www.google.co.kr/maps/place/Pinkcity+Heart+And+General+Hospital/data=!4m5!3m4!1s0x396db2f9187f8eed:0x46cac98d60ce298b!8m2!3d26.9715123!4d75.7708704?authuser=0&hl=en&rclk=1,26.9715123,75.7708704,Rajasthan
Govt Hospital,Hospital,"3HH9+WQ5, Manana, Rajasthan 341302, India",https://www.google.co.kr/maps/place/Govt+Hospital/data=!4m5!3m4!1s0x396b0abdb40081f5:0x78b41e947a64fc09!8m2!3d27.0797649!4d74.5694822?authuser=0&hl=en&rclk=1,27.0797649,74.5694822,Rajasthan
Government Primary Hospital,Hospital,"Molasar, Nagaur, SH-7D, Nagour Road, Didwana, Didwana, Rajasthan 341506, India",https://www.google.co.kr/maps/place/Government+Primary+Hospital/data=!4m5!3m4!1s0x396b6e56838d3f19:0xe5347c2224e7a67a!8m2!3d27.30726!4d74.727528?authuser=0&hl=en&rclk=1,27.30726,74.727528,Rajasthan
Hospital,Hospital,"J5GG+6HC, Dhobiyon Ka Mohalla, Sikar, Rajasthan 332001, India",https://www.google.co.kr/maps/place/Hospital/data=!4m5!3m4!1s0x396cbb331d967dc3:0x115f3f786e5103af!8m2!3d27.6255574!4d75.1763803?authuser=0&hl=en&rclk=1,27.6255574,75.1763803,Rajasthan
Governments hospital,Hospital,"H7X5+MWG, Padu Khurd, Rajasthan 341031, India",https://www.google.co.kr/maps/place/Governments+hospital/data=!4m5!3m4!1s0x396bcb094512bcff:0x5112e769b271ef64!8m2!3d26.5991999!4d74.2598277?authuser=0&hl=en&rclk=1,26.5991999,74.2598277,Rajasthan
Bahl Hospital,Hospital,"Hanumangarh Rd, Chahal Chowk, Jawahar Nagar, Sri Ganganagar, Rajasthan 335001, India",https://www.google.co.kr/maps/place/Bahl+Hospital/data=!4m5!3m4!1s0x3916939f8e6303cd:0xb427b83c9a94fff7!8m2!3d29.9086596!4d73.8818081?authuser=0&hl=en&rclk=1,29.9086596,73.8818081,Rajasthan
Military Hospital Jodhpur,Hospital,"72QW+QGG, Cantt Area, Jodhpur, Rajasthan 342006, India",https://www.google.co.kr/maps/place/Military+Hospital+Jodhpur/data=!4m5!3m4!1s0x39418d01f709df35:0x164600233a7058f5!8m2!3d26.2894376!4d73.0463415?authuser=0&hl=en&rclk=1,26.2894376,73.0463415,Rajasthan
Urmila hospital,Hospital,"Bad ke Balaji, Sarangpura, Rajasthan 302026, India",https://www.google.co.kr/maps/place/Urmila+hospital/data=!4m5!3m4!1s0x396c4b45176c11ed:0x4dc83adacb832bc5!8m2!3d26.849192!4d75.6353595?authuser=0&hl=en&rclk=1,26.849192,75.6353595,Rajasthan
Rajasthan Hospital,Hospital,"Chittorgarh Rd, opp. Panchayat Bhawan, Bassi, Rajasthan 312022, India",https://www.google.co.kr/maps/place/Rajasthan+Hospital/data=!4m5!3m4!1s0x3968a59ae96345a9:0xedf1f138c598d27c!8m2!3d25.0126675!4d74.7633233?authuser=0&hl=en&rclk=1,25.0126675,74.7633233,Rajasthan
Satellite hospital,Hospital,"Burmese Colony, Jaipur, Rajasthan 302007, India",https://www.google.co.kr/maps/place/Satellite+hospital/data=!4m5!3m4!1s0x396db7dca62e7143:0x5fdba62893f08d39!8m2!3d26.9023358!4d75.8419839?authuser=0&hl=en&rclk=1,26.9023358,75.8419839,Rajasthan
Solanki Hospital Alwar,Hospital,"10, Alwar HO, Ram Kutir, Ashoka Circle, Rajasthan 301001, India",https://www.google.co.kr/maps/place/Solanki+Hospital+Alwar/data=!4m5!3m4!1s0x39729a0233b5c43f:0xb4c6aa2a230469f8!8m2!3d27.5592312!4d76.6111632?authuser=0&hl=en&rclk=1,27.5592312,76.6111632,Rajasthan
City Hospital,Hospital,"S-35-b, Radha Marg, Behind Raj Mandir Cinema, C-scheme, Jaipur, Rajasthan 302001, India",https://www.google.co.kr/maps/place/City+Hospital/data=!4m5!3m4!1s0x396db6adbe0a7c29:0x7b585897fceb8bd!8m2!3d26.9124702!4d75.7872739?authuser=0&hl=en&rclk=1,26.9124702,75.7872739,Rajasthan
Military Hospital,Hospital,"NH 15 Suratgarh Cantonment Suratgarh Cantonment, 1 Ksr-A, Rajasthan 335705, India",https://www.google.co.kr/maps/place/Military+Hospital/data=!4m5!3m4!1s0x39166d1aebf7d455:0xf25d4bd0ab624233!8m2!3d29.4002604!4d73.8607464?authuser=0&hl=en&rclk=1,29.4002604,73.8607464,Rajasthan
R.A.G hospital,Hospital,"Shipra Path, Shanthi Nagar, Mansarovar, Jaipur, Rajasthan 302020, India",https://www.google.co.kr/maps/place/R.A.G+hospital/data=!4m5!3m4!1s0x396db5ad0b8db44d:0xb600f76f8b56582e!8m2!3d26.867508!4d75.7703099?authuser=0&hl=en&rclk=1,26.867508,75.7703099,Rajasthan
Harish Hospital,Hospital,"near, 1, Raghu Complex, Jail Cir, Scheme Number 10, Alwar, Rajasthan 301001, India",https://www.google.co.kr/maps/place/Harish+Hospital/data=!4m5!3m4!1s0x397299be3b1c2fad:0x9e6926b7fc5ee689!8m2!3d27.5772709!4d76.6140751?authuser=0&hl=en&rclk=1,27.5772709,76.6140751,Rajasthan
Khandaka Hospital,Hospital,"Kailash Puri, 160/161, Tonk Rd, Opposite Sanghi Farm, Jaipur, Rajasthan 302018, India",https://www.google.co.kr/maps/place/Khandaka+Hospital/data=!4m5!3m4!1s0x396db6ba6fffffff:0x6698a36277a8076b!8m2!3d26.8564523!4d75.7961822?authuser=0&hl=en&rclk=1,26.8564523,75.7961822,Rajasthan
Soni Hospital,Hospital,"Unnamed Road, Rajasthan 303007, India",https://www.google.co.kr/maps/place/Soni+Hospital/data=!4m5!3m4!1s0x396c482ce832da29:0x55fe5a7facca1e46!8m2!3d26.8114062!4d75.572736?authuser=0&hl=en&rclk=1,26.8114062,75.572736,Rajasthan
Kamla Nagar Hospital,Hospital,"Pal Link Road, Shyam Nagar, Jodhpur, Rajasthan 342003, India",https://www.google.co.kr/maps/place/Kamla+Nagar+Hospital/data=!4m5!3m4!1s0x39418e9b51954e7b:0xd93b8371c54447cf!8m2!3d26.2710004!4d72.9869256?authuser=0&hl=en&rclk=1,26.2710004,72.9869256,Rajasthan
Geetanjali Hospital,Hospital,"NH 48, Sector 9, Manva Kheda, Udaipur, Rajasthan 313001, India",https://www.google.co.kr/maps/place/Geetanjali+Hospital/data=!4m5!3m4!1s0x3967ef7caff86293:0x73d653651efa9c86!8m2!3d24.553382!4d73.7319105?authuser=0&hl=en&rclk=1,24.553382,73.7319105,Rajasthan
Esic dispensary kotputli,Hospital,"Near Anar Devi hospital, Shakti vihar Rd, opposite Hansa marriage home, Kotputli, Rajasthan 303108, India",https://www.google.co.kr/maps/place/Esic+dispensary+kotputli/data=!4m5!3m4!1s0x396d4310c77c9c77:0xf10837bd0092f591!8m2!3d27.6955836!4d76.1918773?authuser=0&hl=en&rclk=1,27.6955836,76.1918773,Rajasthan
Cocoon Hospital,Maternity hospital,"Airport Plaza, 14, Tonk Rd, Chandrakala Colony, Mata colony, Jaipur, Rajasthan 302016, India",https://www.google.co.kr/maps/place/Cocoon+Hospital/data=!4m5!3m4!1s0x396db5ef527c6bc7:0x5133e2ef6794dfb2!8m2!3d26.8435129!4d75.7946218?authuser=0&hl=en&rclk=1,26.8435129,75.7946218,Rajasthan
Raj Hospital,Private hospital,"Dada Bari Rd, Opp. Sanganer railway station, Gopi Nagar, Dada Gurudev Nagar, Sanganer, Jaipur, Rajasthan 302020, India",https://www.google.co.kr/maps/place/Raj+Hospital/data=!4m5!3m4!1s0x396dca7059e08f2b:0x7045f9979696ae43!8m2!3d26.8154526!4d75.7741769?authuser=0&hl=en&rclk=1,26.8154526,75.7741769,Rajasthan
Asthma bhawan,Hospital,"R3, Sector 6 Rd, Vishwakarma Industrial Area, Vidyadhar Nagar, Jaipur, Rajasthan 302023, India",https://www.google.co.kr/maps/place/Asthma+bhawan/data=!4m5!3m4!1s0x396db36f7cb43bbb:0x226cf8c8fbdaa5ce!8m2!3d26.9773241!4d75.7733109?authuser=0&hl=en&rclk=1,26.9773241,75.7733109,Rajasthan
Mandi Hospital,Hospital,"Kota - Bapawar Rd, Shahpura Bazar, Kethun, Rajasthan 325001, India",https://www.google.co.kr/maps/place/Mandi+Hospital/data=!4m5!3m4!1s0x396f8e8c6b6b8b31:0xb48aab1a7ec8f3e8!8m2!3d25.1246386!4d75.973752?authuser=0&hl=en&rclk=1,25.1246386,75.973752,Rajasthan
Geetanjali Hospital,Hospital,"Nakoda Nagar, Udaipur, Rajasthan 313003, India",https://www.google.co.kr/maps/place/Geetanjali+Hospital/data=!4m5!3m4!1s0x3967e6104660bd9f:0xed6e0d740e09a803!8m2!3d24.5928347!4d73.7613035?authuser=0&hl=en&rclk=1,24.5928347,73.7613035,Rajasthan
Archana Hospital,Hospital,"Rajendra Path, 21 South Colony, Shanti Path, Jhotwara, Jaipur, Rajasthan 302012, India",https://www.google.co.kr/maps/place/Archana+Hospital/data=!4m5!3m4!1s0x396db3201196c089:0xdb697c6b479415c5!8m2!3d26.9580366!4d75.7360345?authuser=0&hl=en&rclk=1,26.9580366,75.7360345,Rajasthan
Trauma Hospital,Hospital,"Himalaya Marg, Chandigarh, 160017, India",https://www.google.co.kr/maps/place/Trauma+Hospital/data=!4m5!3m4!1s0x396c13e4524776ef:0xa7a5e3ff3eb43953!8m2!3d26.6842964!4d75.2327116?authuser=0&hl=en&rclk=1,26.6842964,75.2327116,Rajasthan
"Tribal Regional Hospital Of Ayurveda, Gogunda",Hospital,"Unnamed Road, Gogunda, Rajasthan 313705, India","https://www.google.co.kr/maps/place/Tribal+Regional+Hospital+Of+Ayurveda,+Gogunda/data=!4m5!3m4!1s0x39680091592dcb25:0xd65b816d25cd0b98!8m2!3d24.7550394!4d73.5288777?authuser=0&hl=en&rclk=1",24.7550394,73.5288777,Rajasthan
Institute Of Urology,Hospital,"4/A, Tilak Marg, Opposite Udyag Bhawan, ESIC Colony, C Scheme, Ashok Nagar, Jaipur, Rajasthan 302005, India",https://www.google.co.kr/maps/place/Institute+Of+Urology/data=!4m5!3m4!1s0x396db41b99a552b9:0xdd1172a4fed9b8ee!8m2!3d26.9012579!4d75.7971092?authuser=0&hl=en&rclk=1,26.9012579,75.7971092,Rajasthan
Rajasthan Medical's,Government hospital,"FX3G+J77, Kurabad, Rajasthan 313703, India",https://www.google.co.kr/maps/place/Rajasthan+Medical's/data=!4m5!3m4!1s0x3967c705c0000001:0x7c6099f084001444!8m2!3d24.4540397!4d73.9756567?authuser=0&hl=en&rclk=1,24.4540397,73.9756567,Rajasthan
Pink Vinayak Hospital,Hospital,"46, Dhuleshwar Garden, Dhuleshwar Mahadev Mandir, Sardar Patel Marg, C Scheme, Jaipur, Rajasthan 302001, India",https://www.google.co.kr/maps/place/Pink+Vinayak+Hospital/data=!4m5!3m4!1s0x396db406c74daf61:0xf5d57714ff7cb735!8m2!3d26.914832!4d75.798436?authuser=0&hl=en&rclk=1,26.914832,75.798436,Rajasthan
Daksh hospital,Hospital,"397, Gandhi Nagar, Alwar, Rajasthan 301001, India",https://www.google.co.kr/maps/place/Daksh+hospital/data=!4m5!3m4!1s0x39729a2f6d19c897:0xb7625b029f54451f!8m2!3d27.5449763!4d76.6052805?authuser=0&hl=en&rclk=1,27.5449763,76.6052805,Rajasthan
Adinath ENT & General Hospital,Hospital,"B-102-A, Udai Marg, Tilak Nagar, Jaipur, Rajasthan 302004, India",https://www.google.co.kr/maps/place/Adinath+ENT+%26+General+Hospital/data=!4m5!3m4!1s0x396db6930a5e4a03:0x990e59c548856110!8m2!3d26.8915669!4d75.8266044?authuser=0&hl=en&rclk=1,26.8915669,75.8266044,Rajasthan
"Dr mukesh kalla SR Kalla hospital , jaipur",Hospital,"Dhuleshwar Garden, Devi Niketan Compound, Dhuleshwar Garden, Hathroi, Jaipur, Rajasthan 302001, India","https://www.google.co.kr/maps/place/Dr+mukesh+kalla+SR+Kalla+hospital+,+jaipur/data=!4m5!3m4!1s0x396db405d8ce062f:0x7f1b38769c11ef05!8m2!3d26.9130392!4d75.7971239?authuser=0&hl=en&rclk=1",26.9130392,75.7971239,Rajasthan
Sadhna Hospital,Private hospital,"Khatipura Rd, near Jharkhand Mode, Krishna Colony, Parivahan Nagar, Khatipura, Jaipur, Rajasthan 302012, India",https://www.google.co.kr/maps/place/Sadhna+Hospital/data=!4m5!3m4!1s0x396db351d63da087:0x79a55015414be0d1!8m2!3d26.9225971!4d75.7534353?authuser=0&hl=en&rclk=1,26.9225971,75.7534353,Rajasthan
Mewar Hospital,Hospital,"Manasa - Morvan Rd, Neemach, Madhya Pradesh 458441, India",https://www.google.co.kr/maps/place/Mewar+Hospital/data=!4m5!3m4!1s0x396674fad64b1331:0x2fb79f4e8449e34!8m2!3d24.4809!4d74.912?authuser=0&hl=en&rclk=1,24.4809,74.912,Rajasthan
"Dana Shivam Heart & Superspeciality Hospital, Jaipur",Hospital,"Dana Shivam Heart & Super Speciality Hospital, Plot No:2, Ganesh Park Rd, Opp. Times Square, Sector 2, Vijay Bari, Vidyadhar Nagar, Jaipur, Rajasthan 302023, India","https://www.google.co.kr/maps/place/Dana+Shivam+Heart+%26+Superspeciality+Hospital,+Jaipur/data=!4m5!3m4!1s0x396db3ad8425dcc7:0xe37b6a26c13e6f8e!8m2!3d26.960149!4d75.7774385?authuser=0&hl=en&rclk=1",26.960149,75.7774385,Rajasthan
"Dr. Yogesh Kayakalp Hospital, Sikar",Hospital,"Opposite Roadways Bus Stand, Sikar, Rajasthan 332001, India","https://www.google.co.kr/maps/place/Dr.+Yogesh+Kayakalp+Hospital,+Sikar/data=!4m5!3m4!1s0x396ce43aeeaaaaab:0xa15edfc47026f9ff!8m2!3d27.599756!4d75.1533525?authuser=0&hl=en&rclk=1",27.599756,75.1533525,Rajasthan
CKS Hospitals | Best Multispeciality Hospital in Jaipur,Hospital,"98A, Sikar Rd, Vishwakarma Industrial Area, Jaipur, Rajasthan 302013, India",https://www.google.co.kr/maps/place/CKS+Hospitals+%7C+Best+Multispeciality+Hospital+in+Jaipur/data=!4m5!3m4!1s0x396db25de8da4485:0x4b697289e89a1bdb!8m2!3d26.9818672!4d75.7748071?authuser=0&hl=en&rclk=1,26.9818672,75.7748071,Rajasthan
"जनजाति क्षेत्रीय आयुर्वेद चिकित्सालय, गोगुन्दा(आयुष मंत्रालय, भारत सरकार)",Hospital,"Near, Manak Chowk, Main Market, Gogunda, Rajasthan 313705, India","https://www.google.co.kr/maps/place/%E0%A4%9C%E0%A4%A8%E0%A4%9C%E0%A4%BE%E0%A4%A4%E0%A4%BF+%E0%A4%95%E0%A5%8D%E0%A4%B7%E0%A5%87%E0%A4%A4%E0%A5%8D%E0%A4%B0%E0%A5%80%E0%A4%AF+%E0%A4%86%E0%A4%AF%E0%A5%81%E0%A4%B0%E0%A5%8D%E0%A4%B5%E0%A5%87%E0%A4%A6+%E0%A4%9A%E0%A4%BF%E0%A4%95%E0%A4%BF%E0%A4%A4%E0%A5%8D%E0%A4%B8%E0%A4%BE%E0%A4%B2%E0%A4%AF,+%E0%A4%97%E0%A5%8B%E0%A4%97%E0%A5%81%E0%A4%A8%E0%A5%8D%E0%A4%A6%E0%A4%BE(%E0%A4%86%E0%A4%AF%E0%A5%81%E0%A4%B7+%E0%A4%AE%E0%A4%82%E0%A4%A4%E0%A5%8D%E0%A4%B0%E0%A4%BE%E0%A4%B2%E0%A4%AF,+%E0%A4%AD%E0%A4%BE%E0%A4%B0%E0%A4%A4+%E0%A4%B8%E0%A4%B0%E0%A4%95%E0%A4%BE%E0%A4%B0)/data=!4m5!3m4!1s0x39680174237dc4e1:0x911712b088b43cbe!8m2!3d24.7521631!4d73.5270189?authuser=0&hl=en&rclk=1",24.7521631,73.5270189,Rajasthan
GBH Cancer Memorial Hospital,Hospital,"Airport Road, Transport Nagar, Bedwas, Udaipur, Rajasthan 313001, India",https://www.google.co.kr/maps/place/GBH+Cancer+Memorial+Hospital/data=!4m5!3m4!1s0x3967e6233781d681:0x189d2b6b15fbfef3!8m2!3d24.5916948!4d73.7755493?authuser=0&hl=en&rclk=1,24.5916948,73.7755493,Rajasthan
NIMS Hospital,Hospital,"Ganpati Nagar, Jaipur, Rajasthan 302006, India",https://www.google.co.kr/maps/place/NIMS+Hospital/data=!4m5!3m4!1s0x396db40b8621fc13:0x5b1e00857b3153b5!8m2!3d26.9124336!4d75.7872709?authuser=0&hl=en&rclk=1,26.9124336,75.7872709,Rajasthan
Shantiraj Hospital Private Limited,Hospital,"699, Arjun Nagar, Sector No.11, Hiran Magri, Udaipur, Rajasthan 313001, India",https://www.google.co.kr/maps/place/Shantiraj+Hospital+Private+Limited/data=!4m5!3m4!1s0x3967ef9ec02747fd:0xfca72ea18c023be9!8m2!3d24.5532257!4d73.696428?authuser=0&hl=en&rclk=1,24.5532257,73.696428,Rajasthan
"Ginni Devi Orthopaedic Hospital, Jaipur",Hospital,"94/49-50, Gokhale Marg, Ward 27, Sector 9, Mansarovar, Jaipur, Rajasthan 302020, India","https://www.google.co.kr/maps/place/Ginni+Devi+Orthopaedic+Hospital,+Jaipur/data=!4m5!3m4!1s0x396db533b6a26173:0x7f35ea10084ad880!8m2!3d26.850308!4d75.7698362?authuser=0&hl=en&rclk=1",26.850308,75.7698362,Rajasthan
Santa Hospital,Hospital,"Sihor, road, Mehara Jatoowas, Rajasthan 333036, India",https://www.google.co.kr/maps/place/Santa+Hospital/data=!4m5!3m4!1s0x3912cd0df187c04f:0xb111014582079fab!8m2!3d27.9877286!4d75.9317781?authuser=0&hl=en&rclk=1,27.9877286,75.9317781,Rajasthan
City Hospital,Hospital,"Unnamed Road, Surajgarh, Rajasthan 333029, India",https://www.google.co.kr/maps/place/City+Hospital/data=!4m5!3m4!1s0x3912e0109a777b31:0xf1098a2d5a5ec1f0!8m2!3d28.3050244!4d75.7262323?authuser=0&hl=en&rclk=1,28.3050244,75.7262323,Rajasthan
Trauma Center SMS Hospital,Hospital,"11, Sawai Mansingh Rd, Panch Batti, Ashok Nagar, Jaipur, Rajasthan 302001, India",https://www.google.co.kr/maps/place/Trauma+Center+SMS+Hospital/data=!4m5!3m4!1s0x396db6a5b0871a8b:0x4c875468e9449371!8m2!3d26.9070122!4d75.8147088?authuser=0&hl=en&rclk=1,26.9070122,75.8147088,Rajasthan
Unani Hospital,Hospital,"Tarkin, Dargah Rd, Kidway Colony, Nagaur, Rajasthan 341001, India",https://www.google.co.kr/maps/place/Unani+Hospital/data=!4m5!3m4!1s0x396a917b70555555:0x1e71c7425232d9f4!8m2!3d27.2061823!4d73.7402575?authuser=0&hl=en&rclk=1,27.2061823,73.7402575,Rajasthan
Rampura Satelite Government Hospital,Hospital,"5RQR+57J, Rampura, Kota, Rajasthan 324001, India",https://www.google.co.kr/maps/place/Rampura+Satelite+Government+Hospital/data=!4m5!3m4!1s0x396f9b3d5bc33fdf:0xd2cbb0ecdbf73ba7!8m2!3d25.1879537!4d75.8406518?authuser=0&hl=en&rclk=1,25.1879537,75.8406518,Rajasthan
Heart And General Hospital,Doctor,"7, Vivekanand Marg, Panch Batti, C Scheme, Ashok Nagar, Jaipur, Rajasthan 302001, India",https://www.google.co.kr/maps/place/Heart+And+General+Hospital/data=!4m5!3m4!1s0x396db6a620d2534f:0x7bee66342558c8d5!8m2!3d26.9086807!4d75.8109978?authuser=0&hl=en&rclk=1,26.9086807,75.8109978,Rajasthan
ESIC MODEL HOSPITAL,Government hospital,"Dispensary Park, No, Mansarovar Sector 4, Sodala, Jaipur, Rajasthan 302006, India",https://www.google.co.kr/maps/place/ESIC+MODEL+HOSPITAL/data=!4m5!3m4!1s0x396db6e94197646f:0xbbd3865c1a5cd87e!8m2!3d26.907782!4d75.777346?authuser=0&hl=en&rclk=1,26.907782,75.777346,Rajasthan
"Urban Primary Health Center,Bhupalpura",Hospital,"HMVX+2M6, Bhupalpura, Sector 9, Udaipur, Rajasthan 313001, India","https://www.google.co.kr/maps/place/Urban+Primary+Health+Center,Bhupalpura/data=!4m5!3m4!1s0x3967e575a014f763:0x4f9ecf418b6dfe80!8m2!3d24.5925488!4d73.699156?authuser=0&hl=en&rclk=1",24.5925488,73.699156,Rajasthan
Natural Hospital,Hospital,"Air Force Area, Jodhpur, Rajasthan 342011, India",https://www.google.co.kr/maps/place/Natural+Hospital/data=!4m5!3m4!1s0x39418d88ab4e1c6f:0xfa50a9eb9355bbbc!8m2!3d26.261249!4d73.0414155?authuser=0&hl=en&rclk=1,26.261249,73.0414155,Rajasthan
Kalpana Nursing Home,Maternity hospital,"214-C, Sardarpura, Udaipur, Rajasthan 313001, India",https://www.google.co.kr/maps/place/Kalpana+Nursing+Home/data=!4m5!3m4!1s0x3967e50b012477c1:0xba3edc29345e007c!8m2!3d24.5980916!4d73.6973978?authuser=0&hl=en&rclk=1,24.5980916,73.6973978,Rajasthan
Agrasen Hospital,Hospital,"Sodala, 76, Bharat Ashram Marg, Katewa Nagar, Devi Nagar, Shyam Nagar, Jaipur, Rajasthan 302019, India",https://www.google.co.kr/maps/place/Agrasen+Hospital/data=!4m5!3m4!1s0x396db459461ba899:0x8d3e4ea744359808!8m2!3d26.886082!4d75.765045?authuser=0&hl=en&rclk=1,26.886082,75.765045,Rajasthan
Maharaja Agrasen Superspeciality Hospital,Hospital,"Central Spine Rd, Sector 7, Sector 5, Vidyadhar Nagar, Jaipur, Rajasthan 302039, India",https://www.google.co.kr/maps/place/Maharaja+Agrasen+Superspeciality+Hospital/data=!4m5!3m4!1s0x396db6ec1aaaaaab:0x3fc6077367ecbe68!8m2!3d26.9664258!4d75.7842733?authuser=0&hl=en&rclk=1,26.9664258,75.7842733,Rajasthan
Yash aman Hospital,Hospital,"Kishore bag road, Near Bhumiya Ji ka Mandir, Mandore, Jodhpur, Rajasthan 342002, India",https://www.google.co.kr/maps/place/Yash+aman+Hospital/data=!4m5!3m4!1s0x39418d884483fa6b:0xbb2d2b87f907fd39!8m2!3d26.3265973!4d73.0444964?authuser=0&hl=en&rclk=1,26.3265973,73.0444964,Rajasthan
Hospital,Hospital,"280,, नया गाँव मार्ग, Pali, Rajasthan 306401, India",https://www.google.co.kr/maps/place/Hospital/data=!4m5!3m4!1s0x394273742fa877e7:0xf7c549d0c506d86d!8m2!3d25.7797066!4d73.3526242?authuser=0&hl=en&rclk=1,25.7797066,73.3526242,Rajasthan
City Hospital,Hospital,"Shopping Complex, Near Ana Sagar Chowpati, Ana Sagar Link Road, Ajmer, Rajasthan 305001, India",https://www.google.co.kr/maps/place/City+Hospital/data=!4m5!3m4!1s0x396be7075a547f87:0xa071d1811d844004!8m2!3d26.4727069!4d74.6332846?authuser=0&hl=en&rclk=1,26.4727069,74.6332846,Rajasthan
Asthma Bhawan,Hospital,"R-3, Vidhyadhar Nagar Marg, Sector 6, Shastri Nagar, Jaipur, Rajasthan 302039, India",https://www.google.co.kr/maps/place/Asthma+Bhawan/data=!4m5!3m4!1s0x396db3ad859c2695:0x5d91bc40157d873f!8m2!3d26.9401426!4d75.8013509?authuser=0&hl=en&rclk=1,26.9401426,75.8013509,Rajasthan
R. B. M. Hospital,Government hospital,"Vikas Nagar, Bharatpur, Rajasthan 321001, India",https://www.google.co.kr/maps/place/R.+B.+M.+Hospital/data=!4m5!3m4!1s0x3973a3a984c07bbf:0x4fbdb4fe2b1556eb!8m2!3d27.2236363!4d77.5058915?authuser=0&hl=en&rclk=1,27.2236363,77.5058915,Rajasthan
Jk,Hospital,"Nagaur,, Sanjay Colony, Nagaur, Rajasthan 341001, India",https://www.google.co.kr/maps/place/Jk/data=!4m5!3m4!1s0x396a910aebdb96af:0xdca000864f11a04b!8m2!3d27.196756!4d73.722529?authuser=0&hl=en&rclk=1,27.196756,73.722529,Rajasthan
Hospital,Hospital,"QP5M+PCR, Rattewala, Rajasthan 335022, India",https://www.google.co.kr/maps/place/Hospital/data=!4m5!3m4!1s0x391631dc347c9ff5:0x7a4c09e54e02664b!8m2!3d29.7593701!4d73.7335067?authuser=0&hl=en&rclk=1,29.7593701,73.7335067,Rajasthan
Urban Primary Health Center UPHC,Hospital,"Mangrol Bypass, Gopal Colony, Baran, Rajasthan 325205, India",https://www.google.co.kr/maps/place/Urban+Primary+Health+Center+UPHC/data=!4m5!3m4!1s0x3970010ccf2253a7:0xa989b1ea258a205b!8m2!3d25.1117801!4d76.5102392?authuser=0&hl=en&rclk=1,25.1117801,76.5102392,Rajasthan
Jain ENT Hospital Jaipur,Hospital,"XGJ6+F3H, Jaipur, Rajasthan 303706, India",https://www.google.co.kr/maps/place/Jain+ENT+Hospital+Jaipur/data=!4m5!3m4!1s0x396c454caa74038d:0x8c6b2f3331d2b559!8m2!3d26.9811889!4d75.5102208?authuser=0&hl=en&rclk=1,26.9811889,75.5102208,Rajasthan
SMS Hospital Jaipur,Hospital,"VPPH+3MQ, Govind Nagar, Heerawala, Jaipur, Rajasthan 302024, India",https://www.google.co.kr/maps/place/SMS+Hospital+Jaipur/data=!4m5!3m4!1s0x396db53cdad9ab25:0xd11910116efe1e46!8m2!3d26.8852187!4d75.7292217?authuser=0&hl=en&rclk=1,26.8852187,75.7292217,Rajasthan
Katta Hospital,Private hospital,"Katta Hospital, 47-52, Ambabari, Jaipur, Rajasthan 302039, India",https://www.google.co.kr/maps/place/Katta+Hospital/data=!4m5!3m4!1s0x396db3bdebbb177f:0x476f2a8473d413db!8m2!3d26.9410053!4d75.7765392?authuser=0&hl=en&rclk=1,26.9410053,75.7765392,Rajasthan
Government Hospital,Hospital,"top chowk Loharpura nagaur, India",https://www.google.co.kr/maps/place/Government+Hospital/data=!4m5!3m4!1s0x396a917ab45eff63:0x85659f1aa464fb35!8m2!3d27.2079842!4d73.7372243?authuser=0&hl=en&rclk=1,27.2079842,73.7372243,Rajasthan
Hospital,Hospital,"WJ8C+665, Gandawar, Rajasthan 322001, India",https://www.google.co.kr/maps/place/Hospital/data=!4m5!3m4!1s0x3971d1d04360fe33:0xe702c4fc814df859!8m2!3d25.9155133!4d76.6205943?authuser=0&hl=en&rclk=1,25.9155133,76.6205943,Rajasthan
Krishna Super Speciality Hospital,Private hospital,"Shri Krishna Nagar, 10, Naher Rd, Sector 23, Chopasni Housing Board, Jodhpur, Rajasthan 342001, India",https://www.google.co.kr/maps/place/Krishna+Super+Speciality+Hospital/data=!4m5!3m4!1s0x39418eb9ca79639f:0x28fc7d50cdd291d6!8m2!3d26.2483103!4d72.9727763?authuser=0&hl=en&rclk=1,26.2483103,72.9727763,Rajasthan
Hospital,Hospital,"4894+Q28, Naasoli, Rajasthan 343029, India",https://www.google.co.kr/maps/place/Hospital/data=!4m5!3m4!1s0x39436d15afc86b3d:0x38d72c5b9c0e1f55!8m2!3d25.1194149!4d72.3050688?authuser=0&hl=en&rclk=1,25.1194149,72.3050688,Rajasthan
Hospital,Hospital,"M243+H3Q, Satalkheri, Rajasthan 326530, India",https://www.google.co.kr/maps/place/Hospital/data=!4m5!3m4!1s0x39656b651500f21d:0xb4191680165a6c4d!8m2!3d24.6564583!4d76.0027478?authuser=0&hl=en&rclk=1,24.6564583,76.0027478,Rajasthan
Zanana Hospital,Government hospital,"Chand-Pole Gate, Station Staion, Station Rd, Reserve Police Line, Sindhi Camp, Jaipur, Rajasthan 302016, India",https://www.google.co.kr/maps/place/Zanana+Hospital/data=!4m5!3m4!1s0x396db156022dbaab:0x72312d8c22943168!8m2!3d26.9263205!4d75.8067265?authuser=0&hl=en&rclk=1,26.9263205,75.8067265,Rajasthan
Getwell Poly Clinic & Hospital,Diagnostic center,"Jawahar Lal Nehru Marg, opp. JK Lon Hospital, Dusadon Ka Bagh, Rambagh, Jaipur, Rajasthan 302004, India",https://www.google.co.kr/maps/place/Getwell+Poly+Clinic+%26+Hospital/data=!4m5!3m4!1s0x396db6a314b9ac53:0x45f0aeba99dd3622!8m2!3d26.9022194!4d75.8167409?authuser=0&hl=en&rclk=1,26.9022194,75.8167409,Rajasthan
Hospital,Hospital,"RPX6+GPC, Jojasar, Rajasthan 335523, India",https://www.google.co.kr/maps/place/Hospital/data=!4m5!3m4!1s0x39146d209dc5c76b:0x88349f88da76a667!8m2!3d28.8488209!4d74.7117591?authuser=0&hl=en&rclk=1,28.8488209,74.7117591,Rajasthan
Hospital,Hospital,"4VPJ+22P, Badbirana, Rajasthan 335523, India",https://www.google.co.kr/maps/place/Hospital/data=!4m5!3m4!1s0x391407fe1d438111:0x890edfe7cb738a92!8m2!3d29.1350787!4d74.8800884?authuser=0&hl=en&rclk=1,29.1350787,74.8800884,Rajasthan
HOSPITAL,Hospital,"H68X+255, Nokh, Rajasthan 342310, India",https://www.google.co.kr/maps/place/HOSPITAL/data=!4m5!3m4!1s0x393f5f7668458f71:0x6e8ec2a327e9f486!8m2!3d27.5650101!4d72.2479854?authuser=0&hl=en&rclk=1,27.5650101,72.2479854,Rajasthan
Jeevan Raksha Hospital,Hospital,"A-156, Sadul Ganj, Bikaner, Rajasthan 334001, India",https://www.google.co.kr/maps/place/Jeevan+Raksha+Hospital/data=!4m5!3m4!1s0x393fe72cf147ee3b:0x2040685a06cb9f3d!8m2!3d28.0139076!4d73.3337989?authuser=0&hl=en&rclk=1,28.0139076,73.3337989,Rajasthan
Government Hospital For Women And Child,Government hospital,"5QGJ+RPV, Civil Line, Tonk, Rajasthan 304001, India",https://www.google.co.kr/maps/place/Government+Hospital+For+Women+And+Child/data=!4m5!3m4!1s0x396e616047453889:0x4c7014eb230b0353!8m2!3d26.1771178!4d75.7817911?authuser=0&hl=en&rclk=1,26.1771178,75.7817911,Rajasthan
Hospital,Hospital,"598W+WHR, Shivtalao, Rajasthan 306705, India",https://www.google.co.kr/maps/place/Hospital/data=!4m5!3m4!1s0x39429e966ec94475:0xcaefb4ce43b8bd80!8m2!3d25.167371!4d73.3963993?authuser=0&hl=en&rclk=1,25.167371,73.3963993,Rajasthan
Hospital,Hospital,"Dadabari, Doodaberi, Rajasthan 344011, India",https://www.google.co.kr/maps/place/Hospital/data=!4m5!3m4!1s0x3946792e21a165ef:0x951df1c9f5168634!8m2!3d25.9575138!4d71.0392274?authuser=0&hl=en&rclk=1,25.9575138,71.0392274,Rajasthan
Hospital,Hospital,"JJX6+643, Barda, Rajasthan 313011, India",https://www.google.co.kr/maps/place/Hospital/data=!4m5!3m4!1s0x3967fb793b5e4d8d:0x4e3f4898c6ba4a76!8m2!3d24.6480097!4d73.6102857?authuser=0&hl=en&rclk=1,24.6480097,73.6102857,Rajasthan
Janana Hospital Ajmer,Hospital,"janana hospital, Pushkar Bypass, Rd, Ajmer, Rajasthan, India",https://www.google.co.kr/maps/place/Janana+Hospital+Ajmer/data=!4m5!3m4!1s0x396be89fb7a880a5:0x7c8e4ec325525bf!8m2!3d26.5245433!4d74.6619956?authuser=0&hl=en&rclk=1,26.5245433,74.6619956,Rajasthan
"Chirag Hospital, Bharatpur, Rajasthan",Hospital,"Near M S J College, Anirudh Nagar, Bharatpur, Rajasthan 321001, India","https://www.google.co.kr/maps/place/Chirag+Hospital,+Bharatpur,+Rajasthan/data=!4m5!3m4!1s0x3973a2fd21ff959b:0x64a07d7db1feece4!8m2!3d27.21291!4d77.5184211?authuser=0&hl=en&rclk=1",27.21291,77.5184211,Rajasthan
Hospital,Hospital,"nehro ki dhani, Kolsiya, Rajasthan 333042, India",https://www.google.co.kr/maps/place/Hospital/data=!4m5!3m4!1s0x396ccb2ccd117de3:0x61eb23af31dc881!8m2!3d27.8764444!4d75.3694433?authuser=0&hl=en&rclk=1,27.8764444,75.3694433,Rajasthan
"Dr. Lalit Modi, Best Orthopedic, Knee, Hip and Shoulder Joint Replacement Surgeon in Jaipur,India",Orthopedic surgeon,"Rukmani Birla Hospital Near Triveni Flyover, Gopalpura Bypass Rd, Shanthi Nagar, Jaipur, Rajasthan 302018, India","https://www.google.co.kr/maps/place/Dr.+Lalit+Modi,+Best+Orthopedic,+Knee,+Hip+and+Shoulder+Joint+Replacement+Surgeon+in+Jaipur,India/data=!4m5!3m4!1s0x396db6a6086207cd:0x91bad1d9f231ba4f!8m2!3d26.8631963!4d75.7847727?authuser=0&hl=en&rclk=1",26.8631963,75.7847727,Rajasthan
MAXX HOSPITAL,Hospital,"10, Kalwar Rd, Vikas Nagar, Pratik Nagar, Jhotwara, Jaipur, Rajasthan 302012, India",https://www.google.co.kr/maps/place/MAXX+HOSPITAL/data=!4m5!3m4!1s0x396db33d10370e83:0xc9dd22ebecbd5f32!8m2!3d26.9450686!4d75.7351119?authuser=0&hl=en&rclk=1,26.9450686,75.7351119,Rajasthan
Hospital,Hospital,"X44H+486, Gudha Salt, Rajasthan 341509, India",https://www.google.co.kr/maps/place/Hospital/data=!4m5!3m4!1s0x396c7b8360ff184b:0x35946708c70b665b!8m2!3d26.9552898!4d75.1282632?authuser=0&hl=en&rclk=1,26.9552898,75.1282632,Rajasthan
Indian Military Hospital,Hospital,"Cantonment, Bikaner, Rajasthan 334001, India",https://www.google.co.kr/maps/place/Indian+Military+Hospital/data=!4m5!3m4!1s0x393fddc710f6720d:0x83f1450d803679a5!8m2!3d28.0465877!4d73.3493829?authuser=0&hl=en&rclk=1,28.0465877,73.3493829,Rajasthan
Hospital,Hospital,"5F26+XW5, Kumha, Rajasthan 321302, India",https://www.google.co.kr/maps/place/Hospital/data=!4m5!3m4!1s0x3973bb5de9154bf1:0x7b84709e8448984a!8m2!3d27.1523944!4d77.4623484?authuser=0&hl=en&rclk=1,27.1523944,77.4623484,Rajasthan
Gov.Local Hospital,Hospital,"nai udaipur, Rajasthan 313031, India",https://www.google.co.kr/maps/place/Gov.Local+Hospital/data=!4m5!3m4!1s0x3967f00fab9e7d9b:0x5cc1d7d0975eb776!8m2!3d24.5568368!4d73.639099?authuser=0&hl=en&rclk=1,24.5568368,73.639099,Rajasthan
Hospital,Hospital,"2P5X+8GC, shishoda, Rajasthan 313321, India",https://www.google.co.kr/maps/place/Hospital/data=!4m5!3m4!1s0x3968130cf16578e1:0x2e4ae74bf85861e7!8m2!3d25.0083069!4d73.7487772?authuser=0&hl=en&rclk=1,25.0083069,73.7487772,Rajasthan
Hospital,Hospital,"6Q2R+2F9, Rasal, Rajasthan 341517, India",https://www.google.co.kr/maps/place/Hospital/data=!4m5!3m4!1s0x396b7a0d9d8dbf1d:0xefc61fcbc99ea0cf!8m2!3d27.2000461!4d74.7912312?authuser=0&hl=en&rclk=1,27.2000461,74.7912312,Rajasthan
Hospital,Hospital,"H457+HQV, Satyoo, Rajasthan 331304, India",https://www.google.co.kr/maps/place/Hospital/data=!4m5!3m4!1s0x3913785be8ab2ed1:0xb65bdd26709b94b8!8m2!3d28.5589914!4d75.1144234?authuser=0&hl=en&rclk=1,28.5589914,75.1144234,Rajasthan
Hospital,Hospital,"R7MX+JRW, Kelania, Rajasthan 335524, India",https://www.google.co.kr/maps/place/Hospital/data=!4m5!3m4!1s0x39144b4bc5ead381:0xc6dba8ae4e7d2759!8m2!3d28.8341083!4d74.2995816?authuser=0&hl=en&rclk=1,28.8341083,74.2995816,Rajasthan
Hospital,Hospital,"RJ SH 65, Kesoola Ka Pana, Rajasthan 345025, India",https://www.google.co.kr/maps/place/Hospital/data=!4m5!3m4!1s0x3946c9db536ef02d:0x542156a4e7a152cb!8m2!3d26.3799679!4d71.7904498?authuser=0&hl=en&rclk=1,26.3799679,71.7904498,Rajasthan
NAHAR HOSPITAL BHINMAL,Hospital,"Kirti Stambh, Bhinmal Rd, Bhinmal, Rajasthan 343029, India",https://www.google.co.kr/maps/place/NAHAR+HOSPITAL+BHINMAL/data=!4m5!3m4!1s0x39436a49791b6d4f:0x876d2e8357e6b8fb!8m2!3d24.9969811!4d72.2632897?authuser=0&hl=en&rclk=1,24.9969811,72.2632897,Rajasthan
Hospital,Hospital,"Unnamed Road, Sop, Rajasthan 322204, India",https://www.google.co.kr/maps/place/Hospital/data=!4m5!3m4!1s0x39721edd97362db5:0x9e6fe1cc0f8bcdab!8m2!3d26.6230508!4d76.7719761?authuser=0&hl=en&rclk=1,26.6230508,76.7719761,Rajasthan
हॉस्पिटल(Hospital),Hospital,"68RQ+VV9, Basi, Rajasthan 334803, India",https://www.google.co.kr/maps/place/%E0%A4%B9%E0%A5%89%E0%A4%B8%E0%A5%8D%E0%A4%AA%E0%A4%BF%E0%A4%9F%E0%A4%B2(Hospital)/data=!4m5!3m4!1s0x3940230d668de501:0x67f1a3ad0b437215!8m2!3d27.2421667!4d73.3397366?authuser=0&hl=en&rclk=1,27.2421667,73.3397366,Rajasthan
Apex Ranthambore Sevika Hospital,Private hospital,"Vinayak Nagar, Housing Board, Sawai Madhopur, Rajasthan 322021, India",https://www.google.co.kr/maps/place/Apex+Ranthambore+Sevika+Hospital/data=!4m5!3m4!1s0x396e25d429b436bf:0x5e509b62c0326d95!8m2!3d25.9981047!4d76.3603097?authuser=0&hl=en&rclk=1,25.9981047,76.3603097,Rajasthan
Hospital,Hospital,"CJ22+C9J, 7 Lc, Rajasthan 335051, India",https://www.google.co.kr/maps/place/Hospital/data=!4m5!3m4!1s0x39161bab7ccc09f9:0x98c9f9b9155c6f1d!8m2!3d29.4010771!4d73.6008905?authuser=0&hl=en&rclk=1,29.4010771,73.6008905,Rajasthan
Hospital,Hospital,"2GW5+624, Sulai, Rajasthan 313803, India",https://www.google.co.kr/maps/place/Hospital/data=!4m5!3m4!1s0x3967810f45cbaa19:0x85aed2ccd3f895a!8m2!3d24.0455155!4d73.5075631?authuser=0&hl=en&rclk=1,24.0455155,73.5075631,Rajasthan
Hospital,Hospital,"X87Q+4VF, dhdheru, Rajasthan 331802, India",https://www.google.co.kr/maps/place/Hospital/data=!4m5!3m4!1s0x3914dbadf15e78dd:0xebd20211e1ab759b!8m2!3d27.9628218!4d74.3396851?authuser=0&hl=en&rclk=1,27.9628218,74.3396851,Rajasthan
Hospital,Hospital,"2H4M+9WW, Roopawas, Rajasthan 306104, India",https://www.google.co.kr/maps/place/Hospital/data=!4m5!3m4!1s0x3969e5bfcb522ac5:0xc903dce5b886a5bf!8m2!3d26.0059959!4d73.5848211?authuser=0&hl=en&rclk=1,26.0059959,73.5848211,Rajasthan
Chopra Hospital,Private hospital,"Bus Stand Dabadi Road, Rampura, Jaipur, Rajasthan 303704, India",https://www.google.co.kr/maps/place/Chopra+Hospital/data=!4m5!3m4!1s0x396dab60afcff4a3:0x21bf1bd347f001f9!8m2!3d27.1023858!4d75.7367275?authuser=0&hl=en&rclk=1,27.1023858,75.7367275,Rajasthan
Gov. Hospital,Hospital,"CFPV+7XH, Janhit Pranyas Colony, Sardarshahr, Rajasthan 331403, India",https://www.google.co.kr/maps/place/Gov.+Hospital/data=!4m5!3m4!1s0x3914f6a8de3edc5b:0x4b9f295eadb2817a!8m2!3d28.4356867!4d74.4949783?authuser=0&hl=en&rclk=1,28.4356867,74.4949783,Rajasthan
Hospital,Hospital,"XV3Q+P5P, Jharisa, Rajasthan 321611, India",https://www.google.co.kr/maps/place/Hospital/data=!4m5!3m4!1s0x397241b9f4290f0f:0x4ee82bd1d7fbf847!8m2!3d26.9543499!4d76.8879575?authuser=0&hl=en&rclk=1,26.9543499,76.8879575,Rajasthan
Hospital,Hospital,"7XX4+WF5, Noohaniya, Rajasthan 333034, India",https://www.google.co.kr/maps/place/Hospital/data=!4m5!3m4!1s0x3912c302c62c6d89:0x7fd3ff458baf7525!8m2!3d28.2997502!4d75.9562208?authuser=0&hl=en&rclk=1,28.2997502,75.9562208,Rajasthan
Hospital,Hospital,"9G3P+CMW, Pachola, Rajasthan 326039, India",https://www.google.co.kr/maps/place/Hospital/data=!4m5!3m4!1s0x397ad5278966eddb:0x849b0f68b89db9e3!8m2!3d24.353622!4d76.5367028?authuser=0&hl=en&rclk=1,24.353622,76.5367028,Rajasthan
T.B. Hospital Tonk (Tuberculosis),Hospital,"5QMV+QW6, Pindaron Ka Mohalla, Tonk, Rajasthan 304001, India",https://www.google.co.kr/maps/place/T.B.+Hospital+Tonk+(Tuberculosis)/data=!4m5!3m4!1s0x396e63e349af20f5:0xd2f6cfc317e909e9!8m2!3d26.1844018!4d75.7947736?authuser=0&hl=en&rclk=1,26.1844018,75.7947736,Rajasthan
Hospital,Hospital,"Unnamed Road, Labana, Rajasthan 303002, India",https://www.google.co.kr/maps/place/Hospital/data=!4m5!3m4!1s0x396da537fcf51873:0xea800b6cff376e77!8m2!3d27.109248!4d75.956643?authuser=0&hl=en&rclk=1,27.109248,75.956643,Rajasthan
Ram Hospital,Hospital,"jai shree nagar colony ,ren road, Merta, Rajasthan 341510, India",https://www.google.co.kr/maps/place/Ram+Hospital/data=!4m5!3m4!1s0x396a480b9854c865:0xa1952983d6c3541d!8m2!3d26.656223!4d74.0352557?authuser=0&hl=en&rclk=1,26.656223,74.0352557,Rajasthan
Hospital,Hospital,"FH99+FH5, Kalwani, Rajasthan 341303, India",https://www.google.co.kr/maps/place/Hospital/data=!4m5!3m4!1s0x396b3f8604ace9e1:0xc2dfc5d8a8e0ba16!8m2!3d27.4686396!4d74.5689837?authuser=0&hl=en&rclk=1,27.4686396,74.5689837,Rajasthan
Hospital,Government hospital,"2GC8+GR5, Bhavandesar, Rajasthan 331802, India",https://www.google.co.kr/maps/place/Hospital/data=!4m5!3m4!1s0x3914c701d3e51715:0x3316ac36b80d3fd6!8m2!3d28.0212637!4d74.5171037?authuser=0&hl=en&rclk=1,28.0212637,74.5171037,Rajasthan
Hospital,Hospital,"XGRV+239, Pratappura, Rajasthan 303326, India",https://www.google.co.kr/maps/place/Hospital/data=!4m5!3m4!1s0x3972758b326b8fc9:0xbf17e4b149a3cfd5!8m2!3d26.9900499!4d76.5427391?authuser=0&hl=en&rclk=1,26.9900499,76.5427391,Rajasthan
Dr N. K. Vaishnav,Orthopedic surgeon,"Plot No, 418, RTO Rd, opp. State Bank of India, ZSA, BJS Colony, Jodhpur, Rajasthan 342006, India",https://www.google.co.kr/maps/place/Dr+N.+K.+Vaishnav/data=!4m5!3m4!1s0x39418d1788def97b:0x5ba561d4e630e3ee!8m2!3d26.3037033!4d73.0624337?authuser=0&hl=en&rclk=1,26.3037033,73.0624337,Rajasthan
Hospital,Hospital,"Dhani link road chainpura, Rajasthan, India",https://www.google.co.kr/maps/place/Hospital/data=!4m5!3m4!1s0x396e778d070851fd:0x9a09e26c37dd48e6!8m2!3d26.3972962!4d75.9353897?authuser=0&hl=en&rclk=1,26.3972962,75.9353897,Rajasthan
National institute of Ayurveda Hospital,Hospital,"Unnamed Road, Santosh Sagar Colony, Krishna Nagar, Pink City, Jaipur, Rajasthan 302002, India",https://www.google.co.kr/maps/place/National+institute+of+Ayurveda+Hospital/data=!4m5!3m4!1s0x396db135ab683b53:0x143fdc1ee2826fc4!8m2!3d26.9354497!4d75.8326751?authuser=0&hl=en&rclk=1,26.9354497,75.8326751,Rajasthan
Hospital,Hospital,"38QV+FP5, Madpura, Rajasthan 341025, India",https://www.google.co.kr/maps/place/Hospital/data=!4m5!3m4!1s0x39402f1a5f82e5df:0x47fc525781506f82!8m2!3d27.0886475!4d73.3443557?authuser=0&hl=en&rclk=1,27.0886475,73.3443557,Rajasthan
HOSPITAL,Hospital,"Mataji Bari, Rajasthan 306116, India",https://www.google.co.kr/maps/place/HOSPITAL/data=!4m5!3m4!1s0x3942849c95844ff5:0xaebb89766ee03365!8m2!3d25.3051807!4d73.3662328?authuser=0&hl=en&rclk=1,25.3051807,73.3662328,Rajasthan
Hospital,Hospital,"Godara Ki Dhani Marg, Rajasthan 333305, India",https://www.google.co.kr/maps/place/Hospital/data=!4m5!3m4!1s0x396ccdc4ca6fccbb:0x37f746d1d28062da!8m2!3d27.8958568!4d75.4759822?authuser=0&hl=en&rclk=1,27.8958568,75.4759822,Rajasthan
Hospital,Hospital,"4P7G+476, Ummedgarh, Rajasthan 307028, India",https://www.google.co.kr/maps/place/Hospital/data=!4m5!3m4!1s0x3942e35e2f9d8f4d:0x93d62f9ce7e7b4f0!8m2!3d25.1127957!4d72.7256439?authuser=0&hl=en&rclk=1,25.1127957,72.7256439,Rajasthan
Hospital,Hospital,"32WJ+WFG, Hadda, Rajasthan 345033, India",https://www.google.co.kr/maps/place/Hospital/data=!4m5!3m4!1s0x39479be9e4bdc6ab:0xad52ec105297a6a2!8m2!3d27.0973097!4d71.0312148?authuser=0&hl=en&rclk=1,27.0973097,71.0312148,Rajasthan
Hospital,Hospital,"CJG7+7JV, Jetavaton ka Guda, Rajasthan 306502, India",https://www.google.co.kr/maps/place/Hospital/data=!4m5!3m4!1s0x39682d2a959be539:0x87ae17f6b9bbedf!8m2!3d25.4257467!4d73.6140334?authuser=0&hl=en&rclk=1,25.4257467,73.6140334,Rajasthan
Meera Hospital,Doctor,"Kartavya, B-13, Shiv Marg, Bani Park, Jaipur, Rajasthan 302016, India",https://www.google.co.kr/maps/place/Meera+Hospital/data=!4m5!3m4!1s0x396db3fb43943c55:0xaaaed1450a0c5187!8m2!3d26.9301283!4d75.8009029?authuser=0&hl=en&rclk=1,26.9301283,75.8009029,Rajasthan
Hospital,Hospital,"Unnamed Road, Dhamana, Rajasthan 312204, India",https://www.google.co.kr/maps/place/Hospital/data=!4m5!3m4!1s0x396886f7bd472a1f:0x530d43d393c3e263!8m2!3d24.9567734!4d74.2781661?authuser=0&hl=en&rclk=1,24.9567734,74.2781661,Rajasthan
Hospital,Hospital,"Nagelao, Rajasthan 305204, India",https://www.google.co.kr/maps/place/Hospital/data=!4m5!3m4!1s0x39697d4dc436dd75:0x9c3e600ac5d68fca!8m2!3d26.2960911!4d74.4008229?authuser=0&hl=en&rclk=1,26.2960911,74.4008229,Rajasthan
Hospital,Private hospital,"876G+3XJ, Khimel, Rajasthan 306116, India",https://www.google.co.kr/maps/place/Hospital/data=!4m5!3m4!1s0x3942850103a9287d:0x1983e39628007e25!8m2!3d25.3102033!4d73.27739?authuser=0&hl=en&rclk=1,25.3102033,73.27739,Rajasthan
Hospital,Hospital,"8GCJ+FQ6, 6 Jkm, Rajasthan 335702, India",https://www.google.co.kr/maps/place/Hospital/data=!4m5!3m4!1s0x39161d4d9d71a1df:0xc5f7273906b4c1f6!8m2!3d29.3211732!4d73.5318804?authuser=0&hl=en&rclk=1,29.3211732,73.5318804,Rajasthan
HOSPITAL,Hospital,"Rajasthan 306103, India",https://www.google.co.kr/maps/place/HOSPITAL/data=!4m5!3m4!1s0x3969c117ddc54def:0xf86d71f11609d2bd!8m2!3d25.7943828!4d73.791604?authuser=0&hl=en&rclk=1,25.7943828,73.791604,Rajasthan
Hospital,Hospital,"P738+4WX, Asarlai, Rajasthan 342314, India",https://www.google.co.kr/maps/place/Hospital/data=!4m5!3m4!1s0x3941217f0525dea3:0xc1e50aa2720fc5cb!8m2!3d26.7028747!4d72.2673466?authuser=0&hl=en&rclk=1,26.7028747,72.2673466,Rajasthan
सरकारी अस्पताल,Hospital,"WQ83+C9J, Nandri, Rajasthan 303508, India",https://www.google.co.kr/maps/place/%E0%A4%B8%E0%A4%B0%E0%A4%95%E0%A4%BE%E0%A4%B0%E0%A5%80+%E0%A4%85%E0%A4%B8%E0%A5%8D%E0%A4%AA%E0%A4%A4%E0%A4%BE%E0%A4%B2/data=!4m5!3m4!1s0x397215ab959d1d97:0xa03e470cb62bbe79!8m2!3d26.9160928!4d76.7533797?authuser=0&hl=en&rclk=1,26.9160928,76.7533797,Rajasthan
Hospital,Hospital,"GH38+WPW, Nagaur, Rajasthan 341303, India",https://www.google.co.kr/maps/place/Hospital/data=!4m5!3m4!1s0x396b3f108502e7c7:0x8c8e68cb490591ee!8m2!3d27.5048522!4d74.5668329?authuser=0&hl=en&rclk=1,27.5048522,74.5668329,Rajasthan
Hospital,Hospital,"Pur, Rajasthan 311802, India",https://www.google.co.kr/maps/place/Hospital/data=!4m5!3m4!1s0x3968ebbb75ad2e0f:0x19446566c17135c9!8m2!3d25.2956998!4d74.5420717?authuser=0&hl=en&rclk=1,25.2956998,74.5420717,Rajasthan
hospital,Hospital,"F235+RH5, Kanwera, Rajasthan 313332, India",https://www.google.co.kr/maps/place/hospital/data=!4m5!3m4!1s0x39684dea290a7089:0x57ca9d5f548c5c02!8m2!3d25.4545021!4d74.0089735?authuser=0&hl=en&rclk=1,25.4545021,74.0089735,Rajasthan
Hospital,Hospital,"Kachholi Main Rd, Rajasthan 307023, India",https://www.google.co.kr/maps/place/Hospital/data=!4m5!3m4!1s0x395d2df317f61353:0x2fe5f9ba95fb452a!8m2!3d24.6563102!4d72.8946633?authuser=0&hl=en&rclk=1,24.6563102,72.8946633,Rajasthan
Hospital,Hospital,"87XF+4GP, Maukani, Rajasthan 343022, India",https://www.google.co.kr/maps/place/Hospital/data=!4m5!3m4!1s0x39439fa12802d183:0xb6bb3c849aafa16c!8m2!3d25.3478469!4d72.2738218?authuser=0&hl=en&rclk=1,25.3478469,72.2738218,Rajasthan
Hospital,Hospital,"5QVF+MJ4, Jhunjhunu, Rajasthan 333502, India",https://www.google.co.kr/maps/place/Hospital/data=!4m5!3m4!1s0x3912d9cf38eac007:0xf95fa2806385131a!8m2!3d28.1941407!4d75.7740894?authuser=0&hl=en&rclk=1,28.1941407,75.7740894,Rajasthan
Hospital,Hospital,"2888+7X3, Karela, Rajasthan 322001, India",https://www.google.co.kr/maps/place/Hospital/data=!4m5!3m4!1s0x396e2458a00301b5:0x9419f93d99c46d0!8m2!3d26.0156287!4d76.317433?authuser=0&hl=en&rclk=1,26.0156287,76.317433,Rajasthan
Military Hospital,Military hospital,"D-112, Ram Mandir Rd, Sen Colony, Bani Park, Jaipur, Rajasthan 302016, India",https://www.google.co.kr/maps/place/Military+Hospital/data=!4m5!3m4!1s0x396db3f2aa93aee9:0x2da8580f5a922d35!8m2!3d26.9291958!4d75.7831074?authuser=0&hl=en&rclk=1,26.9291958,75.7831074,Rajasthan
Hospital,Hospital,"38X6+G9Q, Pahoona, Rajasthan 312203, India",https://www.google.co.kr/maps/place/Hospital/data=!4m5!3m4!1s0x39688929b69f22f3:0xf742b7ed9877f8a4!8m2!3d25.0988495!4d74.3109994?authuser=0&hl=en&rclk=1,25.0988495,74.3109994,Rajasthan
Government Health Hospital,Hospital,"7FH8+XHH, Sawai Madhopur, Rajasthan 322028, India",https://www.google.co.kr/maps/place/Government+Health+Hospital/data=!4m5!3m4!1s0x3971e3df3254d4b3:0x1d3ddf0596a416cf!8m2!3d26.2799293!4d76.4664973?authuser=0&hl=en&rclk=1,26.2799293,76.4664973,Rajasthan
Geetanjali Multispeciality Hospital,Hospital,"Chomu Bypass Rd, opp. petrol pump, Ajeetgarh, Rajasthan 332701, India",https://www.google.co.kr/maps/place/Geetanjali+Multispeciality+Hospital/data=!4m5!3m4!1s0x396d1b20dcb15cbd:0xd69b7003eecef695!8m2!3d27.4139983!4d75.813106?authuser=0&hl=en&rclk=1,27.4139983,75.813106,Rajasthan
Sita Devi Hospital,Women's health clinic,"Chabra Rd, Shree Ram Colony, Hawa Sadak, Ramnagar, Jaipur, Rajasthan 302019, India",https://www.google.co.kr/maps/place/Sita+Devi+Hospital/data=!4m5!3m4!1s0x396db46b9eaaaaab:0x86120e3d95ec7df!8m2!3d26.8978601!4d75.7806899?authuser=0&hl=en&rclk=1,26.8978601,75.7806899,Rajasthan
J K Hospital,Hospital,"19, Kalwar Road Kardhani, Behind Kardhani Police Station, Jaipur, Rajasthan 302012, India",https://www.google.co.kr/maps/place/J+K+Hospital/data=!4m5!3m4!1s0x396c4cd34ea04b6d:0xd3b841e0cde34e19!8m2!3d26.9496958!4d75.7135141?authuser=0&hl=en&rclk=1,26.9496958,75.7135141,Rajasthan
Krishna Heart and General Hospital,Hospital,"138, Prem Niwas, Pandit T N Mishra Marg, Swami Vihar, Shiv Shakti Nagar, Brijlalpura, Jaipur, Rajasthan 302019, India",https://www.google.co.kr/maps/place/Krishna+Heart+and+General+Hospital/data=!4m5!3m4!1s0x396db4f721e9e22f:0x53e117cbfcb08dda!8m2!3d26.8828083!4d75.7559835?authuser=0&hl=en&rclk=1,26.8828083,75.7559835,Rajasthan
Modi Hospital,Hospital,"Teliwara - Shardapuram Rd, Karni Colony, Nagaur, Rajasthan 341001, India",https://www.google.co.kr/maps/place/Modi+Hospital/data=!4m5!3m4!1s0x396a918986132e83:0xd7c9a6b9138fae1a!8m2!3d27.2066203!4d73.732059?authuser=0&hl=en&rclk=1,27.2066203,73.732059,Rajasthan
Hospital rajopa,Hospital,"H9MV+J3M, Rajopa, Rajasthan 325004, India",https://www.google.co.kr/maps/place/Hospital+rajopa/data=!4m5!3m4!1s0x396fd946747c5417:0x75a088638bd498d8!8m2!3d25.5840845!4d76.3926699?authuser=0&hl=en&rclk=1,25.5840845,76.3926699,Rajasthan
Hospitals,Hospital,"Kelansar, Rajasthan 342311, India",https://www.google.co.kr/maps/place/Hospitals/data=!4m5!3m4!1s0x39406fd7ea17b4ff:0x7aebec857a153916!8m2!3d27.3458186!4d72.9357215?authuser=0&hl=en&rclk=1,27.3458186,72.9357215,Rajasthan
Akansha Orthopedic Hospital,Orthopedic clinic,"Instrumentation Limited No-5A2, Road, Sector - 5, Vigyan Nagar, Kota, Rajasthan 324005, India",https://www.google.co.kr/maps/place/Akansha+Orthopedic+Hospital/data=!4m5!3m4!1s0x396f8520b160b209:0x9d89b81e7a599579!8m2!3d25.148716!4d75.8543911?authuser=0&hl=en&rclk=1,25.148716,75.8543911,Rajasthan
Sdmh Icu Attendant Waiting Room,Hospital,"VRV7+F26, Rambagh, Jaipur, Rajasthan 302007, India",https://www.google.co.kr/maps/place/Sdmh+Icu+Attendant+Waiting+Room/data=!4m5!3m4!1s0x396db69ecdb23845:0x3ec0fe766e5b9690!8m2!3d26.8936669!4d75.8125244?authuser=0&hl=en&rclk=1,26.8936669,75.8125244,Rajasthan
Hospital,Hospital,"V6GH+98G, Khijoori, Rajasthan 322001, India",https://www.google.co.kr/maps/place/Hospital/data=!4m5!3m4!1s0x396e31bce545a1cb:0x1c5c53986b03ec4c!8m2!3d25.8759489!4d76.2283309?authuser=0&hl=en&rclk=1,25.8759489,76.2283309,Rajasthan
Hospital,Hospital,"36M8+QHM, Jeewada, Rajasthan 306126, India",https://www.google.co.kr/maps/place/Hospital/data=!4m5!3m4!1s0x3942963a8dfa2527:0x281d82b4592c1ed1!8m2!3d25.0844745!4d73.216413?authuser=0&hl=en&rclk=1,25.0844745,73.216413,Rajasthan
Hospital,Hospital,"Unnamed Road, Deoli Pabuji, Rajasthan 306502, India",https://www.google.co.kr/maps/place/Hospital/data=!4m5!3m4!1s0x39682bd016d92e83:0xb37ea1551ca20605!8m2!3d25.4522626!4d73.4695811?authuser=0&hl=en&rclk=1,25.4522626,73.4695811,Rajasthan
Hospital,Hospital,"H9H4+JG4, Halasar, Rajasthan 331411, India",https://www.google.co.kr/maps/place/Hospital/data=!4m5!3m4!1s0x391456d851188b4b:0x975b3236b2fcc0eb!8m2!3d28.5790052!4d74.3563314?authuser=0&hl=en&rclk=1,28.5790052,74.3563314,Rajasthan
Seth Surajmal Bambaiyawala Aayurved Hospital,Medical clinic,"Indira Bazar Road, 235, Sonkhiyon Ka Rasta, Kishanpole Bazar, Chandpole Bazar, Chandpole, Kishan Pole, Jaipur, Rajasthan 302003, India",https://www.google.co.kr/maps/place/Seth+Surajmal+Bambaiyawala+Aayurved+Hospital/data=!4m5!3m4!1s0x396db1e1237abf3f:0x7c4ea01bbc2d5628!8m2!3d26.921904!4d75.8175164?authuser=0&hl=en&rclk=1,26.921904,75.8175164,Rajasthan
Madan Parnami Memorial Hospital,Hospital,"Govind Marg, near Shir Krishna Parnami Mandir, Gurunanakpura, Adarsh Nagar, Jaipur, Rajasthan 302004, India",https://www.google.co.kr/maps/place/Madan+Parnami+Memorial+Hospital/data=!4m5!3m4!1s0x396db69609a6b19d:0x303f34c0eb393a69!8m2!3d26.8976761!4d75.8241803?authuser=0&hl=en&rclk=1,26.8976761,75.8241803,Rajasthan
Soni Hospital,Hospital,"5V24+VGF, 1 gh, Vigyan Nagar, Kota, Rajasthan 324005, India",https://www.google.co.kr/maps/place/Soni+Hospital/data=!4m5!3m4!1s0x396f8526ffffffff:0x6c3f42f7deb637f5!8m2!3d25.1521808!4d75.8563008?authuser=0&hl=en&rclk=1,25.1521808,75.8563008,Rajasthan
Hospital,Hospital,"5F3M+64P, Holpur Kalan, Rajasthan 342605, India",https://www.google.co.kr/maps/place/Hospital/data=!4m5!3m4!1s0x3969fe3400000001:0x7c4b0505ce98e5cb!8m2!3d26.1530778!4d73.4828374?authuser=0&hl=en&rclk=1,26.1530778,73.4828374,Rajasthan
Hospital,Hospital,"F8VV+4MJ, Domai, Rajasthan 328026, India",https://www.google.co.kr/maps/place/Hospital/data=!4m5!3m4!1s0x39717bd160c8c7f1:0xfb3040b9492bde6a!8m2!3d26.4928436!4d77.3441295?authuser=0&hl=en&rclk=1,26.4928436,77.3441295,Rajasthan
Aastha Hospital jhunjhunu,Hospital,"521, Indra Nagar, Jhunjhunu, Rajasthan 333001, India",https://www.google.co.kr/maps/place/Aastha+Hospital+jhunjhunu/data=!4m5!3m4!1s0x3913390032127af1:0xda09d74f8d693438!8m2!3d28.1188802!4d75.3885834?authuser=0&hl=en&rclk=1,28.1188802,75.3885834,Rajasthan
Hospital,Hospital,"Unnamed Road, Rajasthan 303508, India",https://www.google.co.kr/maps/place/Hospital/data=!4m5!3m4!1s0x39726db325988711:0x978f40f135be567c!8m2!3d26.9184841!4d76.7158864?authuser=0&hl=en&rclk=1,26.9184841,76.7158864,Rajasthan
Hospital,Hospital,"X6G5+34F, Chousali, Rajasthan 341503, India",https://www.google.co.kr/maps/place/Hospital/data=!4m5!3m4!1s0x396a5582dd67de73:0xfa5fb276cbd74c8b!8m2!3d26.9751977!4d74.2077835?authuser=0&hl=en&rclk=1,26.9751977,74.2077835,Rajasthan
Siddham ENT Centre LLP (NABH Accredited),Otolaryngologist,"A-14,15,in front of Ganga Jamuna Petrol Pump, Gopalpura Bypass Road, Shipra Path, corner, Heera Nagar, Jaipur, Rajasthan 302019, India",https://www.google.co.kr/maps/place/Siddham+ENT+Centre+LLP+(NABH+Accredited)/data=!4m5!3m4!1s0x396db44e29a81075:0x9edb21afd0555052!8m2!3d26.8798984!4d75.7575597?authuser=0&hl=en&rclk=1,26.8798984,75.7575597,Rajasthan
Hospital,Hospital,"VPWH+VGJ, Bari Ka Khera, Rajasthan 312022, India",https://www.google.co.kr/maps/place/Hospital/data=!4m5!3m4!1s0x3968a7d2999cc1af:0x8868eef71247b666!8m2!3d24.8972085!4d74.7287605?authuser=0&hl=en&rclk=1,24.8972085,74.7287605,Rajasthan
HOSPITAL,Hospital,"H7HG+764, Sewa, Rajasthan 303008, India",https://www.google.co.kr/maps/place/HOSPITAL/data=!4m5!3m4!1s0x396c19ba39379881:0xf3be32f590dab67b!8m2!3d26.5781341!4d75.2755845?authuser=0&hl=en&rclk=1,26.5781341,75.2755845,Rajasthan
Mini Hospital,Hospital,"XJXP+483, Sabalpur, Rajasthan 341542, India",https://www.google.co.kr/maps/place/Mini+Hospital/data=!4m5!3m4!1s0x396b9f216c4358ed:0x42916d1d4657471a!8m2!3d26.9977552!4d74.6358043?authuser=0&hl=en&rclk=1,26.9977552,74.6358043,Rajasthan
Hospital,Hospital,"HR7C+XXR, Phalasthooni, Rajasthan 323802, India",https://www.google.co.kr/maps/place/Hospital/data=!4m5!3m4!1s0x396fafe544ebfc5b:0xc19069ba2deae3f4!8m2!3d25.5649922!4d75.8223762?authuser=0&hl=en&rclk=1,25.5649922,75.8223762,Rajasthan
Hospital,Hospital,"4939+XPG, Rajola Kalan, Rajasthan 306104, India",https://www.google.co.kr/maps/place/Hospital/data=!4m5!3m4!1s0x394203fe735ee279:0xe2062899af57502!8m2!3d26.1049349!4d73.3693191?authuser=0&hl=en&rclk=1,26.1049349,73.3693191,Rajasthan
Hospital,Hospital,"48H3+746, Shambhoopura, Rajasthan 305415, India",https://www.google.co.kr/maps/place/Hospital/data=!4m5!3m4!1s0x396ebfd55d9062b3:0x79ecc64ca477015b!8m2!3d26.1281554!4d75.3027593?authuser=0&hl=en&rclk=1,26.1281554,75.3027593,Rajasthan
HOSPITAL,Hospital,"X8VR+9X4, Chittorgarh, Rajasthan 312203, India",https://www.google.co.kr/maps/place/HOSPITAL/data=!4m5!3m4!1s0x3968852dd063b3bb:0x6e20a45ccf99d939!8m2!3d24.9933952!4d74.3424504?authuser=0&hl=en&rclk=1,24.9933952,74.3424504,Rajasthan
Ansh Hospital,Hospital,"24, Rampura Rd, Suraj Nagar, Kalyanpura, Sanganer, Jaipur, Rajasthan 302029, India",https://www.google.co.kr/maps/place/Ansh+Hospital/data=!4m5!3m4!1s0x396dca806ed112b1:0x59cfb4328d83ad90!8m2!3d26.8209256!4d75.7592967?authuser=0&hl=en&rclk=1,26.8209256,75.7592967,Rajasthan
GEETANJALI HOSPITAL,Hospital,"Hiranmagri Extension, Manwakhera NH-8 Bypass, Near Eklingpura, Chouraha, Udaipur, Rajasthan 313002, India",https://www.google.co.kr/maps/place/GEETANJALI+HOSPITAL/data=!4m5!3m4!1s0x3967ef3640000001:0xb46fd74030794182!8m2!3d24.5524704!4d73.7404306?authuser=0&hl=en&rclk=1,24.5524704,73.7404306,Rajasthan
Hospital,Hospital,"6R35+597, Rampura Hanu, Rajasthan 305601, India",https://www.google.co.kr/maps/place/Hospital/data=!4m5!3m4!1s0x396951c2ee363961:0x58533812917eb5d!8m2!3d26.2029164!4d74.8084291?authuser=0&hl=en&rclk=1,26.2029164,74.8084291,Rajasthan
Janana Hospital,Maternity hospital,"86/208, Kumbha Marg, Sector 8, Sector 6, Pratap Nagar, Jaipur, Rajasthan 302033, India",https://www.google.co.kr/maps/place/Janana+Hospital/data=!4m5!3m4!1s0x396dc98e6c74970d:0x7f4484ce0385ab55!8m2!3d26.7988652!4d75.8167026?authuser=0&hl=en&rclk=1,26.7988652,75.8167026,Rajasthan
Hospital,Hospital,"3V3W+6G7, Mohra Kalan, Rajasthan 306305, India",https://www.google.co.kr/maps/place/Hospital/data=!4m5!3m4!1s0x3969926415555555:0x1e7752e3694bbba1!8m2!3d26.0530301!4d73.8962994?authuser=0&hl=en&rclk=1,26.0530301,73.8962994,Rajasthan
ECHS Polyclinic,Military hospital,"Jodhpur-Shankhwas Rd, Rai Ka Bagh, Jodhpur, Rajasthan 342006, India",https://www.google.co.kr/maps/place/ECHS+Polyclinic/data=!4m5!3m4!1s0x39418d018b65e647:0xa92abc367bc74ceb!8m2!3d26.2918615!4d73.0458906?authuser=0&hl=en&rclk=1,26.2918615,73.0458906,Rajasthan
CHC Jhadol,Government hospital,"New colony, (ph), Jharol, Rajasthan, India",https://www.google.co.kr/maps/place/CHC+Jhadol/data=!4m5!3m4!1s0x3967f59b5ddf7155:0xe8ef864859f4c8e7!8m2!3d24.4156!4d73.4783136?authuser=0&hl=en&rclk=1,24.4156,73.4783136,Rajasthan
St. Francis Hospital,Hospital,"Near Martindal Bridge, Beawar Rd, Ajmer, Rajasthan 305001, India",https://www.google.co.kr/maps/place/St.+Francis+Hospital/data=!4m5!3m4!1s0x396be0d6bb737997:0x3d93a6bfb6aa270!8m2!3d26.4500652!4d74.6397767?authuser=0&hl=en&rclk=1,26.4500652,74.6397767,Rajasthan
Balaji Ayruvaid Hospital's,Hospital,"A-6, Govindpura, Jhotwara, Jaipur, Rajasthan 302012, India",https://www.google.co.kr/maps/place/Balaji+Ayruvaid+Hospital's/data=!4m5!3m4!1s0x396c4cd7800842c1:0x9d22519b41e8b70f!8m2!3d26.9524659!4d75.7022649?authuser=0&hl=en&rclk=1,26.9524659,75.7022649,Rajasthan
Hospital,Hospital,"FWWG+X9G, Mandawara, Rajasthan 313331, India",https://www.google.co.kr/maps/place/Hospital/data=!4m5!3m4!1s0x39684bbb3a81008b:0x136c07a6b9a0e6e1!8m2!3d25.4974455!4d73.9259522?authuser=0&hl=en&rclk=1,25.4974455,73.9259522,Rajasthan
Harish Hospital Alwar,Hospital,"Commercial Complex, 01, Raghu Marg, Sector 7, Alwar, Rajasthan 301001, India",https://www.google.co.kr/maps/place/Harish+Hospital+Alwar/data=!4m5!3m4!1s0x3972998fa7e65df3:0x9087988f85db874a!8m2!3d27.561402!4d76.6129438?authuser=0&hl=en&rclk=1,27.561402,76.6129438,Rajasthan
India Medical,Medical Center,"Ajmer Rd, Adarsh Nagar, Ajmer, Rajasthan 305002, India",https://www.google.co.kr/maps/place/India+Medical/data=!4m5!3m4!1s0x396be12e0848dc97:0x28a5a6b111021453!8m2!3d26.423266!4d74.6508759?authuser=0&hl=en&rclk=1,26.423266,74.6508759,Rajasthan
Hospital,Hospital,"Unnamed Road, Gordhanpura, Rajasthan 311804, India",https://www.google.co.kr/maps/place/Hospital/data=!4m5!3m4!1s0x3969ab8c6a44e86d:0x262cee59cf165b4b!8m2!3d25.6026067!4d74.2046717?authuser=0&hl=en&rclk=1,25.6026067,74.2046717,Rajasthan
Arihant Hospital & IVF Center,Fertility clinic,"Somnath Trihans Street, Taparia Bageechi, Sikar, Sikar, Rajasthan 332001, India",https://www.google.co.kr/maps/place/Arihant+Hospital+%26+IVF+Center/data=!4m5!3m4!1s0x396ca4ce90b4844f:0x894ff22028afd96e!8m2!3d27.616912!4d75.14779?authuser=0&hl=en&rclk=1,27.616912,75.14779,Rajasthan
sub center,Hospital,"5H23+C5Q, Dhananwa, Rajasthan 341319, India",https://www.google.co.kr/maps/place/sub+center/data=!4m5!3m4!1s0x396b0b7dce3bd123:0x24f01b26e09ff6ce!8m2!3d27.1510914!4d74.5529861?authuser=0&hl=en&rclk=1,27.1510914,74.5529861,Rajasthan
Rajasthan hospital,General hospital,"2nd floor, Guru Orthopedic hospital ke uper, S.T. bus pick up Stan ke piche, Aroma Cir, Palanpur, 385001, India",https://www.google.co.kr/maps/place/Rajasthan+hospital/data=!4m5!3m4!1s0x395ceb3892145687:0x2c8da4779be9de09!8m2!3d24.1735879!4d72.4176589?authuser=0&hl=en&rclk=1,24.1735879,72.4176589,Rajasthan
Escc hospital,Hospital,"Jawahar Circle, Choti Chopad, Chandrakala Colony, Durgapura, Jaipur, Rajasthan, India",https://www.google.co.kr/maps/place/Escc+hospital/data=!4m5!3m4!1s0x396db52ea39f3fed:0x2433aeab2ebf1a79!8m2!3d26.8399077!4d75.7984794?authuser=0&hl=en&rclk=1,26.8399077,75.7984794,Rajasthan
HEMARAM GARWA MARG,Hospital,"V8WF+7GH, Degana, Rajasthan 341503, India",https://www.google.co.kr/maps/place/HEMARAM+GARWA+MARG/data=!4m5!3m4!1s0x396bae62d41157bf:0x344b945f5470e90b!8m2!3d26.8956896!4d74.3238522?authuser=0&hl=en&rclk=1,26.8956896,74.3238522,Rajasthan
SHERPUR GOVT HOSPITAL,Government hospital,"Q44C+7FX, Sherpur, Rajasthan 322236, India",https://www.google.co.kr/maps/place/SHERPUR+GOVT+HOSPITAL/data=!4m5!3m4!1s0x39722df1e58da2c7:0xf183f23cad4b159f!8m2!3d26.755733!4d77.121225?authuser=0&hl=en&rclk=1,26.755733,77.121225,Rajasthan
Jain Ent Hospital,Hospital,"Unnamed Road, Vishwakarma Industrial Area, Jaipur, Rajasthan 302013, India",https://www.google.co.kr/maps/place/Jain+Ent+Hospital/data=!4m5!3m4!1s0x396db3fc6e5b1ae3:0x714e1d97a53aed80!8m2!3d26.995627!4d75.7755191?authuser=0&hl=en&rclk=1,26.995627,75.7755191,Rajasthan
Hospital,Hospital,"Badli, Rajasthan 305624, India",https://www.google.co.kr/maps/place/Hospital/data=!4m5!3m4!1s0x396938e7b7aaaaab:0xf5a9c197ea997cce!8m2!3d25.9388786!4d74.7126736?authuser=0&hl=en&rclk=1,25.9388786,74.7126736,Rajasthan
ENT HOSPITAL,Hospital,"Calgiri Marg, Jhalana Gram, Malviya Nagar, Jaipur, Rajasthan 302017, India",https://www.google.co.kr/maps/place/ENT+HOSPITAL/data=!4m5!3m4!1s0x396db7e6a7deab09:0xa6f58155a8c9194!8m2!3d26.8572356!4d75.815447?authuser=0&hl=en&rclk=1,26.8572356,75.815447,Rajasthan
Dr.J P Swami Urologist,Hospital,"C 12, Sadul Ganj, Bikaner, Rajasthan 334001, India",https://www.google.co.kr/maps/place/Dr.J+P+Swami+Urologist/data=!4m5!3m4!1s0x393fe762cfc8b637:0xca33133c8e639a9!8m2!3d28.0091792!4d73.3344771?authuser=0&hl=en&rclk=1,28.0091792,73.3344771,Rajasthan
Hospital,Hospital,"Nai Rajyas, Rajasthan 311407, India",https://www.google.co.kr/maps/place/Hospital/data=!4m5!3m4!1s0x39692e73f2f17cab:0xe472a16ee2e366bc!8m2!3d25.7795003!4d74.8676416?authuser=0&hl=en&rclk=1,25.7795003,74.8676416,Rajasthan
Alakh Nayan Vision Centre,Hospital,"42QQ+9HC, Salumbar, Rajasthan 313027, India",https://www.google.co.kr/maps/place/Alakh+Nayan+Vision+Centre/data=!4m5!3m4!1s0x3967a9f02a04c33f:0x9ca247695731bfd0!8m2!3d24.1384266!4d74.038898?authuser=0&hl=en&rclk=1,24.1384266,74.038898,Rajasthan
Ayush Hospital,Doctor,"34, Shiv Shakti Nagar, Nirman Nagar, Brijlalpura, Jaipur, Rajasthan 302019, India",https://www.google.co.kr/maps/place/Ayush+Hospital/data=!4m5!3m4!1s0x396db4f41f19f363:0x7e21930a815b56ad!8m2!3d26.8859985!4d75.7526807?authuser=0&hl=en&rclk=1,26.8859985,75.7526807,Rajasthan
government hospital,Hospital,"Gayatri Mandir, Station Road, Bhaktiarpur, Bihar 852127, India",https://www.google.co.kr/maps/place/government+hospital/data=!4m5!3m4!1s0x396bae62cb9bda75:0x113d5331243d9775!8m2!3d26.8965274!4d74.3237687?authuser=0&hl=en&rclk=1,26.8965274,74.3237687,Rajasthan
BALAJI HOSPITAL & ORTHOPAEDIC CENTRE,Orthopedic surgeon,"Car bazar DHER KA BALA JI Sikar road Jaipur, 27, Sikar Rd, Maharaja Colony, Ratan Nagar, Parasram Nagar, Dahar Ka Balaji, Jaipur, Rajasthan 302039, India",https://www.google.co.kr/maps/place/BALAJI+HOSPITAL+%26+ORTHOPAEDIC+CENTRE/data=!4m5!3m4!1s0x396db3ae4e9ec7a1:0x9e7e89bafcae0c07!8m2!3d26.9541101!4d75.7700813?authuser=0&hl=en&rclk=1,26.9541101,75.7700813,Rajasthan
Jain ENT Hospital,Otolaryngologist,"23-24, Pankaj Singhvi Marg, Satya Vihar, Indra Puri, Vidhayak Nagar, Lalkothi, Jaipur, Rajasthan 302015, India",https://www.google.co.kr/maps/place/Jain+ENT+Hospital/data=!4m5!3m4!1s0x396db429bfffffff:0x14f733dd465f6ce0!8m2!3d26.8915438!4d75.8003047?authuser=0&hl=en&rclk=1,26.8915438,75.8003047,Rajasthan
Dr Amit Sharma,Rheumatologist,"Fortis Escorts Hospital, Rajasthan 302017, India",https://www.google.co.kr/maps/place/Dr+Amit+Sharma/data=!4m5!3m4!1s0x396db5620701ba09:0xfd23993af0dbfbb7!8m2!3d26.846115!4d75.8033557?authuser=0&hl=en&rclk=1,26.846115,75.8033557,Rajasthan
NEURO SPINE & SUPER SPECIALITY HOSPITAL,Neurologist,"Jaipur Road, Colony, behind Honda Showroom, Mayapuri, Sikar, Rajasthan 332201, India",https://www.google.co.kr/maps/place/NEURO+SPINE+%26+SUPER+SPECIALITY+HOSPITAL/data=!4m5!3m4!1s0x396cbb5a707c4015:0xa741454ef93ed4b1!8m2!3d27.5956908!4d75.1667887?authuser=0&hl=en&rclk=1,27.5956908,75.1667887,Rajasthan
Dr. Yogesh Gupta- Neurosurgeon (Rungta Hospital) Brain tumor & Spine surgeon,Neurosurgeon,"Calgiri Marg, Jhalana Gram, Malviya Nagar, Jaipur, Rajasthan 302017, India",https://www.google.co.kr/maps/place/Dr.+Yogesh+Gupta-+Neurosurgeon+(Rungta+Hospital)+Brain+tumor+%26+Spine+surgeon/data=!4m5!3m4!1s0x396db7579cfe3785:0xab6a012d655e4170!8m2!3d26.8572356!4d75.815447?authuser=0&hl=en&rclk=1,26.8572356,75.815447,Rajasthan
K K Diagnostic Centre,Diagnostic center,"Hawa Mahal Rd, Pink City, Jaipur, Rajasthan 302002, India",https://www.google.co.kr/maps/place/K+K+Diagnostic+Centre/data=!4m5!3m4!1s0x396db14a747399f1:0xf9c6f99e27f47d52!8m2!3d26.926063!4d75.8315041?authuser=0&hl=en&rclk=1,26.926063,75.8315041,Rajasthan
Dr. Anju Soni,Women's health clinic,"11, Chetak Marg, Near Police Memorial, Adarsh Nagar, Jaipur, Rajasthan 302004, India",https://www.google.co.kr/maps/place/Dr.+Anju+Soni/data=!4m5!3m4!1s0x396db6a2c86e86e9:0xf1b7b17690b6cc2d!8m2!3d26.8997365!4d75.817909?authuser=0&hl=en&rclk=1,26.8997365,75.817909,Rajasthan
Dr AMIT KUMAR BAGARIA,Neurologist,"Amit Neuro Brain and Spine Care, Shramdan Marg, near shri Kalayan Hospital, Sikar, Rajasthan 332001, India",https://www.google.co.kr/maps/place/Dr+AMIT+KUMAR+BAGARIA/data=!4m5!3m4!1s0x396ca5f04917dfc7:0x1e6fdc363fe3d892!8m2!3d27.6136397!4d75.1501909?authuser=0&hl=en&rclk=1,27.6136397,75.1501909,Rajasthan
Paras Hospitals,Hospital,"1, Block, Phase 1, Indian Airlines Pilots Society, Sushant Lok Phase I, Sector 43, Gurugram, Haryana 122002, India",https://www.google.co.kr/maps/place/Paras+Hospitals/data=!4m5!3m4!1s0x390d18e0987c8fd3:0x521754de967b147d!8m2!3d28.474985!4d77.075675?authuser=0&hl=en&rclk=1,28.474985,77.075675,Rajasthan
Sankalp - The Taste of South,·₩₩,"637/B, Residency Rd, Near Manidhari Hospital, Sardarpura, Jodhpur, Rajasthan 342003, India",https://www.google.co.kr/maps/place/Sankalp+-+The+Taste+of+South/data=!4m5!3m4!1s0x39418c3003d2e6b3:0x6d584e46e762015e!8m2!3d26.2749!4d73.0045681?authuser=0&hl=en&rclk=1,26.2749,73.0045681,Rajasthan
"Indraprastha Apollo Hospitals, New Delhi",General hospital,"Indraprastha Apollo Hospita, Mathura Rd, Jasola Vihar, New Delhi, Delhi 110076, India","https://www.google.co.kr/maps/place/Indraprastha+Apollo+Hospitals,+New+Delhi/data=!4m5!3m4!1s0x390ce6ad13eaaa99:0x3bc07ad476bc6d77!8m2!3d28.5415087!4d77.2833256?authuser=0&hl=en&rclk=1",28.5415087,77.2833256,Rajasthan
Paras Epilepsy Clinic,Hospital,"Paras Hospitals, Room No. 101 C-1 Sushant Lok- 1, Phase- I, Sector 43, Gurugram, Haryana 122002, India",https://www.google.co.kr/maps/place/Paras+Epilepsy+Clinic/data=!4m5!3m4!1s0x390d18c75e784921:0x42311fe82d15e7d1!8m2!3d28.450766!4d77.087574?authuser=0&hl=en&rclk=1,28.450766,77.087574,Rajasthan
Dr Sachin Jhawar,Doctor,"Sp 6, Malviya Nagar, Malviya Nagar, Jaipur, Rajasthan 302002, India",https://www.google.co.kr/maps/place/Dr+Sachin+Jhawar/data=!4m5!3m4!1s0x396db67400000001:0xa8daa6614674ade2!8m2!3d26.8571917!4d75.8126972?authuser=0&hl=en&rclk=1,26.8571917,75.8126972,Rajasthan
Rajasthan Hospital Ahmedabad,Hospital,"Shahibaug Rd, Arihant Nagar, Shahibag, Ahmedabad, Gujarat 380004, India",https://www.google.co.kr/maps/place/Rajasthan+Hospital+Ahmedabad/data=!4m5!3m4!1s0x395e840de6c7179f:0x2e74535df195b8f3!8m2!3d23.0550441!4d72.5969431?authuser=0&hl=en&rclk=1,23.0550441,72.5969431,Rajasthan
Paras Hospitals Pediatric Neurology Clinic,Hospital,"20, PARAS HOSPITALS, C1, Block C, Sushant Lok Phase I, Sector 43, Gurugram, Haryana 122002, India",https://www.google.co.kr/maps/place/Paras+Hospitals+Pediatric+Neurology+Clinic/data=!4m5!3m4!1s0x390d18c737be28cf:0x8de8b35e61576661!8m2!3d28.450879!4d77.087599?authuser=0&hl=en&rclk=1,28.450879,77.087599,Rajasthan
Dr Ravi Gupta,Urologist,"GA 3, near MPS School, Sector 6, Jawahar Nagar, Jaipur, Rajasthan 302004, India",https://www.google.co.kr/maps/place/Dr+Ravi+Gupta/data=!4m5!3m4!1s0x396db6ee09c6f913:0xd516ca3d2866617e!8m2!3d26.8892608!4d75.8316955?authuser=0&hl=en&rclk=1,26.8892608,75.8316955,Rajasthan
Navneet Saxena,Nephrologist,"D-271, Nav-Taru Siddarth Nagar, Malviya Nagar, Malviya Nagar, Jaipur, Rajasthan 302017, India",https://www.google.co.kr/maps/place/Navneet+Saxena/data=!4m5!3m4!1s0x396db67400000001:0x589f6e5c49682670!8m2!3d26.8571917!4d75.8126972?authuser=0&hl=en&rclk=1,26.8571917,75.8126972,Rajasthan
Dr.Vijay Kumar Physio (PT),Doctor,"Advance Hospital, Sirothia Colony, Dada Gurudev Nagar, Sanganer, Jaipur, Rajasthan 302029, India",https://www.google.co.kr/maps/place/Dr.Vijay+Kumar+Physio+(PT)/data=!4m5!3m4!1s0x396db58e44888133:0xbdb1043929f7b1b0!8m2!3d26.8008287!4d75.7722877?authuser=0&hl=en&rclk=1,26.8008287,75.7722877,Rajasthan
