Company_Name,Category,Address,Url,Latitude,Longitude,Territory
Santokh Klinics,Hospital,"SCO 77, Sector 38C, Market, Chandigarh, 160036, India",https://www.google.co.kr/maps/place/Santokh+Klinics/data=!4m5!3m4!1s0x390fed004765f131:0x9b7116c65148d505!8m2!3d30.742974!4d76.7448525?authuser=0&hl=en&rclk=1,30.742974,76.7448525,Chandigarh
Healing Hospital- Best Super Speciality Hospital in Chandigarh,Hospital,"SCO 16-17-18-19-20, Sub. City Center, Sector 34A, Sector 35, Chandigarh, 160022, India",https://www.google.co.kr/maps/place/Healing+Hospital-+Best+Super+Speciality+Hospital+in+Chandigarh/data=!4m5!3m4!1s0x390fedae06440b71:0x96f0b99e412a2f99!8m2!3d30.7245935!4d76.7688916?authuser=0&hl=en&rclk=1,30.7245935,76.7688916,Chandigarh
Landmark Hospital,General hospital,"Site No I-II, opp. Terrace Garden, Sector 33C, Sector 33, Chandigarh, 160020, India",https://www.google.co.kr/maps/place/Landmark+Hospital/data=!4m5!3m4!1s0x390fec518e2ffd49:0x74c6668fb5df82a1!8m2!3d30.7122958!4d76.7701929?authuser=0&hl=en&rclk=1,30.7122958,76.7701929,Chandigarh
Mukat Hospital & Heart Institute,General hospital,"47, S.C.O, 49, Dakshin Marg, Sector 34A, Chandigarh, 160022, India",https://www.google.co.kr/maps/place/Mukat+Hospital+%26+Heart+Institute/data=!4m5!3m4!1s0x390fedb315555551:0x31a8410f96dd6b9!8m2!3d30.7229206!4d76.7705566?authuser=0&hl=en&rclk=1,30.7229206,76.7705566,Chandigarh
"Santokh Hospital - Multi-speciality Hospital Orthopaedic, Gyne, Paediatrics, Dialysis, ICU, Surgery Chandigarh",General hospital,"# 846, Sector 38A, Sector 38, Chandigarh, 160014, India","https://www.google.co.kr/maps/place/Santokh+Hospital+-+Multi-speciality+Hospital+Orthopaedic,+Gyne,+Paediatrics,+Dialysis,+ICU,+Surgery+Chandigarh/data=!4m5!3m4!1s0x390fedee591d7d53:0xcbb4e5fc949ed282!8m2!3d30.7478786!4d76.7489313?authuser=0&hl=en&rclk=1",30.7478786,76.7489313,Chandigarh
DHARAM HOSPITAL,Private hospital,"#2040 sector 15 c, Chandigarh 160015, India",https://www.google.co.kr/maps/place/DHARAM+HOSPITAL/data=!4m5!3m4!1s0x390fed9b3fffffff:0xe0e216643c1ac722!8m2!3d30.7492297!4d76.7740115?authuser=0&hl=en&rclk=1,30.7492297,76.7740115,Chandigarh
"Max Super Specialty Hospital, Mohali",Hospital,"Chandigarh Rd, near Civil Hospital, Phase 6, Sector 56, Sahibzada Ajit Singh Nagar, Punjab 160055, India","https://www.google.co.kr/maps/place/Max+Super+Specialty+Hospital,+Mohali/data=!4m5!3m4!1s0x390fee144e36fcd5:0xa254c2b1f858248a!8m2!3d30.74008!4d76.7142961?authuser=0&hl=en&rclk=1",30.74008,76.7142961,Chandigarh
Indus Super Speciality Hospital,General hospital,"opp. Old DC Office, Sector 55, Phase 1, Sector 55, Sahibzada Ajit Singh Nagar, Chandigarh 160055, India",https://www.google.co.kr/maps/place/Indus+Super+Speciality+Hospital/data=!4m5!3m4!1s0x390feda785d2ec5f:0x6301495b4669e0ed!8m2!3d30.7292742!4d76.7219871?authuser=0&hl=en&rclk=1,30.7292742,76.7219871,Chandigarh
Government Hospital,General hospital,"Palika Bazar, 19D, Sector 19, Chandigarh, 160019, India",https://www.google.co.kr/maps/place/Government+Hospital/data=!4m5!3m4!1s0x390fed1b15555555:0x243613cf8e302f7e!8m2!3d30.728176!4d76.7927981?authuser=0&hl=en&rclk=1,30.728176,76.7927981,Chandigarh
"Dr Atul Malhotra - Orthopedic Doctor in Chandigarh, Punjab, India- Knee Replacement Surgeon In Punjab| Best Trauma Hospital In Chandigarh| Best Knee and Hip Hospital In Chandigarh",Hospital,"2125, Sarovar Path, Sector 21C, Sector 21, Chandigarh, 160022, India","https://www.google.co.kr/maps/place/Dr+Atul+Malhotra+-+Orthopedic+Doctor+in+Chandigarh,+Punjab,+India-+Knee+Replacement+Surgeon+In+Punjab%7C+Best+Trauma+Hospital+In+Chandigarh%7C+Best+Knee+and+Hip+Hospital+In+Chandigarh/data=!4m5!3m4!1s0x390fedabefdf9d6f:0xcc14f30f0bdbba7d!8m2!3d30.724101!4d76.774772?authuser=0&hl=en&rclk=1",30.724101,76.774772,Chandigarh
"Chaitanya Hospital Best Gynecologist, Child Specialist, Delivery, NICU, PICU and Vaccination Centre in Chandigarh",Maternity hospital,"Hospital Site 1 And 2, 44C, Chandigarh, 160047, India","https://www.google.co.kr/maps/place/Chaitanya+Hospital+Best+Gynecologist,+Child+Specialist,+Delivery,+NICU,+PICU+and+Vaccination+Centre+in+Chandigarh/data=!4m5!3m4!1s0x390fec346aaaaaab:0x44ed6b196913f7fd!8m2!3d30.7106785!4d76.7542021?authuser=0&hl=en&rclk=1",30.7106785,76.7542021,Chandigarh
Indus Hospital,General hospital,"SCF 98-100, Near Chawla Chowk, Phase 3B-2, Sector 60, Sahibzada Ajit Singh Nagar, Punjab 160059, India",https://www.google.co.kr/maps/place/Indus+Hospital/data=!4m5!3m4!1s0x390fee8605689d5d:0xd59b4b3b1af58a09!8m2!3d30.7089058!4d76.7225259?authuser=0&hl=en&rclk=1,30.7089058,76.7225259,Chandigarh
Cloudnine Hospital - Chandigarh,Maternity hospital,"48, Phase-2, Industrial Area Phase I, Chandigarh, 160002, India",https://www.google.co.kr/maps/place/Cloudnine+Hospital+-+Chandigarh/data=!4m5!3m4!1s0x390fecf305a2d351:0x46dbd6e5ebd44ac4!8m2!3d30.700183!4d76.787673?authuser=0&hl=en&rclk=1,30.700183,76.787673,Chandigarh
"Nehru Hospital, PGI",Government hospital,"PGIMER, Sector 12, Chandigarh, 160012, India","https://www.google.co.kr/maps/place/Nehru+Hospital,+PGI/data=!4m5!3m4!1s0x390f949dc0000001:0xa192aca15c2d8f4a!8m2!3d30.7609287!4d76.7759577?authuser=0&hl=en&rclk=1",30.7609287,76.7759577,Chandigarh
Guru Nanak Multispeciality C Hospital,General hospital,"Dr.P.N.Chhuttani Memorial IMA Complex, 35B, Sector 35, Chandigarh, 160022, India",https://www.google.co.kr/maps/place/Guru+Nanak+Multispeciality+C+Hospital/data=!4m5!3m4!1s0x390fedb6cd005d07:0xc5c1b85beb0c5301!8m2!3d30.7255701!4d76.7623332?authuser=0&hl=en&rclk=1,30.7255701,76.7623332,Chandigarh
Chd City Hospital,Hospital,"SCO 10, 11, Madhya Marg, Sector 8C, Sector 9, Chandigarh, 160009, India",https://www.google.co.kr/maps/place/Chd+City+Hospital/data=!4m5!3m4!1s0x390fed959ea1c2a9:0x9cfc8f9780f2ce27!8m2!3d30.7416715!4d76.7943035?authuser=0&hl=en&rclk=1,30.7416715,76.7943035,Chandigarh
Ayu Health Hospital,Hospital,"33A, Sector 33A, Chandigarh, 160020, India",https://www.google.co.kr/maps/place/Ayu+Health+Hospital/data=!4m5!3m4!1s0x390fedf9d0cd5a6b:0xcd260fe8ce7ca51e!8m2!3d30.7175525!4d76.769499?authuser=0&hl=en&rclk=1,30.7175525,76.769499,Chandigarh
Abhilasha Hospital,Maternity hospital,"201, 35A, Sector 35, Chandigarh, 160022, India",https://www.google.co.kr/maps/place/Abhilasha+Hospital/data=!4m5!3m4!1s0x390fedb6ffffffff:0x26bbc82c6527b890!8m2!3d30.7279225!4d76.7595401?authuser=0&hl=en&rclk=1,30.7279225,76.7595401,Chandigarh
"Shalby Hospital, Mohali",Hospital,"near PCA Stadium, Phase 9, Sector 63, Sahibzada Ajit Singh Nagar, Chandigarh 160062, India","https://www.google.co.kr/maps/place/Shalby+Hospital,+Mohali/data=!4m5!3m4!1s0x390feea000764e3f:0xd0f04b8e00abed86!8m2!3d30.6923537!4d76.7334135?authuser=0&hl=en&rclk=1",30.6923537,76.7334135,Chandigarh
Apollo Clinic- Best Orthopaedic and Joint Replacement in Chandigarh,Hospital,"SCO 10-11 NEAR GOPAL SWEETS, Madhya Marg, Sector 8C, Chandigarh, 160009, India",https://www.google.co.kr/maps/place/Apollo+Clinic-+Best+Orthopaedic+and+Joint+Replacement+in+Chandigarh/data=!4m5!3m4!1s0x390fed0d63fa7fff:0x4a2871d698c798f6!8m2!3d30.7403361!4d76.7923828?authuser=0&hl=en&rclk=1,30.7403361,76.7923828,Chandigarh
Kapoor's Kidney & Urostone Centre Pvt. Ltd.,Hospital,"Site No.2 , Near Gurudwara, Opp. 45-46 Traffic Lights, Sector 46D, Chandigarh, 160047, India",https://www.google.co.kr/maps/place/Kapoor's+Kidney+%26+Urostone+Centre+Pvt.+Ltd./data=!4m5!3m4!1s0x390feda6178c691f:0x2d09cdaacacf8056!8m2!3d30.7029445!4d76.7621179?authuser=0&hl=en&rclk=1,30.7029445,76.7621179,Chandigarh
Grecian Super Specialty Hospital,Hospital,"Phase 9, Sahibzada Ajit Singh Nagar, Punjab 160062, India",https://www.google.co.kr/maps/place/Grecian+Super+Specialty+Hospital/data=!4m5!3m4!1s0x390fee61c0000001:0xd304c964b8144afd!8m2!3d30.6911695!4d76.7230479?authuser=0&hl=en&rclk=1,30.6911695,76.7230479,Chandigarh
Nins Brain & Spine Hospital,Hospital,"SCO 341-342, Sub. City Center, Sector 34A, Sector 34, Chandigarh, 160022, India",https://www.google.co.kr/maps/place/Nins+Brain+%26+Spine+Hospital/data=!4m5!3m4!1s0x390fedb315555555:0x1ad14a114d82dc18!8m2!3d30.7219461!4d76.7666137?authuser=0&hl=en&rclk=1,30.7219461,76.7666137,Chandigarh
Civil Hospital,Hospital,"Sector 22 Market Rd, Sector 22-D, Sector 22, Chandigarh, 160022, India",https://www.google.co.kr/maps/place/Civil+Hospital/data=!4m5!3m4!1s0x390feda5b24cdb15:0xe2011cd5e481c9a0!8m2!3d30.7324245!4d76.7715829?authuser=0&hl=en&rclk=1,30.7324245,76.7715829,Chandigarh
Fortis Hospital Mohali,Hospital,"Sector 62, Sahibzada Ajit Singh Nagar, Punjab 160062, India",https://www.google.co.kr/maps/place/Fortis+Hospital+Mohali/data=!4m5!3m4!1s0x390fee9f04ed85e1:0x63296ed41f02307d!8m2!3d30.6952387!4d76.7314157?authuser=0&hl=en&rclk=1,30.6952387,76.7314157,Chandigarh
Government Multi Specialty Hospital,Government hospital,"Madhya Marg, Sector 16 A, Sector 16, Chandigarh, 160015, India",https://www.google.co.kr/maps/place/Government+Multi+Specialty+Hospital/data=!4m5!3m4!1s0x390fed9e6aaaaaab:0xb69ac75e920cdba5!8m2!3d30.7515025!4d76.780409?authuser=0&hl=en&rclk=1,30.7515025,76.780409,Chandigarh
Civil Hospital Manimajra,Hospital,"PR7R+3XR, Sector 13, Chandigarh, Haryana 160101, India",https://www.google.co.kr/maps/place/Civil+Hospital+Manimajra/data=!4m5!3m4!1s0x390f933b70683ce9:0xe1cb4161a4fe0e32!8m2!3d30.7127379!4d76.8424016?authuser=0&hl=en&rclk=1,30.7127379,76.8424016,Chandigarh
German Hospital,Hospital,"Karoran Road Nayagaon, Chandigarh, 160103, India",https://www.google.co.kr/maps/place/German+Hospital/data=!4m5!3m4!1s0x390ff299bdd867b3:0xa01dabfb3adba421!8m2!3d30.7789672!4d76.8031235?authuser=0&hl=en&rclk=1,30.7789672,76.8031235,Chandigarh
General Hospital,Hospital,"Phase 2, Sector 54, Sahibzada Ajit Singh Nagar, Chandigarh 160059, India",https://www.google.co.kr/maps/place/General+Hospital/data=!4m5!3m4!1s0x390fee70883996d7:0xe500390052a24270!8m2!3d30.7262357!4d76.7250677?authuser=0&hl=en&rclk=1,30.7262357,76.7250677,Chandigarh
Tera Hi Tera Mission Hospital,Hospital,"Sco 138, opposite E Sampark Center, Sector 45C, Sector 45, Chandigarh, India",https://www.google.co.kr/maps/place/Tera+Hi+Tera+Mission+Hospital/data=!4m5!3m4!1s0x390fed36ce0f19ad:0xb0b7e9357ca275d9!8m2!3d30.7048686!4d76.7592749?authuser=0&hl=en&rclk=1,30.7048686,76.7592749,Chandigarh
Jindal IVF and Sant Memorial Nursing Home,Hospital,"#3050, behind Sri Guru Ravidass Bhawan, Sector 20D, Chandigarh, 160020, India",https://www.google.co.kr/maps/place/Jindal+IVF+and+Sant+Memorial+Nursing+Home/data=!4m5!3m4!1s0x390fed0040000001:0x944d4bb17429be75!8m2!3d30.7190721!4d76.7758507?authuser=0&hl=en&rclk=1,30.7190721,76.7758507,Chandigarh
P.G.I Hospital,Hospital,"Government High School Rd, Sector 35D, Sector 35, Chandigarh, 160022, India",https://www.google.co.kr/maps/place/P.G.I+Hospital/data=!4m5!3m4!1s0x390fedc82fffffff:0x8fffa3a3543256b2!8m2!3d30.7667459!4d76.7773869?authuser=0&hl=en&rclk=1,30.7667459,76.7773869,Chandigarh
Fortis hospital,Hospital,"MQHQ+89Q, Chandigarh Airport Area, Chandigarh, 160003, India",https://www.google.co.kr/maps/place/Fortis+hospital/data=!4m5!3m4!1s0x390fede1040a7ca7:0x4865d99d3ac9840e!8m2!3d30.6783321!4d76.7884713?authuser=0&hl=en&rclk=1,30.6783321,76.7884713,Chandigarh
Cosmo Hospital,Hospital,"Cosmo Hospital, Sector 62, Sahibzada Ajit Singh Nagar, Punjab 160062, India",https://www.google.co.kr/maps/place/Cosmo+Hospital/data=!4m5!3m4!1s0x390fee9974b8ceb5:0xd51ba6b758b17a7d!8m2!3d30.6993482!4d76.727238?authuser=0&hl=en&rclk=1,30.6993482,76.727238,Chandigarh
"Ayu Health Super-Speciality Hospital, Sector 34, Chandigarh",Hospital,"S.C.O, 49, Dakshin Marg, Sector 34A, Chandigarh, 160022, India","https://www.google.co.kr/maps/place/Ayu+Health+Super-Speciality+Hospital,+Sector+34,+Chandigarh/data=!4m5!3m4!1s0x390fed9715799d6f:0x12346f92345efe40!8m2!3d30.7229206!4d76.7705566?authuser=0&hl=en&rclk=1",30.7229206,76.7705566,Chandigarh
"PGI Hospital, Chandigarh",Hospital,"PGIMER, Madhya Marg, Sector 12, Chandigarh, 160012, India","https://www.google.co.kr/maps/place/PGI+Hospital,+Chandigarh/data=!4m5!3m4!1s0x390feddd2636254b:0xc6016b971a74b592!8m2!3d30.7604584!4d76.775389?authuser=0&hl=en&rclk=1",30.7604584,76.775389,Chandigarh
Charitable hospital,Hospital,"Unnamed Road, 24B, Sector 24, Chandigarh, 160036, India",https://www.google.co.kr/maps/place/Charitable+hospital/data=!4m5!3m4!1s0x390fedc995ce3bd1:0x43f572f8537f6b42!8m2!3d30.7476311!4d76.7661675?authuser=0&hl=en&rclk=1,30.7476311,76.7661675,Chandigarh
Govt Hospital,Hospital,"govt hospital, Sector 16 A, Sector 16, Chandigarh, 160015, India",https://www.google.co.kr/maps/place/Govt+Hospital/data=!4m5!3m4!1s0x390fed76100fa67f:0xb8786f074c93626!8m2!3d30.7488367!4d76.7805736?authuser=0&hl=en&rclk=1,30.7488367,76.7805736,Chandigarh
Ortho OPD GOVT HOSPITAL Sec 16 Chandigarh,Hospital,"Sector 16 A, Sector 16, Chandigarh, 160015, India",https://www.google.co.kr/maps/place/Ortho+OPD+GOVT+HOSPITAL+Sec+16+Chandigarh/data=!4m5!3m4!1s0x390fed7632fd76fd:0xd49cd128bb32ca48!8m2!3d30.7507733!4d76.7807151?authuser=0&hl=en&rclk=1,30.7507733,76.7807151,Chandigarh
Hospital,Hospital,"Sector 9C, Sector 32D, Sector 46, Chandigarh, 160047, India",https://www.google.co.kr/maps/place/Hospital/data=!4m5!3m4!1s0x390fedc511ea907b:0x128b2d5dd82f719b!8m2!3d30.7076048!4d76.7744792?authuser=0&hl=en&rclk=1,30.7076048,76.7744792,Chandigarh
Tera Hi Tera,Hospital,"158 Burail, Ekta Market, Burail Village, Sector 45, Chandigarh, 160047, India",https://www.google.co.kr/maps/place/Tera+Hi+Tera/data=!4m5!3m4!1s0x390fede3ce7b74e5:0x8c524e95cb84b5ab!8m2!3d30.7050248!4d76.7592618?authuser=0&hl=en&rclk=1,30.7050248,76.7592618,Chandigarh
PGI Chandigarh,Hospital,"New OPD PGI, Sector 12, Chandigarh, 160012, India",https://www.google.co.kr/maps/place/PGI+Chandigarh/data=!4m5!3m4!1s0x390ff38e8152b0cd:0xde151a432d7c2bec!8m2!3d30.766192!4d76.7783748?authuser=0&hl=en&rclk=1,30.766192,76.7783748,Chandigarh
"Fortis Medcentre Hospital in Chandigarh, Punjab",Medical clinic,"SCO, 11D, Sector 11, Chandigarh, 160011, India","https://www.google.co.kr/maps/place/Fortis+Medcentre+Hospital+in+Chandigarh,+Punjab/data=!4m5!3m4!1s0x390fed793fffff97:0x26ac8f25971112f6!8m2!3d30.7606565!4d76.7820387?authuser=0&hl=en&rclk=1",30.7606565,76.7820387,Chandigarh
New Chandigarh Hospital,Hospital,"QPXW+H94, Mullanpur Garibdass, Punjab 140901, India",https://www.google.co.kr/maps/place/New+Chandigarh+Hospital/data=!4m5!3m4!1s0x390ff231c54812bd:0x7080dfbdf7a1d5f2!8m2!3d30.7988866!4d76.7459584?authuser=0&hl=en&rclk=1,30.7988866,76.7459584,Chandigarh
"Ayu Health Multi Specialty Hospital, Sector 8C, Chandigarh",Hospital,"SCO 10-11, Sector 8C, Sector 8, Chandigarh, 160009, India","https://www.google.co.kr/maps/place/Ayu+Health+Multi+Specialty+Hospital,+Sector+8C,+Chandigarh/data=!4m5!3m4!1s0x390fed7b3e83d78d:0x78ee6333631f0766!8m2!3d30.7403407!4d76.7924143?authuser=0&hl=en&rclk=1",30.7403407,76.7924143,Chandigarh
Mata Kulbir Kaur Ji Charitable Hospital,Government hospital,"Gurudwara Santsar Sahib, Paschim Marg, Sector 38 West, Sector 38, Chandigarh, 160036, India",https://www.google.co.kr/maps/place/Mata+Kulbir+Kaur+Ji+Charitable+Hospital/data=!4m5!3m4!1s0x390fede4716d2b69:0xb938dbdf1360196f!8m2!3d30.745727!4d76.7399096?authuser=0&hl=en&rclk=1,30.745727,76.7399096,Chandigarh
Kaushal Hospital,Hospital,"SCO 49, Sector 42 C, Chandigarh, 160036, India",https://www.google.co.kr/maps/place/Kaushal+Hospital/data=!4m5!3m4!1s0x390fedd1de7e8007:0x21591b315bfbfa0d!8m2!3d30.722822!4d76.7448178?authuser=0&hl=en&rclk=1,30.722822,76.7448178,Chandigarh
Hospital,Hospital,"22A, Sector 22, Chandigarh, 160062, India",https://www.google.co.kr/maps/place/Hospital/data=!4m5!3m4!1s0x390fee97717eccab:0x7d39d606bef34734!8m2!3d30.7345113!4d76.7724913?authuser=0&hl=en&rclk=1,30.7345113,76.7724913,Chandigarh
Hospital Sectar 16,Hospital,"Sector 18D, Sector 18, Chandigarh, 160022, India",https://www.google.co.kr/maps/place/Hospital+Sectar+16/data=!4m5!3m4!1s0x390feda785d2ec5f:0x89b99596ffcf6d99!8m2!3d30.7333148!4d76.7794179?authuser=0&hl=en&rclk=1,30.7333148,76.7794179,Chandigarh
Mayo Hospital,Hospital,"MQH4+HQ9, Jagatpura, Chandigarh, Punjab 140306, India",https://www.google.co.kr/maps/place/Mayo+Hospital/data=!4m5!3m4!1s0x390fec734c71d62b:0x3973575c8c131e7f!8m2!3d30.6789213!4d76.7569755?authuser=0&hl=en&rclk=1,30.6789213,76.7569755,Chandigarh
ESIC Model Hospital,Hospital,"Industrial Area, Phase-2, Ram Darbar, Chandigarh, 160002, India",https://www.google.co.kr/maps/place/ESIC+Model+Hospital/data=!4m5!3m4!1s0x390feb7d07c8944b:0xb363cbb60125275e!8m2!3d30.6967489!4d76.7880026?authuser=0&hl=en&rclk=1,30.6967489,76.7880026,Chandigarh
"E.S.I. Dispensary, Sector-23 C",Government hospital,"2296, Dakshin Marg, 23C, Sector 23, Chandigarh, 160023, India","https://www.google.co.kr/maps/place/E.S.I.+Dispensary,+Sector-23+C/data=!4m5!3m4!1s0x390fedbc1f3d6007:0x182c7429a0a31b1e!8m2!3d30.7362389!4d76.7627779?authuser=0&hl=en&rclk=1",30.7362389,76.7627779,Chandigarh
Civil Hospital and Dispensary,Hospital,"1642, Burail, Burail Village, Sector 45, Chandigarh, 160047, India",https://www.google.co.kr/maps/place/Civil+Hospital+and+Dispensary/data=!4m5!3m4!1s0x390fec4887bab8bf:0xa1e03cc9b0e88eeb!8m2!3d30.704252!4d76.7608845?authuser=0&hl=en&rclk=1,30.704252,76.7608845,Chandigarh
"ARV Orthopaedic Hospital (Best Trauma | Knee Replacement | Orthopedic | Doctor| Hospital In Chandigarh, Panchkula, Mohali, Punjab and Himachal)",Orthopedic surgeon,"2125, Sarovar Path, Sector 21C, Sector 21, Chandigarh, 160002, India","https://www.google.co.kr/maps/place/ARV+Orthopaedic+Hospital+(Best+Trauma+%7C+Knee+Replacement+%7C+Orthopedic+%7C+Doctor%7C+Hospital+In+Chandigarh,+Panchkula,+Mohali,+Punjab+and+Himachal)/data=!4m5!3m4!1s0x390fedaec786bc67:0x39efa012337a5ad9!8m2!3d30.724101!4d76.774772?authuser=0&hl=en&rclk=1",30.724101,76.774772,Chandigarh
Sangam Neuro Hospital,Hospital,"# 619, Sector 18-B, Chandigarh, 160018, India",https://www.google.co.kr/maps/place/Sangam+Neuro+Hospital/data=!4m5!3m4!1s0x390fed0560b66143:0x986241a5439f1ce6!8m2!3d30.7317226!4d76.7898141?authuser=0&hl=en&rclk=1,30.7317226,76.7898141,Chandigarh
"Block A, Nehru Hospital PGI",Hospital,"Nehru Hospital PGI, Madhya Marg, Sector 12, Chandigarh, 160012, India","https://www.google.co.kr/maps/place/Block+A,+Nehru+Hospital+PGI/data=!4m5!3m4!1s0x390fed80e18baf6d:0x8f57a2f13e9f034e!8m2!3d30.761799!4d76.7758368?authuser=0&hl=en&rclk=1",30.761799,76.7758368,Chandigarh
Municipal Corporation Chandigarh Civil Dispensary,Government hospital,"Sector 19 A, Chandigarh 160019, India",https://www.google.co.kr/maps/place/Municipal+Corporation+Chandigarh+Civil+Dispensary/data=!4m5!3m4!1s0x390fed1a5eb8ef8f:0x6e3ca65b4661533c!8m2!3d30.7308811!4d76.794519?authuser=0&hl=en&rclk=1,30.7308811,76.794519,Chandigarh
Dr Chandra Hospital,Hospital,"3311 Sector 19, Sector-26, Sector-26, Chandigarh, 160019, India",https://www.google.co.kr/maps/place/Dr+Chandra+Hospital/data=!4m5!3m4!1s0x390fed23bfffffff:0x1cafa8d3712a469e!8m2!3d30.7296617!4d76.8072196?authuser=0&hl=en&rclk=1,30.7296617,76.8072196,Chandigarh
Deep Hospital,Hospital,"QP7X+C79, HBC, Dhanas, Chandigarh, 160014, India",https://www.google.co.kr/maps/place/Deep+Hospital/data=!4m5!3m4!1s0x390ff209b30edd3f:0x5938713d06fb8240!8m2!3d30.7635471!4d76.7482331?authuser=0&hl=en&rclk=1,30.7635471,76.7482331,Chandigarh
R.M.L Hospital Delhi,Hospital,"312, Sector 21A, Sector 21, Chandigarh, 160022, India",https://www.google.co.kr/maps/place/R.M.L+Hospital+Delhi/data=!4m5!3m4!1s0x390fedb4d3e24565:0x7a75260fad235b3f!8m2!3d30.7300069!4d76.7800113?authuser=0&hl=en&rclk=1,30.7300069,76.7800113,Chandigarh
Hospital,Hospital,"Department of Community Medicine and School of Public Health, PGIMER, Sector 12, Chandigarh, 160012, India",https://www.google.co.kr/maps/place/Hospital/data=!4m5!3m4!1s0x390ff3ed390a5bbd:0xaad6c5229540f7d9!8m2!3d30.7648189!4d76.775638?authuser=0&hl=en&rclk=1,30.7648189,76.775638,Chandigarh
Pandhi Hospital,Hospital,"1151, 36 C, Near Park, Sector 36, Chandigarh, 160036, India",https://www.google.co.kr/maps/place/Pandhi+Hospital/data=!4m5!3m4!1s0x390fedc8c0367197:0x296beed0797897ec!8m2!3d30.726711!4d76.752333?authuser=0&hl=en&rclk=1,30.726711,76.752333,Chandigarh
Genl Hospital,Hospital,"Sector 16, Chandigarh, 160015, India",https://www.google.co.kr/maps/place/Genl+Hospital/data=!4m5!3m4!1s0x390fed9e6aaaaaab:0xe4743f46cad70062!8m2!3d30.7464418!4d76.7783748?authuser=0&hl=en&rclk=1,30.7464418,76.7783748,Chandigarh
Dr Aseem Goyal - Fracture Specialist In Chandigarh,Hospital,"SCO 10, Sector 27D, Sector 27, Chandigarh, 160019, India",https://www.google.co.kr/maps/place/Dr+Aseem+Goyal+-+Fracture+Specialist+In+Chandigarh/data=!4m5!3m4!1s0x390fed03aa0f9349:0xc3dfe780adaf0c5c!8m2!3d30.7248499!4d76.7963295?authuser=0&hl=en&rclk=1,30.7248499,76.7963295,Chandigarh
Piles clinic,Hospital,"piles clinic at 2164, near old shiv mandir, Sector 21C, Chandigarh 160022, India",https://www.google.co.kr/maps/place/Piles+clinic/data=!4m5!3m4!1s0x390fed100080c6a3:0x6d0b099513cbac74!8m2!3d30.7246243!4d76.7744686?authuser=0&hl=en&rclk=1,30.7246243,76.7744686,Chandigarh
Ropar Hospital,Hospital,"Street Number 10, Phase 3B-1, Sector 60, Sahibzada Ajit Singh Nagar, Chandigarh 160059, India",https://www.google.co.kr/maps/place/Ropar+Hospital/data=!4m5!3m4!1s0x390fee872dfbf101:0x53e6b9af6988cb64!8m2!3d30.7122361!4d76.7275442?authuser=0&hl=en&rclk=1,30.7122361,76.7275442,Chandigarh
Chandigarh Hospice,Hospital,"Shanti Path, next to Shakambari Devi Temple, Sector 43-A, Sector 43, Chandigarh, 160022, India",https://www.google.co.kr/maps/place/Chandigarh+Hospice/data=!4m5!3m4!1s0x390fedc957c7d43b:0xd6bc9ea97c06d655!8m2!3d30.722528!4d76.7514214?authuser=0&hl=en&rclk=1,30.722528,76.7514214,Chandigarh
NDDRC Dr. Hardeep Singh,Hospital,"BD Hospital, Udyog Path, 23B, Sector 23, Chandigarh, 160023, India",https://www.google.co.kr/maps/place/NDDRC+Dr.+Hardeep+Singh/data=!4m5!3m4!1s0x390feda2127aaaab:0x34fa7bb993724192!8m2!3d30.7408872!4d76.7728304?authuser=0&hl=en&rclk=1,30.7408872,76.7728304,Chandigarh
Miri Piri Hospital,Hospital,"Plot No 06, Kalgidhar Niwas, Sector 27 B, Manimajra, Manimajra, Sector 13, Chandigarh, 160101, India",https://www.google.co.kr/maps/place/Miri+Piri+Hospital/data=!4m5!3m4!1s0x390f9331ad749419:0xd07e3add4d346d86!8m2!3d30.7119422!4d76.8345485?authuser=0&hl=en&rclk=1,30.7119422,76.8345485,Chandigarh
Chandan Hospital,Heart hospital,"House No 891 Phase, 7, Sector 61, Sahibzada Ajit Singh Nagar, Chandigarh 160062, India",https://www.google.co.kr/maps/place/Chandan+Hospital/data=!4m5!3m4!1s0x390fee84864b8ae9:0x450f5c226b4830cd!8m2!3d30.7055791!4d76.7273072?authuser=0&hl=en&rclk=1,30.7055791,76.7273072,Chandigarh
Government Multi Specialty Hospital,Hospital,"MQQ4+C28, Sector 48A, Sector 48, Chandigarh, 160047, India",https://www.google.co.kr/maps/place/Government+Multi+Specialty+Hospital/data=!4m5!3m4!1s0x390feded8e8db57f:0xd2cce552fdfa2210!8m2!3d30.6885371!4d76.7550785?authuser=0&hl=en&rclk=1,30.6885371,76.7550785,Chandigarh
GMSH,Hospital,"Sector 16 A, Sector 16, Chandigarh, 160015, India",https://www.google.co.kr/maps/place/GMSH/data=!4m5!3m4!1s0x390fed77ccb61817:0x2d235dd96c0bf685!8m2!3d30.750953!4d76.7808114?authuser=0&hl=en&rclk=1,30.750953,76.7808114,Chandigarh
Hospital,Hospital,"2608, Sector 24C, Sector 24, Chandigarh, 160036, India",https://www.google.co.kr/maps/place/Hospital/data=!4m5!3m4!1s0x390fed943fffffff:0x7d77741585b18ac7!8m2!3d30.7446536!4d76.7610647?authuser=0&hl=en&rclk=1,30.7446536,76.7610647,Chandigarh
Get Well Clinic - 2,Hospital,"1st Flor, Two Bay, Scf 6 Sector 20 C, Sector-18, Sector-18, Chandigarh, 160018, India",https://www.google.co.kr/maps/place/Get+Well+Clinic+-+2/data=!4m5!3m4!1s0x390fed0faaaaaaab:0xc70a854036b827d6!8m2!3d30.7347851!4d76.7884713?authuser=0&hl=en&rclk=1,30.7347851,76.7884713,Chandigarh
D.F.T hospital & dialysis centre,Hospital,"Kurali Chandigarh Rd, DLF Mullanpur, Chandigarh, 160014, India",https://www.google.co.kr/maps/place/D.F.T+hospital+%26+dialysis+centre/data=!4m5!3m4!1s0x390ff347c3f2ede5:0x26a579a55d5e9230!8m2!3d30.7924374!4d76.7513483?authuser=0&hl=en&rclk=1,30.7924374,76.7513483,Chandigarh
"Advanced Trauma Centre, PGI",Hospital,"Sector 12, Chandigarh, 160012, India","https://www.google.co.kr/maps/place/Advanced+Trauma+Centre,+PGI/data=!4m5!3m4!1s0x390fed81244c362f:0xc56011630b2511b0!8m2!3d30.7611361!4d76.7749661?authuser=0&hl=en&rclk=1",30.7611361,76.7749661,Chandigarh
PGIMER,Hospital,"Sector 18D, Sector 18, Chandigarh, 160022, India",https://www.google.co.kr/maps/place/PGIMER/data=!4m5!3m4!1s0x390feda785d2ec5f:0xe5671b1f57ed6494!8m2!3d30.7333148!4d76.7794179?authuser=0&hl=en&rclk=1,30.7333148,76.7794179,Chandigarh
Chopra Hospital And Diagnostic Centre,Hospital,"781/1, Chopra Hospital, Opposite Kalagram, Modern Complex Road, Modern Housing Complex, Sector 13, Chandigarh, 160101, India",https://www.google.co.kr/maps/place/Chopra+Hospital+And+Diagnostic+Centre/data=!4m5!3m4!1s0x390f9331c9e54687:0x8dac3f100798fd0b!8m2!3d30.7127188!4d76.834207?authuser=0&hl=en&rclk=1,30.7127188,76.834207,Chandigarh
Anti rabies clinic,Hospital,"Sector 19 A, Chandigarh 160019, India",https://www.google.co.kr/maps/place/Anti+rabies+clinic/data=!4m5!3m4!1s0x390fedd5edb6201d:0x231ce03c4af1e01f!8m2!3d30.7307156!4d76.794708?authuser=0&hl=en&rclk=1,30.7307156,76.794708,Chandigarh
Gallbladder Stone Clinic,Hospital,"2164, Sector 21C, Sector 21, Chandigarh, 160022, India",https://www.google.co.kr/maps/place/Gallbladder+Stone+Clinic/data=!4m5!3m4!1s0x390fedab36a9810d:0x51834c0aa8ca06bd!8m2!3d30.7240259!4d76.7752853?authuser=0&hl=en&rclk=1,30.7240259,76.7752853,Chandigarh
ESIC Dispensary,Government hospital,"Sector 29D, 29D, Sector 29, Chandigarh, 160030, India",https://www.google.co.kr/maps/place/ESIC+Dispensary/data=!4m5!3m4!1s0x390fecfab4985a3b:0xc3227b58a826c2b1!8m2!3d30.7109815!4d76.7909292?authuser=0&hl=en&rclk=1,30.7109815,76.7909292,Chandigarh
DFT HOSPITAL,Hospital,"QQV2+6G8, Mullanpur Garibdass, Chandigarh 140901, India",https://www.google.co.kr/maps/place/DFT+HOSPITAL/data=!4m5!3m4!1s0x390ff35ee3e24121:0x4141b283ffbc22e7!8m2!3d30.7930373!4d76.7513422?authuser=0&hl=en&rclk=1,30.7930373,76.7513422,Chandigarh
Health Centre,Hospital,"Hno F-19 14, Manimajra, Sector 13, Chandigarh, Haryana 160014, India",https://www.google.co.kr/maps/place/Health+Centre/data=!4m5!3m4!1s0x390f9331ad749419:0xaf1ac1275e6b6f91!8m2!3d30.711759!4d76.835999?authuser=0&hl=en&rclk=1,30.711759,76.835999,Chandigarh
Air Force Hospital,Hospital,"PQ3H+835, 31D, Sector 31, Chandigarh, 160030, India",https://www.google.co.kr/maps/place/Air+Force+Hospital/data=!4m5!3m4!1s0x390fec58cfebbbf7:0x450955f976d8d561!8m2!3d30.703264!4d76.7777285?authuser=0&hl=en&rclk=1,30.703264,76.7777285,Chandigarh
Good Health Medical Centre,Medical Center,"846, Sector 38, Sector 38, Chandigarh, 160014, India",https://www.google.co.kr/maps/place/Good+Health+Medical+Centre/data=!4m5!3m4!1s0x390fede430000001:0x5bfd2b39a054b90e!8m2!3d30.7407971!4d76.7444511?authuser=0&hl=en&rclk=1,30.7407971,76.7444511,Chandigarh
Best Hospital In Mohali - Grecian Hospital,Hospital,"Phase 9, Sahibzada Ajit Singh Nagar, Punjab 160062, India",https://www.google.co.kr/maps/place/Best+Hospital+In+Mohali+-+Grecian+Hospital/data=!4m5!3m4!1s0x390fef61c8c1f933:0xd99563bb6562abea!8m2!3d30.6914722!4d76.7224095?authuser=0&hl=en&rclk=1,30.6914722,76.7224095,Chandigarh
Government Dispensary,Government hospital,"PQX7+9Q8, 24A, Sector 24, Chandigarh, 160036, India",https://www.google.co.kr/maps/place/Government+Dispensary/data=!4m5!3m4!1s0x390fed9111b0ab1d:0xaec09175ab2f4ab7!8m2!3d30.7484194!4d76.7644465?authuser=0&hl=en&rclk=1,30.7484194,76.7644465,Chandigarh
Poly Clinic,Hospital,"Sector 22C, Sector 22-D, Sector 21, Chandigarh, 160022, India",https://www.google.co.kr/maps/place/Poly+Clinic/data=!4m5!3m4!1s0x390feda5ba45f359:0x53ece89e688b7a11!8m2!3d30.7322314!4d76.7721082?authuser=0&hl=en&rclk=1,30.7322314,76.7721082,Chandigarh
J P Medical Centre,Medical Center,"House No. 3031, Sector 19-D, Chandigarh, 160019, India",https://www.google.co.kr/maps/place/J+P+Medical+Centre/data=!4m5!3m4!1s0x390fed044c771537:0x27924c320a14937!8m2!3d30.7286009!4d76.7874863?authuser=0&hl=en&rclk=1,30.7286009,76.7874863,Chandigarh
Trauma centre PGIMER,Hospital,"11, Sector 12, Chandigarh, 160012, India",https://www.google.co.kr/maps/place/Trauma+centre+PGIMER/data=!4m5!3m4!1s0x390fedd1f7c93249:0x43623234904897d3!8m2!3d30.7617227!4d76.7746382?authuser=0&hl=en&rclk=1,30.7617227,76.7746382,Chandigarh
Grecian Hospital Diagnostic/ PET CT,Hospital,"Sector 69, Sahibzada Ajit Singh Nagar, Punjab 160062, India",https://www.google.co.kr/maps/place/Grecian+Hospital+Diagnostic%2F+PET+CT/data=!4m5!3m4!1s0x390fefac7c545789:0x74edb1d61e6f0491!8m2!3d30.6916567!4d76.7209933?authuser=0&hl=en&rclk=1,30.6916567,76.7209933,Chandigarh
Military hospital,Hospital,"PQMH+8QF, Sector 18D, Sector 18, Chandigarh, 160022, India",https://www.google.co.kr/maps/place/Military+hospital/data=!4m5!3m4!1s0x390fed0e8a155825:0xe64daffd66efa177!8m2!3d30.7333148!4d76.7794179?authuser=0&hl=en&rclk=1,30.7333148,76.7794179,Chandigarh
Cloudnine Hospital (Paras/Pure Bliss) - Panchkula,Maternity hospital,"Room 4C,Sector -5,Swastik Vihar, Mansa Devi Complex, Panchkula, Haryana 134109, India",https://www.google.co.kr/maps/place/Cloudnine+Hospital+(Paras%2FPure+Bliss)+-+Panchkula/data=!4m5!3m4!1s0x390f931e90d77661:0xa3c4b4b48acc4d7d!8m2!3d30.716996!4d76.851485?authuser=0&hl=en&rclk=1,30.716996,76.851485,Chandigarh
vandna clinic,Hospital,"MQRR+3HM, Phase-2, Ram Darbar, Chandigarh, 160002, India",https://www.google.co.kr/maps/place/vandna+clinic/data=!4m5!3m4!1s0x390fec91d5eeaa1b:0xcc22ecb2a3dffb47!8m2!3d30.6902159!4d76.7914184?authuser=0&hl=en&rclk=1,30.6902159,76.7914184,Chandigarh
Govt Vety Hospital Hallomajra,Hospital,"Ram Darbar Rd, Hallo Majra, Chandigarh, 160002, India",https://www.google.co.kr/maps/place/Govt+Vety+Hospital+Hallomajra/data=!4m5!3m4!1s0x390fed124ec10545:0x3f9f264abb35a0ba!8m2!3d30.6925179!4d76.7967219?authuser=0&hl=en&rclk=1,30.6925179,76.7967219,Chandigarh
Dr Harbant's Surgical Clinic,Hospital,"House no 3310, Sector 21 D, Sector 21, Chandigarh, 160022, India",https://www.google.co.kr/maps/place/Dr+Harbant's+Surgical+Clinic/data=!4m5!3m4!1s0x390fedcd719594a9:0x97c6e62f727c9835!8m2!3d30.727886!4d76.7751187?authuser=0&hl=en&rclk=1,30.727886,76.7751187,Chandigarh
"Grecian Hospital - Best Gynecologist, Obstetrician and Gynaecology Specialist Hospital in Chandigarh Mohali",Obstetrician-gynecologist,"OPD 137, Block B First Floor Ext 307, Sector 69, Sahibzada Ajit Singh Nagar, Punjab 160062, India","https://www.google.co.kr/maps/place/Grecian+Hospital+-+Best+Gynecologist,+Obstetrician+and+Gynaecology+Specialist+Hospital+in+Chandigarh+Mohali/data=!4m5!3m4!1s0x390fef548b0cd1a7:0x179d247c228b216b!8m2!3d30.692499!4d76.7206652?authuser=0&hl=en&rclk=1",30.692499,76.7206652,Chandigarh
Pja Hospital,Hospital,"PQMH+8QF, Sector 18D, Sector 18, Chandigarh, 160022, India",https://www.google.co.kr/maps/place/Pja+Hospital/data=!4m5!3m4!1s0x390fed5791a36e27:0x6d811222c4b27a7a!8m2!3d30.7333148!4d76.7794179?authuser=0&hl=en&rclk=1,30.7333148,76.7794179,Chandigarh
Breast clinic,Hospital,"house no 2164, Sector 21C, Sector 19, Chandigarh, 160019, India",https://www.google.co.kr/maps/place/Breast+clinic/data=!4m5!3m4!1s0x390fedc8f401f8af:0x963afe6368ac5e30!8m2!3d30.7247527!4d76.7904974?authuser=0&hl=en&rclk=1,30.7247527,76.7904974,Chandigarh
Command Hospital,Military hospital,"Chandimandir Cantonment, Panchkula, Haryana 134114, India",https://www.google.co.kr/maps/place/Command+Hospital/data=!4m5!3m4!1s0x39125da874435b1d:0xfabb429f1cbacc18!8m2!3d30.7123982!4d76.8543393?authuser=0&hl=en&rclk=1,30.7123982,76.8543393,Chandigarh
Hospital for sale lease,Hospital,"HM 61, Phase 3B-1, Sector 60, Sahibzada Ajit Singh Nagar, Chandigarh 160059, India",https://www.google.co.kr/maps/place/Hospital+for+sale+lease/data=!4m5!3m4!1s0x390fef1641c25f11:0xf9ebd7b18074bf46!8m2!3d30.7141567!4d76.7208773?authuser=0&hl=en&rclk=1,30.7141567,76.7208773,Chandigarh
Dr J P Singh,Medical Center,"3031, Sector 19-D, Chandigarh, 160019, India",https://www.google.co.kr/maps/place/Dr+J+P+Singh/data=!4m5!3m4!1s0x390fed23bfffffff:0xc509a4c2cf9541b9!8m2!3d30.728805!4d76.787395?authuser=0&hl=en&rclk=1,30.728805,76.787395,Chandigarh
Dr. Kanchan Clinic,Hospital,"403, Hallomajra Chowk, Industrial Area Phase I, Chandigarh, 160101, India",https://www.google.co.kr/maps/place/Dr.+Kanchan+Clinic/data=!4m5!3m4!1s0x390fec94416b20f3:0xd7c262509cdcf535!8m2!3d30.6951951!4d76.7988256?authuser=0&hl=en&rclk=1,30.6951951,76.7988256,Chandigarh
BBMB DISPENSARY,Hospital,"Purv Marg, Sector 34B, Industrial Area Phase I, Chandigarh, 160030, India",https://www.google.co.kr/maps/place/BBMB+DISPENSARY/data=!4m5!3m4!1s0x390feceef831b8dd:0x9dd843d655edcf03!8m2!3d30.7065163!4d76.7943907?authuser=0&hl=en&rclk=1,30.7065163,76.7943907,Chandigarh
Navya Tarang Clinic SCO 76,Hospital,"63, Ram Darbar, Chandigarh, 160002, India",https://www.google.co.kr/maps/place/Navya+Tarang+Clinic+SCO+76/data=!4m5!3m4!1s0x390fec8e788141e1:0xbc1540f83f6bd5c2!8m2!3d30.6924921!4d76.7889889?authuser=0&hl=en&rclk=1,30.6924921,76.7889889,Chandigarh
Dispensary,Hospital,"B, Sector 44, Chandigarh, 160047, India",https://www.google.co.kr/maps/place/Dispensary/data=!4m5!3m4!1s0x390fec4a073de865:0x30221152f69f17b7!8m2!3d30.712202!4d76.7568525?authuser=0&hl=en&rclk=1,30.712202,76.7568525,Chandigarh
Matsya Hospital,Hospital,"At Gateway Of Chandigarh Chandigarh-Zirakpur Road Sunny Enclave Zirakpur Sahibazada, Sahibzada Ajit Singh Nagar, Punjab 140603, India",https://www.google.co.kr/maps/place/Matsya+Hospital/data=!4m5!3m4!1s0x390feb4ec2f0bb41:0x69148a5f4fa2d5e4!8m2!3d30.662907!4d76.8181885?authuser=0&hl=en&rclk=1,30.662907,76.8181885,Chandigarh
child memorial trast hospital,Hospital,"Mani Majra Rd, Mariwala Town, Adarsh Nagar, Sector 13, Chandigarh, 160101, India",https://www.google.co.kr/maps/place/child+memorial+trast+hospital/data=!4m5!3m4!1s0x390f932b8431aaa5:0xec6fe2773dfee167!8m2!3d30.7196454!4d76.829356?authuser=0&hl=en&rclk=1,30.7196454,76.829356,Chandigarh
Sohana Hospital,Hospital,"Sohana Hospital Sector 77, Mohali Multi Super Specialty Hospital, Sahibzada Ajit Singh Nagar, Punjab 140308, India",https://www.google.co.kr/maps/place/Sohana+Hospital/data=!4m5!3m4!1s0x390feee61e99e667:0x3fabe7f5484f0762!8m2!3d30.6927961!4d76.6991749?authuser=0&hl=en&rclk=1,30.6927961,76.6991749,Chandigarh
Forties hospital mohali,Hospital,"Mohali Railway Station Rd, Phase 11, Sector 65, Sahibzada Ajit Singh Nagar, Punjab 160062, India",https://www.google.co.kr/maps/place/Forties+hospital+mohali/data=!4m5!3m4!1s0x390fedfe782af5db:0x5024dd1c9991de00!8m2!3d30.6774506!4d76.7405834?authuser=0&hl=en&rclk=1,30.6774506,76.7405834,Chandigarh
Government Ayurvedic Dispensary,Government hospital,"Udyan Path, 24B, Sector 24 - B, Chandigarh, 160024, India",https://www.google.co.kr/maps/place/Government+Ayurvedic+Dispensary/data=!4m5!3m4!1s0x390fed913ac1d933:0xe90171160db014ce!8m2!3d30.7472366!4d76.7645819?authuser=0&hl=en&rclk=1,30.7472366,76.7645819,Chandigarh
The Catalyst Clinic,Hospital,"House no 51, Sector 20A, Sector 21A, Sector 21, Chandigarh, 160022, India",https://www.google.co.kr/maps/place/The+Catalyst+Clinic/data=!4m5!3m4!1s0x390fed7391cb1b7d:0x9ebc64d68c8f5f80!8m2!3d30.7277958!4d76.7764752?authuser=0&hl=en&rclk=1,30.7277958,76.7764752,Chandigarh
Eco City Apollo Hospital,Private hospital,"Unnamed Road, Eco City 1, New Chandigarh, Punjab 140901, India",https://www.google.co.kr/maps/place/Eco+City+Apollo+Hospital/data=!4m5!3m4!1s0x390ff3a41f132cb5:0xbe34a93b7634b48d!8m2!3d30.8028072!4d76.740312?authuser=0&hl=en&rclk=1,30.8028072,76.740312,Chandigarh
Hospital,Dialysis center,"Sub. City Center, Sector 34A, Sector 34, Chandigarh, 160012, India",https://www.google.co.kr/maps/place/Hospital/data=!4m5!3m4!1s0x390fed816fad03e7:0x220e221f43de99d8!8m2!3d30.7239701!4d76.7659423?authuser=0&hl=en&rclk=1,30.7239701,76.7659423,Chandigarh
Dr. Karun Singla Urologist,Urologist,"Healing Hospital Chandigarh, Sub. City Center, Sector 34A, Sector 34, Chandigarh, 160034, India",https://www.google.co.kr/maps/place/Dr.+Karun+Singla+Urologist/data=!4m5!3m4!1s0x390fedecf5825fe3:0x6fb64b795710cfe5!8m2!3d30.7247639!4d76.7687643?authuser=0&hl=en&rclk=1,30.7247639,76.7687643,Chandigarh
National Medical And Dialysis Centre,Diagnostic center,"No. 516, opp. Hotel Mountview, 10D, Sector 10, Chandigarh, 160011, India",https://www.google.co.kr/maps/place/National+Medical+And+Dialysis+Centre/data=!4m5!3m4!1s0x390fed7040000001:0xac2a682141f3de81!8m2!3d30.7532017!4d76.7874835?authuser=0&hl=en&rclk=1,30.7532017,76.7874835,Chandigarh
J.P Hospital,Private hospital,"Near, NH 21, Zirakpur - Chandigarh Highway, Under Flyover, Panchkula, Zirakpur, Punjab 140603, India",https://www.google.co.kr/maps/place/J.P+Hospital/data=!4m5!3m4!1s0x390feb4a26356e0b:0x35aba37214a0506a!8m2!3d30.6613145!4d76.8183787?authuser=0&hl=en&rclk=1,30.6613145,76.8183787,Chandigarh
Shalby Multispeciality Hospital (Dr. Vandana Mittal),Obstetrician-gynecologist,"Silver Oaks Hospital, Phase-9, Sector-63, near PCA Stadium, Sahibzada Ajit Singh Nagar, 160062, India",https://www.google.co.kr/maps/place/Shalby+Multispeciality+Hospital+(Dr.+Vandana+Mittal)/data=!4m5!3m4!1s0x390feff1a9941ae7:0xd637e2bbd5be7191!8m2!3d30.6915027!4d76.7314877?authuser=0&hl=en&rclk=1,30.6915027,76.7314877,Chandigarh
ANH 3D /4D Ultrasound - India's most Advanced 3D Ultrasound,Hospital,"SCO 31, SEC 15-C, Chandigarh, 160015, India",https://www.google.co.kr/maps/place/ANH+3D+%2F4D+Ultrasound+-+India's+most+Advanced+3D+Ultrasound/data=!4m5!3m4!1s0x390fedc5114235b3:0xcabe33c07e9f7740!8m2!3d30.7520565!4d76.7719939?authuser=0&hl=en&rclk=1,30.7520565,76.7719939,Chandigarh
Kidney Transplant Chandigarh Hospital - Best Nephrologist Chandigarh - Dr. Raka Kaushal & Dr. Avinash Srivastava -,Private hospital,"Ivy Hospital, Sector 71, Sahibzada Ajit Singh Nagar, Punjab 160071, India",https://www.google.co.kr/maps/place/Kidney+Transplant+Chandigarh+Hospital+-+Best+Nephrologist+Chandigarh+-+Dr.+Raka+Kaushal+%26+Dr.+Avinash+Srivastava+-/data=!4m5!3m4!1s0x390feff957a8ea85:0x275e99d1af757379!8m2!3d30.7068058!4d76.7081839?authuser=0&hl=en&rclk=1,30.7068058,76.7081839,Chandigarh
Kare Partners Super Speciality Hospital (Mother and Child),Hospital,"NURSING HOME SITE 422 Street Number 1, opposite HOUSE NO, Sector 2, Panchkula, Haryana 134151, India",https://www.google.co.kr/maps/place/Kare+Partners+Super+Speciality+Hospital+(Mother+and+Child)/data=!4m5!3m4!1s0x390f9370d1e708ff:0xc1b3815538c702!8m2!3d30.69579!4d76.865196?authuser=0&hl=en&rclk=1,30.69579,76.865196,Chandigarh
Raju bahri,Hospital,"312, Sector 21A, Sector 21, Chandigarh, 160022, India",https://www.google.co.kr/maps/place/Raju+bahri/data=!4m5!3m4!1s0x390fed6e4002f625:0x70314f7f4189d421!8m2!3d30.730001!4d76.7800161?authuser=0&hl=en&rclk=1,30.730001,76.7800161,Chandigarh
Dr. Gurpreet's Ultrasound & X-ray Clinic,Hospital,"House No. 3310, Sector 21 D, Sector 21, Chandigarh, 160022, India",https://www.google.co.kr/maps/place/Dr.+Gurpreet's+Ultrasound+%26+X-ray+Clinic/data=!4m5!3m4!1s0x390feda8d8d19c6b:0x60f5a3067aa6396b!8m2!3d30.728093!4d76.775047?authuser=0&hl=en&rclk=1,30.728093,76.775047,Chandigarh
Medical Centre,Medical Center,"Sco 17 Sector 34, Sector-26, Sector-26, Chandigarh, 160019, India",https://www.google.co.kr/maps/place/Medical+Centre/data=!4m5!3m4!1s0x390fed23bfffffff:0xf562cc88fd699c36!8m2!3d30.7296617!4d76.8072196?authuser=0&hl=en&rclk=1,30.7296617,76.8072196,Chandigarh
IVY Hospital Road,Hospital,"49, Sector 71, Sahibzada Ajit Singh Nagar, Punjab 160071, India",https://www.google.co.kr/maps/place/IVY+Hospital+Road/data=!4m5!3m4!1s0x390fef488b0633ed:0x9627093a01b94e60!8m2!3d30.7065754!4d76.7088992?authuser=0&hl=en&rclk=1,30.7065754,76.7088992,Chandigarh
Chandigarh Clinic,Hospital,"17, Baltana Main Rd, Govind VIhar, Baltana, Sector 19, Panchkula, Haryana 134113, India",https://www.google.co.kr/maps/place/Chandigarh+Clinic/data=!4m5!3m4!1s0x390f94ada15c5555:0x5b9425f56a22acfd!8m2!3d30.6700882!4d76.8291756?authuser=0&hl=en&rclk=1,30.6700882,76.8291756,Chandigarh
Cloudnine Fertility & IVF Center - Chandigarh,Fertility clinic,"1st Floor, Site No. 48, Industrial Area Phase II, Chandigarh, 160002, India",https://www.google.co.kr/maps/place/Cloudnine+Fertility+%26+IVF+Center+-+Chandigarh/data=!4m5!3m4!1s0x390fed2d58301063:0x25c34a41de22315c!8m2!3d30.7000391!4d76.7878873?authuser=0&hl=en&rclk=1,30.7000391,76.7878873,Chandigarh
Palwal,Hospital,"279, Himalaya Marg, Sector 21A, Sector 21, Chandigarh, 160022, India",https://www.google.co.kr/maps/place/Palwal/data=!4m5!3m4!1s0x390fed07f42cd061:0xd11063427f789d8c!8m2!3d30.7295685!4d76.7796273?authuser=0&hl=en&rclk=1,30.7295685,76.7796273,Chandigarh
Paras Hospital,Hospital,"1, Mansa Devi Complex, Rajeev Vihar, Rail Vihar, Sector 5, Panchkula, Haryana 134109, India",https://www.google.co.kr/maps/place/Paras+Hospital/data=!4m5!3m4!1s0x390f933d76d6a563:0xbe2177390d5aec7f!8m2!3d30.714406!4d76.851026?authuser=0&hl=en&rclk=1,30.714406,76.851026,Chandigarh
Alchemist Hospital Panchkula,Hospital,"Sector 21, Budanpur, Panchkula, Punjab 134112, India",https://www.google.co.kr/maps/place/Alchemist+Hospital+Panchkula/data=!4m5!3m4!1s0x390f9485b41fb363:0xd0c6c25a18b74ed2!8m2!3d30.6745927!4d76.8647413?authuser=0&hl=en&rclk=1,30.6745927,76.8647413,Chandigarh
"Post Delivery Weight Reduction Clinic,Paras Bliss Hospital Panchkula",Maternity hospital,"Room No: 2, Paras Bliss, Panchkula Mansa Devi Complex, Swastik Vihar, Phase, – 1,, Sector -5, MDC, Panchkula, Haryana 134109, India","https://www.google.co.kr/maps/place/Post+Delivery+Weight+Reduction+Clinic,Paras+Bliss+Hospital+Panchkula/data=!4m5!3m4!1s0x390f9393846fcf05:0x1bf6b6b1a79e196c!8m2!3d30.717056!4d76.851448?authuser=0&hl=en&rclk=1",30.717056,76.851448,Chandigarh
"Dr. Mangla Dogra (Best Gynaecologist in Chandigarh, Mohali | Female Gynecologist in Chandigarh | Dogra Nursing Home & Endoscopy Centre)",Obstetrician-gynecologist,"No-8, Madhya Marg, opp. Peshavari Store, 19A, Sector 19A, Chandigarh, 160019, India","https://www.google.co.kr/maps/place/Dr.+Mangla+Dogra+(Best+Gynaecologist+in+Chandigarh,+Mohali+%7C+Female+Gynecologist+in+Chandigarh+%7C+Dogra+Nursing+Home+%26+Endoscopy+Centre)/data=!4m5!3m4!1s0x390fed23bfffffff:0x6b24b55ac257b71!8m2!3d30.729968!4d76.7915308?authuser=0&hl=en&rclk=1",30.729968,76.7915308,Chandigarh
Dr. A.P. SINGH - Joint Replacement & Trauma Surgeon - Chandigarh India,Orthopedic surgeon,"Dr. A.P. SINGH, Inside MUKAT HOSPITAL, SCO 47-49, sector 34-A, Chandigarh, 160022, India",https://www.google.co.kr/maps/place/Dr.+A.P.+SINGH+-+Joint+Replacement+%26+Trauma+Surgeon+-+Chandigarh+India/data=!4m5!3m4!1s0x390fedb23aaaaab5:0xe0aed9227e3af0e4!8m2!3d30.723306!4d76.766114?authuser=0&hl=en&rclk=1,30.723306,76.766114,Chandigarh
Reviva Fertility Clinic & IVF Centre In Chandigarh,Fertility clinic,"Ground, S.C.O 50-51, 9D, Madhya Marg, Chandigarh 160009, India",https://www.google.co.kr/maps/place/Reviva+Fertility+Clinic+%26+IVF+Centre+In+Chandigarh/data=!4m5!3m4!1s0x390fed7328621f05:0xdac68cff9124b14c!8m2!3d30.7445813!4d76.7886296?authuser=0&hl=en&rclk=1,30.7445813,76.7886296,Chandigarh
Dr Sumeet Dhawan DM,Neurologist,"SCO 11, Madhya Marg, near Gopal sweets, Sector 8C, Sector 8, Chandigarh, 160009, India",https://www.google.co.kr/maps/place/Dr+Sumeet+Dhawan+DM/data=!4m5!3m4!1s0x390fed3fc4c6b9c9:0x3b63c6a520c50fd6!8m2!3d30.7403988!4d76.7924106?authuser=0&hl=en&rclk=1,30.7403988,76.7924106,Chandigarh
ECHS,Medical clinic,"Sector 47 A, near Government High School, Chandigarh, 160047, India",https://www.google.co.kr/maps/place/ECHS/data=!4m5!3m4!1s0x390fecfae845bc49:0x5ac4ea2e05532971!8m2!3d30.7005997!4d76.7707587?authuser=0&hl=en&rclk=1,30.7005997,76.7707587,Chandigarh
RAFFELS HOSPITAL,Hospital,"Sector 14 sco 138, Haryana 134113, India",https://www.google.co.kr/maps/place/RAFFELS+HOSPITAL/data=!4m5!3m4!1s0x390f935ff918df45:0x7690c3edd4872746!8m2!3d30.6818589!4d76.8481286?authuser=0&hl=en&rclk=1,30.6818589,76.8481286,Chandigarh
G M Nursing Home,Nursing home,"Shop No.1543, Himalaya Marg, Sub. City Center, 34D, Sector 34, Chandigarh, 160022, India",https://www.google.co.kr/maps/place/G+M+Nursing+Home/data=!4m5!3m4!1s0x390fedc3afffffff:0x99e73af4cb6e5404!8m2!3d30.7193604!4d76.7579186?authuser=0&hl=en&rclk=1,30.7193604,76.7579186,Chandigarh
Utreja Clinic,Medical clinic,"# 1294, Opposite Baba Dairy Sec 21 B, Chandigarh 160022, India",https://www.google.co.kr/maps/place/Utreja+Clinic/data=!4m5!3m4!1s0x390fedb81e930425:0x5313a66fc821b173!8m2!3d30.7246735!4d76.7792243?authuser=0&hl=en&rclk=1,30.7246735,76.7792243,Chandigarh
Cloud Nine Hospital Panchkula,Maternity hospital,"Room No: 1, Paras Bliss Panchkula, Mansa Devi Complex, Swastik Vihar,, Phase – 1, Sector -5, MDC, Panchkula, Haryana 134109, India",https://www.google.co.kr/maps/place/Cloud+Nine+Hospital+Panchkula/data=!4m5!3m4!1s0x390f93bfc2caa911:0x698facd9248739ee!8m2!3d30.717102!4d76.851351?authuser=0&hl=en&rclk=1,30.717102,76.851351,Chandigarh
Dr.JP SINGHVI,Neurologist,"Fortis Hospital, Sector 62, Phase – VIII, Sahibzada Ajit Singh Nagar, 160062, India",https://www.google.co.kr/maps/place/Dr.JP+SINGHVI/data=!4m5!3m4!1s0x390fee9fa9db16d9:0x9d2e926d62cc898f!8m2!3d30.6944895!4d76.7308045?authuser=0&hl=en&rclk=1,30.6944895,76.7308045,Chandigarh
"Indus International Hospital, Derabassi",Private hospital,"Near Jawaharpur, Chandigarh - Ambala Road, National Highway No.22, Derabassi, MOHALI, Punjab 140507, India","https://www.google.co.kr/maps/place/Indus+International+Hospital,+Derabassi/data=!4m5!3m4!1s0x390fbf882d84d15d:0xbffbcec835386739!8m2!3d30.5566349!4d76.8268035?authuser=0&hl=en&rclk=1",30.5566349,76.8268035,Chandigarh
Gynecology Clinic- Paras Bliss Hospital Panchkula,Maternity hospital,"Paras Bliss, Panchkula Room No. 31 Mansa Devi Complex, Swastik Vihar,, Phase – 1,Sector -5, MDC, Panchkula, Haryana 134109, India",https://www.google.co.kr/maps/place/Gynecology+Clinic-+Paras+Bliss+Hospital+Panchkula/data=!4m5!3m4!1s0x390f93ebfc2fb5db:0x4f014c12d4c12fca!8m2!3d30.717028!4d76.85148?authuser=0&hl=en&rclk=1,30.717028,76.85148,Chandigarh
Dr Alok Ahuja - Best Surgeon In Chandigarh - Best Laparoscopic And Cancer Surgeon In Chandigarh\ Mohali,Surgeon,"# 109 sec, 18A, Chandigarh, 160018, India",https://www.google.co.kr/maps/place/Dr+Alok+Ahuja+-+Best+Surgeon+In+Chandigarh+-+Best+Laparoscopic+And+Cancer+Surgeon+In+Chandigarh%5C+Mohali/data=!4m5!3m4!1s0x390fed6d0afe733d:0x571397fe9cf7dda7!8m2!3d30.735775!4d76.788832?authuser=0&hl=en&rclk=1,30.735775,76.788832,Chandigarh
Dr Sandeep Pal (Gastro & Liver Doctor ),Gastroenterologist,"Healing Hospital, SCO 18-19, Sector 34A, Chandigarh, 160022, India",https://www.google.co.kr/maps/place/Dr+Sandeep+Pal+(Gastro+%26+Liver+Doctor+)/data=!4m5!3m4!1s0x390fed1b733ad20b:0x1f2c859ef2da97af!8m2!3d30.7247455!4d76.7689576?authuser=0&hl=en&rclk=1,30.7247455,76.7689576,Chandigarh
Dr. Shital Bhardwaj - Best Gynecologist in Chandigarh | Gynae Laparoscopic Surgeon in Sector 22 | PCOD Specialist in Chandigarh | Infertility Specialist | Pregnancy Expert | Abortion and MTP Doctor | Vaginal Tightening Expert,Obstetrician-gynecologist,"1599, 22B, Sector 22, Chandigarh, 160022, India",https://www.google.co.kr/maps/place/Dr.+Shital+Bhardwaj+-+Best+Gynecologist+in+Chandigarh+%7C+Gynae+Laparoscopic+Surgeon+in+Sector+22+%7C+PCOD+Specialist+in+Chandigarh+%7C+Infertility+Specialist+%7C+Pregnancy+Expert+%7C+Abortion+and+MTP+Doctor+%7C+Vaginal+Tightening+Expert/data=!4m5!3m4!1s0x390fede8c76c15a7:0xcd7affb45004898a!8m2!3d30.733101!4d76.775203?authuser=0&hl=en&rclk=1,30.733101,76.775203,Chandigarh
Dr. L.K. Mittal Charitable ENT Clinic Chandigarh,Otolaryngologist,"#1222, Sector 21B, Chandigarh, 160022, India",https://www.google.co.kr/maps/place/Dr.+L.K.+Mittal+Charitable+ENT+Clinic+Chandigarh/data=!4m5!3m4!1s0x390fed6fc3a6eb23:0x5b94bc490161ac6f!8m2!3d30.7268789!4d76.7791819?authuser=0&hl=en&rclk=1,30.7268789,76.7791819,Chandigarh
ECHS,Hospital,"Phase 10 Inner Rd, Phase 10, Sector 64, Sahibzada Ajit Singh Nagar, Punjab 160047, India",https://www.google.co.kr/maps/place/ECHS/data=!4m5!3m4!1s0x390fec1afc24a7b3:0xb1bf0234499da407!8m2!3d30.6844918!4d76.7425567?authuser=0&hl=en&rclk=1,30.6844918,76.7425567,Chandigarh
"Dr.Gunjan Baweja - Best Pediatrician, Child and Adolescent specialist. Vaccination Centre for newborns, Children and Adults",Pediatrician,"3031, 19D, Sector 19, Chandigarh, 160019, India","https://www.google.co.kr/maps/place/Dr.Gunjan+Baweja+-+Best+Pediatrician,+Child+and+Adolescent+specialist.+Vaccination+Centre+for+newborns,+Children+and+Adults/data=!4m5!3m4!1s0x390fed044f12517b:0x47e8230c44df6743!8m2!3d30.72875!4d76.7874269?authuser=0&hl=en&rclk=1",30.72875,76.7874269,Chandigarh
Chaitanya Public Hospital Panchkula,Women's health clinic,"SCO 21, Kalgidhar Enclave, Baltana, opposite K-Area, Zirakpur, 140603, India",https://www.google.co.kr/maps/place/Chaitanya+Public+Hospital+Panchkula/data=!4m5!3m4!1s0x390f94b4c65e4153:0xbe596f3146e48073!8m2!3d30.6609502!4d76.8289953?authuser=0&hl=en&rclk=1,30.6609502,76.8289953,Chandigarh
Dr Sawan Kumar Verma - Best Neurologist |Stroke Specialist| Migraine Specialist,Neurologist,"Shalby Multi specialty Hospital, Phase 9, Sector 63, Sahibzada Ajit Singh Nagar, Chandigarh 160063, India",https://www.google.co.kr/maps/place/Dr+Sawan+Kumar+Verma+-+Best+Neurologist+%7CStroke+Specialist%7C+Migraine+Specialist/data=!4m5!3m4!1s0x390fef074ef0f49d:0x8e95a4708c298a39!8m2!3d30.6925183!4d76.7332584?authuser=0&hl=en&rclk=1,30.6925183,76.7332584,Chandigarh
Medicos Centre,Diagnostic center,"SCO 801-802 Opposite Parade Ground, Sector 22A, Chandigarh, 160022, India",https://www.google.co.kr/maps/place/Medicos+Centre/data=!4m5!3m4!1s0x390feda4a4306505:0xedf57ac0d1f0ce61!8m2!3d30.7390088!4d76.7743492?authuser=0&hl=en&rclk=1,30.7390088,76.7743492,Chandigarh
"Dr Ritika Kaur Obs & Gynaecologist, IVF Specialist Doctor, Ex GMSH 16 Chandigarh, Mohali, Panchkula, Punjab",Obstetrician-gynecologist,"Santokh Klinics SCO 77, Chandigarh 160036, India","https://www.google.co.kr/maps/place/Dr+Ritika+Kaur+Obs+%26+Gynaecologist,+IVF+Specialist+Doctor,+Ex+GMSH+16+Chandigarh,+Mohali,+Panchkula,+Punjab/data=!4m5!3m4!1s0x390fedee58ee7c2f:0xa88cbb2ae2667818!8m2!3d30.7429744!4d76.7448488?authuser=0&hl=en&rclk=1",30.7429744,76.7448488,Chandigarh
HEART & CHEST CLINIC,Medical clinic,"SCO 816, First Floor, SECTOR, 22-A, Udyog Path, Chandigarh, 160022, India",https://www.google.co.kr/maps/place/HEART+%26+CHEST+CLINIC/data=!4m5!3m4!1s0x390feda3d869db57:0xdf568feac3dce89b!8m2!3d30.7385129!4d76.774432?authuser=0&hl=en&rclk=1,30.7385129,76.774432,Chandigarh
Dr Charanjit Lal,Urologist,"Inscol Hospital, Sector 34-A, 34D, Sector 34, Chandigarh, 160034, India",https://www.google.co.kr/maps/place/Dr+Charanjit+Lal/data=!4m5!3m4!1s0x390fedb315555551:0x52ac8556b6823043!8m2!3d30.722605!4d76.768728?authuser=0&hl=en&rclk=1,30.722605,76.768728,Chandigarh
ECHS Polyclinic,Hospital,"11, Maheshpur Rd, Sector 7, Panchkula, Haryana 134109, India",https://www.google.co.kr/maps/place/ECHS+Polyclinic/data=!4m5!3m4!1s0x390f931644d960db:0x105604d1bcbc9853!8m2!3d30.7122676!4d76.8511528?authuser=0&hl=en&rclk=1,30.7122676,76.8511528,Chandigarh
Dr. Sachin Bindal,Neurosurgeon,"Silver Oaks Hospital, Phase-9, Sector-63, near PCA Stadium, Sahibzada Ajit Singh Nagar, 160062, India",https://www.google.co.kr/maps/place/Dr.+Sachin+Bindal/data=!4m5!3m4!1s0x390fefb2d4c72f8f:0xb33b07a39bf8630!8m2!3d30.6915027!4d76.7314877?authuser=0&hl=en&rclk=1,30.6915027,76.7314877,Chandigarh
Sant Namdev Bhawan Homoeopathic clinic,Medical Center,"PQGG+FJ9, 21C, Sector 21, Chandigarh, 160022, India",https://www.google.co.kr/maps/place/Sant+Namdev+Bhawan+Homoeopathic+clinic/data=!4m5!3m4!1s0x390feda973204037:0xdf33318cca2db38c!8m2!3d30.7261537!4d76.7766212?authuser=0&hl=en&rclk=1,30.7261537,76.7766212,Chandigarh
ECHS Polyclinic Mohali,Medical clinic,"Near Dara Studio 56A, Phase 6, Sector 56A, Sahibzada Ajit Singh Nagar, 160055, India",https://www.google.co.kr/maps/place/ECHS+Polyclinic+Mohali/data=!4m5!3m4!1s0x390fee3fae689fd7:0x11df8019f1729754!8m2!3d30.7373492!4d76.7082632?authuser=0&hl=en&rclk=1,30.7373492,76.7082632,Chandigarh
Sangeeta Nursing Home,Nursing home,"H.No. 323, Gali Number 3, Ward Number IV, Sector 21A, Sector 21, Chandigarh, 160022, India",https://www.google.co.kr/maps/place/Sangeeta+Nursing+Home/data=!4m5!3m4!1s0x390feda96aaaaaab:0x5fecbc023222748c!8m2!3d30.7302936!4d76.7803356?authuser=0&hl=en&rclk=1,30.7302936,76.7803356,Chandigarh
Sai charitable diagnostic centre,Diagnostic center,"1924, 22B, Sector 22, Chandigarh, 160022, India",https://www.google.co.kr/maps/place/Sai+charitable+diagnostic+centre/data=!4m5!3m4!1s0x390fed80d624f18d:0x75328769c71a2181!8m2!3d30.731843!4d76.773076?authuser=0&hl=en&rclk=1,30.731843,76.773076,Chandigarh
Sri Guru Har Rai Sahib Diagnostic,Diagnostic center,"Gurdwara sahib, Sector 22-D, Sector 22, Chandigarh, 160022, India",https://www.google.co.kr/maps/place/Sri+Guru+Har+Rai+Sahib+Diagnostic/data=!4m5!3m4!1s0x390feda4d51a7935:0x63d581890bf0057!8m2!3d30.7332909!4d76.7674887?authuser=0&hl=en&rclk=1,30.7332909,76.7674887,Chandigarh
Dr. Varun Gupta - Laser Piles | Circumcision | Hernia | Fistula | Gall Stone | Circumcision | Gynecomastia,Surgeon,"1599, 22B, Sector 22, Chandigarh, 160022, India",https://www.google.co.kr/maps/place/Dr.+Varun+Gupta+-+Laser+Piles+%7C+Circumcision+%7C+Hernia+%7C+Fistula+%7C+Gall+Stone+%7C+Circumcision+%7C+Gynecomastia/data=!4m5!3m4!1s0x390fedd49b898499:0x4b0bfdfc6d99c248!8m2!3d30.7331194!4d76.7752459?authuser=0&hl=en&rclk=1,30.7331194,76.7752459,Chandigarh
Nutrisolution - The Diet Clinique,Nutritionist,"1582, Sector 18D, Sector 18, Chandigarh, 160018, India",https://www.google.co.kr/maps/place/Nutrisolution+-+The+Diet+Clinique/data=!4m5!3m4!1s0x390fed085fd02b93:0x50e94f0dd75cb8c5!8m2!3d30.732959!4d76.7826761?authuser=0&hl=en&rclk=1,30.732959,76.7826761,Chandigarh
ESI Dispensary,Hospital,"MR9M+V9X, Ekta Vihar, Sector 19, Panchkula, Haryana 134109, India",https://www.google.co.kr/maps/place/ESI+Dispensary/data=!4m5!3m4!1s0x390f94ae3ca02745:0x911616fd448aeea1!8m2!3d30.6697265!4d76.8334926?authuser=0&hl=en&rclk=1,30.6697265,76.8334926,Chandigarh
Dr. Yuvraj Singh Khullar,Doctor,"466, Dakshin Marg, 35A, Sector 35, Chandigarh, 160002, India",https://www.google.co.kr/maps/place/Dr.+Yuvraj+Singh+Khullar/data=!4m5!3m4!1s0x14f62fec9d15a9af:0xd5c3c0898c14132c!8m2!3d30.7290875!4d76.7642429?authuser=0&hl=en&rclk=1,30.7290875,76.7642429,Chandigarh
"Dr Rajdeep Singh, Gastro, Liver & Endoscopy Centre - Best Gastroenterologist & Liver Specialist Chandigarh",Gastroenterologist,"House No. 3031, 19D, Sector 19, Chandigarh, 160019, India","https://www.google.co.kr/maps/place/Dr+Rajdeep+Singh,+Gastro,+Liver+%26+Endoscopy+Centre+-+Best+Gastroenterologist+%26+Liver+Specialist+Chandigarh/data=!4m5!3m4!1s0x390fed044c7637e7:0x1585ba0e48773233!8m2!3d30.7286127!4d76.7876463?authuser=0&hl=en&rclk=1",30.7286127,76.7876463,Chandigarh
Dr Bhatia Sanjeev,Doctor,"2164, Sector 21C, Sector 21, Chandigarh, 160022, India",https://www.google.co.kr/maps/place/Dr+Bhatia+Sanjeev/data=!4m5!3m4!1s0x390fedab96d01b71:0xe117c28d7654a9a9!8m2!3d30.7240551!4d76.7753319?authuser=0&hl=en&rclk=1,30.7240551,76.7753319,Chandigarh
Urologist in Chandigarh | Dr Manoj Sharma | Tricity Urologist,Urologist,"2164, Sector 21C, Sector 21, Chandigarh, 160022, India",https://www.google.co.kr/maps/place/Urologist+in+Chandigarh+%7C+Dr+Manoj+Sharma+%7C+Tricity+Urologist/data=!4m5!3m4!1s0x390fed9abe45efff:0xe7e967d79c6e24d9!8m2!3d30.7246211!4d76.774481?authuser=0&hl=en&rclk=1,30.7246211,76.774481,Chandigarh
Chandigarh Clinic,Medical clinic,"759/2, 759/2, Thakur Dwara Rd, Mohalla Jattan Wala, Sector 13, Chandigarh, 160101, India",https://www.google.co.kr/maps/place/Chandigarh+Clinic/data=!4m5!3m4!1s0x390f932e2f7d4423:0xbf3188832f2d1b!8m2!3d30.714564!4d76.8339058?authuser=0&hl=en&rclk=1,30.714564,76.8339058,Chandigarh
Dr. Manish Singla,Nephrologist,"Chandigarh Rd, near Civil Hospital, Phase 6, Sector 56, Sahibzada Ajit Singh Nagar, Chandigarh 160055, India",https://www.google.co.kr/maps/place/Dr.+Manish+Singla/data=!4m5!3m4!1s0x390feff0e33defb3:0xaa4902a619d9cc44!8m2!3d30.7400373!4d76.7143082?authuser=0&hl=en&rclk=1,30.7400373,76.7143082,Chandigarh
Singh Dr T P,Doctor,"Sco 60-62 Ist Floor, Sector 17 C, Sector 17 C, Chandigarh, 160017, India",https://www.google.co.kr/maps/place/Singh+Dr+T+P/data=!4m5!3m4!1s0x390fed0baaaaaaab:0x41a460f7780fa662!8m2!3d30.7398339!4d76.782702?authuser=0&hl=en&rclk=1,30.7398339,76.782702,Chandigarh
Dr. Ashwin Mohan,Doctor,"SCO 2417-2418, Sector 22-C, First Floor Near Aroma Taxi Stand, Chandigarh, 160022, India",https://www.google.co.kr/maps/place/Dr.+Ashwin+Mohan/data=!4m5!3m4!1s0x390fed277e19688f:0xaa53fadae3a91efe!8m2!3d30.7292385!4d76.7719953?authuser=0&hl=en&rclk=1,30.7292385,76.7719953,Chandigarh
Dr. Ravi Garg,Neurosurgeon,"Near, NH 21, Zirakpur - Chandigarh, Highway, Under Flyover, Zirakpur, Punjab 140603, India",https://www.google.co.kr/maps/place/Dr.+Ravi+Garg/data=!4m5!3m4!1s0x390fed126e41a2b5:0xe0d4b4153d36d6e3!8m2!3d30.6618926!4d76.8184701?authuser=0&hl=en&rclk=1,30.6618926,76.8184701,Chandigarh
Dr. Shefali Sharma - Best Obstetrician-Gynecologist,Obstetrician-gynecologist,"House No.1048, Sector, 37B, Chandigarh, 160036, India",https://www.google.co.kr/maps/place/Dr.+Shefali+Sharma+-+Best+Obstetrician-Gynecologist/data=!4m5!3m4!1s0x390fed5b0e898999:0x34d2142e5ac42775!8m2!3d30.7393368!4d76.7559997?authuser=0&hl=en&rclk=1,30.7393368,76.7559997,Chandigarh
Opolis Diagnostic Centre,Radiologist,"SCO 266, 267, Sector 9C, Sector 32D, Sector 32, Chandigarh, 160032, India",https://www.google.co.kr/maps/place/Opolis+Diagnostic+Centre/data=!4m5!3m4!1s0x390fedadf15ec919:0xa781fe311955b850!8m2!3d30.7081397!4d76.7742185?authuser=0&hl=en&rclk=1,30.7081397,76.7742185,Chandigarh
