Company_Name,Category,Address,Url,Latitude,Longitude,Territory
Fitness India Gym & Slimming Center,Gym,"Thind Complex, Jassian Rd, Durga Puri, Haibowal Kalan, Ludhiana, Punjab 141001, India",https://www.google.co.kr/maps/place/Fitness+India+Gym+%26+Slimming+Center/data=!4m5!3m4!1s0x391a83fa3a26ce8b:0xdea1e126cb02d987!8m2!3d30.9251601!4d75.8164674?authuser=0&hl=en&rclk=1,30.9251601,75.8164674,Punjab
PD FITNESS GYM,Gym,"2nd Floor, Mithapur Rd, above State Bank of India, Ravindra Nagar, Jalandhar, Punjab 144001, India",https://www.google.co.kr/maps/place/PD+FITNESS+GYM/data=!4m5!3m4!1s0x391a5b16968d4fef:0x4ca9df16376870fa!8m2!3d31.2841923!4d75.5786732?authuser=0&hl=en&rclk=1,31.2841923,75.5786732,Punjab
Prime Fitness unisex gym,Fitness center,"Jalandhar road, Opp petrol pump, above PNB bank, Mansoorwal dona, Kapurthala, Punjab 144601, India",https://www.google.co.kr/maps/place/Prime+Fitness+unisex+gym/data=!4m5!3m4!1s0x391a48e415f61aeb:0x762efa1d6ac1ff5d!8m2!3d31.3713!4d75.404179?authuser=0&hl=en&rclk=1,31.3713,75.404179,Punjab
Sukhija Slimming & Fitness Centre,Gym,"Sukhija Colony Rose Enclave Street, opposite to temple, Punjab 151203, India",https://www.google.co.kr/maps/place/Sukhija+Slimming+%26+Fitness+Centre/data=!4m5!3m4!1s0x391759cab15de149:0x3b365b52fa22a6e8!8m2!3d30.6754191!4d74.763356?authuser=0&hl=en&rclk=1,30.6754191,74.763356,Punjab
The Code Fitness Premium - Best Premium Gym In Ludhiana,Gym,"4th Floor, Boulevard Mall, The Mall Rd, Ludhiana, Punjab 141001, India",https://www.google.co.kr/maps/place/The+Code+Fitness+Premium+-+Best+Premium+Gym+In+Ludhiana/data=!4m5!3m4!1s0x391a83b9016025f9:0xdf3f31078183ce17!8m2!3d30.9056601!4d75.8400872?authuser=0&hl=en&rclk=1,30.9056601,75.8400872,Punjab
Muscle Town,Fitness center,"SC0 51-52, 1st Floor, Tower, Opp. Ang Tower, Urban Estate phase II, Jalandhar, Punjab 144022, India",https://www.google.co.kr/maps/place/Muscle+Town/data=!4m5!3m4!1s0x391a5bbaea95c5ef:0xba77596411ada79c!8m2!3d31.2971774!4d75.5874142?authuser=0&hl=en&rclk=1,31.2971774,75.5874142,Punjab
Neo Fitness - Best GYM & Fitness Centre in Jalandhar,Gym,"# 689-R, 2nd Floor, No Exit, Mall Rd, Model Town, Jalandhar, Punjab 144003, India",https://www.google.co.kr/maps/place/Neo+Fitness+-+Best+GYM+%26+Fitness+Centre+in+Jalandhar/data=!4m5!3m4!1s0x391a5ba6612fc121:0x387769d2059cdd8e!8m2!3d31.3099884!4d75.5788383?authuser=0&hl=en&rclk=1,31.3099884,75.5788383,Punjab
Fitness World (Gym),Gym,"Dehlon-Sahnewal Rd, Punjab 141101, India",https://www.google.co.kr/maps/place/Fitness+World+(Gym)/data=!4m5!3m4!1s0x39107a2c29d70dc9:0x1b759d8dc7726855!8m2!3d30.7486525!4d75.8591916?authuser=0&hl=en&rclk=1,30.7486525,75.8591916,Punjab
F360 Gym Ludhiana,Gym,"367, Chandigarh Road, opp. Gopichand, Roshan Lal Petrol Pump, Ludhiana, Punjab 141014, India",https://www.google.co.kr/maps/place/F360+Gym+Ludhiana/data=!4m5!3m4!1s0x391a8319a6ebe855:0xb705def98b1c98d4!8m2!3d30.90957!4d75.88303?authuser=0&hl=en&rclk=1,30.90957,75.88303,Punjab
Fitness Zone Gym,Fitness center,"Bank of India basement near easy day, Mithapur Rd, Cheema Nagar, Jalandhar, Punjab, India",https://www.google.co.kr/maps/place/Fitness+Zone+Gym/data=!4m5!3m4!1s0x391a5ba22bb213c3:0x76b0cd05bcd9860b!8m2!3d31.2918651!4d75.5804296?authuser=0&hl=en&rclk=1,31.2918651,75.5804296,Punjab
Fitness Just Gym- Kapurthala,Fitness center,"Green Model Town, Kanjli Road, near Radha Swami Satsang Dera, Kapurthala, Punjab 144601, India",https://www.google.co.kr/maps/place/Fitness+Just+Gym-+Kapurthala/data=!4m5!3m4!1s0x391a48fbffffffff:0x35ab1f628dd0fea!8m2!3d31.3980957!4d75.3869803?authuser=0&hl=en&rclk=1,31.3980957,75.3869803,Punjab
HEAT Fitness India,Gym,"Pakhowal Rd, New Moti Bagh Colony, Phullanwal, Ludhiana, Punjab 141002, India",https://www.google.co.kr/maps/place/HEAT+Fitness+India/data=!4m5!3m4!1s0x391a822421afc18b:0x1684aea7b1df1819!8m2!3d30.8707655!4d75.8127102?authuser=0&hl=en&rclk=1,30.8707655,75.8127102,Punjab
Auragymz - Best Gym | Top Gym in Ludhiana,Gym,"Opposite G.S Memorial School odhi Club Road, New BRS Nagar, Ludhiana, Punjab 141022, India",https://www.google.co.kr/maps/place/Auragymz+-+Best+Gym+%7C+Top+Gym+in+Ludhiana/data=!4m5!3m4!1s0x391a818674b7bf23:0xe34a94b1c69484e8!8m2!3d30.8757819!4d75.8004284?authuser=0&hl=en&rclk=1,30.8757819,75.8004284,Punjab
Gold's Gym,Gym,"5th Floor, Rampaa Centre Point, above KFC Restaurant, Model Town, Jalandhar, Punjab 144003, India",https://www.google.co.kr/maps/place/Gold's+Gym/data=!4m5!3m4!1s0x391a5baae25572cb:0x7f5d5f0b435b45a5!8m2!3d31.3066084!4d75.5770232?authuser=0&hl=en&rclk=1,31.3066084,75.5770232,Punjab
City Gym,Gym,"GWG8+X8H, Krishna Nagar, Hoshiarpur, Punjab 146001, India",https://www.google.co.kr/maps/place/City+Gym/data=!4m5!3m4!1s0x391ae2d8c0035693:0x873f442e38a8ae09!8m2!3d31.5274349!4d75.9158603?authuser=0&hl=en&rclk=1,31.5274349,75.9158603,Punjab
Fitness Paradise Gym,Gym,"Grand Trunk Rd, Anant Nagar, Khanna, Punjab 141401, India",https://www.google.co.kr/maps/place/Fitness+Paradise+Gym/data=!4m5!3m4!1s0x39100e284f55ef63:0x25aec293479e6cb5!8m2!3d30.707157!4d76.2154302?authuser=0&hl=en&rclk=1,30.707157,76.2154302,Punjab
Body Zone Gym Private Limited,Gym,"1, Cool Road, Jyoti Nagar, Jalandhar, Punjab 144001, India",https://www.google.co.kr/maps/place/Body+Zone+Gym+Private+Limited/data=!4m5!3m4!1s0x391a5a594d22b88d:0xae5bca33c7ae87!8m2!3d31.3038815!4d75.5861942?authuser=0&hl=en&rclk=1,31.3038815,75.5861942,Punjab
Fit & Fine Fitness Centre-Best Ladies Gym In Hoshiarpur,Gym,"SCF 23-D.Above More Store,Mall Store, Near Shimla Pahadi Chowk, Hoshiarpur, Punjab 146001, India",https://www.google.co.kr/maps/place/Fit+%26+Fine+Fitness+Centre-Best+Ladies+Gym+In+Hoshiarpur/data=!4m5!3m4!1s0x391ae2dc5a5a7acf:0xf874d1ee2c0ce3c5!8m2!3d31.5342782!4d75.9193218?authuser=0&hl=en&rclk=1,31.5342782,75.9193218,Punjab
Fitness Zone Gym,Gym,"Basment Bank of india ..Unnamed Road, Gurmeet Nagar, Makhan Shah Lubana Nagar, Phase 2, Urban Estate phase II, Jalandhar, Punjab 144003, India",https://www.google.co.kr/maps/place/Fitness+Zone+Gym/data=!4m5!3m4!1s0x391a5b7c05157ce5:0xfcdafe477add84bd!8m2!3d31.2918012!4d75.5806187?authuser=0&hl=en&rclk=1,31.2918012,75.5806187,Punjab
Sahil Fitness Center,Gym,"666, Jail Rd, Sector 68, Sector 69, Sahibzada Ajit Singh Nagar, Punjab 160062, India",https://www.google.co.kr/maps/place/Sahil+Fitness+Center/data=!4m5!3m4!1s0x390feea221de1785:0x73375390bf2054a4!8m2!3d30.6915932!4d76.7266298?authuser=0&hl=en&rclk=1,30.6915932,76.7266298,Punjab
Pro Fitness Gym,Gym,"Rajguru Nagar Rd, Rajguru Nagar, Ludhiana, Punjab 141012, India",https://www.google.co.kr/maps/place/Pro+Fitness+Gym/data=!4m5!3m4!1s0x391a819ecb921f71:0x782d297023980ac9!8m2!3d30.8782603!4d75.7876744?authuser=0&hl=en&rclk=1,30.8782603,75.7876744,Punjab
Sachdeva Fitness Center,Gymnasium Cz,"Sachdeva fitness centre, BAGHI ROAD, Model Town, Firozpur, Punjab 152002, India",https://www.google.co.kr/maps/place/Sachdeva+Fitness+Center/data=!4m5!3m4!1s0x3919e995307b65e5:0xc7077d0f82e0392e!8m2!3d30.9517414!4d74.6171706?authuser=0&hl=en&rclk=1,30.9517414,74.6171706,Punjab
Tara Gym,Gym,"Ajit palace, Jalandhar Cantt, Jalandhar, Punjab 144024, India",https://www.google.co.kr/maps/place/Tara+Gym/data=!4m5!3m4!1s0x391a595ee0536c67:0x46b5c86239607953!8m2!3d31.287465!4d75.6438297?authuser=0&hl=en&rclk=1,31.287465,75.6438297,Punjab
Level Xtreme Gym,Gym,"Street Number 12, Guru Nanak Nagar Above State Bank of India, Punjab 147003, India",https://www.google.co.kr/maps/place/Level+Xtreme+Gym/data=!4m5!3m4!1s0x39102867baa1d421:0x5abd9f4559cc01e9!8m2!3d30.3453308!4d76.4195184?authuser=0&hl=en&rclk=1,30.3453308,76.4195184,Punjab
Angel World Gym & fitness academy,Gym,"Mall Rd, Sukhjit Nagar, Shivaji Nagar, The mall, Punjab 144602, India",https://www.google.co.kr/maps/place/Angel+World+Gym+%26+fitness+academy/data=!4m5!3m4!1s0x391a49abcb3c267b:0xaf803035a9b3446a!8m2!3d31.38106!4d75.3836464?authuser=0&hl=en&rclk=1,31.38106,75.3836464,Punjab
Anytime Fitness,Gym,"1st floor Plot no.11 E & 12 E, Malhar Cinema Rd, Sarabha Nagar, Ludhiana, Punjab 141001, India",https://www.google.co.kr/maps/place/Anytime+Fitness/data=!4m5!3m4!1s0x391a83ceed1aaaab:0x862f7e09abc0679e!8m2!3d30.8946629!4d75.8222997?authuser=0&hl=en&rclk=1,30.8946629,75.8222997,Punjab
Indian fitness gym,Gym,"Anngarh Rd, Anngarh, Bharariwal, Amritsar, Punjab 143006, India",https://www.google.co.kr/maps/place/Indian+fitness+gym/data=!4m5!3m4!1s0x39197bc9fa130fdd:0xdea68f1fcc8f5ae0!8m2!3d31.6078375!4d74.8579461?authuser=0&hl=en&rclk=1,31.6078375,74.8579461,Punjab
Neo Fitness(Best Gym In Hoshiarpur),Gym,"PCR Tower,Opp Easyday, The Mall Road, Hoshiarpur, Punjab 146001, India",https://www.google.co.kr/maps/place/Neo+Fitness(Best+Gym+In+Hoshiarpur)/data=!4m5!3m4!1s0x391ae2de83650d5b:0x432c1d5b4ca69dea!8m2!3d31.5317064!4d75.9196952?authuser=0&hl=en&rclk=1,31.5317064,75.9196952,Punjab
ALERT GYM,Gym,"Nh 703a, Kala Sanghian-Lohian Khas Rd, Rampur Jagir, Punjab 144620, India",https://www.google.co.kr/maps/place/ALERT+GYM/data=!4m5!3m4!1s0x391a3e7cef6cfe4f:0x9f137940cad9748b!8m2!3d31.178618!4d75.2576187?authuser=0&hl=en&rclk=1,31.178618,75.2576187,Punjab
The Code Fitness Mohali,Gym,"SCO 112 to 114, Phase 10, Sector 64, Sahibzada Ajit Singh Nagar, Punjab 160062, India",https://www.google.co.kr/maps/place/The+Code+Fitness+Mohali/data=!4m5!3m4!1s0x390fed7f325cad7d:0x1dd879a1513f79b5!8m2!3d30.6839207!4d76.7421504?authuser=0&hl=en&rclk=1,30.6839207,76.7421504,Punjab
Fitness centre,Gym,"9MV5+89R, Madara, Punjab 144025, India",https://www.google.co.kr/maps/place/Fitness+centre/data=!4m5!3m4!1s0x391a570e54e8b61b:0xa30d484d4ac37a9!8m2!3d31.3933601!4d75.6583967?authuser=0&hl=en&rclk=1,31.3933601,75.6583967,Punjab
Ultimate Fitness Gym,Gym,"SCO 513, 514,515, near Reliance Fresh, Sector 70, Sahibzada Ajit Singh Nagar, Punjab 160071, India",https://www.google.co.kr/maps/place/Ultimate+Fitness+Gym/data=!4m5!3m4!1s0x390fee9115555535:0x41277ee3a9408bcd!8m2!3d30.6976053!4d76.7219453?authuser=0&hl=en&rclk=1,30.6976053,76.7219453,Punjab
Super Fitness Gym Women's,Gym,"1st Floor, Above Central Bank, Tahli Wala Chowk, Sultanwind Road, Amritsar, Punjab 143001, India",https://www.google.co.kr/maps/place/Super+Fitness+Gym+Women's/data=!4m5!3m4!1s0x39197cbb06fdfac7:0xbb670627691f577a!8m2!3d31.615487!4d74.888537?authuser=0&hl=en&rclk=1,31.615487,74.888537,Punjab
Thakur Fitness World Pvt.Ltd,Gym,"Lakkar Mandi Rd, Abad Pura, Phillaur, Punjab 144410, India",https://www.google.co.kr/maps/place/Thakur+Fitness+World+Pvt.Ltd/data=!4m5!3m4!1s0x391a89578f43495b:0xc1591199e3a7f9d0!8m2!3d31.0219693!4d75.7862239?authuser=0&hl=en&rclk=1,31.0219693,75.7862239,Punjab
B.S. Basra Unisex Gym,Gym,"Pathankot Rd, 23 New Colony, Aman Nagar, Jalandhar, Punjab 144003, India",https://www.google.co.kr/maps/place/B.S.+Basra+Unisex+Gym/data=!4m5!3m4!1s0x391a5a773617182f:0xd856ac47b50cd698!8m2!3d31.3494045!4d75.587371?authuser=0&hl=en&rclk=1,31.3494045,75.587371,Punjab
Invoke Fitness,Gym,"Raja Garden Rd, Preet Nagar, Ludhiana, Punjab 141012, India",https://www.google.co.kr/maps/place/Invoke+Fitness/data=!4m5!3m4!1s0x391a81dcc1a96895:0xc10fe7907604df12!8m2!3d30.8821244!4d75.7693597?authuser=0&hl=en&rclk=1,30.8821244,75.7693597,Punjab
Fitness Hangover,Gym,"1060, G.T. Road, Near India Gate, Chheharta, Amritsar, Punjab 143001, India",https://www.google.co.kr/maps/place/Fitness+Hangover/data=!4m5!3m4!1s0x39196557a87f4a8f:0x8a8a53abf18ff392!8m2!3d31.626222!4d74.783284?authuser=0&hl=en&rclk=1,31.626222,74.783284,Punjab
fitness centre,Gym,"vill, Khosa, Punjab, India",https://www.google.co.kr/maps/place/fitness+centre/data=!4m5!3m4!1s0x391a163d4cfa7c45:0x81f55c55a349a40d!8m2!3d31.1236207!4d75.2304197?authuser=0&hl=en&rclk=1,31.1236207,75.2304197,Punjab
Dhillon Muscular Gym & Fitness Planet,Gym,"Bibi Wala Rd, Bharat Nagar, Bathinda, Punjab 151001, India",https://www.google.co.kr/maps/place/Dhillon+Muscular+Gym+%26+Fitness+Planet/data=!4m5!3m4!1s0x391732b9f6d5dc53:0xb1f0b3bf117c1559!8m2!3d30.2203989!4d74.9551943?authuser=0&hl=en&rclk=1,30.2203989,74.9551943,Punjab
"Burn Gym, Model Town, Jalandhar",Gym,"Satya Sai Tower, Plot No - 687 L, Model Town, Jalandhar, Punjab 144003, India","https://www.google.co.kr/maps/place/Burn+Gym,+Model+Town,+Jalandhar/data=!4m5!3m4!1s0x391a5babd7552bfd:0x7ecc792c21d21794!8m2!3d31.3071915!4d75.5755123?authuser=0&hl=en&rclk=1",31.3071915,75.5755123,Punjab
Dhawan Fitness centre,Gym,"C24C+PV8, Sangam Education Welfare Society, Fazilka, Punjab 152123, India",https://www.google.co.kr/maps/place/Dhawan+Fitness+centre/data=!4m5!3m4!1s0x3917907dbdb67db7:0xb82066c5f55bde6a!8m2!3d30.4067949!4d74.0221979?authuser=0&hl=en&rclk=1,30.4067949,74.0221979,Punjab
FITNESS TOWN GYM,Gym,"66-Feet, Nakodar Link Road, Near Sant Sampla Service Station, Sofi Pind M : 83607-25031, 79733-88110, Jalandhar Cantt, Jalandhar, Punjab 144024, India",https://www.google.co.kr/maps/place/FITNESS+TOWN+GYM/data=!4m5!3m4!1s0x391a59c677799dd9:0xd0a30767c4833971!8m2!3d31.2709242!4d75.6389497?authuser=0&hl=en&rclk=1,31.2709242,75.6389497,Punjab
The Fitness Hub,Gym,"DMC Rd, Block-B, Udham Singh Nagar, Tagore Nagar, Ludhiana, Punjab 141001, India",https://www.google.co.kr/maps/place/The+Fitness+Hub/data=!4m5!3m4!1s0x391a83e84e99562f:0xdea1b14e08d9519b!8m2!3d30.9117154!4d75.8210492?authuser=0&hl=en&rclk=1,30.9117154,75.8210492,Punjab
Gold's Gym,Gym,"3rd Floor, GK Mall, Ludhiana Bypass Road, Jawadi Bridge, Ludhiana, Punjab 141013, India",https://www.google.co.kr/maps/place/Gold's+Gym/data=!4m5!3m4!1s0x391a82345e1745e7:0xf89c61e70eabd5e1!8m2!3d30.883168!4d75.830321?authuser=0&hl=en&rclk=1,30.883168,75.830321,Punjab
Curl Gym,Gym,"Sainik Vihar, Kaki Pind, Jalandhar, Punjab 144007, India",https://www.google.co.kr/maps/place/Curl+Gym/data=!4m5!3m4!1s0x391a59be06d7771f:0xc211e85082eb8dc6!8m2!3d31.316525!4d75.631409?authuser=0&hl=en&rclk=1,31.316525,75.631409,Punjab
Nandra Fitness,Gym,"Factory EG 1/9,Link Nagar,Ladowali Road, Jalandhar, Punjab 144008, India",https://www.google.co.kr/maps/place/Nandra+Fitness/data=!4m5!3m4!1s0x391a5a333778d67f:0x1b9b1093ab49f763!8m2!3d31.312923!4d75.605346?authuser=0&hl=en&rclk=1,31.312923,75.605346,Punjab
Pulse 180 Fitness Lounge,Gym,"Block G, Sco-41F, BRS Nagar Main Rd, Defence Colony, Bhai Randhir Singh Nagar, Ludhiana, Punjab 141001, India",https://www.google.co.kr/maps/place/Pulse+180+Fitness+Lounge/data=!4m5!3m4!1s0x391a81f29927174d:0x26b92f7813c32181!8m2!3d30.8869875!4d75.8033397?authuser=0&hl=en&rclk=1,30.8869875,75.8033397,Punjab
"Burn Gym, Ghumar Mandi, Ludhiana",Gym,"Plot no B-19/186 3rd-4th Floor Rani Jhasi Road , Ghumar Mandi, Ludhiana, Punjab 141001, India","https://www.google.co.kr/maps/place/Burn+Gym,+Ghumar+Mandi,+Ludhiana/data=!4m5!3m4!1s0x391a83be8349133b:0x7ab63b03b012d839!8m2!3d30.9079654!4d75.8355701?authuser=0&hl=en&rclk=1",30.9079654,75.8355701,Punjab
Fitness World,Fitness center,"SCO 83, first and second floor, Sector 91, Sahibzada Ajit Singh Nagar, Punjab 140307, India",https://www.google.co.kr/maps/place/Fitness+World/data=!4m5!3m4!1s0x390fef024289fa99:0xe5d6bfa2654bb569!8m2!3d30.7004264!4d76.6793375?authuser=0&hl=en&rclk=1,30.7004264,76.6793375,Punjab
THE EDGE PRO FITNESS GYMS,Gym,"Sutheri Road, opp icici bank, near miraz cinemaz, Hoshiarpur, Punjab 146001, India",https://www.google.co.kr/maps/place/THE+EDGE+PRO+FITNESS+GYMS/data=!4m5!3m4!1s0x391ae2d6ed0a40e9:0xefead77992669407!8m2!3d31.5286167!4d75.9073329?authuser=0&hl=en&rclk=1,31.5286167,75.9073329,Punjab
THE URBAN GYM,Gym,"SCO-13, Phase II Main Rd, Urban Estate Phase II, Urban Estate, Patiala, Punjab 147002, India",https://www.google.co.kr/maps/place/THE+URBAN+GYM/data=!4m5!3m4!1s0x39102816aa7d60f5:0xf10eedc9f1d8e63c!8m2!3d30.3507177!4d76.4390864?authuser=0&hl=en&rclk=1,30.3507177,76.4390864,Punjab
Xtreme Fitness Gym,Gym,"Jalandhar - Nakodar Rd, Opposite PNB Bank, Lambra, Bhagwanpur, Jalandhar, Punjab 144026, India",https://www.google.co.kr/maps/place/Xtreme+Fitness+Gym/data=!4m5!3m4!1s0x391a5cab9eed8461:0xa003a37a91256482!8m2!3d31.2541367!4d75.5308227?authuser=0&hl=en&rclk=1,31.2541367,75.5308227,Punjab
"Breathe Gym, Jalandhar",Gym,"Hotel Inderprasth, New Adarsh Nagar, Jalandhar, Punjab 144002, India","https://www.google.co.kr/maps/place/Breathe+Gym,+Jalandhar/data=!4m5!3m4!1s0x391a5bb78df43529:0x14cda3adfbe83343!8m2!3d31.3272631!4d75.5611872?authuser=0&hl=en&rclk=1",31.3272631,75.5611872,Punjab
CrossFit INQUILAB,Fitness center,"SCO 38-C URBAN ESTATE PHASE 2, Jalandhar, Punjab 144003, India",https://www.google.co.kr/maps/place/CrossFit+INQUILAB/data=!4m5!3m4!1s0x391a5bbaefd812df:0x1c000b715d36eb3c!8m2!3d31.2967311!4d75.5880678?authuser=0&hl=en&rclk=1,31.2967311,75.5880678,Punjab
Concept Fitness,Gym,"Indus Ind ATM, Nehru Sidhant Kender Complex, Feroze Gandhi Market Road, Pritm Nagar, Model Town, Ludhiana, Punjab 141001, India",https://www.google.co.kr/maps/place/Concept+Fitness/data=!4m5!3m4!1s0x391a836c721b0dab:0xe4b33fa879b301d2!8m2!3d30.8909167!4d75.8413374?authuser=0&hl=en&rclk=1,30.8909167,75.8413374,Punjab
Fitness Freaks,Gym,"164, Golden Ave, Part 2, Golden Avenue, Jalandhar, Punjab 144001, India",https://www.google.co.kr/maps/place/Fitness+Freaks/data=!4m5!3m4!1s0x391a5a5f309bf7cb:0x650af482d9460c00!8m2!3d31.3011199!4d75.5904141?authuser=0&hl=en&rclk=1,31.3011199,75.5904141,Punjab
Body Tuner Gym,Gym,"48-B, Tagor Nagar. Opp Dr M.S. Sethi Hospital, Near Hero Heart DMC, Ludhiana, Punjab 141001, India",https://www.google.co.kr/maps/place/Body+Tuner+Gym/data=!4m5!3m4!1s0x391a83c1a0b32fe1:0xf81086d412fdb361!8m2!3d30.9103735!4d75.8240633?authuser=0&hl=en&rclk=1,30.9103735,75.8240633,Punjab
Speed Fitness Unisex Gym - Best gym in Ludhiana,Gym,"Guru Nanak Dev Nagar, St. 5, Daba Lohara Rd, near Sai Dental Hospital, Shimlapuri, Ludhiana, Punjab 141008, India",https://www.google.co.kr/maps/place/Speed+Fitness+Unisex+Gym+-+Best+gym+in+Ludhiana/data=!4m5!3m4!1s0x391a83973686e259:0x5bd581d90f11879e!8m2!3d30.862254!4d75.8856419?authuser=0&hl=en&rclk=1,30.862254,75.8856419,Punjab
Super Fitness Shop,Gym,"Damoria Pul, Goal Market, Civil Lines, Ludhiana, Punjab 141008, India",https://www.google.co.kr/maps/place/Super+Fitness+Shop/data=!4m5!3m4!1s0x391a839a43c56b21:0xcef646722484eeb0!8m2!3d30.91977!4d75.84346?authuser=0&hl=en&rclk=1,30.91977,75.84346,Punjab
Fitness Point,Gym,"7V32+85Q, Guru Teg Bahadur Colony, Mubarik Mehal Colony, Sangrur, Punjab 148001, India",https://www.google.co.kr/maps/place/Fitness+Point/data=!4m5!3m4!1s0x39105106d61fd403:0xf5485e0e8d558e72!8m2!3d30.2533481!4d75.8504891?authuser=0&hl=en&rclk=1,30.2533481,75.8504891,Punjab
PUNJABI BULLS GYM,Gym,"Udham Singh Nagar, Patiala, Punjab 147004, India",https://www.google.co.kr/maps/place/PUNJABI+BULLS+GYM/data=!4m5!3m4!1s0x3910273720f11625:0x99e42a475d47ce0d!8m2!3d30.3696516!4d76.3981396?authuser=0&hl=en&rclk=1,30.3696516,76.3981396,Punjab
Fitness Centre,Gym,"47HR+7X8, Muridwal, Punjab 144702, India",https://www.google.co.kr/maps/place/Fitness+Centre/data=!4m5!3m4!1s0x391a15928a2d24af:0x2c83da2efa7d34cd!8m2!3d31.1281743!4d75.2924666?authuser=0&hl=en&rclk=1,31.1281743,75.2924666,Punjab
Gold's Gym,Fitness center,"G.T Road, Near McDonald's, Bullepur, Khanna, Punjab 141401, India",https://www.google.co.kr/maps/place/Gold's+Gym/data=!4m5!3m4!1s0x39101b9362be20f9:0xa18b8a58ed8a3100!8m2!3d30.684493!4d76.2562028?authuser=0&hl=en&rclk=1,30.684493,76.2562028,Punjab
T&S Fitness Gym Only Female Gaushala Road Jandiala Guru,Gym,"Jandiala Guru, Punjab 143115, India",https://www.google.co.kr/maps/place/T%26S+Fitness+Gym+Only+Female+Gaushala+Road+Jandiala+Guru/data=!4m5!3m4!1s0x391bd69e735708b9:0xae47b926ab241d22!8m2!3d31.5593974!4d75.0322863?authuser=0&hl=en&rclk=1,31.5593974,75.0322863,Punjab
fitness curves gym,Gym,"Phase 1, markit, Jalandhar, Punjab 144022, India",https://www.google.co.kr/maps/place/fitness+curves+gym/data=!4m5!3m4!1s0x391a5baef43334a7:0x8dbabb0c51a516a!8m2!3d31.2895856!4d75.5958664?authuser=0&hl=en&rclk=1,31.2895856,75.5958664,Punjab
Bajwa Fitness Gym,Gym,"88CP+9RR, Hussainpur, Lodhi Bholana, Punjab 144620, India",https://www.google.co.kr/maps/place/Bajwa+Fitness+Gym/data=!4m5!3m4!1s0x391a3801383789c7:0xb6f609f8b8b955e6!8m2!3d31.3209833!4d75.3370116?authuser=0&hl=en&rclk=1,31.3209833,75.3370116,Punjab
JAIN FITNESS WORLD,Gym,"Street Number 8, near Basant Park, opp. Lottey Kanda, Industrial Area-B, Ludhiana, Punjab 141003, India",https://www.google.co.kr/maps/place/JAIN+FITNESS+WORLD/data=!4m5!3m4!1s0x391a82e46e47c28d:0x10740974796ea13d!8m2!3d30.8848261!4d75.8630178?authuser=0&hl=en&rclk=1,30.8848261,75.8630178,Punjab
The Perfect Fitness,Fitness center,"Ghuman market near HP petrol pump Bhogpur, punjab, Punjab 144201, India",https://www.google.co.kr/maps/place/The+Perfect+Fitness/data=!4m5!3m4!1s0x391bab4051ea7247:0x9b0b596c8af290b3!8m2!3d31.559782!4d75.641702?authuser=0&hl=en&rclk=1,31.559782,75.641702,Punjab
Power Gym,Gym,"1st floor, Main Hambran Rd, opp. rishi nagar, Near Kali Mata Mandir, Haibowal Khurd, Haibowal Kalan, Ludhiana, Punjab 141001, India",https://www.google.co.kr/maps/place/Power+Gym/data=!4m5!3m4!1s0x391a81584db09de1:0xed89ae53c2d6d469!8m2!3d30.9171192!4d75.8038366?authuser=0&hl=en&rclk=1,30.9171192,75.8038366,Punjab
B1GYM,Gym,"Pathankot - Jalandhar Rd, Sanghwal, Punjab 144301, India",https://www.google.co.kr/maps/place/B1GYM/data=!4m5!3m4!1s0x391a57d02e0b2f8b:0x817e8d8fc20da746!8m2!3d31.4338764!4d75.6209866?authuser=0&hl=en&rclk=1,31.4338764,75.6209866,Punjab
Body Fit Line,Gym,"21, Sunder Vihar, Wariana Complex, Punjab 144001, India",https://www.google.co.kr/maps/place/Body+Fit+Line/data=!4m5!3m4!1s0x391a4553ebaedce1:0x5a7006ef18f399b6!8m2!3d31.3403315!4d75.5229434?authuser=0&hl=en&rclk=1,31.3403315,75.5229434,Punjab
PRO Fitness Gym Bathinda-Best Gym In Bathinda,Gym,"First Floor, PRO FITNESS GYM, Amrik Singh Rd, opp. S.S.D. Girls College, Bathinda, Punjab 151001, India",https://www.google.co.kr/maps/place/PRO+Fitness+Gym+Bathinda-Best+Gym+In+Bathinda/data=!4m5!3m4!1s0x39173293178300a3:0x479029adfd4b1162!8m2!3d30.2225289!4d74.9363323?authuser=0&hl=en&rclk=1,30.2225289,74.9363323,Punjab
GYM TOWN,Gym,"B-XIV-2560, opposite A.V.M SCHOOL, Near Mini Rose Garden, Ajit Nagar, Ludhiana, Punjab 141008, India",https://www.google.co.kr/maps/place/GYM+TOWN/data=!4m5!3m4!1s0x391a830fd7477fa7:0xe024958a8c98e561!8m2!3d30.9057769!4d75.8646353?authuser=0&hl=en&rclk=1,30.9057769,75.8646353,Punjab
Unique fitness Gym,Gym,"Gali Number 1, Adarsh Nagar, Bathinda, Punjab 151003, India",https://www.google.co.kr/maps/place/Unique+fitness+Gym/data=!4m5!3m4!1s0x39173311a78734d3:0x63e333d7fcd63b43!8m2!3d30.2609113!4d74.9354985?authuser=0&hl=en&rclk=1,30.2609113,74.9354985,Punjab
Fitness Center,Gym,"6FC6+64Q, Rasulpur Kalan, Punjab 144623, India",https://www.google.co.kr/maps/place/Fitness+Center/data=!4m5!3m4!1s0x391a4330b1ef8e79:0xc44dfa34b1af0039!8m2!3d31.2205795!4d75.4603547?authuser=0&hl=en&rclk=1,31.2205795,75.4603547,Punjab
Aryan Body Gym,Gym,"Nadala, Punjab 144624, India",https://www.google.co.kr/maps/place/Aryan+Body+Gym/data=!4m5!3m4!1s0x391bb363eaaaaaab:0xd42e9be4907bc9ef!8m2!3d31.5436013!4d75.4368046?authuser=0&hl=en&rclk=1,31.5436013,75.4368046,Punjab
Gold's Gym,Gym,"Gold's Gym, Una Rd, Jattan Mohalla, Hoshiarpur, Punjab 146001, India",https://www.google.co.kr/maps/place/Gold's+Gym/data=!4m5!3m4!1s0x391ae3631d24fbf7:0x1a879d8f6a21429a!8m2!3d31.5398363!4d75.9198693?authuser=0&hl=en&rclk=1,31.5398363,75.9198693,Punjab
Raw Fitness Gym,Gym,"15/16 Top Floor Nehru Complex Lawrence Road, Amritsar, Punjab 143001, India",https://www.google.co.kr/maps/place/Raw+Fitness+Gym/data=!4m5!3m4!1s0x3919635855a0538b:0xc9e66aecf4d269f3!8m2!3d31.6423563!4d74.8768468?authuser=0&hl=en&rclk=1,31.6423563,74.8768468,Punjab
Shah's Fitness Gym,Gym,"Saili Rd, Rose Avenue, Aman Vihar, Pathankot, Punjab 145001, India",https://www.google.co.kr/maps/place/Shah's+Fitness+Gym/data=!4m5!3m4!1s0x391c7f7fa381bb83:0x81a24a77854cd419!8m2!3d32.2667238!4d75.6584594?authuser=0&hl=en&rclk=1,32.2667238,75.6584594,Punjab
Fitness Hub Gym,Fitness center,"8J6H+CQR, Near Krishna Sweets, Rama Mandi, Jalandhar, Punjab 144005, India",https://www.google.co.kr/maps/place/Fitness+Hub+Gym/data=!4m5!3m4!1s0x391a5962261cc49f:0xe9bd6b0c7afece5c!8m2!3d31.3111201!4d75.6293845?authuser=0&hl=en&rclk=1,31.3111201,75.6293845,Punjab
Fit Pro Gym,Gym,"Dilbagh Nagar, Jalandhar, Punjab 144002, India",https://www.google.co.kr/maps/place/Fit+Pro+Gym/data=!4m5!3m4!1s0x391a5ac0acff268f:0x45eb20089ffc271a!8m2!3d31.3268979!4d75.5453081?authuser=0&hl=en&rclk=1,31.3268979,75.5453081,Punjab
Rex Gym - Gym & Fitness,Gym,"12/1,, Central Town, Jalandhar, Punjab 144001, India",https://www.google.co.kr/maps/place/Rex+Gym+-+Gym+%26+Fitness/data=!4m5!3m4!1s0x391a5a5c855e969b:0x983aacf8b875e103!8m2!3d31.3272437!4d75.5815843?authuser=0&hl=en&rclk=1,31.3272437,75.5815843,Punjab
"Balance Fitness Studio, Jalandhar",Gym,"384/85, adjoining Basant Continental Hotel, Krishna Nagar, Adarsh Nagar, Jalandhar, Punjab 144008, India","https://www.google.co.kr/maps/place/Balance+Fitness+Studio,+Jalandhar/data=!4m5!3m4!1s0x391a5a9289005dc9:0x6f83504fc96ea121!8m2!3d31.3320078!4d75.5616883?authuser=0&hl=en&rclk=1",31.3320078,75.5616883,Punjab
City Gym,Gym,"W6VG+39X, Dharamkot, Punjab 142042, India",https://www.google.co.kr/maps/place/City+Gym/data=!4m5!3m4!1s0x391a0e178cb2dd97:0x9b73277824c1553b!8m2!3d30.9427273!4d75.2259905?authuser=0&hl=en&rclk=1,30.9427273,75.2259905,Punjab
Golden gym,Gym,"Gill Rd, Shahid Jasdev Singh Nagar, Ludhiana, Punjab 141006, India",https://www.google.co.kr/maps/place/Golden+gym/data=!4m5!3m4!1s0x391a8286016f0307:0xe449ceb1949ae27!8m2!3d30.8573765!4d75.8592614?authuser=0&hl=en&rclk=1,30.8573765,75.8592614,Punjab
Fateh Powerhouse Gym,Gym,"1581, Circuit House Rd, Opp. PAU Gate No. 3, Maharaj Nagar, Ludhiana, Punjab 141004, India",https://www.google.co.kr/maps/place/Fateh+Powerhouse+Gym/data=!4m5!3m4!1s0x391a83c4d6b84a39:0xc274fca8b16ed675!8m2!3d30.9012978!4d75.818589?authuser=0&hl=en&rclk=1,30.9012978,75.818589,Punjab
Mattu Fitness Gym,Gym,"Moga Rd, Jagraon, Punjab 144702, India",https://www.google.co.kr/maps/place/Mattu+Fitness+Gym/data=!4m5!3m4!1s0x391a15cd074a256b:0x7482fa70eaf3ab78!8m2!3d31.083607!4d75.3354779?authuser=0&hl=en&rclk=1,31.083607,75.3354779,Punjab
Ravi fitness,Gym,"Unnamed Road, Ashok Vihar, Kapurthala, Punjab 144602, India",https://www.google.co.kr/maps/place/Ravi+fitness/data=!4m5!3m4!1s0x391a496963dc1945:0xc160fb42549af558!8m2!3d31.3671312!4d75.3825251?authuser=0&hl=en&rclk=1,31.3671312,75.3825251,Punjab
Alert Gym,Fitness center,"SCO 25-26, Choti Baradari-2, Opp. Taj Hotel, Garha Road, Jalandhar, Punjab 144001, India",https://www.google.co.kr/maps/place/Alert+Gym/data=!4m5!3m4!1s0x391a5bb6f633cfdd:0x1edcc03919c12baa!8m2!3d31.303348!4d75.59491?authuser=0&hl=en&rclk=1,31.303348,75.59491,Punjab
Pind Wale Gym 💪,Gym,"Billi Chaharmi Rd, Billi Chaharmi, Punjab 144041, India",https://www.google.co.kr/maps/place/Pind+Wale+Gym+%F0%9F%92%AA/data=!4m5!3m4!1s0x391a6bf459fe982f:0xabf5594d6ec3440f!8m2!3d31.1139488!4d75.388942?authuser=0&hl=en&rclk=1,31.1139488,75.388942,Punjab
Infinity Fitness Studio,Yoga studio,"41-B, New Guru Tegh Bahadur Nagar, near Old Rabindra Day School, Jalandhar, Punjab 144003, India",https://www.google.co.kr/maps/place/Infinity+Fitness+Studio/data=!4m5!3m4!1s0x391a5b05dcb27c27:0x26cd3a997eb2d3fe!8m2!3d31.298085!4d75.56771?authuser=0&hl=en&rclk=1,31.298085,75.56771,Punjab
POWER ZONE BODY BUILDING | LADIES & GENTS GYM,Gym,"Opp. Shalimar Bagh, near Jallowkhana Chowk, Kapurthala, Punjab 144602, India",https://www.google.co.kr/maps/place/POWER+ZONE+BODY+BUILDING+%7C+LADIES+%26+GENTS+GYM/data=!4m5!3m4!1s0x391a49ae4da4aab7:0x2e165190bd4eeda9!8m2!3d31.383496!4d75.378344?authuser=0&hl=en&rclk=1,31.383496,75.378344,Punjab
Behal Gym And Slim Centre,Gym,"38MG+697, Salachan, Punjab 144702, India",https://www.google.co.kr/maps/place/Behal+Gym+And+Slim+Centre/data=!4m5!3m4!1s0x391a14c68fffffff:0x6e5b5200ef98a74a!8m2!3d31.0830263!4d75.3259128?authuser=0&hl=en&rclk=1,31.0830263,75.3259128,Punjab
Health And Fitness Center,Gym,"96JF+6C3, Fattudhinga, Punjab 144601, India",https://www.google.co.kr/maps/place/Health+And+Fitness+Center/data=!4m5!3m4!1s0x391a31bada10177b:0xf6cfcb37c446b168!8m2!3d31.3805228!4d75.2235349?authuser=0&hl=en&rclk=1,31.3805228,75.2235349,Punjab
Target Fitness gym,Gym,"18 Dyal Nagar, Kartar Complex, Ist Floor of Kartar Marble, near Gujral Marg,, Jalandhar, Punjab 144003, India",https://www.google.co.kr/maps/place/Target+Fitness+gym/data=!4m5!3m4!1s0x391a5b1eaaaaaaad:0x438da7787d360334!8m2!3d31.3210007!4d75.565434?authuser=0&hl=en&rclk=1,31.3210007,75.565434,Punjab
weightlifting center,Gym,"8H7J+HRP, New Jawahar Nagar, Jawahar Nagar, Jalandhar, Punjab 144001, India",https://www.google.co.kr/maps/place/weightlifting+center/data=!4m5!3m4!1s0x391a5a53c5013c3d:0x17f2869f25dd9623!8m2!3d31.313957!4d75.5820868?authuser=0&hl=en&rclk=1,31.313957,75.5820868,Punjab
American fitness Gym,Gym,"Guru Gobind Singh Nagar.. Street #10/7 first floor, Bathinda, Punjab 151001, India",https://www.google.co.kr/maps/place/American+fitness+Gym/data=!4m5!3m4!1s0x3917338a8d980479:0x9531d786c75a1722!8m2!3d30.2298133!4d74.9470759?authuser=0&hl=en&rclk=1,30.2298133,74.9470759,Punjab
FITNESS HUNTER,Gym,"Jagdish Bros Sweets, CMC Chowk, Benjamin Rd, Ludhiana, Punjab 141008, India",https://www.google.co.kr/maps/place/FITNESS+HUNTER/data=!4m5!3m4!1s0x391a83227a94690d:0x786ba73bcddb33dc!8m2!3d30.9121249!4d75.8639657?authuser=0&hl=en&rclk=1,30.9121249,75.8639657,Punjab
GYM,Gym,"45FJ+W2W, Theh Kushalgarh, Punjab 144629, India",https://www.google.co.kr/maps/place/GYM/data=!4m5!3m4!1s0x391a17de45555555:0x9136946967a55871!8m2!3d31.1248673!4d75.1800739?authuser=0&hl=en&rclk=1,31.1248673,75.1800739,Punjab
Gym(khiwa),Gym,"697J+8RH, Jalandhar, Punjab 144623, India",https://www.google.co.kr/maps/place/Gym(khiwa)/data=!4m5!3m4!1s0x391a40e3ff9f3f69:0x661d43d037a027a4!8m2!3d31.2133076!4d75.3821091?authuser=0&hl=en&rclk=1,31.2133076,75.3821091,Punjab
Expert Fitness Jalandhar,Gym,"Near Jyothi Chowk, Civil Line, Jalandhar, Punjab 144001, India",https://www.google.co.kr/maps/place/Expert+Fitness+Jalandhar/data=!4m5!3m4!1s0x391a5b550807cbc3:0xb62ee186ab94a266!8m2!3d31.3260152!4d75.5761829?authuser=0&hl=en&rclk=1,31.3260152,75.5761829,Punjab
Invincible Fitness,Fitness center,"330-A, Model Town Rd, Model Town, Jalandhar, Punjab 144003, India",https://www.google.co.kr/maps/place/Invincible+Fitness/data=!4m5!3m4!1s0x391a5bae837e836b:0xca82ec49ac6ef054!8m2!3d31.3066015!4d75.5772331?authuser=0&hl=en&rclk=1,31.3066015,75.5772331,Punjab
In Shape Fitness,Fitness center,"Phase 1 Road Main Market, Adjoining Bagga Hospital, Phase 1, Urban Estate Dugri, Ludhiana, Punjab 141003, India",https://www.google.co.kr/maps/place/In+Shape+Fitness/data=!4m5!3m4!1s0x391a8244e62af5bb:0xb9337fa51e6566dc!8m2!3d30.8748212!4d75.8405283?authuser=0&hl=en&rclk=1,30.8748212,75.8405283,Punjab
Fitness master unisex gy,Gym,"Avtar Nagar Rd, Avtar Nagar, Jalandhar, Punjab 144003, India",https://www.google.co.kr/maps/place/Fitness+master+unisex+gy/data=!4m5!3m4!1s0x391a5b9f27f499c7:0x1614dabe53fcfa9a!8m2!3d31.3194869!4d75.5685269?authuser=0&hl=en&rclk=1,31.3194869,75.5685269,Punjab
Ultimate Fitness Gym,Gym,"Sco 34 35, Sector 67, Sahibzada Ajit Singh Nagar, Punjab 160062, India",https://www.google.co.kr/maps/place/Ultimate+Fitness+Gym/data=!4m5!3m4!1s0x390feea583a9dfd1:0x755b2bef6f3efeb8!8m2!3d30.6796059!4d76.7249181?authuser=0&hl=en&rclk=1,30.6796059,76.7249181,Punjab
POWER GYM,Gym,"Kala Singha Rd, Punjab 144002, India",https://www.google.co.kr/maps/place/POWER+GYM/data=!4m5!3m4!1s0x391a45b45edb5a81:0x2c21be7037fb4c90!8m2!3d31.2870923!4d75.5077982?authuser=0&hl=en&rclk=1,31.2870923,75.5077982,Punjab
Gym,Gym,"Unnamed Road, Johal Dhaiwala, Punjab 143407, India",https://www.google.co.kr/maps/place/Gym/data=!4m5!3m4!1s0x391a2f63ed99c829:0xb85be0ca01b5d2a7!8m2!3d31.31228!4d75.0654512?authuser=0&hl=en&rclk=1,31.31228,75.0654512,Punjab
Gym Street A Unisex Gym - Best gym in Ludhiana,Fitness center,"Cmc hospital, Brown Rd, CMC Campus, Ludhiana, Punjab 141008, India",https://www.google.co.kr/maps/place/Gym+Street+A+Unisex+Gym+-+Best+gym+in+Ludhiana/data=!4m5!3m4!1s0x391a834cf4f890f7:0xd1bed38dfd9828ec!8m2!3d30.9095154!4d75.8629389?authuser=0&hl=en&rclk=1,30.9095154,75.8629389,Punjab
Gill Fitness Center,Gym,"Rani Jhansi Road, Saransh Communication, Ghumar Mandi, Ludhiana, Punjab 141001, India",https://www.google.co.kr/maps/place/Gill+Fitness+Center/data=!4m5!3m4!1s0x391a83bed6c8b033:0x48c1c123437de12c!8m2!3d30.9060297!4d75.8334146?authuser=0&hl=en&rclk=1,30.9060297,75.8334146,Punjab
True Fitness Gym,Gym,"100 feet road, near DCB Bank, Bathinda, Punjab 151001, India",https://www.google.co.kr/maps/place/True+Fitness+Gym/data=!4m5!3m4!1s0x391732badccb80fb:0x13bd744e0c5bf218!8m2!3d30.21541!4d74.953744?authuser=0&hl=en&rclk=1,30.21541,74.953744,Punjab
Mahajan Gymnastic Works,Gym,"Opp. Post Office, Basti Nau, J.P. Nagar, Jalandhar, Punjab 144008, India",https://www.google.co.kr/maps/place/Mahajan+Gymnastic+Works/data=!4m5!3m4!1s0x391a5a594d22b88d:0x42a8732ccaa1cfe8!8m2!3d31.324871!4d75.557364?authuser=0&hl=en&rclk=1,31.324871,75.557364,Punjab
Fitness gym,Gym,"Chak Chella Rd, Chak Chela, Punjab 144701, India",https://www.google.co.kr/maps/place/Fitness+gym/data=!4m5!3m4!1s0x391a3f17bc0e6447:0x8d0c4aa5e5ed882!8m2!3d31.1669746!4d75.2864196?authuser=0&hl=en&rclk=1,31.1669746,75.2864196,Punjab
Gym Kanian Wala,Gym,"Bahadarke, Road, Chak Kanian Khurd, Punjab 142058, India",https://www.google.co.kr/maps/place/Gym+Kanian+Wala/data=!4m5!3m4!1s0x391a73ce7cf602cb:0xe4406834e797199e!8m2!3d30.9697336!4d75.3623569?authuser=0&hl=en&rclk=1,30.9697336,75.3623569,Punjab
Fitness First,Gym,"Sahibzada Ajit Singh Nagar, Punjab 140301, India",https://www.google.co.kr/maps/place/Fitness+First/data=!4m5!3m4!1s0x390ffab656a1cb23:0xfa7236a5350fd572!8m2!3d30.756506!4d76.6207783?authuser=0&hl=en&rclk=1,30.756506,76.6207783,Punjab
The Code Fitness Zirakpur,Gym,"SCO 1, Maya Garden Ph-3 Ext, 2, VIP Rd, Zirakpur, Punjab 140603, India",https://www.google.co.kr/maps/place/The+Code+Fitness+Zirakpur/data=!4m5!3m4!1s0x390feb7177417e23:0xbfaf3c3b20127300!8m2!3d30.6317274!4d76.8116104?authuser=0&hl=en&rclk=1,30.6317274,76.8116104,Punjab
YB Fitness hub,Gym,"Shop No 10, Golden Avenue - 1,, Near Amrit Petrol pump, Jalandhar, Punjab 144022, India",https://www.google.co.kr/maps/place/YB+Fitness+hub/data=!4m5!3m4!1s0x391a5bb9d38d9ee7:0x947585bc3167de2b!8m2!3d31.298952!4d75.5942862?authuser=0&hl=en&rclk=1,31.298952,75.5942862,Punjab
The Code Premium,Fitness center,"Boulevard, The Mall Rd, Ludhiana, Punjab 141027, India",https://www.google.co.kr/maps/place/The+Code+Premium/data=!4m5!3m4!1s0x391a83ee0c4f26bf:0xfaae9fb1385f6f30!8m2!3d30.906922!4d75.839715?authuser=0&hl=en&rclk=1,30.906922,75.839715,Punjab
Health Gym,Gym,"8697+WVW, Saitpur, Punjab 144628, India",https://www.google.co.kr/maps/place/Health+Gym/data=!4m5!3m4!1s0x391a309ae1f9eb51:0x3815415b0ee3ce90!8m2!3d31.3198746!4d75.2146973?authuser=0&hl=en&rclk=1,31.3198746,75.2146973,Punjab
F360 Gym Jalandhar,Gym,"F360 Gym 4th and 5th Floor above F&S Showroom Guru Nanak Mission Chownk, adjoining Burger king's, Jalandhar, Punjab 144001, India",https://www.google.co.kr/maps/place/F360+Gym+Jalandhar/data=!4m5!3m4!1s0x391a5a56f706399f:0x5aba1b4fb895bd37!8m2!3d31.3165682!4d75.5767934?authuser=0&hl=en&rclk=1,31.3165682,75.5767934,Punjab
Life fitness gym,Gym,"Mahindera Colony, Tarn Taran Sahib, Punjab 143401, India",https://www.google.co.kr/maps/place/Life+fitness+gym/data=!4m5!3m4!1s0x39197f783399a6e5:0x323abded62322ef6!8m2!3d31.4652578!4d74.918211?authuser=0&hl=en&rclk=1,31.4652578,74.918211,Punjab
Rex Fitness Gym,Gym,"Sarabha NAgar, Transport Nagar, Jalandhar, Punjab 144012, India",https://www.google.co.kr/maps/place/Rex+Fitness+Gym/data=!4m5!3m4!1s0x391a5181e0363917:0x4bb33d9fdeda15a2!8m2!3d31.36695!4d75.5889495?authuser=0&hl=en&rclk=1,31.36695,75.5889495,Punjab
The Smart Fitness Zone,Gym,"Hospital Rd, Shahkot, Punjab 144702, India",https://www.google.co.kr/maps/place/The+Smart+Fitness+Zone/data=!4m5!3m4!1s0x391a14ca202379f5:0x91609b386caeb759!8m2!3d31.0806673!4d75.3354989?authuser=0&hl=en&rclk=1,31.0806673,75.3354989,Punjab
VT 91s unisex gym,Gym,"Nakodar - Jagraon Road atma market basement, near bus stand, Mehatpur, Punjab 144041, India",https://www.google.co.kr/maps/place/VT+91s+unisex+gym/data=!4m5!3m4!1s0x391a6fc7cca0758f:0xe897ebad00366c7d!8m2!3d31.0518979!4d75.4749204?authuser=0&hl=en&rclk=1,31.0518979,75.4749204,Punjab
Tara Health Gymnasium,Gym,"8H7J+4VQ, New Jawahar Nagar, Jawahar Nagar, Jalandhar, Punjab 144001, India",https://www.google.co.kr/maps/place/Tara+Health+Gymnasium/data=!4m5!3m4!1s0x391a5a53ba9e3bb3:0xd598f270cf55ebe5!8m2!3d31.3128377!4d75.5822468?authuser=0&hl=en&rclk=1,31.3128377,75.5822468,Punjab
Fitness Gym,Gym,"College Rd, South Evenue, Abohar, Punjab 152116, India",https://www.google.co.kr/maps/place/Fitness+Gym/data=!4m5!3m4!1s0x3917a7f296412131:0xcf16576b80631632!8m2!3d30.1351723!4d74.2077109?authuser=0&hl=en&rclk=1,30.1351723,74.2077109,Punjab
THE ROYAL GYM,Gym,"2FXF+FCX, Mehatpur, Punjab 144041, India",https://www.google.co.kr/maps/place/THE+ROYAL+GYM/data=!4m5!3m4!1s0x391a6fd5d9868d27:0x134f9770ae25cea4!8m2!3d31.0487446!4d75.4736119?authuser=0&hl=en&rclk=1,31.0487446,75.4736119,Punjab
Fitness Gym Mahunwal,Gym,"Unnamed Road, Mahunwal, Punjab 144040, India",https://www.google.co.kr/maps/place/Fitness+Gym+Mahunwal/data=!4m5!3m4!1s0x391a69fa186c6cfd:0x76029c70699e51e1!8m2!3d31.1097368!4d75.4974132?authuser=0&hl=en&rclk=1,31.1097368,75.4974132,Punjab
Breathe In & Out Fitness - Gym in Patiala,Gym,"Stadium Rd, Opp. YPS School, Bharpur Garden Colony, Patiala, Punjab 147001, India",https://www.google.co.kr/maps/place/Breathe+In+%26+Out+Fitness+-+Gym+in+Patiala/data=!4m5!3m4!1s0x391028e7abedd3bd:0xf90a64424168330!8m2!3d30.320872!4d76.3871897?authuser=0&hl=en&rclk=1,30.320872,76.3871897,Punjab
Curve Fitness Gym Patiala,Gym,"Ghuman Rd, opp. Sanjeevani Hospital, Punjabi Bagh, Patiala, Punjab 147001, India",https://www.google.co.kr/maps/place/Curve+Fitness+Gym+Patiala/data=!4m5!3m4!1s0x391029779ff27a85:0x85b249734edde423!8m2!3d30.3459467!4d76.3792787?authuser=0&hl=en&rclk=1,30.3459467,76.3792787,Punjab
Fitness Zone Gym Shahkot,Gymnastics center,"38QQ+F3J, Shahkot, Punjab 144702, India",https://www.google.co.kr/maps/place/Fitness+Zone+Gym+Shahkot/data=!4m5!3m4!1s0x391a14cda523362f:0x301750790cad0dca!8m2!3d31.088721!4d75.3376481?authuser=0&hl=en&rclk=1,31.088721,75.3376481,Punjab
Fitness Factory Gym,Gym,"WVH4+PCP, Tutian Wala Mandir, Shivpuri, Ludhiana, Punjab 141008, India",https://www.google.co.kr/maps/place/Fitness+Factory+Gym/data=!4m5!3m4!1s0x391a83b6ac1a1ce5:0x56d056db159203b9!8m2!3d30.9293481!4d75.8560665?authuser=0&hl=en&rclk=1,30.9293481,75.8560665,Punjab
Cosco gym,Gym,"Basti Shekh Darwesh, Satnam Nagar, Jalandhar, Punjab 144002, India",https://www.google.co.kr/maps/place/Cosco+gym/data=!4m5!3m4!1s0x391a5bc710b1edab:0x4470cb62a8f62d95!8m2!3d31.3192191!4d75.5450284?authuser=0&hl=en&rclk=1,31.3192191,75.5450284,Punjab
Fitness Zone,Gym,"FITNESS zone, Jassian Rd, near baba Balak nath Maindr, Durga Puri, Haibowal Kalan, Ludhiana, Punjab 141001, India",https://www.google.co.kr/maps/place/Fitness+Zone/data=!4m5!3m4!1s0x391a83fa2747a6a9:0xff43670169afe376!8m2!3d30.9254231!4d75.8176366?authuser=0&hl=en&rclk=1,30.9254231,75.8176366,Punjab
Gold’s Gym,Fitness center,"Golds Gym , 2nd floor, Ramneek chowk, Punjab 144602, India",https://www.google.co.kr/maps/place/Gold%E2%80%99s+Gym/data=!4m5!3m4!1s0x391a4852f794ced7:0xab42109a039f58b4!8m2!3d31.3725697!4d75.3784073?authuser=0&hl=en&rclk=1,31.3725697,75.3784073,Punjab
Fitness Box - Gyms,Gym,"Baba Namdev Road, opposite Sarvhitkari School, Mubarik Mehal Colony, Sangrur, Punjab 148001, India",https://www.google.co.kr/maps/place/Fitness+Box+-+Gyms/data=!4m5!3m4!1s0x391051033b79323b:0x84296c20ddb98509!8m2!3d30.255186!4d75.841305?authuser=0&hl=en&rclk=1,30.255186,75.841305,Punjab
New LA FItness,Gym,"Ludhiana - Rahon Rd, Khwajke, Punjab 141007, India",https://www.google.co.kr/maps/place/New+LA+FItness/data=!4m5!3m4!1s0x391a9b6a6aa8421d:0x7ade167d36bed9fe!8m2!3d30.9621197!4d75.924559?authuser=0&hl=en&rclk=1,30.9621197,75.924559,Punjab
dx muscle and fitness,Gym,"Partap Singh Wala Rd, Partap Singhwala, Punjab 141008, India",https://www.google.co.kr/maps/place/dx+muscle+and+fitness/data=!4m5!3m4!1s0x391a81079cbeb2b1:0x8d7bdd077ce33f52!8m2!3d30.9232018!4d75.7804201?authuser=0&hl=en&rclk=1,30.9232018,75.7804201,Punjab
Raj Gym Best Gym For Ropar,Gym,"Bal Sanda, Rupnagar, Punjab 140001, India",https://www.google.co.kr/maps/place/Raj+Gym+Best+Gym+For+Ropar/data=!4m5!3m4!1s0x390555cab7ae21c5:0x47000c5e24aaff7d!8m2!3d30.9633328!4d76.5271523?authuser=0&hl=en&rclk=1,30.9633328,76.5271523,Punjab
Gym,Gym,"99MM+8Q4, Sheikhupur, Kapurthala, Punjab 144602, India",https://www.google.co.kr/maps/place/Gym/data=!4m5!3m4!1s0x391a49a90c3f3a5b:0x7ffe7ff3a0aedf2b!8m2!3d31.3832626!4d75.3844634?authuser=0&hl=en&rclk=1,31.3832626,75.3844634,Punjab
Anytime Fitness,Gym,"Floor, B-19-400, Second and Third, 2, Rani Jhansi Rd, Civil Lines, Ludhiana, Punjab 141010, India",https://www.google.co.kr/maps/place/Anytime+Fitness/data=!4m5!3m4!1s0x391a8328d2220465:0xbab38fcb9d93c7cf!8m2!3d30.9098562!4d75.8369025?authuser=0&hl=en&rclk=1,30.9098562,75.8369025,Punjab
Power gym,Gym,"Sant Nagar Main Street, Sant Nagar, Arjun Nagar, Jalandhar, Punjab 144001, India",https://www.google.co.kr/maps/place/Power+gym/data=!4m5!3m4!1s0x391a5bd93b7fabb3:0xb5e6c23eaaef8efc!8m2!3d31.3201042!4d75.5999539?authuser=0&hl=en&rclk=1,31.3201042,75.5999539,Punjab
Hard Gym,Fitness center,"8HR7+VR7, BSF Colony, Gurdev Nagar, Ram Nagar, Jalandhar, Punjab 144008, India",https://www.google.co.kr/maps/place/Hard+Gym/data=!4m5!3m4!1s0x391a5a856ccff349:0xcd16c4469f8afae2!8m2!3d31.342156!4d75.564554?authuser=0&hl=en&rclk=1,31.342156,75.564554,Punjab
Raja Muscles and Fitness Gym*,Gym,"opposite HDFC bank, in street,Gurunanak colony, Lohian Khas, Punjab, India",https://www.google.co.kr/maps/place/Raja+Muscles+and+Fitness+Gym*/data=!4m5!3m4!1s0x391a3daef05fe907:0xdc65696f8df3af5b!8m2!3d31.1689859!4d75.2094301?authuser=0&hl=en&rclk=1,31.1689859,75.2094301,Punjab
Total Fitness Gym,Gym,"Bypass Rd, near Guru Nanak National College, Adarsh Colony, Nakodar, Punjab 144040, India",https://www.google.co.kr/maps/place/Total+Fitness+Gym/data=!4m5!3m4!1s0x391a684e87f9ffb9:0xde9a93fdbb140fa9!8m2!3d31.1331927!4d75.4875863?authuser=0&hl=en&rclk=1,31.1331927,75.4875863,Punjab
Gym equipments,Gym,"31, New Kailash Nagar, Aman Nagar, Jalandhar, Punjab 144001, India",https://www.google.co.kr/maps/place/Gym+equipments/data=!4m5!3m4!1s0x391a5b63d0bb33f7:0x9ba9455777967f20!8m2!3d31.3510691!4d75.5818418?authuser=0&hl=en&rclk=1,31.3510691,75.5818418,Punjab
strong fitness gym,Gym,"Terminal 81, Guru Teg Bahadur Nagar, Nakodar, Punjab 144040, India",https://www.google.co.kr/maps/place/strong+fitness+gym/data=!4m5!3m4!1s0x391a69b2ba155555:0x839f0fad8310cad2!8m2!3d31.1304927!4d75.4802595?authuser=0&hl=en&rclk=1,31.1304927,75.4802595,Punjab
Motiv8 Fitness Gym,Gym,"VQXP+PG3, Pushp Vihar, Prakash Colony, Ludhiana, Punjab 141012, India",https://www.google.co.kr/maps/place/Motiv8+Fitness+Gym/data=!4m5!3m4!1s0x391a816c8bdc8b17:0x7b712350ef0c2b36!8m2!3d30.8992705!4d75.7863089?authuser=0&hl=en&rclk=1,30.8992705,75.7863089,Punjab
Concept Fitness,Fitness center,"Suffian, Kidwai, above Walbro Dry Cleaners, near Chowk, Nagar, Ludhiana, Punjab 141008, India",https://www.google.co.kr/maps/place/Concept+Fitness/data=!4m5!3m4!1s0x391a831af4da9b57:0x3cbe1ac61eccdd93!8m2!3d30.9025137!4d75.867582?authuser=0&hl=en&rclk=1,30.9025137,75.867582,Punjab
Fitness Revolution Gym,Gym,"Surya Enclave, Jalandhar, Punjab 144009, India",https://www.google.co.kr/maps/place/Fitness+Revolution+Gym/data=!4m5!3m4!1s0x391a5a3dd4254cfb:0xaa7ac5cf7e9d49d2!8m2!3d31.3316811!4d75.6037061?authuser=0&hl=en&rclk=1,31.3316811,75.6037061,Punjab
GYMR - Best gym | Fitness center | Best unisex gym | gym in Kapurthala,Gym,"Sultanpur road Opp jain petrol pump Near london hotal AR Complex, Kapurthala, Punjab 144601, India",https://www.google.co.kr/maps/place/GYMR+-+Best+gym+%7C+Fitness+center+%7C+Best+unisex+gym+%7C+gym+in+Kapurthala/data=!4m5!3m4!1s0x391a4943d5302287:0x860d1461d780df2!8m2!3d31.3750037!4d75.3795071?authuser=0&hl=en&rclk=1,31.3750037,75.3795071,Punjab
Gym Kamalpur,Gym,"village Kamalpur, Tehsil, Sultanpur Lodhi, Punjab, India",https://www.google.co.kr/maps/place/Gym+Kamalpur/data=!4m5!3m4!1s0x391a3c8400000001:0xf480f4165313caf9!8m2!3d31.2141276!4d75.1953934?authuser=0&hl=en&rclk=1,31.2141276,75.1953934,Punjab
Divine Fitness Gym,Gym,"near sd college for women mohalla hakima, Dera Saidan, Sultanpur Lodhi, Punjab 144626, India",https://www.google.co.kr/maps/place/Divine+Fitness+Gym/data=!4m5!3m4!1s0x391a3da4a38eb159:0x8ada7eda48dcc00c!8m2!3d31.2155648!4d75.1996347?authuser=0&hl=en&rclk=1,31.2155648,75.1996347,Punjab
FOREVER Fitness Concepts,Gym,"SCF No 21, 22, F-Block SBS Nagar, F Block, Shaheed Bhagat Singh Nagar, Ludhiana, Punjab 141006, India",https://www.google.co.kr/maps/place/FOREVER+Fitness+Concepts/data=!4m5!3m4!1s0x391a822895555555:0xe6b696a3a954075a!8m2!3d30.8764382!4d75.811267?authuser=0&hl=en&rclk=1,30.8764382,75.811267,Punjab
G.R.K fitness evolution,Gym,"Sabuwal Rd, Gool Market, Lohian Khas, Punjab 144629, India",https://www.google.co.kr/maps/place/G.R.K+fitness+evolution/data=!4m5!3m4!1s0x391a3da4031e908d:0x9bdd097f479c31fa!8m2!3d31.1603!4d75.207091?authuser=0&hl=en&rclk=1,31.1603,75.207091,Punjab
Lions Pro Fit Gym,Gym,"And, Joga Nannd Rd, near Phase 4-5, Amarpura Kothe, Thermal Colony, Bathinda, Punjab 151001, India",https://www.google.co.kr/maps/place/Lions+Pro+Fit+Gym/data=!4m5!3m4!1s0x391733163306c0d9:0x868c6bfafd4ea064!8m2!3d30.2448198!4d74.9539953?authuser=0&hl=en&rclk=1,30.2448198,74.9539953,Punjab
Gurukirpa Yoga and Fitness Centre,Fitness center,"Gurukirpa yoga center near model town cremation groud, Sabji Mandi Rd, near innocent hearts school, Jalandhar, Punjab 144003, India",https://www.google.co.kr/maps/place/Gurukirpa+Yoga+and+Fitness+Centre/data=!4m5!3m4!1s0x391a5bf2bad6785d:0x9d759775f9a29fc7!8m2!3d31.2985968!4d75.5743776?authuser=0&hl=en&rclk=1,31.2985968,75.5743776,Punjab
Power Zone Fitness Gym,Gym,"4F9H+3QG, Rishi Nagar, Nakodar, Punjab 144040, India",https://www.google.co.kr/maps/place/Power+Zone+Fitness+Gym/data=!4m5!3m4!1s0x391a690072f0b3d7:0x395bd92a46859b09!8m2!3d31.1176821!4d75.4794655?authuser=0&hl=en&rclk=1,31.1176821,75.4794655,Punjab
Angel World Gym & fitness academy,Gym,"The Mall, first floor, nanha complex, Mall Rd, Kapurthala, Punjab 144601, India",https://www.google.co.kr/maps/place/Angel+World+Gym+%26+fitness+academy/data=!4m5!3m4!1s0x391a49ff84455a85:0x9f8a9a9a993ace38!8m2!3d31.387092!4d75.3836931?authuser=0&hl=en&rclk=1,31.387092,75.3836931,Punjab
Kevin fitness zone gym,Gym,"Ghas Mandi, Basti Sheikh, Kala Singha Rd, Kanshi Nagar, New Dashmesh Nagar, Kostadir, Jalandhar, Punjab 144002, India",https://www.google.co.kr/maps/place/Kevin+fitness+zone+gym/data=!4m5!3m4!1s0x391a5b289b1514f5:0x13aac34144d406b6!8m2!3d31.3080188!4d75.5403088?authuser=0&hl=en&rclk=1,31.3080188,75.5403088,Punjab
Just R Gym,Gym,"4-5, Grover Colony, 120ft Road, opp. Jiveen Jyoti Hospital, Jalandhar, Punjab 144002, India",https://www.google.co.kr/maps/place/Just+R+Gym/data=!4m5!3m4!1s0x391a5be2ccbc46a1:0x70b08104ca2a7cf6!8m2!3d31.3238445!4d75.5458294?authuser=0&hl=en&rclk=1,31.3238445,75.5458294,Punjab
Gym,Gym,"659W+2M7, Sultanpur Rural, Punjab 144626, India",https://www.google.co.kr/maps/place/Gym/data=!4m5!3m4!1s0x391a3dcd4079ae65:0x70c58ae692f1e6aa!8m2!3d31.217549!4d75.1966621?authuser=0&hl=en&rclk=1,31.217549,75.1966621,Punjab
Core Fitness,Gym,"B-1684, Chander Nagar Rd, New Chander Nagar, Pritam Nagar, Haibowal Kalan, Ludhiana, Punjab 141001, India",https://www.google.co.kr/maps/place/Core+Fitness/data=!4m5!3m4!1s0x391a83ee7cb3be39:0xbbaecc922e30b78!8m2!3d30.9188605!4d75.823641?authuser=0&hl=en&rclk=1,30.9188605,75.823641,Punjab
D.S FITNESS,Gym,"3H34+GGF, Kot Badal Khan, Punjab 144039, India",https://www.google.co.kr/maps/place/D.S+FITNESS/data=!4m5!3m4!1s0x391a654d6342aebf:0xcf799d183b836ea8!8m2!3d31.0538017!4d75.5563098?authuser=0&hl=en&rclk=1,31.0538017,75.5563098,Punjab
Fire Fitness,Gym,"Kapurthala Rd, Sultanpur Lodhi, Punjab 144626, India",https://www.google.co.kr/maps/place/Fire+Fitness/data=!4m5!3m4!1s0x391a3dcb7bada6f9:0x8577d879979b6413!8m2!3d31.2171048!4d75.2025985?authuser=0&hl=en&rclk=1,31.2171048,75.2025985,Punjab
Alpha Males & Females Gym,Gym,"near Apex Computer center, Patti, Punjab 143416, India",https://www.google.co.kr/maps/place/Alpha+Males+%26+Females+Gym/data=!4m5!3m4!1s0x391985f6aaaaaaab:0xcfe5cbf0f68b93f1!8m2!3d31.2745862!4d74.8565613?authuser=0&hl=en&rclk=1,31.2745862,74.8565613,Punjab
NOVA Fitness,Gym,"80, Nizatam Nagar, Ashok Nagar, 144002, Nijatam Nagar, Basti Nau, Jalandhar, Punjab, India",https://www.google.co.kr/maps/place/NOVA+Fitness/data=!4m5!3m4!1s0x391a5aedaba01b15:0xa22a485719a1e8cb!8m2!3d31.3260121!4d75.5598782?authuser=0&hl=en&rclk=1,31.3260121,75.5598782,Punjab
FLY GYM,Fitness center,"Showroom 6-7,first floor, Mithapur Rd, near Amar Hospital, Punjab 144003, India",https://www.google.co.kr/maps/place/FLY+GYM/data=!4m5!3m4!1s0x391a5b3e9fb14cc3:0xdbade042d5ded510!8m2!3d31.290837!4d75.5802548?authuser=0&hl=en&rclk=1,31.290837,75.5802548,Punjab
5 Toor Fitness Gym⛳,Gym,"Fatehgarh Panjtur, Punjab 142043, India",https://www.google.co.kr/maps/place/5+Toor+Fitness+Gym%E2%9B%B3/data=!4m5!3m4!1s0x391a19891bde39bb:0x9074707c4e321c63!8m2!3d31.0534565!4d75.1129561?authuser=0&hl=en&rclk=1,31.0534565,75.1129561,Punjab
JD Fitness HUB,Gym,"949X+P83, Nabha, Punjab 147201, India",https://www.google.co.kr/maps/place/JD+Fitness+HUB/data=!4m5!3m4!1s0x391039bb697e68fd:0x962fe75d244fc4aa!8m2!3d30.3692672!4d76.1482985?authuser=0&hl=en&rclk=1,30.3692672,76.1482985,Punjab
Herbalife Nutrition Center,Gym,"M234+J6G, Sehaura, Punjab 141413, India",https://www.google.co.kr/maps/place/Herbalife+Nutrition+Center/data=!4m5!3m4!1s0x39106d1e67005b97:0xc82cadcaa68f5521!8m2!3d30.654072!4d76.005568?authuser=0&hl=en&rclk=1,30.654072,76.005568,Punjab
strong fitness gym,Gym,"5FRR+64P, Mundh, Punjab 144630, India",https://www.google.co.kr/maps/place/strong+fitness+gym/data=!4m5!3m4!1s0x391a42f2492df951:0xef601e18cba0e630!8m2!3d31.1905891!4d75.4903174?authuser=0&hl=en&rclk=1,31.1905891,75.4903174,Punjab
Crunch gym reborn,Gym,"13c Tagore Nagar, Kapurthala - Jalandhar Rd, Tagore Nagar, Kapurthala, Punjab 144602, India",https://www.google.co.kr/maps/place/Crunch+gym+reborn/data=!4m5!3m4!1s0x391a48e6516082cf:0x20038c89d30b94ca!8m2!3d31.3699388!4d75.4079014?authuser=0&hl=en&rclk=1,31.3699388,75.4079014,Punjab
THE DIAMOND GYM,Fitness center,"Street No. 2, near UKO Bank Gate, Nanaksar Nagar, Hussainpur, Kapurthala, Punjab 144602, India",https://www.google.co.kr/maps/place/THE+DIAMOND+GYM/data=!4m5!3m4!1s0x391a491c7a3cc5ff:0xfad96ebcd33e7ee5!8m2!3d31.3295255!4d75.3431095?authuser=0&hl=en&rclk=1,31.3295255,75.3431095,Punjab
Mirpur Mari GYM,Gym,"Mirpur Rd, Mirpur, Punjab 144630, India",https://www.google.co.kr/maps/place/Mirpur+Mari+GYM/data=!4m5!3m4!1s0x391a415ae64951cb:0x5faf18e035585258!8m2!3d31.1872614!4d75.3973534?authuser=0&hl=en&rclk=1,31.1872614,75.3973534,Punjab
Ultimate Fitness Unisex Gym.,Gym,"461-462, Near Mata Da Dhaba, J.P. Nagar, Jalandhar, Punjab 144002, India",https://www.google.co.kr/maps/place/Ultimate+Fitness+Unisex+Gym./data=!4m5!3m4!1s0x391a5b01d9624b0f:0x7d9ac3e9ffddfa9e!8m2!3d31.3282189!4d75.556516?authuser=0&hl=en&rclk=1,31.3282189,75.556516,Punjab
SIDHUPUR GYM,Gym,"46V6+GFV, Sidhupur, Punjab 144629, India",https://www.google.co.kr/maps/place/SIDHUPUR+GYM/data=!4m5!3m4!1s0x391a3d9ac89aa955:0x7b7e69d02d15bc45!8m2!3d31.1438614!4d75.2111685?authuser=0&hl=en&rclk=1,31.1438614,75.2111685,Punjab
Fire Fitness SPL,Fitness center,"Ber Sahib Rd, Sultanpur Lodhi, Punjab 144626, India",https://www.google.co.kr/maps/place/Fire+Fitness+SPL/data=!4m5!3m4!1s0x391a3d0f47940dfb:0xb1b0d07909ce2c49!8m2!3d31.2182286!4d75.1923962?authuser=0&hl=en&rclk=1,31.2182286,75.1923962,Punjab
The Code Fitness,Fitness center,"45-48, Madhya Marg, Sector 8C, Sector 8, Chandigarh, 160019, India",https://www.google.co.kr/maps/place/The+Code+Fitness/data=!4m5!3m4!1s0x390fed18eb096f09:0x9954009f4d54703b!8m2!3d30.7292899!4d76.8012858?authuser=0&hl=en&rclk=1,30.7292899,76.8012858,Punjab
Gym Mothanwala,Gym,"Mothanwala, Punjab 144620, India",https://www.google.co.kr/maps/place/Gym+Mothanwala/data=!4m5!3m4!1s0x391a3f2b226f6ba1:0xf04a1687ee992dfa!8m2!3d31.2303595!4d75.2979812?authuser=0&hl=en&rclk=1,31.2303595,75.2979812,Punjab
Boolpur Gym,Gym,"Talwandi Tibba Boolpur Rd, Boolpur, Punjab 144620, India",https://www.google.co.kr/maps/place/Boolpur+Gym/data=!4m5!3m4!1s0x391a31274ceb64ed:0x355e4e3820c9790a!8m2!3d31.3181431!4d75.2422042?authuser=0&hl=en&rclk=1,31.3181431,75.2422042,Punjab
kailey fitness gym,Gym,"WRWP+C5R, Aman Nagar, Akash Nagar, Thapar Nagar, Ludhiana, Punjab 141008, India",https://www.google.co.kr/maps/place/kailey+fitness+gym/data=!4m5!3m4!1s0x391a85b8d1224ac1:0xd7af772690a48931!8m2!3d30.9461139!4d75.8354056?authuser=0&hl=en&rclk=1,30.9461139,75.8354056,Punjab
Gym Town,Gym,"8697+7JP, Saitpur, Punjab 144628, India",https://www.google.co.kr/maps/place/Gym+Town/data=!4m5!3m4!1s0x391a316f3741ec27:0xe9195f39965b7c99!8m2!3d31.3182063!4d75.2140804?authuser=0&hl=en&rclk=1,31.3182063,75.2140804,Punjab
CT GYM,Gym,"CT GROUP OF INSTITUTIONS, Partappura, Punjab 144623, India",https://www.google.co.kr/maps/place/CT+GYM/data=!4m5!3m4!1s0x391a5cebd1d30d75:0x15285574e84ce7b0!8m2!3d31.2339743!4d75.5544094?authuser=0&hl=en&rclk=1,31.2339743,75.5544094,Punjab
Crunch Gym Reborn,Gym,"Kapurthala - Jalandhar Rd, Tagore Nagar, Kapurthala, Punjab 144602, India",https://www.google.co.kr/maps/place/Crunch+Gym+Reborn/data=!4m5!3m4!1s0x391a49232e4dc233:0x332b6196a17b0e31!8m2!3d31.3710643!4d75.4043717?authuser=0&hl=en&rclk=1,31.3710643,75.4043717,Punjab
S-Zone Gym,Fitness center,"7J85+698, Dhina Village, Dina, Punjab 144024, India",https://www.google.co.kr/maps/place/S-Zone+Gym/data=!4m5!3m4!1s0x391a5c0871d7414d:0x40b23c7a2903af6a!8m2!3d31.2655451!4d75.6084606?authuser=0&hl=en&rclk=1,31.2655451,75.6084606,Punjab
Fitness Fusion gym,Fitness center,"Plot no. 4-5, Grover Colony, 120 Feet Rd, Jalandhar, Punjab 144001, India",https://www.google.co.kr/maps/place/Fitness+Fusion+gym/data=!4m5!3m4!1s0x391a5bf8a9669e13:0xbcdcaf7a1a19988f!8m2!3d31.3239269!4d75.5459765?authuser=0&hl=en&rclk=1,31.3239269,75.5459765,Punjab
Shaheed Udam Singh Gym,Gym,"5MHJ+VG2, Sarhali, Punjab 144633, India",https://www.google.co.kr/maps/place/Shaheed+Udam+Singh+Gym/data=!4m5!3m4!1s0x391a61ac6142d219:0x6a2769482f2e670f!8m2!3d31.1796348!4d75.6812558?authuser=0&hl=en&rclk=1,31.1796348,75.6812558,Punjab
fitness Centre,Gym,"W2FR+CRC, Nathu Bhaini, Punjab 141126, India",https://www.google.co.kr/maps/place/fitness+Centre/data=!4m5!3m4!1s0x391a9f1d2835f8b1:0x535174ba703266f3!8m2!3d30.9235594!4d76.0420015?authuser=0&hl=en&rclk=1,30.9235594,76.0420015,Punjab
Sports ground and gym ਪਿੰਡ ਹਰਨਾਮਪੁਰ,Gym,"Unnamed Road, Mewa Singhwala, Punjab 144626, India",https://www.google.co.kr/maps/place/Sports+ground+and+gym+%E0%A8%AA%E0%A8%BF%E0%A9%B0%E0%A8%A1+%E0%A8%B9%E0%A8%B0%E0%A8%A8%E0%A8%BE%E0%A8%AE%E0%A8%AA%E0%A9%81%E0%A8%B0/data=!4m5!3m4!1s0x391a3b1e60bf0111:0x37602a36624e6f47!8m2!3d31.247374!4d75.207138?authuser=0&hl=en&rclk=1,31.247374,75.207138,Punjab
Rcf Jym,Gym,"695-C, RCF Main Road, Type-2, Hussainpur, Rawal, Punjab 144602, India",https://www.google.co.kr/maps/place/Rcf+Jym/data=!4m5!3m4!1s0x391a47f854cf6b01:0xf40e3756768de327!8m2!3d31.3185849!4d75.3436738?authuser=0&hl=en&rclk=1,31.3185849,75.3436738,Punjab
Flex Gym,Fitness center,"Basti Sheikh, Sant Nagar,, Jalandhar, Punjab 144001, India",https://www.google.co.kr/maps/place/Flex+Gym/data=!4m5!3m4!1s0x391a5a37b6aaaa99:0xa138b53d4f4ae2a1!8m2!3d31.319935!4d75.599348?authuser=0&hl=en&rclk=1,31.319935,75.599348,Punjab
A.K GYM,Gym,"4FCF+48G, Khiwa, Nakodar, Punjab 144040, India",https://www.google.co.kr/maps/place/A.K+GYM/data=!4m5!3m4!1s0x391a694c1da9600d:0x5daed9381efe6a7b!8m2!3d31.1203211!4d75.4733387?authuser=0&hl=en&rclk=1,31.1203211,75.4733387,Punjab
Fitness Hut,Gym,"Guru Nanak Nagar, Sultanpur Rural, Punjab 144626, India",https://www.google.co.kr/maps/place/Fitness+Hut/data=!4m5!3m4!1s0x391a3d4ab7ee6043:0xd68bbb22a409079c!8m2!3d31.2195099!4d75.1965317?authuser=0&hl=en&rclk=1,31.2195099,75.1965317,Punjab
Bulls Nutrition,Gym,"Shop no 138, Railway Road, opp. Railway Station, Nakodar, Punjab, India",https://www.google.co.kr/maps/place/Bulls+Nutrition/data=!4m5!3m4!1s0x391a6975fa8dfae5:0xfeaab957f73826be!8m2!3d31.1270601!4d75.4817853?authuser=0&hl=en&rclk=1,31.1270601,75.4817853,Punjab
Ceragem,Gym,"Jalandhar - Nakodar Rd, Preet Nagar, Kalar Nagar, Nakodar Rural, Punjab 144040, India",https://www.google.co.kr/maps/place/Ceragem/data=!4m5!3m4!1s0x391a69adf3d7d07d:0xdc7699d732bd3d5e!8m2!3d31.1262236!4d75.4876459?authuser=0&hl=en&rclk=1,31.1262236,75.4876459,Punjab
Sunny Teji,Gym,"28W7+2XP, Bajwa Khurd, Punjab 144702, India",https://www.google.co.kr/maps/place/Sunny+Teji/data=!4m5!3m4!1s0x391a138b6743c851:0x71db50844d613c51!8m2!3d31.0450798!4d75.314953?authuser=0&hl=en&rclk=1,31.0450798,75.314953,Punjab
King Fitness World RAJA SAAB,Fitness center,"to, RCF Main Road, Boolpur, Punjab 144628, India",https://www.google.co.kr/maps/place/King+Fitness+World+RAJA+SAAB/data=!4m5!3m4!1s0x391a3b4211bac117:0x3cb877dde700634c!8m2!3d31.3070779!4d75.2404255?authuser=0&hl=en&rclk=1,31.3070779,75.2404255,Punjab
N.G.Y.A BOXING,Boxing gym,"Grand Trunk Rd, Dakoha, Rama Mandi, Jalandhar, Punjab 144005, India",https://www.google.co.kr/maps/place/N.G.Y.A+BOXING/data=!4m5!3m4!1s0x391a596d736cdb43:0xc5d51b44fe892958!8m2!3d31.3035205!4d75.6416255?authuser=0&hl=en&rclk=1,31.3035205,75.6416255,Punjab
Mk Hardcore Gym,Gym,"Ekta Vihar, keshav nagar, Mithapur, Jalandhar, Punjab 144011, India",https://www.google.co.kr/maps/place/Mk+Hardcore+Gym/data=!4m5!3m4!1s0x391a5bb6b5ba09f7:0xd41f6012e69dcf2e!8m2!3d31.2891094!4d75.5759479?authuser=0&hl=en&rclk=1,31.2891094,75.5759479,Punjab
METROFLEX GYM,Gymnasium Cz,"Jalandhar - Nakodar Rd, near lovely sweet, Singh, Punjab 144028, India",https://www.google.co.kr/maps/place/METROFLEX+GYM/data=!4m5!3m4!1s0x391a433b774a3a01:0xa2ae75cba3c5000d!8m2!3d31.2301277!4d75.5175672?authuser=0&hl=en&rclk=1,31.2301277,75.5175672,Punjab
PMT Sports,Gym,"8G9Q+F8C, Said Pur, Danish Amandan, Jalandhar, Punjab 144002, India",https://www.google.co.kr/maps/place/PMT+Sports/data=!4m5!3m4!1s0x391a5b38659ece7d:0xbf183439b3c54e8e!8m2!3d31.3186909!4d75.5382749?authuser=0&hl=en&rclk=1,31.3186909,75.5382749,Punjab
Musclehedz Gym,Gym,"Sarna, Punjab 145025, India",https://www.google.co.kr/maps/place/Musclehedz+Gym/data=!4m5!3m4!1s0x391c7896b82f49af:0x64ed1793ed177062!8m2!3d32.2624911!4d75.5924615?authuser=0&hl=en&rclk=1,32.2624911,75.5924615,Punjab
Gym mehmuwal mahlan,Gym,"47MC+X6X, Mahmonwal, Punjab 144701, India",https://www.google.co.kr/maps/place/Gym+mehmuwal+mahlan/data=!4m5!3m4!1s0x391a156627958d35:0x484094ce734e80c3!8m2!3d31.1349802!4d75.2705995?authuser=0&hl=en&rclk=1,31.1349802,75.2705995,Punjab
RCF Officers Fitness Trail,Gym,"RCF Main Road, Hussainpur, Punjab 144620, India",https://www.google.co.kr/maps/place/RCF+Officers+Fitness+Trail/data=!4m5!3m4!1s0x391a496beaccd9c5:0x96216e5ad6483cea!8m2!3d31.3291901!4d75.3550861?authuser=0&hl=en&rclk=1,31.3291901,75.3550861,Punjab
Kang Farm,Gym,"6G27+56X, Jalandhar, Punjab 144028, India",https://www.google.co.kr/maps/place/Kang+Farm/data=!4m5!3m4!1s0x391a42c52aa8575b:0x3eca2af337472bc4!8m2!3d31.2004987!4d75.5131219?authuser=0&hl=en&rclk=1,31.2004987,75.5131219,Punjab
Gladiator Unisex Fitness Gym,Gym,"141021, Sua Rd, Central Town, Basant City, Ludhiana, Punjab 141013, India",https://www.google.co.kr/maps/place/Gladiator+Unisex+Fitness+Gym/data=!4m5!3m4!1s0x391a818f86e7586b:0x8bb4d1b5a0de339c!8m2!3d30.8733244!4d75.7977358?authuser=0&hl=en&rclk=1,30.8733244,75.7977358,Punjab
Fitness freedom gym,Gym,"Garhshankar-Nawanshahr Rd, Guru Teg Bahadar Nagar, Nawanshahr, Punjab 144514, India",https://www.google.co.kr/maps/place/Fitness+freedom+gym/data=!4m5!3m4!1s0x391abd63d67fdf8b:0x2f2e5c444bd7d83f!8m2!3d31.1302007!4d76.1179572?authuser=0&hl=en&rclk=1,31.1302007,76.1179572,Punjab
Herbalife International,Gym,"JV3Q+QC6, Sant Chanan Singh Colony, Shaheed Udham Singh Nagar, Amritsar, Punjab 143006, India",https://www.google.co.kr/maps/place/Herbalife+International/data=!4m5!3m4!1s0x39197c9703cb1cdb:0x7309a28da37e27c0!8m2!3d31.6044187!4d74.8885306?authuser=0&hl=en&rclk=1,31.6044187,74.8885306,Punjab
Herbalife,Gym,"Unnamed Road, Sector 82, JLPL Industrial Area, Punjab 140308, India",https://www.google.co.kr/maps/place/Herbalife/data=!4m5!3m4!1s0x390fe9591e42e39f:0xba3272d5e5ca9017!8m2!3d30.6542655!4d76.7306387?authuser=0&hl=en&rclk=1,30.6542655,76.7306387,Punjab
Musewal gp,Gym,"4CH3+PQ9, Musewal, Punjab 144040, India",https://www.google.co.kr/maps/place/Musewal+gp/data=!4m5!3m4!1s0x391a6bd6eb9435b5:0x5f5a1d878cd96d21!8m2!3d31.1292882!4d75.4044951?authuser=0&hl=en&rclk=1,31.1292882,75.4044951,Punjab
Fitness Matters,Training centre,"SCO 3013, First Floor, Opp Kisan Bhavan, near Suprama Gym, Sector 22-D, Chandigarh 160022, India",https://www.google.co.kr/maps/place/Fitness+Matters/data=!4m5!3m4!1s0x390fec346b6d851b:0x6d0f43a8de43ecfd!8m2!3d30.7308!4d76.7653298?authuser=0&hl=en&rclk=1,30.7308,76.7653298,Punjab
HERBALIFE,Physical fitness program,"Samrala Chowk, Street Number 3, Guru Arjan Dev Nagar, Ludhiana, Punjab 141010, India",https://www.google.co.kr/maps/place/HERBALIFE/data=!4m5!3m4!1s0x391a833ea4d8c657:0x6c281553133551f5!8m2!3d30.9115961!4d75.8815194?authuser=0&hl=en&rclk=1,30.9115961,75.8815194,Punjab
Turna Residency,Gym,"Sandawal Rd, Lussi Peene Patti, Fazalwal, Punjab 144703, India",https://www.google.co.kr/maps/place/Turna+Residency/data=!4m5!3m4!1s0x391a134d0b443517:0xfca8b0d54a733a1a!8m2!3d31.0445023!4d75.338604?authuser=0&hl=en&rclk=1,31.0445023,75.338604,Punjab
Surkhpur - Akbarpur Gym,Gym,"Surkhpur, Punjab 144620, India",https://www.google.co.kr/maps/place/Surkhpur+-+Akbarpur+Gym/data=!4m5!3m4!1s0x391a3419c4f20e59:0x6cac54d58c663761!8m2!3d31.4174295!4d75.2673393?authuser=0&hl=en&rclk=1,31.4174295,75.2673393,Punjab
Kochran Mohalla nurmahal,Gym,"3HVR+X7Q, Nurmahal, Punjab 144039, India",https://www.google.co.kr/maps/place/Kochran+Mohalla+nurmahal/data=!4m5!3m4!1s0x391a669a3119bd1d:0x2e7da8bb8375cf89!8m2!3d31.09497!4d75.5907252?authuser=0&hl=en&rclk=1,31.09497,75.5907252,Punjab
RD Fitness (unisex gym),Gym,"Opp. Gurudwara Bhagat Chet Ram Block 12, Field Ganj Ludhiana, Near Gulli Toys, Punjab 141008, India",https://www.google.co.kr/maps/place/RD+Fitness+(unisex+gym)/data=!4m5!3m4!1s0x391a830a1e276e27:0x7270a931f71aef44!8m2!3d30.9079641!4d75.8546067?authuser=0&hl=en&rclk=1,30.9079641,75.8546067,Punjab
Bhandal Dona Ground,Gym,"79RF+38M, Bhandal Dona, Punjab 144625, India",https://www.google.co.kr/maps/place/Bhandal+Dona+Ground/data=!4m5!3m4!1s0x391a47a17eaaaaab:0xa646e7b077723afc!8m2!3d31.2902051!4d75.3732916?authuser=0&hl=en&rclk=1,31.2902051,75.3732916,Punjab
SNAP FITNESS,Gym,"Durana Ambala City Rd, Mohra, Haryana 133004, India",https://www.google.co.kr/maps/place/SNAP+FITNESS/data=!4m5!3m4!1s0x390fb5c780f1f0a1:0xbc7e74eb96f224f4!8m2!3d30.266754!4d76.8493957?authuser=0&hl=en&rclk=1,30.266754,76.8493957,Punjab
Lakhveer Physical Academy,Physical examination center,"Haripura Rd, near Reason crwon Hotal, Atwal Colony, Mubarik Mehal Colony, Sangrur, Punjab 148001, India",https://www.google.co.kr/maps/place/Lakhveer+Physical+Academy/data=!4m5!3m4!1s0x39105141d2918bc3:0x39ca517b2753a76e!8m2!3d30.2591072!4d75.8506292?authuser=0&hl=en&rclk=1,30.2591072,75.8506292,Punjab
RAJPUT ENTERPRISES,Gym,"Shiv Mandir Road Katora Talab Raipur Chattisgarh, Raipur, India",https://www.google.co.kr/maps/place/RAJPUT+ENTERPRISES/data=!4m5!3m4!1s0x390fedd4b792232f:0x2b11c6d956721c9d!8m2!3d30.7161252!4d76.7380909?authuser=0&hl=en&rclk=1,30.7161252,76.7380909,Punjab
Commando Health Gym,Gymnasium Cz,"4FFF+9H5, Khiwa, Nakodar, Punjab 144040, India",https://www.google.co.kr/maps/place/Commando+Health+Gym/data=!4m5!3m4!1s0x391a69aeb5aaaaab:0xd9ef0b1df1f010c9!8m2!3d31.1233799!4d75.4739794?authuser=0&hl=en&rclk=1,31.1233799,75.4739794,Punjab
Acme Gym,Gym,"H324+PRR, New Housing Board Colony, Housing Board Colony, Sirsa, Haryana 125055, India",https://www.google.co.kr/maps/place/Acme+Gym/data=!4m5!3m4!1s0x39114d22b49337bf:0xe38a16df78fb2744!8m2!3d29.5518532!4d75.0570035?authuser=0&hl=en&rclk=1,29.5518532,75.0570035,Punjab
