Company_Name,Category,Address,Url,Latitude,Longitude,State
"Human Fitness - Best Gym In Chandigarh , Gyms in Chandigarh",Gym,"S.C.O, 34-37, Madhya Marg, 9-D, Chandigarh, 160009, India","https://www.google.co.kr/maps/place/Human+Fitness+-+Best+Gym+In+Chandigarh+,+Gyms+in+Chandigarh/data=!4m5!3m4!1s0x390fed9a4c9b5955:0x73c76c2bafe8fe78!8m2!3d30.7451164!4d76.787945?authuser=0&hl=en&rclk=1",30.7451164,76.787945,Chandigarh
Immune Fitness,Gym,"SCO 143-144 (First and Second Floor, Madhya Marg, Sector 9C, Chandigarh, 160009, India",https://www.google.co.kr/maps/place/Immune+Fitness/data=!4m5!3m4!1s0x390fed0aabf6c481:0x5f1e050989d1e39e!8m2!3d30.7422215!4d76.7899876?authuser=0&hl=en&rclk=1,30.7422215,76.7899876,Chandigarh
"Burn Gym, Sec 8, Chandigarh",Gym,"1st Floor, SCO 62, 65, Madhya Marg, Sector 8C, Chandigarh, 160009, India","https://www.google.co.kr/maps/place/Burn+Gym,+Sec+8,+Chandigarh/data=!4m5!3m4!1s0x390fed1237470105:0x7f645ffaa7af0f93!8m2!3d30.7390649!4d76.7936501?authuser=0&hl=en&rclk=1",30.7390649,76.7936501,Chandigarh
Body Scapes,Gym,"SCO 100-101, 4th Floor, Magnam Towers, 160022, Sector 34A, Sector 34, Chandigarh, 160022, India",https://www.google.co.kr/maps/place/Body+Scapes/data=!4m5!3m4!1s0x390fedb315555555:0x9ad0fd7c3d5c44ea!8m2!3d30.7228085!4d76.7680584?authuser=0&hl=en&rclk=1,30.7228085,76.7680584,Chandigarh
Anytime Fitness,Gym,"SCO 98-99-100 3rd Floor, Bridge Market, 17D, Sector 17, Chandigarh, 160017, India",https://www.google.co.kr/maps/place/Anytime+Fitness/data=!4m5!3m4!1s0x390fed5028787aad:0x432677692bd5d2bb!8m2!3d30.7411678!4d76.7810329?authuser=0&hl=en&rclk=1,30.7411678,76.7810329,Chandigarh
Boost Fitness Gym,Gymnastics center,"S.c.o 3-4, c, Sector 19, Chandigarh, 160019, India",https://www.google.co.kr/maps/place/Boost+Fitness+Gym/data=!4m5!3m4!1s0x390fed1b895bc48f:0xdca6f5da016b3f7b!8m2!3d30.7257382!4d76.7956164?authuser=0&hl=en&rclk=1,30.7257382,76.7956164,Chandigarh
Fitness World,Fitness center,"SCO-60/61, 15D, Sector 15, Chandigarh, 160015, India",https://www.google.co.kr/maps/place/Fitness+World/data=!4m5!3m4!1s0x390fed9abac0dccb:0x9aae8eef9fa4038b!8m2!3d30.7539793!4d76.7705941?authuser=0&hl=en&rclk=1,30.7539793,76.7705941,Chandigarh
Women Fitness,Gym,"Sector 17D,, 84, Jan Road, 17G, 17D, Chandigarh, 160017, India",https://www.google.co.kr/maps/place/Women+Fitness/data=!4m5!3m4!1s0x390fed0ae6e40987:0x9605929adcae9ef5!8m2!3d30.7409966!4d76.7822245?authuser=0&hl=en&rclk=1,30.7409966,76.7822245,Chandigarh
Ultimate Fitness Gym | Best Gym in Chandigarh,Gym,"SCO 66 67 68 , TOP FLOOR, Sector 46C, Chandigarh, 160047, India",https://www.google.co.kr/maps/place/Ultimate+Fitness+Gym+%7C+Best+Gym+in+Chandigarh/data=!4m5!3m4!1s0x390fec430a73f6a3:0xd5eedb2ece5b1822!8m2!3d30.6997104!4d76.7655003?authuser=0&hl=en&rclk=1,30.6997104,76.7655003,Chandigarh
Meharban's Fitness Centre,Gym,"S.C.O. - 372, Sector 37 d, Chandigarh, 160036, India",https://www.google.co.kr/maps/place/Meharban's+Fitness+Centre/data=!4m5!3m4!1s0x390fede9cd52a959:0x3f6cecff9dd7f903!8m2!3d30.7398491!4d76.7480773?authuser=0&hl=en&rclk=1,30.7398491,76.7480773,Chandigarh
"Urban Gym, Sector 34, Chandigarh",Gym,"SCO 148-149, Basement, Sector 34A, Chandigarh, 160034, India","https://www.google.co.kr/maps/place/Urban+Gym,+Sector+34,+Chandigarh/data=!4m5!3m4!1s0x390fedb27d65f503:0xac7c055648b13df7!8m2!3d30.7218302!4d76.7700369?authuser=0&hl=en&rclk=1",30.7218302,76.7700369,Chandigarh
22 gym,Gym,"SCF143, Sector 40C Rd, Chandigarh, 160036, India",https://www.google.co.kr/maps/place/22+gym/data=!4m5!3m4!1s0x390fed976c8f6fe5:0x42496e89f635707a!8m2!3d30.7366152!4d76.734505?authuser=0&hl=en&rclk=1,30.7366152,76.734505,Chandigarh
Octane Fitness 27,Gym,"SCO 9, 1st and 2nd Floor, Sector 27D, Sector 27, Chandigarh, 160019, India",https://www.google.co.kr/maps/place/Octane+Fitness+27/data=!4m5!3m4!1s0x390fedb1d4475719:0x5fa3d4a4b391b2de!8m2!3d30.7235501!4d76.797169?authuser=0&hl=en&rclk=1,30.7235501,76.797169,Chandigarh
Fitness Edge,Gym,"SCF 58, First Floor, Chandi Path, Block B, CSIO Colony, Sector 30-C, Sector 30, Chandigarh, 160030, India",https://www.google.co.kr/maps/place/Fitness+Edge/data=!4m5!3m4!1s0x390fecfb75cf4745:0x4054b90d529a2083!8m2!3d30.71389!4d76.788434?authuser=0&hl=en&rclk=1,30.71389,76.788434,Chandigarh
Cult Sector 8 Chandigarh,Fitness center,"First & Second Floor, Sco 43, 44, Madhya Marg, Sector 8C, Sector 8, Chandigarh, 160008, India",https://www.google.co.kr/maps/place/Cult+Sector+8+Chandigarh/data=!4m5!3m4!1s0x390fedf3e2dc5aa7:0xed02471e2f4e46a5!8m2!3d30.739181!4d76.792753?authuser=0&hl=en&rclk=1,30.739181,76.792753,Chandigarh
Fit Accord,Gym,"SCO 216, First Floor, near CCD, Sector 36-D, Chandigarh, 160036, India",https://www.google.co.kr/maps/place/Fit+Accord/data=!4m5!3m4!1s0x390fedbdb87ecd69:0xfc632fa7ac43da0!8m2!3d30.7339345!4d76.7528072?authuser=0&hl=en&rclk=1,30.7339345,76.7528072,Chandigarh
Best Gym,Gym,"1335, Udyog Path, Sector 18-C, Sector 18, Chandigarh, 160018, India",https://www.google.co.kr/maps/place/Best+Gym/data=!4m5!3m4!1s0x390fedd8e4cff9c1:0xf1fdfb7839a46b91!8m2!3d30.730693!4d76.783044?authuser=0&hl=en&rclk=1,30.730693,76.783044,Chandigarh
The Code Fitness,Fitness center,"45-48, Madhya Marg, Sector 8C, Sector 8, Chandigarh, 160019, India",https://www.google.co.kr/maps/place/The+Code+Fitness/data=!4m5!3m4!1s0x390fed18eb096f09:0x9954009f4d54703b!8m2!3d30.7292899!4d76.8012858?authuser=0&hl=en&rclk=1,30.7292899,76.8012858,Chandigarh
Fitness Point,Gym,"15, Himalaya Marg, Sector 21A, Sector 21, Chandigarh, 160022, India",https://www.google.co.kr/maps/place/Fitness+Point/data=!4m5!3m4!1s0x390feda8e803b501:0xc6c21409fe095e21!8m2!3d30.7285241!4d76.7755124?authuser=0&hl=en&rclk=1,30.7285241,76.7755124,Chandigarh
Fitness Point,Gym,"S.C.O. 45, Top Floor, Sector 21C, Chandigarh, 160022, India",https://www.google.co.kr/maps/place/Fitness+Point/data=!4m5!3m4!1s0x390feda975b5b535:0x6f3b4d9c692be791!8m2!3d30.7263927!4d76.7768585?authuser=0&hl=en&rclk=1,30.7263927,76.7768585,Chandigarh
Powerzone Gym Chandigarh,Gym,"S.C.O. 2913-14, opposite JW Marriott, 22C, Chandigarh 160020, India",https://www.google.co.kr/maps/place/Powerzone+Gym+Chandigarh/data=!4m5!3m4!1s0x390fedec8d134ea7:0xaa50aee65402b8d6!8m2!3d30.730585!4d76.77297?authuser=0&hl=en&rclk=1,30.730585,76.77297,Chandigarh
Flexity,Gym,"Showroom No. 4, Madhya Marg, Sector 26, Chandigarh, 160026, India",https://www.google.co.kr/maps/place/Flexity/data=!4m5!3m4!1s0x390fed18a46eb0f3:0xd0965b1bc4de23d0!8m2!3d30.7287505!4d76.8024165?authuser=0&hl=en&rclk=1,30.7287505,76.8024165,Chandigarh
Women Alive,Gym,"SCF-37, Sector 18D, Sector 18, Chandigarh, 160018, India",https://www.google.co.kr/maps/place/Women+Alive/data=!4m5!3m4!1s0x390fed2d77d6f187:0x989e31ea5bf0b7b4!8m2!3d30.7343561!4d76.7869792?authuser=0&hl=en&rclk=1,30.7343561,76.7869792,Chandigarh
Anytime Fitness,Fitness center,"SCO 107-108, 1st & 2nd floor, Himalaya Marg, above Honda showroom, 43B, Chandigarh, 160044, India",https://www.google.co.kr/maps/place/Anytime+Fitness/data=!4m5!3m4!1s0x390fed4348bab429:0xcd7d5790b5cd7f65!8m2!3d30.7171971!4d76.7530493?authuser=0&hl=en&rclk=1,30.7171971,76.7530493,Chandigarh
GYM 13,Gym,"SCO 10, 20C, Sector 20, Chandigarh, 160020, India",https://www.google.co.kr/maps/place/GYM+13/data=!4m5!3m4!1s0x390fed003a7c5447:0x2608f08309d1c9a1!8m2!3d30.7208768!4d76.7819657?authuser=0&hl=en&rclk=1,30.7208768,76.7819657,Chandigarh
Valentine Fitness Hi-Tech Gym,Gym,"SCO 38-39, (opp.Hotel park plaza), Sector 17A, Sector 17, Chandigarh, 160017, India",https://www.google.co.kr/maps/place/Valentine+Fitness+Hi-Tech+Gym/data=!4m5!3m4!1s0x390fed74b01b0b4b:0xb1050855a15a6789!8m2!3d30.74362!4d76.7845114?authuser=0&hl=en&rclk=1,30.74362,76.7845114,Chandigarh
9ROUND,Gym,"SCO 3A, Madhya Marg, Sector 7-C, Sector 26, Chandigarh, 160019, India",https://www.google.co.kr/maps/place/9ROUND/data=!4m5!3m4!1s0x390fed9761f1691d:0x6103595bdf969ebf!8m2!3d30.728231!4d76.8022244?authuser=0&hl=en&rclk=1,30.728231,76.8022244,Chandigarh
Hox Fitness,Gym,"Hotel Mountview, Sector 10A, Sector 10, Chandigarh, 160011, India",https://www.google.co.kr/maps/place/Hox+Fitness/data=!4m5!3m4!1s0x390fed3a7954a70b:0x6a5fadb8556d846d!8m2!3d30.7540217!4d76.7886644?authuser=0&hl=en&rclk=1,30.7540217,76.7886644,Chandigarh
Octane Fitness Prime/ Best Gym in Chandigarh,Gym,"SCO 45-48, Madhya Marg, Sector 8C, Sector 8, Chandigarh, 160009, India",https://www.google.co.kr/maps/place/Octane+Fitness+Prime%2F+Best+Gym+in+Chandigarh/data=!4m5!3m4!1s0x390fed47cd0b326b:0x505cbe81872e1df0!8m2!3d30.7390553!4d76.7928769?authuser=0&hl=en&rclk=1,30.7390553,76.7928769,Chandigarh
Burngym,Gym,"Punjab Olympic Bhawan, Phase 9, Sector 63, Sahibzada Ajit Singh Nagar, Chandigarh 160055, India",https://www.google.co.kr/maps/place/Burngym/data=!4m5!3m4!1s0x390fef9fe17cbafd:0x36edcf78658fb985!8m2!3d30.690544!4d76.733521?authuser=0&hl=en&rclk=1,30.690544,76.733521,Chandigarh
ReShape - women fitness center,Gym,"S.C.O, 48, 20C, Chandigarh, 160020, India",https://www.google.co.kr/maps/place/ReShape+-+women+fitness+center/data=!4m5!3m4!1s0x390fed8bb26942ad:0x980630a09295a7eb!8m2!3d30.7172889!4d76.7768427?authuser=0&hl=en&rclk=1,30.7172889,76.7768427,Chandigarh
City Fitness Gym,Gym,"sco 325 top floor, Sector 40 Market Rd, 40D, Sector 40D, Chandigarh, 160036, India",https://www.google.co.kr/maps/place/City+Fitness+Gym/data=!4m5!3m4!1s0x390fee0ae44e9e9b:0x86c3938505cc4541!8m2!3d30.73922!4d76.7312839?authuser=0&hl=en&rclk=1,30.73922,76.7312839,Chandigarh
Sub Zero Fitness,Gym,"SCO 9-10-11, 12-13, Madhya Marg, 9-D, Chandigarh, 160009, India",https://www.google.co.kr/maps/place/Sub+Zero+Fitness/data=!4m5!3m4!1s0x390fed118800e803:0x39e23385b099521c!8m2!3d30.7453597!4d76.7873747?authuser=0&hl=en&rclk=1,30.7453597,76.7873747,Chandigarh
Octane Gym,Gym,"Sco 21 - 22, 19D, Sector 19, Chandigarh, 160019, India",https://www.google.co.kr/maps/place/Octane+Gym/data=!4m5!3m4!1s0x390fedf300f3ddad:0xdfda216f6ec850e8!8m2!3d30.730012!4d76.7909707?authuser=0&hl=en&rclk=1,30.730012,76.7909707,Chandigarh
Octane Fitness sector 15,Gym,"Sco 70-71, 15D, Sector 15, Chandigarh, 160015, India",https://www.google.co.kr/maps/place/Octane+Fitness+sector+15/data=!4m5!3m4!1s0x390fed06ac1095ef:0x380cb9ca88f80530!8m2!3d30.7541355!4d76.7702378?authuser=0&hl=en&rclk=1,30.7541355,76.7702378,Chandigarh
Micky's Prime Bodies,Gym,"SCO 364, 2nd Floor, Sector 32D, Chandigarh, 160031, India",https://www.google.co.kr/maps/place/Micky's+Prime+Bodies/data=!4m5!3m4!1s0x390fec5a870a2661:0xf3700ee5fffdded8!8m2!3d30.7093293!4d76.7731904?authuser=0&hl=en&rclk=1,30.7093293,76.7731904,Chandigarh
SOUL FITNESS,Gym,"Sco - 58, second floor , sector 32c, Chandigarh 160031, India",https://www.google.co.kr/maps/place/SOUL+FITNESS/data=!4m5!3m4!1s0x390fedcf8bc24f8f:0x950217c9084324db!8m2!3d30.7058405!4d76.7748353?authuser=0&hl=en&rclk=1,30.7058405,76.7748353,Chandigarh
Fitness centre,Gym,"CGA GOLF RANGE, Sector 6, Chandigarh, 160001, India",https://www.google.co.kr/maps/place/Fitness+centre/data=!4m5!3m4!1s0x390fedf87dd63473:0x8e709762135f128b!8m2!3d30.7349447!4d76.8243211?authuser=0&hl=en&rclk=1,30.7349447,76.8243211,Chandigarh
la viva fitness zone,Gym,"2562, ground floor, first floor, second floor, Sector 13, Chandigarh, 160101, India",https://www.google.co.kr/maps/place/la+viva+fitness+zone/data=!4m5!3m4!1s0x390f932c1002870f:0xc408672beb899aa6!8m2!3d30.7186965!4d76.8309773?authuser=0&hl=en&rclk=1,30.7186965,76.8309773,Chandigarh
Harjot Fitness Centre & Gym,Gym,"#334/7, Daria, near Railway Station, Chandigarh, 160101, India",https://www.google.co.kr/maps/place/Harjot+Fitness+Centre+%26+Gym/data=!4m5!3m4!1s0x390fecb7bd964fd1:0xcf8794292e8704cc!8m2!3d30.7003241!4d76.8130335?authuser=0&hl=en&rclk=1,30.7003241,76.8130335,Chandigarh
FITNESS 29 GYM,Gym,"SCO 48, Sector 29D, 29D, Sector 29, Chandigarh, 160030, India",https://www.google.co.kr/maps/place/FITNESS+29+GYM/data=!4m5!3m4!1s0x390fed0bd64bb50d:0xd5115ec6b7164e90!8m2!3d30.7115792!4d76.7899932?authuser=0&hl=en&rclk=1,30.7115792,76.7899932,Chandigarh
Vertical Body Fitness,Gym,"80-81(Basement, SCO, Madhya Marg, Sector 8C, Chandigarh, 160009, India",https://www.google.co.kr/maps/place/Vertical+Body+Fitness/data=!4m5!3m4!1s0x390fed0d83d3c029:0xe30e2913ed42563c!8m2!3d30.740493!4d76.790967?authuser=0&hl=en&rclk=1,30.740493,76.790967,Chandigarh
Friends Fitness Gym,Gym,"SCO-68, Keshoram Complex, Sanatan, Sector 45 C, Opposite Sanatan Dharam Mandir, Chandigarh, 160047, India",https://www.google.co.kr/maps/place/Friends+Fitness+Gym/data=!4m5!3m4!1s0x390fec47e5634351:0xc1fe8b7956d61005!8m2!3d30.7055209!4d76.7576002?authuser=0&hl=en&rclk=1,30.7055209,76.7576002,Chandigarh
Sweat & Built gym,Gym,"Daddu Majra Rd, Village Daddu Majra Colony, Daddu Majra Colony, Chandigarh, 160014, India",https://www.google.co.kr/maps/place/Sweat+%26+Built+gym/data=!4m5!3m4!1s0x390fef55c347ead7:0xe652a7a061170a59!8m2!3d30.7563734!4d76.7331831?authuser=0&hl=en&rclk=1,30.7563734,76.7331831,Chandigarh
CLTA Gym,Gym,"QQ2P+3FG, 10C, Sector 10, Chandigarh, 160011, India",https://www.google.co.kr/maps/place/CLTA+Gym/data=!4m5!3m4!1s0x390fed7137bb8699:0x749f4c9f2591b76!8m2!3d30.7501898!4d76.7861938?authuser=0&hl=en&rclk=1,30.7501898,76.7861938,Chandigarh
New Friend Fitness Center,Gym,"SCO 45, Top Floor, Jan Marg, Sector 42C, Sector 42, Chandigarh, 160042, India",https://www.google.co.kr/maps/place/New+Friend+Fitness+Center/data=!4m5!3m4!1s0x390fedd1e6f013dd:0xcaad5a3da661ff69!8m2!3d30.7229756!4d76.744682?authuser=0&hl=en&rclk=1,30.7229756,76.744682,Chandigarh
Cuts & Curves Gym,Gym,"SCO 27, 2nd Floor, 15C, Sector 15, Chandigarh, India",https://www.google.co.kr/maps/place/Cuts+%26+Curves+Gym/data=!4m5!3m4!1s0x390fed9b3bc448b9:0x3817c727d6c0d75d!8m2!3d30.7519171!4d76.7721836?authuser=0&hl=en&rclk=1,30.7519171,76.7721836,Chandigarh
GYM FITNESS ZONE,Fitness center,"SCO-58, Basement, Sector 46-C, near Shiv Mandir, Chandigarh, 160047, India",https://www.google.co.kr/maps/place/GYM+FITNESS+ZONE/data=!4m5!3m4!1s0x390fec4240a7629b:0x2459df51c6694058!8m2!3d30.7000889!4d76.7658171?authuser=0&hl=en&rclk=1,30.7000889,76.7658171,Chandigarh
CHAMPION FITNESS GYM,Gym,"1945, Burail, Burail Village, Sector 45, Chandigarh, 160047, India",https://www.google.co.kr/maps/place/CHAMPION+FITNESS+GYM/data=!4m5!3m4!1s0x390fed6d144bd141:0x96a19fa2c79cb3ec!8m2!3d30.7086425!4d76.7640628?authuser=0&hl=en&rclk=1,30.7086425,76.7640628,Chandigarh
GYM,Gym,"Near, CRPF Rd, Behlana, Chandigarh, 160002, India",https://www.google.co.kr/maps/place/GYM/data=!4m5!3m4!1s0x390fed1186258abf:0xbf49886513ac8cfd!8m2!3d30.6789942!4d76.7991254?authuser=0&hl=en&rclk=1,30.6789942,76.7991254,Chandigarh
Suprama Fitness,Gym,"City Center S.C.O-285, First & Top floor, Sector 35D, Chandigarh, 160035, India",https://www.google.co.kr/maps/place/Suprama+Fitness/data=!4m5!3m4!1s0x390fed983c33a67d:0x5d0f088a764c5527!8m2!3d30.7265833!4d76.7575898?authuser=0&hl=en&rclk=1,30.7265833,76.7575898,Chandigarh
The Pumping Weapons Fitness Gym best,Gymnasium Cz,"Sco 2411 2412, 22C, Chandigarh, 160022, India",https://www.google.co.kr/maps/place/The+Pumping+Weapons+Fitness+Gym+best/data=!4m5!3m4!1s0x390feda438744679:0x73f94939fea94b6e!8m2!3d30.7292489!4d76.7722503?authuser=0&hl=en&rclk=1,30.7292489,76.7722503,Chandigarh
Flex Gym,Gym,"SCO 7, 1st & 2nd Floor, Sector 41D, Sector 41, Chandigarh, 160036, India",https://www.google.co.kr/maps/place/Flex+Gym/data=!4m5!3m4!1s0x390fedd9508e2f43:0xfc29a4616c66dcc0!8m2!3d30.7340703!4d76.7367443?authuser=0&hl=en&rclk=1,30.7340703,76.7367443,Chandigarh
Muscle Arena,Gym,"S.C.O 222, 2nd Floor, Sector 36-D, Chandigarh, 160036, India",https://www.google.co.kr/maps/place/Muscle+Arena/data=!4m5!3m4!1s0x390fedc134ed2ff3:0xdd58398a673d3e56!8m2!3d30.7340317!4d76.7526786?authuser=0&hl=en&rclk=1,30.7340317,76.7526786,Chandigarh
Fitness First For Women,Gym,"SCO 378, 37D, Sector 37, Chandigarh, 160036, India",https://www.google.co.kr/maps/place/Fitness+First+For+Women/data=!4m5!3m4!1s0x390fed9e1cad8727:0xeeab41117e3613e!8m2!3d30.7402073!4d76.7480485?authuser=0&hl=en&rclk=1,30.7402073,76.7480485,Chandigarh
Oxi gym,Gym,"Sector 10A, Sector 10, Chandigarh, 160011, India",https://www.google.co.kr/maps/place/Oxi+gym/data=!4m5!3m4!1s0x390fed7a9d504283:0x87b63cb492bb0a17!8m2!3d30.7546526!4d76.7892318?authuser=0&hl=en&rclk=1,30.7546526,76.7892318,Chandigarh
Athelonics Hybrid Gym,Gym,"SCO 146-148, Main Road, Sector 43, 43B, Chandigarh, 160043, India",https://www.google.co.kr/maps/place/Athelonics+Hybrid+Gym/data=!4m5!3m4!1s0x390fedcaf136f46d:0x21c7867afd35bfad!8m2!3d30.7182605!4d76.7546886?authuser=0&hl=en&rclk=1,30.7182605,76.7546886,Chandigarh
WARRIORS PRO GYM,Gymnasium Cz,"near Municipal Office, Nayagaon, Chandigarh 160001, India",https://www.google.co.kr/maps/place/WARRIORS+PRO+GYM/data=!4m5!3m4!1s0x390ff3744a1560f9:0xa5acdf388449b5c4!8m2!3d30.7746809!4d76.7958696?authuser=0&hl=en&rclk=1,30.7746809,76.7958696,Chandigarh
Resa fitness Swimming Pool & Gym,Fitness center,"Udyog Path, near Traffic Challan Office, Ordnance Cable Factory Colony, Sector 29 B, Sector 29, Chandigarh, 160030, India",https://www.google.co.kr/maps/place/Resa+fitness+Swimming+Pool+%26+Gym/data=!4m5!3m4!1s0x390fece5e298762f:0xab331f3b846e87f2!8m2!3d30.7110387!4d76.7970913?authuser=0&hl=en&rclk=1,30.7110387,76.7970913,Chandigarh
FitnessMax,Physical fitness program,"house number 1078,sector 15-B, Chandigarh 160015, India",https://www.google.co.kr/maps/place/FitnessMax/data=!4m5!3m4!1s0x390fedb559368a5b:0x87fe88bd1a2b4cc!8m2!3d30.7529862!4d76.7782187?authuser=0&hl=en&rclk=1,30.7529862,76.7782187,Chandigarh
Hammer Fitness Center,Gym,"SCO 183 SECTOR 38C,1ST & 2ND FLOOR, Chandigarh, 160014, India",https://www.google.co.kr/maps/place/Hammer+Fitness+Center/data=!4m5!3m4!1s0x390fede84beea1a5:0x36ccacf52a8fe052!8m2!3d30.744651!4d76.743426?authuser=0&hl=en&rclk=1,30.744651,76.743426,Chandigarh
Gujbg,Gym,"22C, Sector 22, Chandigarh, 160022, India",https://www.google.co.kr/maps/place/Gujbg/data=!4m5!3m4!1s0x390fed755f899a77:0x637910daaeae5ac6!8m2!3d30.7282271!4d76.7677917?authuser=0&hl=en&rclk=1,30.7282271,76.7677917,Chandigarh
Solid Health Gym,Fitness center,"Sco. 1, Sco. 1 Near Chandigarh State Cooperative Bank village dadu majra 38 Chandigarh, near Chandigarh State, Chandigarh 160014, India",https://www.google.co.kr/maps/place/Solid+Health+Gym/data=!4m5!3m4!1s0x390feff02bbda88d:0x14010fdf9452a8ac!8m2!3d30.7578443!4d76.7334717?authuser=0&hl=en&rclk=1,30.7578443,76.7334717,Chandigarh
Barbell GYM,Fitness center,"Sco no. 359-360; Sector 44d, Chandigarh, 160047, India",https://www.google.co.kr/maps/place/Barbell+GYM/data=!4m5!3m4!1s0x390fec33c92ecb53:0x15732cfcd503c945!8m2!3d30.7141943!4d76.7514244?authuser=0&hl=en&rclk=1,30.7141943,76.7514244,Chandigarh
Happy Gym and Fitness Center,Gym,"Happy Complex, opposite Chaman Colony, Sector 14 West, Dhanas, Chandigarh, 160014, India",https://www.google.co.kr/maps/place/Happy+Gym+and+Fitness+Center/data=!4m5!3m4!1s0x390ff20ca68f6c39:0x3190650464353256!8m2!3d30.768385!4d76.7558056?authuser=0&hl=en&rclk=1,30.768385,76.7558056,Chandigarh
Gabbar's Fitness Center,Gym,"Unnamed Road, Shopping Plaza, 17D, Sector 17, Chandigarh, 160017, India",https://www.google.co.kr/maps/place/Gabbar's+Fitness+Center/data=!4m5!3m4!1s0x390fed0aa295a1fb:0xbf8b2be1b79475a3!8m2!3d30.7410876!4d76.7804425?authuser=0&hl=en&rclk=1,30.7410876,76.7804425,Chandigarh
Fitness,Fitness center,"3175asector 24 d, Chandigarh 160023, India",https://www.google.co.kr/maps/place/Fitness/data=!4m5!3m4!1s0x390fedddfd1c9c83:0x64d5eea259e37337!8m2!3d30.7449623!4d76.7548442?authuser=0&hl=en&rclk=1,30.7449623,76.7548442,Chandigarh
Malik Fitness,Gym,"Sector 18D, Sector 18, Chandigarh, 160022, India",https://www.google.co.kr/maps/place/Malik+Fitness/data=!4m5!3m4!1s0x390feda785d2ec5f:0xfed95958c8512b4f!8m2!3d30.7333148!4d76.7794179?authuser=0&hl=en&rclk=1,30.7333148,76.7794179,Chandigarh
Hammer Fitness Center,Gym,"No. 396, Vidya Path, Sector 38C, Sector 37, Chandigarh, 160036, India",https://www.google.co.kr/maps/place/Hammer+Fitness+Center/data=!4m5!3m4!1s0x390fede84beea1a5:0x7c83fae23a2a7391!8m2!3d30.7407504!4d76.7477866?authuser=0&hl=en&rclk=1,30.7407504,76.7477866,Chandigarh
Perfect Bodies Gym & Fitness Centre,Gym,"#1007, Tedi Gali, near kalighata jewellers morigate, Sector 13, Chandigarh, 160101, India",https://www.google.co.kr/maps/place/Perfect+Bodies+Gym+%26+Fitness+Centre/data=!4m5!3m4!1s0x390f93303bf7931d:0x83a2fc2739419e3c!8m2!3d30.7132319!4d76.8356913?authuser=0&hl=en&rclk=1,30.7132319,76.8356913,Chandigarh
Tri-city Fitness,Fitness center,"Sco-25, Block C, Sector 27, Chandigarh, 160027, India",https://www.google.co.kr/maps/place/Tri-city+Fitness/data=!4m5!3m4!1s0x390fece1d7d2903f:0x8d3b2013ec0434d0!8m2!3d30.7210345!4d76.8001387?authuser=0&hl=en&rclk=1,30.7210345,76.8001387,Chandigarh
Body exchange - Gym Cardio Aerobics,Gym,"SCO 67, 1st Floor, Sector 38C, Chandigarh, 160036, India",https://www.google.co.kr/maps/place/Body+exchange+-+Gym+Cardio+Aerobics/data=!4m5!3m4!1s0x390fedc3afffffff:0x48a8156607aadd0f!8m2!3d30.740866!4d76.7449145?authuser=0&hl=en&rclk=1,30.740866,76.7449145,Chandigarh
Personal training,Fitness center,"1166, Sec, 42B, Chandigarh, 160036, India",https://www.google.co.kr/maps/place/Personal+training/data=!4m5!3m4!1s0x390fed314f714aeb:0x5e92a6495828d054!8m2!3d30.7260411!4d76.7476487?authuser=0&hl=en&rclk=1,30.7260411,76.7476487,Chandigarh
CLOVE FITNESS,Physical fitness program,"Sco 361 Top Floor, Himalaya Marg, near Bamboo Groove, 35B, Sector 35, Chandigarh, 160022, India",https://www.google.co.kr/maps/place/CLOVE+FITNESS/data=!4m5!3m4!1s0x390fedb50be45d95:0xa718ea97e043c72a!8m2!3d30.7201082!4d76.7585116?authuser=0&hl=en&rclk=1,30.7201082,76.7585116,Chandigarh
HOX CROSSFIT,Gym,"Hotel Mount View, Sector 10A, Sector 10, Chandigarh, 160011, India",https://www.google.co.kr/maps/place/HOX+CROSSFIT/data=!4m5!3m4!1s0x390feda03364e89b:0xc404653e4bc9baf3!8m2!3d30.7574696!4d76.7883852?authuser=0&hl=en&rclk=1,30.7574696,76.7883852,Chandigarh
The Fitness Hub Gym,Gym,"QQGW+79C, Chandigarh, 133301, India",https://www.google.co.kr/maps/place/The+Fitness+Hub+Gym/data=!4m5!3m4!1s0x390ff3ab0ecf1bb1:0xac80840357fcd356!8m2!3d30.7756811!4d76.7958961?authuser=0&hl=en&rclk=1,30.7756811,76.7958961,Chandigarh
Burn Gym Phase 9 Mohali,Gym,"Punjab Olympic Association, opp. House No 714, Phase 9, Sahibzada Ajit Singh Nagar, Chandigarh 160062, India",https://www.google.co.kr/maps/place/Burn+Gym+Phase+9+Mohali/data=!4m5!3m4!1s0x390fef680a80ded1:0xafb955d65f6895bc!8m2!3d30.6903102!4d76.7329671?authuser=0&hl=en&rclk=1,30.6903102,76.7329671,Chandigarh
Fitness Gym,Gym,"Sector 46C, Sector 46, Chandigarh, 160047, India",https://www.google.co.kr/maps/place/Fitness+Gym/data=!4m5!3m4!1s0x390fec437458876d:0x4b02d4a25903f4d8!8m2!3d30.7001498!4d76.7656294?authuser=0&hl=en&rclk=1,30.7001498,76.7656294,Chandigarh
ANYTYM FITNESS /EVENT & ADVERTISEMENT,Fitness center,"S.C.O 81 ,First Floor ,Sector 40-C, Chnadigarh, Chandigarh 160036, India",https://www.google.co.kr/maps/place/ANYTYM+FITNESS+%2FEVENT+%26+ADVERTISEMENT/data=!4m5!3m4!1s0x390fee758da16fe3:0x6ffaed21a89341e3!8m2!3d30.733484!4d76.733035?authuser=0&hl=en&rclk=1,30.733484,76.733035,Chandigarh
Fitness Alpha gym,Gymnasium Cz,"s. c. o. 51 (basement), Sector 47 C, Chandigarh, 160047, India",https://www.google.co.kr/maps/place/Fitness+Alpha+gym/data=!4m5!3m4!1s0x390fec67963a35a3:0xc8956c2621423979!8m2!3d30.6948684!4d76.7701996?authuser=0&hl=en&rclk=1,30.6948684,76.7701996,Chandigarh
Beast Power Gym,Gym,"SCO 1801, opposite Dev Samaj College, Burail, 45B, Chandigarh, 160047, India",https://www.google.co.kr/maps/place/Beast+Power+Gym/data=!4m5!3m4!1s0x390fec4edf854ed5:0xc14343d4887e5250!8m2!3d30.7074613!4d76.763214?authuser=0&hl=en&rclk=1,30.7074613,76.763214,Chandigarh
greenfield residency,Gym,"i, Sector 35 Market Rd, Market 35 D, Sector 35D, Sector 35, Chandigarh, 160022, India",https://www.google.co.kr/maps/place/greenfield+residency/data=!4m5!3m4!1s0x390fedb654a0743d:0x5465c155ac4b278b!8m2!3d30.7260442!4d76.7592624?authuser=0&hl=en&rclk=1,30.7260442,76.7592624,Chandigarh
Recreation Gym,Gym,"Sector 46C, Sector 46, Chandigarh, 160047, India",https://www.google.co.kr/maps/place/Recreation+Gym/data=!4m5!3m4!1s0x390fec43a02031d7:0x6f4ca1229aea8d9a!8m2!3d30.6999289!4d76.7652994?authuser=0&hl=en&rclk=1,30.6999289,76.7652994,Chandigarh
Prime Bodies Corp GYM,Gym,"SCO 365 Top Floor, near Canara Bank, Sector 32D, Chandigarh 160047, India",https://www.google.co.kr/maps/place/Prime+Bodies+Corp+GYM/data=!4m5!3m4!1s0x390fed04fa997eb3:0x29935c437d85e95a!8m2!3d30.7096513!4d76.7730237?authuser=0&hl=en&rclk=1,30.7096513,76.7730237,Chandigarh
Kapil's Pranjali,Fitness center,"LIG Flat #3273, Sector 41 D, Chandigarh, 160036, India",https://www.google.co.kr/maps/place/Kapil's+Pranjali/data=!4m5!3m4!1s0x390fec346aaaaaab:0xb7bc827149a8fd4a!8m2!3d30.733665!4d76.736176?authuser=0&hl=en&rclk=1,30.733665,76.736176,Chandigarh
GLAXY GYM,Gym,"S.C.O 28 ,first floor sector 45, Burail, Burail Village, Sector 45, Chandigarh, 160047, India",https://www.google.co.kr/maps/place/GLAXY+GYM/data=!4m5!3m4!1s0x390fed90cfc9f737:0xcd8748d780fe2b0b!8m2!3d30.706432!4d76.757672?authuser=0&hl=en&rclk=1,30.706432,76.757672,Chandigarh
Aura Fitness Centre,Fitness center,"Sco no 27 first floor Cabin no 6, Chandigarh 160036, India",https://www.google.co.kr/maps/place/Aura+Fitness+Centre/data=!4m5!3m4!1s0x390fed17aa55c933:0xabdb9b3a7d41a546!8m2!3d30.733619!4d76.7369127?authuser=0&hl=en&rclk=1,30.733619,76.7369127,Chandigarh
Gym13 (Aroma Complex),Gym,"The Aroma, above McDonalds's, 22C, Chandigarh, 160022, India",https://www.google.co.kr/maps/place/Gym13+(Aroma+Complex)/data=!4m5!3m4!1s0x390fed9f97a694ff:0xb9a9c2136ae87513!8m2!3d30.7301335!4d76.7735732?authuser=0&hl=en&rclk=1,30.7301335,76.7735732,Chandigarh
Health and Fitness,Physical fitness program,"H.No.519, 1st Floor, Phase 1, Sahibzada Ajit Singh Nagar, 160055, India",https://www.google.co.kr/maps/place/Health+and+Fitness/data=!4m5!3m4!1s0x390fef847839affb:0x6767108b28b18501!8m2!3d30.725346!4d76.7217685?authuser=0&hl=en&rclk=1,30.725346,76.7217685,Chandigarh
Hardcore Heaven Personal Training Studio,Gym,"S.C.O - 5, first floor, Sector, 11D, Chandigarh, 160011, India",https://www.google.co.kr/maps/place/Hardcore+Heaven+Personal+Training+Studio/data=!4m5!3m4!1s0x390fed7f3c92b81d:0x5b9997cee4c958ea!8m2!3d30.7607293!4d76.7818668?authuser=0&hl=en&rclk=1,30.7607293,76.7818668,Chandigarh
Crowd Fitness Gym,Gym,"Shop No. 738- 739, Keshoram Complex, Sector 45- C, Chandigarh, 160045, India",https://www.google.co.kr/maps/place/Crowd+Fitness+Gym/data=!4m5!3m4!1s0x390fec483b61135b:0x30533551c67413c3!8m2!3d30.7079979!4d76.7576308?authuser=0&hl=en&rclk=1,30.7079979,76.7576308,Chandigarh
Open gym,Gym,"2346, Jan Marg, 35C, Sector 35, Chandigarh, 160022, India",https://www.google.co.kr/maps/place/Open+gym/data=!4m5!3m4!1s0x390fedc2a9e2302d:0xfa8e3e1d6fe4cf1e!8m2!3d30.7243078!4d76.7570912?authuser=0&hl=en&rclk=1,30.7243078,76.7570912,Chandigarh
Dirghayu Fitness Zone Panchkarma Slimming Center,Weight loss service,"SCO No.147, Sector 28-D, 1st Floor, Chandigarh, 160019, India",https://www.google.co.kr/maps/place/Dirghayu+Fitness+Zone+Panchkarma+Slimming+Center/data=!4m5!3m4!1s0x390fece0d03e2941:0x416854d2b8a6ce86!8m2!3d30.7189234!4d76.8015898?authuser=0&hl=en&rclk=1,30.7189234,76.8015898,Chandigarh
Amshi,Weight loss service,"House Number 1170, 15B, Sector 15, Chandigarh, 160015, India",https://www.google.co.kr/maps/place/Amshi/data=!4m5!3m4!1s0x390fed9ce55f8d1d:0xd6f9ffba35d9b15!8m2!3d30.7512386!4d76.7762133?authuser=0&hl=en&rclk=1,30.7512386,76.7762133,Chandigarh
Maxx Fit GYM,Gym,"Daddu Majra Colony Rd, Sector 38 West, Sector 38, Chandigarh, 160014, India",https://www.google.co.kr/maps/place/Maxx+Fit+GYM/data=!4m5!3m4!1s0x390fedfa467c92c5:0x3f19eef95a037ef!8m2!3d30.7511913!4d76.7427867?authuser=0&hl=en&rclk=1,30.7511913,76.7427867,Chandigarh
Fitness Center,Gymnasium Cz,"SCO-15, Sector 39 west, Jujhar Nagar, Chandigarh, 160014, India",https://www.google.co.kr/maps/place/Fitness+Center/data=!4m5!3m4!1s0x390fee248d455ef1:0xa14a7abdb87ac8a0!8m2!3d30.7497321!4d76.7024446?authuser=0&hl=en&rclk=1,30.7497321,76.7024446,Chandigarh
Herbalife,Gym,"Udyog Path, 22B, Sector 22, Chandigarh, 160022, India",https://www.google.co.kr/maps/place/Herbalife/data=!4m5!3m4!1s0x390feda774b50a07:0x60b411e28278cfd2!8m2!3d30.734016!4d76.778386?authuser=0&hl=en&rclk=1,30.734016,76.778386,Chandigarh
Infinity Fitness Studio & Gym,Gym,"SCO 49, First and second floor, Sector 42-C, Chandigarh 160036, India",https://www.google.co.kr/maps/place/Infinity+Fitness+Studio+%26+Gym/data=!4m5!3m4!1s0x390fed0bbe1a6f39:0x2c5d2027f88d7bfa!8m2!3d30.7228258!4d76.7448344?authuser=0&hl=en&rclk=1,30.7228258,76.7448344,Chandigarh
Sports area,Gym,"PRM3+HHH, Sector 7B, Sector 7, Chandigarh, 160019, India",https://www.google.co.kr/maps/place/Sports+area/data=!4m5!3m4!1s0x390fedb8a3fca8a7:0x273c31f9cf938d33!8m2!3d30.7339461!4d76.8039702?authuser=0&hl=en&rclk=1,30.7339461,76.8039702,Chandigarh
Fitness Freak,Physical fitness program,"Sector 18D, Sector 18, Chandigarh, 160022, India",https://www.google.co.kr/maps/place/Fitness+Freak/data=!4m5!3m4!1s0x390fedd787508383:0x6d7321e79762885e!8m2!3d30.7333148!4d76.7794179?authuser=0&hl=en&rclk=1,30.7333148,76.7794179,Chandigarh
Fitness First for Women,Gym,"PPQV+6Q4, 37D, Sector 37, Chandigarh, 160036, India",https://www.google.co.kr/maps/place/Fitness+First+for+Women/data=!4m5!3m4!1s0x390fede834c37d6d:0x8db8778391f69cc1!8m2!3d30.7380031!4d76.7444506?authuser=0&hl=en&rclk=1,30.7380031,76.7444506,Chandigarh
Power Mania Fitness Gym,Gym,"Kurali Chandigarh Rd, Khudda Lahora, Punjab 160014, India",https://www.google.co.kr/maps/place/Power+Mania+Fitness+Gym/data=!4m5!3m4!1s0x390ff27ae6b6bf33:0x680a74f298ea338c!8m2!3d30.7735878!4d76.7707742?authuser=0&hl=en&rclk=1,30.7735878,76.7707742,Chandigarh
Team Mohit Thakur,Fitness center,"#609, Sector 20A, Chandigarh, 160020, India",https://www.google.co.kr/maps/place/Team+Mohit+Thakur/data=!4m5!3m4!1s0x390fed3cbef2d7eb:0xc049b34b1a2e7d97!8m2!3d30.7283406!4d76.777293?authuser=0&hl=en&rclk=1,30.7283406,76.777293,Chandigarh
POWER LIFT GYM,Gym,"SCO 1791, 2nd and 3rd Floor, opposite Dev Samaj College, Sector 45, Chandigarh, 160047, India",https://www.google.co.kr/maps/place/POWER+LIFT+GYM/data=!4m5!3m4!1s0x390fed5b8e146fcd:0xaacb7aa2e0246e48!8m2!3d30.7063488!4d76.7638236?authuser=0&hl=en&rclk=1,30.7063488,76.7638236,Chandigarh
Neha Fitness Academy,Fitness center,"House # 604, First Floor, Sector 33B, Chandigarh, 160020, India",https://www.google.co.kr/maps/place/Neha+Fitness+Academy/data=!4m5!3m4!1s0x390feda84b39d121:0xed582cc8f971259a!8m2!3d30.7127355!4d76.7736961?authuser=0&hl=en&rclk=1,30.7127355,76.7736961,Chandigarh
The Code Fitness Mohali,Gym,"SCO 112 to 114, Phase 10, Sector 64, Sahibzada Ajit Singh Nagar, Punjab 160062, India",https://www.google.co.kr/maps/place/The+Code+Fitness+Mohali/data=!4m5!3m4!1s0x390fed7f325cad7d:0x1dd879a1513f79b5!8m2!3d30.6839207!4d76.7421504?authuser=0&hl=en&rclk=1,30.6839207,76.7421504,Chandigarh
golden gym,Gym,"QR76+9R7, goldengymKansal, Chandigarh, 133301, India",https://www.google.co.kr/maps/place/golden+gym/data=!4m5!3m4!1s0x390fede8b97e8467:0xa048191ef108c9ea!8m2!3d30.7634204!4d76.8120346?authuser=0&hl=en&rclk=1,30.7634204,76.8120346,Chandigarh
Gym Nation,Gym,"SCF 9 top floor, sector 23/C, Chandigarh 160023, India",https://www.google.co.kr/maps/place/Gym+Nation/data=!4m5!3m4!1s0x390fed172cf0708d:0xc3dbb5d00063b012!8m2!3d30.7374108!4d76.7658206?authuser=0&hl=en&rclk=1,30.7374108,76.7658206,Chandigarh
Leaf Zumba,Fitness center,"Sarovar Path, Sub. City Center, 33A, Sector 33A, Chandigarh, 160020, India",https://www.google.co.kr/maps/place/Leaf+Zumba/data=!4m5!3m4!1s0x390fedf075942991:0xbf8037db8f6e5d95!8m2!3d30.7184171!4d76.7705019?authuser=0&hl=en&rclk=1,30.7184171,76.7705019,Chandigarh
Outdoor Gym - 38West,Gym,"Green Belt, Sector 38 West, Sector 38, Chandigarh, 160014, India",https://www.google.co.kr/maps/place/Outdoor+Gym+-+38West/data=!4m5!3m4!1s0x390fedf6b8d99169:0xef05d949cfc43890!8m2!3d30.7487671!4d76.7386121?authuser=0&hl=en&rclk=1,30.7487671,76.7386121,Chandigarh
Yoga For Physical &Mental Health,Gym,"Sector 35 Market Rd, 35C, Sector 35, Chandigarh, 160022, India",https://www.google.co.kr/maps/place/Yoga+For+Physical+%26Mental+Health/data=!4m5!3m4!1s0x390fedb6a151a37d:0x969ecc047a33325f!8m2!3d30.7238821!4d76.7613596?authuser=0&hl=en&rclk=1,30.7238821,76.7613596,Chandigarh
Bon Sante,Gym,"SCO 62-63, Sector 17A, 17A, Sector 17, Chandigarh, 160017, India",https://www.google.co.kr/maps/place/Bon+Sante/data=!4m5!3m4!1s0x390fed73342d3895:0x8eaf6b6c018d3d4f!8m2!3d30.7434356!4d76.7872131?authuser=0&hl=en&rclk=1,30.7434356,76.7872131,Chandigarh
Open Air Gym,Fitness center,"PPQM+3R5, Block A, Sector 40B, Chandigarh, 160036, India",https://www.google.co.kr/maps/place/Open+Air+Gym/data=!4m5!3m4!1s0x390fed3d5aa26363:0xf856e281a3dcf99d!8m2!3d30.7376426!4d76.7346227?authuser=0&hl=en&rclk=1,30.7376426,76.7346227,Chandigarh
Absolute Fitness,Gym,"SCF 56 - 57, First Floor, Phase 11, Sector 65, Sahibzada Ajit Singh Nagar, Punjab 160047, India",https://www.google.co.kr/maps/place/Absolute+Fitness/data=!4m5!3m4!1s0x390fec0560498319:0xeac367cc05f55e2c!8m2!3d30.6809317!4d76.7447966?authuser=0&hl=en&rclk=1,30.6809317,76.7447966,Chandigarh
BodySculpt Gym,Gym,"Sco 13first floor sector, 15C, Chandigarh, 160015, India",https://www.google.co.kr/maps/place/BodySculpt+Gym/data=!4m5!3m4!1s0x390fed9b3fffffff:0xfc42438f82741c3c!8m2!3d30.7513704!4d76.7726196?authuser=0&hl=en&rclk=1,30.7513704,76.7726196,Chandigarh
BAJRANG FITNESS CENTER,Gym,"BEHLANA #163, Chandigarh 160003, India",https://www.google.co.kr/maps/place/BAJRANG+FITNESS+CENTER/data=!4m5!3m4!1s0x390fed8e87189d0b:0xe30a79f8d1e88be4!8m2!3d30.6774807!4d76.8000565?authuser=0&hl=en&rclk=1,30.6774807,76.8000565,Chandigarh
Gsky fitness,Gym,"406/A , 2nd floor, Plot no, 2, Industrial Area Phase II, Chandigarh, 160002, India",https://www.google.co.kr/maps/place/Gsky+fitness/data=!4m5!3m4!1s0x390fed6d20d35927:0xf3217cf7278960e4!8m2!3d30.6976006!4d76.7830164?authuser=0&hl=en&rclk=1,30.6976006,76.7830164,Chandigarh
Fitness Habit,Gym,"near dispensary, Behlana, Chandigarh, 160003, India",https://www.google.co.kr/maps/place/Fitness+Habit/data=!4m5!3m4!1s0x390fedce79e52761:0x431ecbd969468a65!8m2!3d30.6767281!4d76.7989407?authuser=0&hl=en&rclk=1,30.6767281,76.7989407,Chandigarh
Gostin Gym,Fitness center,"Sco 89, 2nd And 1st Floor, Sector 46-c, Sector 46-c, Chandigarh, 160047, India",https://www.google.co.kr/maps/place/Gostin+Gym/data=!4m5!3m4!1s0x390fec43f0000001:0x556e25b8e86937c9!8m2!3d30.7002726!4d76.7632061?authuser=0&hl=en&rclk=1,30.7002726,76.7632061,Chandigarh
Flex Gym and Nutritions,Gym,"SCO 7 2 floor, Sector 41D, Chandigarh, 160036, India",https://www.google.co.kr/maps/place/Flex+Gym+and+Nutritions/data=!4m5!3m4!1s0x390fed12b1b97a39:0xc760083358f5d9b0!8m2!3d30.7315429!4d76.7398469?authuser=0&hl=en&rclk=1,30.7315429,76.7398469,Chandigarh
Ultimate Fitness Gym,Gym,"SCO 513, 514,515, near Reliance Fresh, Sector 70, Sahibzada Ajit Singh Nagar, Punjab 160071, India",https://www.google.co.kr/maps/place/Ultimate+Fitness+Gym/data=!4m5!3m4!1s0x390fee9115555535:0x41277ee3a9408bcd!8m2!3d30.6976053!4d76.7219453?authuser=0&hl=en&rclk=1,30.6976053,76.7219453,Chandigarh
Flex Gym,Gym,"QP6G+X6G, Maloya, Chandigarh, 160025, India",https://www.google.co.kr/maps/place/Flex+Gym/data=!4m5!3m4!1s0x390ff1fc523abefb:0xdb98a9652b35d90!8m2!3d30.7624438!4d76.7255853?authuser=0&hl=en&rclk=1,30.7624438,76.7255853,Chandigarh
YMCA SECTOR 11,Gym,"1002, 11, Sector 11, Sector 11-A, Sector 11, Chandigarh, 160011, India",https://www.google.co.kr/maps/place/YMCA+SECTOR+11/data=!4m5!3m4!1s0x390fed790be8a573:0xfd733ff94c94c8f6!8m2!3d30.7569242!4d76.7848848?authuser=0&hl=en&rclk=1,30.7569242,76.7848848,Chandigarh
Body Builder,Gym,"CMC Rd, Sector 22-D, Sector 22, Chandigarh, 160022, India",https://www.google.co.kr/maps/place/Body+Builder/data=!4m5!3m4!1s0x390fedbb53ee5a13:0xd99c247ea7620472!8m2!3d30.7350856!4d76.7679763?authuser=0&hl=en&rclk=1,30.7350856,76.7679763,Chandigarh
Open air gym,Gym,"Sector 36 Dahlia Garden, 36C, Sector 36, Chandigarh, 160036, India",https://www.google.co.kr/maps/place/Open+air+gym/data=!4m5!3m4!1s0x390fed941d7d0b05:0x91c69227722b1684!8m2!3d30.7310113!4d76.7543835?authuser=0&hl=en&rclk=1,30.7310113,76.7543835,Chandigarh
Kings Power Gym,Gym,"150 (BASEMENT), Village Khudda Jassu, Chandigarh, Punjab 160014, India",https://www.google.co.kr/maps/place/Kings+Power+Gym/data=!4m5!3m4!1s0x390ff27bec026df1:0x6c47fb0d17e867a3!8m2!3d30.7734592!4d76.7710176?authuser=0&hl=en&rclk=1,30.7734592,76.7710176,Chandigarh
Burn Gym Phase 5 Mohali,Gym,"SCO - 7, Phase 5, Sector 59, Sahibzada Ajit Singh Nagar, Punjab 160059, India",https://www.google.co.kr/maps/place/Burn+Gym+Phase+5+Mohali/data=!4m5!3m4!1s0x390fee6178d59b93:0x69d32ce97a8a7f1f!8m2!3d30.7161901!4d76.7159079?authuser=0&hl=en&rclk=1,30.7161901,76.7159079,Chandigarh
Hunk's Mania fitness,Gym,"Phase 7, Scf-52, Sahibzada Ajit Singh Nagar, Punjab 160062, India",https://www.google.co.kr/maps/place/Hunk's+Mania+fitness/data=!4m5!3m4!1s0x390fee599cc89c55:0x40f04e06dc72eab3!8m2!3d30.7051473!4d76.7251434?authuser=0&hl=en&rclk=1,30.7051473,76.7251434,Chandigarh
ASSA Fitness Academy,Fitness center,"SCO 25, 2nd Floor, Chandigarh 160019, India",https://www.google.co.kr/maps/place/ASSA+Fitness+Academy/data=!4m5!3m4!1s0x390fede5417e23b1:0xc1d4929fad8d0ffd!8m2!3d30.7299152!4d76.7909754?authuser=0&hl=en&rclk=1,30.7299152,76.7909754,Chandigarh
Ur Fitness,Gym,"SCF 85 Second floor, Mohali Bypass, Phase 5, Sector 59, Sahibzada Ajit Singh Nagar, Punjab 160059, India",https://www.google.co.kr/maps/place/Ur+Fitness/data=!4m5!3m4!1s0x390fee626c5c68c7:0x88760c8e58183381!8m2!3d30.7143112!4d76.7180097?authuser=0&hl=en&rclk=1,30.7143112,76.7180097,Chandigarh
Fitness Revolution Gym,Gym,"gate no 1, Plot no.65, First Floor, Daria, Chandigarh, 160101, India",https://www.google.co.kr/maps/place/Fitness+Revolution+Gym/data=!4m5!3m4!1s0x390fedbc6c4586f7:0x147adeccf60f7f6e!8m2!3d30.7003957!4d76.816475?authuser=0&hl=en&rclk=1,30.7003957,76.816475,Chandigarh
CHANDIGARH DISTANCE RUNNERS,Physical fitness program,"h no, 368, Sector 15-A, Sector 15, Chandigarh, 160015, India",https://www.google.co.kr/maps/place/CHANDIGARH+DISTANCE+RUNNERS/data=!4m5!3m4!1s0x390fed845a5baeb7:0x461ee15f58025801!8m2!3d30.756157!4d76.772006?authuser=0&hl=en&rclk=1,30.756157,76.772006,Chandigarh
RACE FTNESS Gym & Cardio,Fitness center,"SCF. 25, Baaement, Phase 10, Mohali, Sahibzada Ajit Singh Nagar, Punjab 160062, India",https://www.google.co.kr/maps/place/RACE+FTNESS+Gym+%26+Cardio/data=!4m5!3m4!1s0x390fec1e9f7b80b9:0x4f1714e752da1d0c!8m2!3d30.687441!4d76.737958?authuser=0&hl=en&rclk=1,30.687441,76.737958,Chandigarh
Fitness Zone,Gym,"2nd & 3rd Floor Phase, SCO 122 1st, 3B-2, Sector 60, Sahibzada Ajit Singh Nagar, Punjab 160062, India",https://www.google.co.kr/maps/place/Fitness+Zone/data=!4m5!3m4!1s0x390fee889bf1755b:0xd14569709fccac55!8m2!3d30.7124336!4d76.7260774?authuser=0&hl=en&rclk=1,30.7124336,76.7260774,Chandigarh
Krishna Fitness,Gym,"Near Radha Krishna temple, near Krishna Departmental Store, Khudda Lahora, Punjab 160014, India",https://www.google.co.kr/maps/place/Krishna+Fitness/data=!4m5!3m4!1s0x390ff34a65e8b6bb:0x8cc846384c6801af!8m2!3d30.7770107!4d76.7701306?authuser=0&hl=en&rclk=1,30.7770107,76.7701306,Chandigarh
Ultimate Fitness Gym Phase 11 | Best Gym in Mohali,Gym,"4-5, Level, SCF, 1 & 2, Phase 11, Sahibzada Ajit Singh Nagar, Punjab 160055, India",https://www.google.co.kr/maps/place/Ultimate+Fitness+Gym+Phase+11+%7C+Best+Gym+in+Mohali/data=!4m5!3m4!1s0x390fed3557e16f11:0x1b119969ef85793d!8m2!3d30.6826749!4d76.7434832?authuser=0&hl=en&rclk=1,30.6826749,76.7434832,Chandigarh
The Happy Stretch,Yoga studio,"HDFC Bank, SCO 9, 2nd Floor, Inner Market, Landmark:, Sector 20D, Sector 20, Chandigarh 160020, India",https://www.google.co.kr/maps/place/The+Happy+Stretch/data=!4m5!3m4!1s0x390fedd6222042a5:0x2f7ea5c3d6865e32!8m2!3d30.7223265!4d76.7792857?authuser=0&hl=en&rclk=1,30.7223265,76.7792857,Chandigarh
Azad Plahania,Gym,"PQMH+8QF, Sector 18D, Sector 18, Chandigarh, 160022, India",https://www.google.co.kr/maps/place/Azad+Plahania/data=!4m5!3m4!1s0x390fed1cb4ce94af:0x5f01149f00c46be2!8m2!3d30.7333148!4d76.7794179?authuser=0&hl=en&rclk=1,30.7333148,76.7794179,Chandigarh
"The Pilates Studio , Chandigarh",Pilates studio,"S.C.O. Number 45-46-47, Sector 17A, 17D, Sector 17, Chandigarh, 160017, India","https://www.google.co.kr/maps/place/The+Pilates+Studio+,+Chandigarh/data=!4m5!3m4!1s0x390fed1a0f4a64e3:0xe6176a63888c79d3!8m2!3d30.7437061!4d76.7844812?authuser=0&hl=en&rclk=1",30.7437061,76.7844812,Chandigarh
Ravi Verma,Gym,"Reliance Jewels SCO 123, 124, Bridge Road, Bridge Market, 17C, Sector 17, Chandigarh, 160017, India",https://www.google.co.kr/maps/place/Ravi+Verma/data=!4m5!3m4!1s0x390fede17c04a875:0xb3b6d7a504b5a357!8m2!3d30.7382678!4d76.7846271?authuser=0&hl=en&rclk=1,30.7382678,76.7846271,Chandigarh
FITNESS GURU,Gym,"SCO 1& 2, 2nd & 3rd Floor, Sector 71, Sahibzada Ajit Singh Nagar, Punjab 160071, India",https://www.google.co.kr/maps/place/FITNESS+GURU/data=!4m5!3m4!1s0x390fee9255555555:0x66c3d566fc70666!8m2!3d30.703786!4d76.7097887?authuser=0&hl=en&rclk=1,30.703786,76.7097887,Chandigarh
Gymnasium Hall,Gymnastics center,"Panjab University, Sector 14, Chandigarh, 160014, India",https://www.google.co.kr/maps/place/Gymnasium+Hall/data=!4m5!3m4!1s0x390fed89cf1d3c13:0x32e2464248f981a1!8m2!3d30.7617134!4d76.7648079?authuser=0&hl=en&rclk=1,30.7617134,76.7648079,Chandigarh
Skating Rink. Sec 10,Gym,"272, Madhya Marg, Sector A, Sector 10 D, Near DAV college,, Chandigarh, 160015, India",https://www.google.co.kr/maps/place/Skating+Rink.+Sec+10/data=!4m5!3m4!1s0x390fed76e378c601:0xdbb4514fb48ab681!8m2!3d30.7505857!4d76.7833551?authuser=0&hl=en&rclk=1,30.7505857,76.7833551,Chandigarh
Mitran da dera,Gym,"14, Sarovar Path, 33A, Sector 33, Chandigarh, 160047, India",https://www.google.co.kr/maps/place/Mitran+da+dera/data=!4m5!3m4!1s0x390fec524a01abe3:0x718d3f585225b697!8m2!3d30.7146762!4d76.7707747?authuser=0&hl=en&rclk=1,30.7146762,76.7707747,Chandigarh
Nature Trail.Lake Forest,Gym,"Kartar Aasra Road, Rock Garden of Chandigarh, Sector 1, Chandigarh, 160001, India",https://www.google.co.kr/maps/place/Nature+Trail.Lake+Forest/data=!4m5!3m4!1s0x390fed47b415eac7:0x6e01cd85d82e1ac2!8m2!3d30.7482895!4d76.8127122?authuser=0&hl=en&rclk=1,30.7482895,76.8127122,Chandigarh
Holistic Healers - Best yoga center in Mohali / Chandigarh,Gymnastics center,"2199A Chandigarh Housing Board Flats, Sector 63, Chandigarh, 160055, India",https://www.google.co.kr/maps/place/Holistic+Healers+-+Best+yoga+center+in+Mohali+%2F+Chandigarh/data=!4m5!3m4!1s0x390fedb497a7d4b1:0x16f92016a0ccfdae!8m2!3d30.7465384!4d76.7872024?authuser=0&hl=en&rclk=1,30.7465384,76.7872024,Chandigarh
RK Gym _Totally Transform Your Body,Fitness center,"SCO:300, Dhasmesh Nagar, Nada Rd, near Sat Sahib Cement, Nayagaon, 160103, India",https://www.google.co.kr/maps/place/RK+Gym+_Totally+Transform+Your+Body/data=!4m5!3m4!1s0x390ff307bd8efd17:0x736c193df0f71100!8m2!3d30.7741163!4d76.7955246?authuser=0&hl=en&rclk=1,30.7741163,76.7955246,Chandigarh
Galaxy Fitness,Gym,"1747, Mohali Stadium Rd, Phase 3B2, Sector 60, Sahibzada Ajit Singh Nagar, Punjab 160059, India",https://www.google.co.kr/maps/place/Galaxy+Fitness/data=!4m5!3m4!1s0x390fee860d059d3b:0x22a83bfcdc6a29ee!8m2!3d30.7088754!4d76.7234042?authuser=0&hl=en&rclk=1,30.7088754,76.7234042,Chandigarh
Inspiration Fitness : Gym and Cardio,Gym,"SCO 8, Sector 68, Sahibzada Ajit Singh Nagar, Punjab 160068, India",https://www.google.co.kr/maps/place/Inspiration+Fitness+:+Gym+and+Cardio/data=!4m5!3m4!1s0x390feea48f27c0c7:0xfc2dbca9997c8f7f!8m2!3d30.684994!4d76.721782?authuser=0&hl=en&rclk=1,30.684994,76.721782,Chandigarh
Jacked Fitness,Fitness center,"SCO-367-2nd Floor,, 368, Sector 8, Panchkula, Haryana 134109, India",https://www.google.co.kr/maps/place/Jacked+Fitness/data=!4m5!3m4!1s0x390f93470199c0d9:0x930a61b4c7ada87f!8m2!3d30.6988596!4d76.8491135?authuser=0&hl=en&rclk=1,30.6988596,76.8491135,Chandigarh
Fitness plus Gym - Best Gym in Panchkula,Gym,"SCO No 78-79 basement. Sector 5 MDC, near Anupam Sweets, Haryana 134112, India",https://www.google.co.kr/maps/place/Fitness+plus+Gym+-+Best+Gym+in+Panchkula/data=!4m5!3m4!1s0x390f95cf766eeb59:0xe7e9f8d2bf6f1f47!8m2!3d30.7143488!4d76.8504744?authuser=0&hl=en&rclk=1,30.7143488,76.8504744,Chandigarh
Hybrid fitness 71,Gym,"Sco 48&49 2nd&3rd floor, Sector 71, Sahibzada Ajit Singh Nagar, Punjab 160071, India",https://www.google.co.kr/maps/place/Hybrid+fitness+71/data=!4m5!3m4!1s0x390feef311074157:0x4edd2b2a886f7b0c!8m2!3d30.7049346!4d76.7085493?authuser=0&hl=en&rclk=1,30.7049346,76.7085493,Chandigarh
Gym Municipal Corporation Chandigarh,Gym,"Shanti Nagar, Sector 13, Panchkula, Haryana 160101, India",https://www.google.co.kr/maps/place/Gym+Municipal+Corporation+Chandigarh/data=!4m5!3m4!1s0x390f932f09f6d519:0x2dd9a96e3c61ad9e!8m2!3d30.7171197!4d76.8356752?authuser=0&hl=en&rclk=1,30.7171197,76.8356752,Chandigarh
Fitness Lounge,Gym,"Sector 16, Panchkula, Haryana 134113, India",https://www.google.co.kr/maps/place/Fitness+Lounge/data=!4m5!3m4!1s0x390f936095555561:0xfccd2a34cc2ca175!8m2!3d30.6957153!4d76.8377782?authuser=0&hl=en&rclk=1,30.6957153,76.8377782,Chandigarh
Best gym in mohali - Fitness 7 gym chain mohali,Gym,"Sco 4, 5, near Army Law Institute, Sector 68, Kumbra, Sahibzada Ajit Singh Nagar, Punjab 160062, India",https://www.google.co.kr/maps/place/Best+gym+in+mohali+-+Fitness+7+gym+chain+mohali/data=!4m5!3m4!1s0x390fefb73e61feb1:0x5316135644e70e72!8m2!3d30.6897421!4d76.7232205?authuser=0&hl=en&rclk=1,30.6897421,76.7232205,Chandigarh
Fitness Matters - Sector 44,Training centre,"SCO 255-256, Second Floor, above CANARA BANK - GENERAL BRANCH, 44C, Chandigarh, 160047, India",https://www.google.co.kr/maps/place/Fitness+Matters+-+Sector+44/data=!4m5!3m4!1s0x390fed122a4bb989:0x78bb5ede84e9d6f8!8m2!3d30.7090837!4d76.7516709?authuser=0&hl=en&rclk=1,30.7090837,76.7516709,Chandigarh
Octane Fitness,Gym,"SCO 14/Level 3, Sector 68 Mrkt Complex, Sahibzada Ajit Singh Nagar, Punjab 160062, India",https://www.google.co.kr/maps/place/Octane+Fitness/data=!4m5!3m4!1s0x390feebb4ce915ff:0xa950280070d5d7a!8m2!3d30.6847406!4d76.7220156?authuser=0&hl=en&rclk=1,30.6847406,76.7220156,Chandigarh
Ultimate Fitness Gym,Gym,"Sco 34 35, Sector 67, Sahibzada Ajit Singh Nagar, Punjab 160062, India",https://www.google.co.kr/maps/place/Ultimate+Fitness+Gym/data=!4m5!3m4!1s0x390feea583a9dfd1:0x755b2bef6f3efeb8!8m2!3d30.6796059!4d76.7249181?authuser=0&hl=en&rclk=1,30.6796059,76.7249181,Chandigarh
Bounce Fitness,Gym,"S-15A, North Country Mall Road, Kharar, Punjab 140301, India",https://www.google.co.kr/maps/place/Bounce+Fitness/data=!4m5!3m4!1s0x390fefcf7a6ca187:0xc1c06e71d29192f!8m2!3d30.73771!4d76.6785281?authuser=0&hl=en&rclk=1,30.73771,76.6785281,Chandigarh
FZ Fitness Academy,Physical fitness program,"Patiala Rd, near bsnl telephone exchange, Badal Colony, Utrathiya, Zirakpur, Punjab 140603, India",https://www.google.co.kr/maps/place/FZ+Fitness+Academy/data=!4m5!3m4!1s0x390feb368bb23757:0xa292d2e070ae6d16!8m2!3d30.6530404!4d76.8189896?authuser=0&hl=en&rclk=1,30.6530404,76.8189896,Chandigarh
Gold's Gym,Gym,"SCO No 10, Sector 16, Panchkula, Haryana 134109, India",https://www.google.co.kr/maps/place/Gold's+Gym/data=!4m5!3m4!1s0x390f93458ec3f3cb:0x5f6fbe02d2c42c7b!8m2!3d30.695655!4d76.83793?authuser=0&hl=en&rclk=1,30.695655,76.83793,Chandigarh
Oxyzone yoga centre,Yoga studio,"205, Dakshin Marg, 36A, Sector 36, Chandigarh, 160036, India",https://www.google.co.kr/maps/place/Oxyzone+yoga+centre/data=!4m5!3m4!1s0x390fedbf0cffffff:0xa490045232f596bf!8m2!3d30.7367259!4d76.7582225?authuser=0&hl=en&rclk=1,30.7367259,76.7582225,Chandigarh
Ultimate Fitness Gym,Gym,"Sco 5,6 2nd Floor Above PNB Bank, Old Ambala Rd, near Railway Crossing, Dhakoli, Zirakpur, Punjab 160104, India",https://www.google.co.kr/maps/place/Ultimate+Fitness+Gym/data=!4m5!3m4!1s0x390f94c097fa6f5b:0xdb34b5db2703f5e1!8m2!3d30.6546655!4d76.8444749?authuser=0&hl=en&rclk=1,30.6546655,76.8444749,Chandigarh
Target fitness gym,Gym,"Ayu gold bazar, Royale Estate, SCO-10-11, Zirakpur, Punjab 140603, India",https://www.google.co.kr/maps/place/Target+fitness+gym/data=!4m5!3m4!1s0x390feb3251816d4b:0x7ff83573dde80fe!8m2!3d30.6488554!4d76.824055?authuser=0&hl=en&rclk=1,30.6488554,76.824055,Chandigarh
Coach Sherveen Mann,Physical fitness program,"585, Sector 16 D, Sector 16, Chandigarh, 160022, India",https://www.google.co.kr/maps/place/Coach+Sherveen+Mann/data=!4m5!3m4!1s0x390fedca67f65729:0xdceb00401eafd2a3!8m2!3d30.744309!4d76.7722615?authuser=0&hl=en&rclk=1,30.744309,76.7722615,Chandigarh
premium fitness gym,Fitness center,"M. No. 9478930026, SCO 2&3, HIGH STREET MARKET B BLOCK M. no. 9478930026, VIP Rd, Zirakpur, Punjab 140603, India",https://www.google.co.kr/maps/place/premium+fitness+gym/data=!4m5!3m4!1s0x390feb28c7b96a71:0x967a5fa4effba7d7!8m2!3d30.6356494!4d76.8132548?authuser=0&hl=en&rclk=1,30.6356494,76.8132548,Chandigarh
Golds Gym Kharar,Gym,"SCO 1, 2, 3, 4, 2nd Floor, Shivjot Enclave, Chandigarh-Chintapurni-Dharamshala Rd, Guru Teg Bahadur Nagar, Kharar, Punjab 140301, India",https://www.google.co.kr/maps/place/Golds+Gym+Kharar/data=!4m5!3m4!1s0x390ffaa957b99cc1:0x814a8eaffe80c9c5!8m2!3d30.7557564!4d76.6360921?authuser=0&hl=en&rclk=1,30.7557564,76.6360921,Chandigarh
Open Air Gym,Gymnasium Cz,"PQ27+686, Sector 46C, Sector 46, Chandigarh, 160047, India",https://www.google.co.kr/maps/place/Open+Air+Gym/data=!4m5!3m4!1s0x390fec43e25ad597:0xaa2a67b6f2348faa!8m2!3d30.7005377!4d76.7632764?authuser=0&hl=en&rclk=1,30.7005377,76.7632764,Chandigarh
Aussie Mahila Fitness,Gym,"SCO No.386, Sector 20 Rd, Panchkula, 134116, India",https://www.google.co.kr/maps/place/Aussie+Mahila+Fitness/data=!4m5!3m4!1s0x390f949a024044ab:0x8599654523f628f8!8m2!3d30.6716668!4d76.8549696?authuser=0&hl=en&rclk=1,30.6716668,76.8549696,Chandigarh
Herbalife,Gym,"Maheshpur Rd, Sector 7, Panchkula, Haryana 134109, India",https://www.google.co.kr/maps/place/Herbalife/data=!4m5!3m4!1s0x390f936ab108c0b1:0x9914bb4d67f4b03!8m2!3d30.703935!4d76.849952?authuser=0&hl=en&rclk=1,30.703935,76.849952,Chandigarh
Herbalife,Gym,"Unnamed Road, Sector 82, JLPL Industrial Area, Punjab 140308, India",https://www.google.co.kr/maps/place/Herbalife/data=!4m5!3m4!1s0x390fe9591e42e39f:0xba3272d5e5ca9017!8m2!3d30.6542655!4d76.7306387?authuser=0&hl=en&rclk=1,30.6542655,76.7306387,Chandigarh
