Company_Name,Category,Address,Url,Latitude,Longitude,State
The Power Fitness Gymüí™üèã,Gym,"Sector B, 229, II Floor, Om Sai Multipurpose Complex, behind Union Bank of India, Ward no.-11, Indra, Mandideep, Bhopal, Madhya Pradesh 462046, India",https://www.google.co.kr/maps/place/The+Power+Fitness+Gym%F0%9F%92%AA%F0%9F%8F%8B/data=!4m5!3m4!1s0x397c47cab3d420cf:0xea7bd6aa6c588e94!8m2!3d23.0969469!4d77.5164216?authuser=0&hl=en&rclk=1,23.0969469,77.5164216,Madhya Pradesh
Shivhare gym,Gym,"3C5Q+WG2, Nowgong, Madhya Pradesh 471201, India",https://www.google.co.kr/maps/place/Shivhare+gym/data=!4m5!3m4!1s0x3982a65ad1fbc5e3:0x4ec82fdd2a26f633!8m2!3d25.0597567!4d79.4387725?authuser=0&hl=en&rclk=1,25.0597567,79.4387725,Madhya Pradesh
Yoga and Fitness Classes,Fitness center,"Singhpur Rd, ganesh ganj, Shahdol, Madhya Pradesh 484001, India",https://www.google.co.kr/maps/place/Yoga+and+Fitness+Classes/data=!4m5!3m4!1s0x3986fb5f321294db:0x4aaf728230403995!8m2!3d23.2943266!4d81.365205?authuser=0&hl=en&rclk=1,23.2943266,81.365205,Madhya Pradesh
Pumping Iron Gym,Gym,"Near State Bank Of India, Chetakpuri, Vijaynagar, Gwalior, Madhya Pradesh 474009, India",https://www.google.co.kr/maps/place/Pumping+Iron+Gym/data=!4m5!3m4!1s0x3976c43cc70aca37:0x143fd4c26bd6adfa!8m2!3d26.1997429!4d78.1750589?authuser=0&hl=en&rclk=1,26.1997429,78.1750589,Madhya Pradesh
"""T3"" - Time To Train Fitness Gym",Gym,"Kulshreshtha Market, 1st floor, Sachin Tendulkar Rd, Above Tandoori Chai, Gwalior, Madhya Pradesh 474011, India",https://www.google.co.kr/maps/place/%22T3%22+-+Time+To+Train+Fitness+Gym/data=!4m5!3m4!1s0x3976c5e2d558a1ed:0xbb9128880708c629!8m2!3d26.205554!4d78.1958677?authuser=0&hl=en&rclk=1,26.205554,78.1958677,Madhya Pradesh
Dangal Gym - Family Fitness | Aerobic | Cardio | Gym,Gym,"2 B, near bank of india, Awadhpuri, Bhopal, Madhya Pradesh 462022, India",https://www.google.co.kr/maps/place/Dangal+Gym+-+Family+Fitness+%7C+Aerobic+%7C+Cardio+%7C+Gym/data=!4m5!3m4!1s0x397c419145788ce9:0x45f1f6b503db134b!8m2!3d23.2216057!4d77.488607?authuser=0&hl=en&rclk=1,23.2216057,77.488607,Madhya Pradesh
Mudliar's Fitness Plaza,Gym,"Narmada Rd, beside Central Bank of India, MCI Colony, Gorakhpur, Jabalpur, Madhya Pradesh 482001, India",https://www.google.co.kr/maps/place/Mudliar's+Fitness+Plaza/data=!4m5!3m4!1s0x3981ade4abe227ef:0x37b3ba22095af4c5!8m2!3d23.1477109!4d79.93136?authuser=0&hl=en&rclk=1,23.1477109,79.93136,Madhya Pradesh
SHAPE UP GYM,Gym,"Ward No. 13, Narsinghpur Rd, near KUNAL MOTORS, Nai Abadi, Chhindwara, Madhya Pradesh 480001, India",https://www.google.co.kr/maps/place/SHAPE+UP+GYM/data=!4m5!3m4!1s0x3bd567a194caaef3:0x440ab18c847870fd!8m2!3d22.0650138!4d78.9541474?authuser=0&hl=en&rclk=1,22.0650138,78.9541474,Madhya Pradesh
Fit24 fitness anuppur,Gym,"Fit24 fitness, Chetna Nagar, Anuppur, Madhya Pradesh 484224, India",https://www.google.co.kr/maps/place/Fit24+fitness+anuppur/data=!4m5!3m4!1s0x3987b357588db6cd:0x7d728f7259debf40!8m2!3d23.1136554!4d81.697629?authuser=0&hl=en&rclk=1,23.1136554,81.697629,Madhya Pradesh
MFC Gym,Gymnasium Cz,"Bittan Market, 10, E-5/10, Link Rd Number 3, Opposite Habibganj Police Station, E-5, Char Imli, Bhopal, Madhya Pradesh 462016, India",https://www.google.co.kr/maps/place/MFC+Gym/data=!4m5!3m4!1s0x397c42565418914f:0xd6d748bbd818ac87!8m2!3d23.2169204!4d77.4271499?authuser=0&hl=en&rclk=1,23.2169204,77.4271499,Madhya Pradesh
SR Fitness,Gym,"Lakkadpitha Road, Above Axis bank, Laxman Pura, Ratlam, Madhya Pradesh 457001, India",https://www.google.co.kr/maps/place/SR+Fitness/data=!4m5!3m4!1s0x3963ff497c42f2d7:0xb9a0324b0ae178e1!8m2!3d23.3222389!4d75.0303496?authuser=0&hl=en&rclk=1,23.3222389,75.0303496,Madhya Pradesh
Fitness junction gym,Gym,"Maihar - Rewa Rd, Nehru Nagar, Padmadhar Colony, Madhya Pradesh 486001, India",https://www.google.co.kr/maps/place/Fitness+junction+gym/data=!4m5!3m4!1s0x39845b6abf40260d:0x41751f0f106fc6b6!8m2!3d24.5432686!4d81.2758543?authuser=0&hl=en&rclk=1,24.5432686,81.2758543,Madhya Pradesh
Gold's Gym,Gym,"behind SICA School, Sector G, Scheme No 54, Indore, Madhya Pradesh 452010, India",https://www.google.co.kr/maps/place/Gold's+Gym/data=!4m5!3m4!1s0x39631d53808c560f:0x8b9d90f22607a270!8m2!3d22.7544298!4d75.8895327?authuser=0&hl=en&rclk=1,22.7544298,75.8895327,Madhya Pradesh
Xtreme Gym,Gym,"Bhopal Naka, Englishpura, Sehore, Madhya Pradesh 466001, India",https://www.google.co.kr/maps/place/Xtreme+Gym/data=!4m5!3m4!1s0x397cf3f5b0ec4099:0x9d9a22ca0e973815!8m2!3d23.2065615!4d77.0965398?authuser=0&hl=en&rclk=1,23.2065615,77.0965398,Madhya Pradesh
Sylvester The Fitness Zone Gym,Fitness center,"DK 04/74 First Floor, Danish Kunj Kolar Rd, Bhopal, Madhya Pradesh 462001, India",https://www.google.co.kr/maps/place/Sylvester+The+Fitness+Zone+Gym/data=!4m5!3m4!1s0x3962fd69ed83c315:0x6310677c25a7391!8m2!3d23.1717106!4d77.4294724?authuser=0&hl=en&rclk=1,23.1717106,77.4294724,Madhya Pradesh
Smart Fitness Gym,Gym,"54RX+J75, Paan Patte Ki Goth, Madhav Ganj, Gwalior, Madhya Pradesh 474001, India",https://www.google.co.kr/maps/place/Smart+Fitness+Gym/data=!4m5!3m4!1s0x3976c5c9db55a6ef:0xe039baf6b30d9d7a!8m2!3d26.1915225!4d78.1482481?authuser=0&hl=en&rclk=1,26.1915225,78.1482481,Madhya Pradesh
Fit India Gym,Gym,"Pani ki tanki ke samne Budhe balaji Housing board colony, Madhya Pradesh 473001, India",https://www.google.co.kr/maps/place/Fit+India+Gym/data=!4m5!3m4!1s0x397a5dd35e74f89d:0x534fb724700c1d30!8m2!3d24.6562136!4d77.300856?authuser=0&hl=en&rclk=1,24.6562136,77.300856,Madhya Pradesh
Fitness Lounge Mandsaur,Physical fitness program,"Yash Balaji Choraha, Sanjit Rd, near Indian Gas, Mandsaur, Madhya Pradesh 458001, India",https://www.google.co.kr/maps/place/Fitness+Lounge+Mandsaur/data=!4m5!3m4!1s0x39642dfbc10b5c37:0xe9b0f5a4578565b4!8m2!3d24.0803907!4d75.0648942?authuser=0&hl=en&rclk=1,24.0803907,75.0648942,Madhya Pradesh
Gold's Gym Bhopal,Gym,"Level-5, Virasha STC, above Barbeque Nation, Bawadiya Kalan Rd, opposite Mahindra petrol pump, Rohit Nagar, Bhopal, Madhya Pradesh 462026, India",https://www.google.co.kr/maps/place/Gold's+Gym+Bhopal/data=!4m5!3m4!1s0x397c425dee93a89b:0x2b4371cbddbaead6!8m2!3d23.179597!4d77.4378726?authuser=0&hl=en&rclk=1,23.179597,77.4378726,Madhya Pradesh
My Gym & Fitness (Goldy Singh),Gym,"near Hingalaj Madir, Mali Mohalla, Maheshwar, Madhya Pradesh 451224, India",https://www.google.co.kr/maps/place/My+Gym+%26+Fitness+(Goldy+Singh)/data=!4m5!3m4!1s0x396265f2addb3747:0x5cfde63140f71483!8m2!3d22.1800914!4d75.5873643?authuser=0&hl=en&rclk=1,22.1800914,75.5873643,Madhya Pradesh
Platinum Fitness Gym,Gym,"Itarsi Rd, Sadar, Badora, Madhya Pradesh 460001, India",https://www.google.co.kr/maps/place/Platinum+Fitness+Gym/data=!4m5!3m4!1s0x3bd609659645e271:0xf2f5ce40d38d3fdb!8m2!3d21.9011379!4d77.8913022?authuser=0&hl=en&rclk=1,21.9011379,77.8913022,Madhya Pradesh
Fitness Rockers Gym,Gym,"15, Ayodhya Bypass Rd, Murli Nagar, Karond, Bhopal, Madhya Pradesh 462038, India",https://www.google.co.kr/maps/place/Fitness+Rockers+Gym/data=!4m5!3m4!1s0x397c688b28d27b25:0x1fa84ffbfb467061!8m2!3d23.3025633!4d77.40076?authuser=0&hl=en&rclk=1,23.3025633,77.40076,Madhya Pradesh
Milestone Gym,Gym,"4WR2+RCH, Hill View Colony, Jabalpur, Madhya Pradesh 482001, India",https://www.google.co.kr/maps/place/Milestone+Gym/data=!4m5!3m4!1s0x3981b3ae66143a91:0xb065d6d698440487!8m2!3d23.1420726!4d79.9010972?authuser=0&hl=en&rclk=1,23.1420726,79.9010972,Madhya Pradesh
GRAVITY FITNESS GYM,Gym,"Gali Number 1, Dwarka Nagar, Seoni, Madhya Pradesh 480661, India",https://www.google.co.kr/maps/place/GRAVITY+FITNESS+GYM/data=!4m5!3m4!1s0x3a2ab101d93b343f:0x90b46645b8737d48!8m2!3d22.0780109!4d79.5396351?authuser=0&hl=en&rclk=1,22.0780109,79.5396351,Madhya Pradesh
BoxRox Fitness,Fitness center,"3 Floor, 43, Indore Road, Mahakal Sindhi Colony, Near, Subhash Nagar, Ujjain, Madhya Pradesh 456010, India",https://www.google.co.kr/maps/place/BoxRox+Fitness/data=!4m5!3m4!1s0x396374669c11cd17:0xdf78ff395e729eb0!8m2!3d23.1677698!4d75.789126?authuser=0&hl=en&rclk=1,23.1677698,75.789126,Madhya Pradesh
Golds Gym,Gym,"201-208, 2nd floor, Veda Building, Main, Bhawarkua Main Rd, Indore, Madhya Pradesh 452001, India",https://www.google.co.kr/maps/place/Golds+Gym/data=!4m5!3m4!1s0x3962fce4f019f03d:0x171d310ff5db237f!8m2!3d22.6930969!4d75.8670525?authuser=0&hl=en&rclk=1,22.6930969,75.8670525,Madhya Pradesh
Police line gym,Fitness center,"RQP8+583, Gopal Ganj, Sagar, Madhya Pradesh 470003, India",https://www.google.co.kr/maps/place/Police+line+gym/data=!4m5!3m4!1s0x3978d15cbb8fa3cb:0x1c16c487a69bc2a0!8m2!3d23.8353783!4d78.7658012?authuser=0&hl=en&rclk=1,23.8353783,78.7658012,Madhya Pradesh
Evolution Gym vidisha,Gym,"Bada bazar, Daulatpur, Vidisha, Madhya Pradesh 464001, India",https://www.google.co.kr/maps/place/Evolution+Gym+vidisha/data=!4m5!3m4!1s0x397c0565da0f7d61:0x9910eaa8ef22f218!8m2!3d23.5246902!4d77.8055121?authuser=0&hl=en&rclk=1,23.5246902,77.8055121,Madhya Pradesh
Fitness Factory,Gym,"N.H.-7 allahabad, road, Urrahat, Rewa, Madhya Pradesh 486001, India",https://www.google.co.kr/maps/place/Fitness+Factory/data=!4m5!3m4!1s0x39845a3b189ba94b:0xc6628f9ed835f4a8!8m2!3d24.5449682!4d81.3101437?authuser=0&hl=en&rclk=1,24.5449682,81.3101437,Madhya Pradesh
Vibrance Fitness,Physical fitness program,"Road, near Police Post, Sanichari Hills, Sagar, Madhya Pradesh 470002, India",https://www.google.co.kr/maps/place/Vibrance+Fitness/data=!4m5!3m4!1s0x3978d19e6fa8b847:0xe841822f88b87538!8m2!3d23.8400309!4d78.7476388?authuser=0&hl=en&rclk=1,23.8400309,78.7476388,Madhya Pradesh
HEALTHY INDIA,Fitness center,"Chhawni Rd, Ushaganj, Murai Mohalla, Indore, Madhya Pradesh 452001, India",https://www.google.co.kr/maps/place/HEALTHY+INDIA/data=!4m5!3m4!1s0x3962fd18bd38ecf1:0xbddc4a8cc629062a!8m2!3d22.7089438!4d75.8758337?authuser=0&hl=en&rclk=1,22.7089438,75.8758337,Madhya Pradesh
RJ Fitness,Gym,"A-19, Scheme No. 51, Sangam Nagar, Indore, Madhya Pradesh 452006, India",https://www.google.co.kr/maps/place/RJ+Fitness/data=!4m5!3m4!1s0x3962fd8cfae8634b:0xefeb25fa76445a3c!8m2!3d22.7363569!4d75.8324338?authuser=0&hl=en&rclk=1,22.7363569,75.8324338,Madhya Pradesh
Gold's Gym Gorakhpur Jabalpur,Gym,"655, 3rd Floor, Chopra Chamber Cantt, Katanga, Crossing, Jabalpur, Madhya Pradesh 482001, India",https://www.google.co.kr/maps/place/Gold's+Gym+Gorakhpur+Jabalpur/data=!4m5!3m4!1s0x3981ade2eaaaaaab:0xc38f03a7248f3cad!8m2!3d23.1517445!4d79.9362854?authuser=0&hl=en&rclk=1,23.1517445,79.9362854,Madhya Pradesh
Evolution Fitness Center,Fitness center,"Madhaya Pradesh, G 1/26 2nd floor gulmohar colony near by aura mall Bhopal, Madhya Pradesh 9131112107, Bhopal, Madhya Pradesh 462016, India",https://www.google.co.kr/maps/place/Evolution+Fitness+Center/data=!4m5!3m4!1s0x397c43965a782505:0x575f12225012a59d!8m2!3d23.1829727!4d77.4392842?authuser=0&hl=en&rclk=1,23.1829727,77.4392842,Madhya Pradesh
Rock Fitness Zym,Gym,"Sector B, 229, II Floor, Om Sai Multipurpose Complex, behind Union Bank of India, Ward no.-11, Indra, Mandideep, Bhopal, Madhya Pradesh 462046, India",https://www.google.co.kr/maps/place/Rock+Fitness+Zym/data=!4m5!3m4!1s0x397c47448d6a4e9f:0xd3e782ed683dc435!8m2!3d23.0969469!4d77.5164216?authuser=0&hl=en&rclk=1,23.0969469,77.5164216,Madhya Pradesh
Fitness Factory Gym || Gym in Gwalior || Fitness Studio,Fitness center,"Chaturvedi Sadan, 0-4/99 Ground Floor, Phase II, Stabdi Puram, Deen Dayal Nagar, Gwalior, Madhya Pradesh 474005, India",https://www.google.co.kr/maps/place/Fitness+Factory+Gym+%7C%7C+Gym+in+Gwalior+%7C%7C+Fitness+Studio/data=!4m5!3m4!1s0x3976c40e9911651d:0xf79d3f46bea0d048!8m2!3d26.2586959!4d78.2058358?authuser=0&hl=en&rclk=1,26.2586959,78.2058358,Madhya Pradesh
Hb fitness,Gym,"Veer Durgadas Marg, Kamri Marg, Ujjain, Madhya Pradesh 456006, India",https://www.google.co.kr/maps/place/Hb+fitness/data=!4m5!3m4!1s0x396375253a6dacdd:0xb0811d24ec54400e!8m2!3d23.1914987!4d75.7702062?authuser=0&hl=en&rclk=1,23.1914987,75.7702062,Madhya Pradesh
SHINE FITNESS,Gym,"1st floor, city center, infront of shyam rao hotel, Mumbai - Agra National Hwy, Sendhwa, Madhya Pradesh 451666, India",https://www.google.co.kr/maps/place/SHINE+FITNESS/data=!4m5!3m4!1s0x3bd8b11a674c0b1b:0xbaec07847eb0e0a6!8m2!3d21.6847499!4d75.0973751?authuser=0&hl=en&rclk=1,21.6847499,75.0973751,Madhya Pradesh
Rits Fitness Studio- Unisex Gym - Personal Training- Weight Loss- Body weight Training- Kick Boxing,Fitness center,"34/3, Lala Banarasilal Dawar Marg, Janjeerwala Square, New Palasia, Indore, Madhya Pradesh 452001, India",https://www.google.co.kr/maps/place/Rits+Fitness+Studio-+Unisex+Gym+-+Personal+Training-+Weight+Loss-+Body+weight+Training-+Kick+Boxing/data=!4m5!3m4!1s0x3962fd38048a2efb:0xe51065ebf3aab191!8m2!3d22.7282962!4d75.881758?authuser=0&hl=en&rclk=1,22.7282962,75.881758,Madhya Pradesh
Fitness Zone,Gym,"police line, Bhatnagar, Shahdol, Madhya Pradesh 484001, India",https://www.google.co.kr/maps/place/Fitness+Zone/data=!4m5!3m4!1s0x3986fb6dfd1e458d:0x9eabd41e6bb691b1!8m2!3d23.3079074!4d81.3628877?authuser=0&hl=en&rclk=1,23.3079074,81.3628877,Madhya Pradesh
Rampure Gym,Gym,"Tamiya Bypass Rd, Junnardeo, Madhya Pradesh 480551, India",https://www.google.co.kr/maps/place/Rampure+Gym/data=!4m5!3m4!1s0x3bd58092d2ed5b65:0x4e839b3ace68169f!8m2!3d22.1938646!4d78.597922?authuser=0&hl=en&rclk=1,22.1938646,78.597922,Madhya Pradesh
Z Advance Fitness Gym,Gym,"Punjabi Colony, Soni Colony, Guna, Madhya Pradesh 473001, India",https://www.google.co.kr/maps/place/Z+Advance+Fitness+Gym/data=!4m5!3m4!1s0x397a5bbab3ddfd75:0xf11e182d85db60b0!8m2!3d24.6450419!4d77.3066923?authuser=0&hl=en&rclk=1,24.6450419,77.3066923,Madhya Pradesh
TR9 Gym and fitness centre,Gym,"near Tagore Park, Tagore Park Colony, Khargone, Madhya Pradesh 451001, India",https://www.google.co.kr/maps/place/TR9+Gym+and+fitness+centre/data=!4m5!3m4!1s0x3bd8875591a78029:0xbdc7a7130229b0c3!8m2!3d21.826239!4d75.6216112?authuser=0&hl=en&rclk=1,21.826239,75.6216112,Madhya Pradesh
City Fitness,Gym,"Bhatrewas, Mandsaur, Madhya Pradesh 458001, India",https://www.google.co.kr/maps/place/City+Fitness/data=!4m5!3m4!1s0x39642c00d58a1211:0x9de64fcbe9915ae7!8m2!3d24.0731636!4d75.0640319?authuser=0&hl=en&rclk=1,24.0731636,75.0640319,Madhya Pradesh
Madams Fitness,Gym,"448, Varun Nagar, Sector A, Shahpura, Bhopal, Madhya Pradesh 462039, India",https://www.google.co.kr/maps/place/Madams+Fitness/data=!4m5!3m4!1s0x397c4328bd8377c9:0x72f999f70f8e8fb4!8m2!3d23.198746!4d77.427265?authuser=0&hl=en&rclk=1,23.198746,77.427265,Madhya Pradesh
GYM,Gym,"Q4V6+HFW, Bhitarwar, Madhya Pradesh 475220, India",https://www.google.co.kr/maps/place/GYM/data=!4m5!3m4!1s0x3977258751514005:0x72bbec58b97efac1!8m2!3d25.7939882!4d78.1112121?authuser=0&hl=en&rclk=1,25.7939882,78.1112121,Madhya Pradesh
Shivaay Fitness Empire,Gym,"Lig 99, Harsh Nagar, Housing Board Colony, Hoshangabad, Madhya Pradesh 461001, India",https://www.google.co.kr/maps/place/Shivaay+Fitness+Empire/data=!4m5!3m4!1s0x397dcf6ad7a5ce09:0x6fb38da63fd5f9!8m2!3d22.7431068!4d77.7335853?authuser=0&hl=en&rclk=1,22.7431068,77.7335853,Madhya Pradesh
Anytime Fitness,Gym,"Unit no-415, 4th floor, Benchmark Business Park, Satya Sai Square, Vijay Nagar, Indore, Madhya Pradesh 452010, India",https://www.google.co.kr/maps/place/Anytime+Fitness/data=!4m5!3m4!1s0x396303a2edfbb421:0x1f777e6e387af234!8m2!3d22.7545158!4d75.8981788?authuser=0&hl=en&rclk=1,22.7545158,75.8981788,Madhya Pradesh
Universal Fitness&gym,Gym,"Behind qureshi marvel, Ravindra Nagar, Tapti Nagar, Adhartal, Jabalpur, Madhya Pradesh 482004, India",https://www.google.co.kr/maps/place/Universal+Fitness%26gym/data=!4m5!3m4!1s0x3981af69a3280bb9:0x81d57ed67c9c0ce3!8m2!3d23.1992129!4d79.9446323?authuser=0&hl=en&rclk=1,23.1992129,79.9446323,Madhya Pradesh
Bravo Fitness Center,Gym,"997, 9, Near MIG Thana, Nehru Nagar, Indore, Madhya Pradesh 452001, India",https://www.google.co.kr/maps/place/Bravo+Fitness+Center/data=!4m5!3m4!1s0x3962fd44956dcb0d:0x52d2880e61621311!8m2!3d22.736296!4d75.8839795?authuser=0&hl=en&rclk=1,22.736296,75.8839795,Madhya Pradesh
MP GYM Men's & Women's,Gym,"Maharajpur, Jabalpur, Madhya Pradesh 482004, India",https://www.google.co.kr/maps/place/MP+GYM+Men's+%26+Women's/data=!4m5!3m4!1s0x3981affa22a9a6fb:0xaff9db34ca27618f!8m2!3d23.2241141!4d79.9581215?authuser=0&hl=en&rclk=1,23.2241141,79.9581215,Madhya Pradesh
Siya fitness centre (Gym),Fitness center,"Maa kela devi Enclave, life insurance corporation 26, Tansen Road opposite Chauhan crane service, near Tansen Nagar, Gwalior, Madhya Pradesh 474002, India",https://www.google.co.kr/maps/place/Siya+fitness+centre+(Gym)/data=!4m5!3m4!1s0x3976c70c4a75852d:0xfba1263e18172098!8m2!3d26.2254526!4d78.1811699?authuser=0&hl=en&rclk=1,26.2254526,78.1811699,Madhya Pradesh
MAD Fitness Hub,Gym,"C-23 Padmanabh Nagar Above Royal Enfield Showroom Near Prabhat Petrol Pump, Bhopal, Madhya Pradesh 462023, India",https://www.google.co.kr/maps/place/MAD+Fitness+Hub/data=!4m5!3m4!1s0x397c427930c580c1:0xbe9292cffa5789bf!8m2!3d23.2509128!4d77.4306308?authuser=0&hl=en&rclk=1,23.2509128,77.4306308,Madhya Pradesh
Dynamix Fitnes,Gym,"Link Rd, Tikari, Agnihotri Colony, Betul, Madhya Pradesh 460001, India",https://www.google.co.kr/maps/place/Dynamix+Fitnes/data=!4m5!3m4!1s0x3bd60997f4522b35:0x200194a20313b703!8m2!3d21.906692!4d77.894089?authuser=0&hl=en&rclk=1,21.906692,77.894089,Madhya Pradesh
Fitness Icon Gym,Gym,"Mandir Rd, beside Corporation Bank Newri, Jain Nagar, Nayapura, Lalghati, Bhopal, Madhya Pradesh 462030, India",https://www.google.co.kr/maps/place/Fitness+Icon+Gym/data=!4m5!3m4!1s0x397c69dfc56ad103:0xfa388675922a94b5!8m2!3d23.2786893!4d77.3742376?authuser=0&hl=en&rclk=1,23.2786893,77.3742376,Madhya Pradesh
Fitness fuel gym 2 premium,Gym,"2137, Sudama Nagar Main Rd, Sector D, jhaloriya market, Indore, Madhya Pradesh 452009, India",https://www.google.co.kr/maps/place/Fitness+fuel+gym+2+premium/data=!4m5!3m4!1s0x3962fd5581fc3365:0x66e61f6f96df9702!8m2!3d22.687723!4d75.828995?authuser=0&hl=en&rclk=1,22.687723,75.828995,Madhya Pradesh
Gym,Gym,"Gwala, Madhya Pradesh 466118, India",https://www.google.co.kr/maps/place/Gym/data=!4m5!3m4!1s0x397cd3ce510d00ab:0x9bed29ce743ffd29!8m2!3d22.9524979!4d76.5334982?authuser=0&hl=en&rclk=1,22.9524979,76.5334982,Madhya Pradesh
HIMFIT GYM,Gym,"MP SH 19, Phoop, Madhya Pradesh 477555, India",https://www.google.co.kr/maps/place/HIMFIT+GYM/data=!4m5!3m4!1s0x397676d600ad9b6f:0x27a2ceafaa7961d0!8m2!3d26.6478746!4d78.8838959?authuser=0&hl=en&rclk=1,26.6478746,78.8838959,Madhya Pradesh
Tha pump factory gym,Gym,"7C3M+9Q7, Punjabi Bagh, Apsara Talkies, Behind Petrol Pump, Shanshah Garden, Bhopal, Madhya Pradesh 462023, India",https://www.google.co.kr/maps/place/Tha+pump+factory+gym/data=!4m5!3m4!1s0x397c4326651f6955:0x2a94181fa7432486!8m2!3d23.2534055!4d77.4344207?authuser=0&hl=en&rclk=1,23.2534055,77.4344207,Madhya Pradesh
Fitness Anytime,Gym,"2nd Floor B.D.S Tower, City Center, Patel Nagar, Gwalior, Madhya Pradesh 474001, India",https://www.google.co.kr/maps/place/Fitness+Anytime/data=!4m5!3m4!1s0x3976c41c9d96294d:0xe3ae8e6315a9a10!8m2!3d26.2090149!4d78.1915939?authuser=0&hl=en&rclk=1,26.2090149,78.1915939,Madhya Pradesh
KURUKSHETRA GYMNASIUM,Gym,"Main road, Kolar Rd, near Police Station, Bhopal, Madhya Pradesh 462042, India",https://www.google.co.kr/maps/place/KURUKSHETRA+GYMNASIUM/data=!4m5!3m4!1s0x397c436550b1132f:0xfe1ee58ae8eca64e!8m2!3d23.1712488!4d77.4164658?authuser=0&hl=en&rclk=1,23.1712488,77.4164658,Madhya Pradesh
Syna Fitness Centre,Gym,"Housing Board Colony, Shanti Nagar, madhavnagar Gate, National Highway 44, Jabalpur Rd, Katni, Madhya Pradesh 483504, India",https://www.google.co.kr/maps/place/Syna+Fitness+Centre/data=!4m5!3m4!1s0x398161928af80949:0x5cdd78a3c08aafee!8m2!3d23.8160284!4d80.3782189?authuser=0&hl=en&rclk=1,23.8160284,80.3782189,Madhya Pradesh
India,Gym,"Karond Chauraha, Karond Chouraha, Murli Nagar, Karond, Bhopal, Madhya Pradesh 462038, India",https://www.google.co.kr/maps/place/India/data=!4m5!3m4!1s0x397c69cb537ea5bb:0x480502e546bc68a7!8m2!3d23.3027707!4d77.4042243?authuser=0&hl=en&rclk=1,23.3027707,77.4042243,Madhya Pradesh
REBOUND FITNESS,Gym,"1 amrit enclave, Bypass Rd, Sector A, Rajeev Nagar, Ayodhya Bypass, Bhopal, Madhya Pradesh 462022, India",https://www.google.co.kr/maps/place/REBOUND+FITNESS/data=!4m5!3m4!1s0x397c69f6b0e64131:0x6395d1b62a6a2c63!8m2!3d23.2742277!4d77.4651297?authuser=0&hl=en&rclk=1,23.2742277,77.4651297,Madhya Pradesh
Fitness M5,Fitness center,"near Milan Shadi Hall, NRI Colony, Kohefiza, Bhopal, Madhya Pradesh 462001, India",https://www.google.co.kr/maps/place/Fitness+M5/data=!4m5!3m4!1s0x397c6809c4108f15:0x6151c268859d79f1!8m2!3d23.2691652!4d77.3728881?authuser=0&hl=en&rclk=1,23.2691652,77.3728881,Madhya Pradesh
MPEB Gym,Gym,"4WR8+3QF, MPSEB Colony, Rampur, Jabalpur, Madhya Pradesh 482008, India",https://www.google.co.kr/maps/place/MPEB+Gym/data=!4m5!3m4!1s0x3981b2085dc3b1fd:0xc4f932292af79f77!8m2!3d23.1401821!4d79.9169094?authuser=0&hl=en&rclk=1,23.1401821,79.9169094,Madhya Pradesh
NXT LEVEL FITNESS,Gym,"139, near 10. No Stop, E-7, Arera Colony, Bhopal, Madhya Pradesh 462016, India",https://www.google.co.kr/maps/place/NXT+LEVEL+FITNESS/data=!4m5!3m4!1s0x397c43664b04da8b:0xb3c6c15de7e599b!8m2!3d23.2113939!4d77.434847?authuser=0&hl=en&rclk=1,23.2113939,77.434847,Madhya Pradesh
K7 FITNESS,Gym,"2nd & 3rd floor Meenakshi Road, above Bajaj Finance Office, Anand Nagar, Hoshangabad, Madhya Pradesh 461001, India",https://www.google.co.kr/maps/place/K7+FITNESS/data=!4m5!3m4!1s0x397dcfe948a9ce29:0xa3c0fe1a972c81ed!8m2!3d22.7522079!4d77.7260727?authuser=0&hl=en&rclk=1,22.7522079,77.7260727,Madhya Pradesh
STORMBREAKER FITNESS,Gym,"61 B, near, St Paul Senior Secondary School, Rajeev Gandhi Nagar, COLONY, Bhopal, Madhya Pradesh 462022, India",https://www.google.co.kr/maps/place/STORMBREAKER+FITNESS/data=!4m5!3m4!1s0x397c41721b30595d:0x6ab6fef13ee20a61!8m2!3d23.2560904!4d77.4815864?authuser=0&hl=en&rclk=1,23.2560904,77.4815864,Madhya Pradesh
NB Gym,Fitness center,"22, Regency Palace Opposite Hotel marriott, Scheme No: 54, Vijay Nagar, Indore, Madhya Pradesh 452010, India",https://www.google.co.kr/maps/place/NB+Gym/data=!4m5!3m4!1s0x396302a68b3ecac7:0xaf6c10f9b52694e0!8m2!3d22.7536541!4d75.8851071?authuser=0&hl=en&rclk=1,22.7536541,75.8851071,Madhya Pradesh
Universal Fitness Centre Bhopal,Physical fitness program,"K.J Tower Near Mini Bus Stop jawahar Chowk, Opposite Water Tank, Bhopal, Madhya Pradesh 462003, India",https://www.google.co.kr/maps/place/Universal+Fitness+Centre+Bhopal/data=!4m5!3m4!1s0x397c42b8df8fbca7:0xc10b8be905d4573d!8m2!3d23.2313955!4d77.3942775?authuser=0&hl=en&rclk=1,23.2313955,77.3942775,Madhya Pradesh
Fuel Fitness Gym,Gym,"38 Juna Tukoganj Opposite Rambagh Petrol Pump, Madhya Pradesh 452001, India",https://www.google.co.kr/maps/place/Fuel+Fitness+Gym/data=!4m5!3m4!1s0x3962fd0b41ed8407:0x4564a37447c21d0c!8m2!3d22.7219029!4d75.8579243?authuser=0&hl=en&rclk=1,22.7219029,75.8579243,Madhya Pradesh
Red Gym,Gym,"189/27, Ankit Dubey, Aaditya Nagar, Shajapur, Madhya Pradesh 465001, India",https://www.google.co.kr/maps/place/Red+Gym/data=!4m5!3m4!1s0x39635b7fe06fc9b1:0x6eef6f54eb2f9335!8m2!3d23.4127896!4d76.2671121?authuser=0&hl=en&rclk=1,23.4127896,76.2671121,Madhya Pradesh
German Fitness,Gym,"1/3D, DRM Rd, Saket Nagar, Habib Ganj, Bhopal, Madhya Pradesh 462026, India",https://www.google.co.kr/maps/place/German+Fitness/data=!4m5!3m4!1s0x397c434655c225e7:0x15c0ca15305641f3!8m2!3d23.2172292!4d77.4622433?authuser=0&hl=en&rclk=1,23.2172292,77.4622433,Madhya Pradesh
Veer Fitness Gym,Gym,"M S Road, Sheopur, Madhya Pradesh 476337, India",https://www.google.co.kr/maps/place/Veer+Fitness+Gym/data=!4m5!3m4!1s0x39703189e24a1e8b:0x7c2522eb944b77da!8m2!3d25.6694554!4d76.6973403?authuser=0&hl=en&rclk=1,25.6694554,76.6973403,Madhya Pradesh
Latest fitness gym,Gym,"Subhash Colony, Guna, Madhya Pradesh 473001, India",https://www.google.co.kr/maps/place/Latest+fitness+gym/data=!4m5!3m4!1s0x397a5b73288bd8a9:0x7833ce76024b0ed9!8m2!3d24.6471196!4d77.3144063?authuser=0&hl=en&rclk=1,24.6471196,77.3144063,Madhya Pradesh
O2 Gym,Gym,"main a. b. road in front of bank of india, Rau, 453331, India",https://www.google.co.kr/maps/place/O2+Gym/data=!4m5!3m4!1s0x3962fd3808f0005f:0xb308927efe8de3a7!8m2!3d22.634811!4d75.8092676?authuser=0&hl=en&rclk=1,22.634811,75.8092676,Madhya Pradesh
Fitness Center,Gym,"6Q46+8FM, Gonsa, Madhya Pradesh 456003, India",https://www.google.co.kr/maps/place/Fitness+Center/data=!4m5!3m4!1s0x3963771ef988392f:0xd1880ff19eadf590!8m2!3d23.2058426!4d75.7611568?authuser=0&hl=en&rclk=1,23.2058426,75.7611568,Madhya Pradesh
lazar fitness,Gym,"Old seriya bhawan, near mata mandir hospital, nayee colony, Itarsi, Madhya Pradesh 461122, India",https://www.google.co.kr/maps/place/lazar+fitness/data=!4m5!3m4!1s0x397ddd28031b7f83:0x6f4d7945738517e6!8m2!3d22.6186406!4d77.7601016?authuser=0&hl=en&rclk=1,22.6186406,77.7601016,Madhya Pradesh
True Fitness GYM,Gym,"Parasia naka In front of M.P.E.B office parasia road, Chhindwara, Madhya Pradesh 480001, India",https://www.google.co.kr/maps/place/True+Fitness+GYM/data=!4m5!3m4!1s0x3bd565fc67269b7d:0x7c20aa0b97b8b597!8m2!3d22.06016!4d78.924425?authuser=0&hl=en&rclk=1,22.06016,78.924425,Madhya Pradesh
Iron Gym,Gym,"5R43+3MV, Mahananda Nagar, Ujjain, Madhya Pradesh 456010, India",https://www.google.co.kr/maps/place/Iron+Gym/data=!4m5!3m4!1s0x396374822c86b059:0x35da85a1dee5ee18!8m2!3d23.1552255!4d75.8041647?authuser=0&hl=en&rclk=1,23.1552255,75.8041647,Madhya Pradesh
King Gym,Fitness center,"Shop No. 2, Nizamuddin Rd, Narela, Swatoshivahir Colony, Narela Shankri, Ayodhya Bypass, Bhopal, Madhya Pradesh 462022, India",https://www.google.co.kr/maps/place/King+Gym/data=!4m5!3m4!1s0x397c69f83fa7e2e9:0x405ef06ce55430!8m2!3d23.2683348!4d77.468587?authuser=0&hl=en&rclk=1,23.2683348,77.468587,Madhya Pradesh
FitNit(Fitness with Nitesh),Fitness center,"A new 36 Qtr No. 369, Bairagarh Rd, Sant Hirdaram Nagar, Bhopal, Madhya Pradesh 462030, India",https://www.google.co.kr/maps/place/FitNit(Fitness+with+Nitesh)/data=!4m5!3m4!1s0x397c678e4dbde15f:0xeebe4320de4d3ad4!8m2!3d23.2725289!4d77.3430709?authuser=0&hl=en&rclk=1,23.2725289,77.3430709,Madhya Pradesh
FITNESS POINT GYM,Gym,"Shamshan Rd, Ashok Colony, Siddhart Nagar, Morar, Gwalior, Madhya Pradesh 474011, India",https://www.google.co.kr/maps/place/FITNESS+POINT+GYM/data=!4m5!3m4!1s0x3976c1d4254965dd:0x6ae19c13ca220a2b!8m2!3d26.2234892!4d78.2148976?authuser=0&hl=en&rclk=1,26.2234892,78.2148976,Madhya Pradesh
Power House Gym And Fitness Center,Gym,"Near gouri road mata mandir, chungi road, Lahar, Madhya Pradesh, India",https://www.google.co.kr/maps/place/Power+House+Gym+And+Fitness+Center/data=!4m5!3m4!1s0x39767ad896b944e5:0x230a9565388da60b!8m2!3d26.5574644!4d78.7939842?authuser=0&hl=en&rclk=1,26.5574644,78.7939842,Madhya Pradesh
Body Paradise Unisex Gym,Gym,"4WQG+5QF, Adarsh Nagar, Rampur, Jabalpur, Madhya Pradesh 482008, India",https://www.google.co.kr/maps/place/Body+Paradise+Unisex+Gym/data=!4m5!3m4!1s0x3981ad4ce422af47:0x8b0a85b0bc8615f7!8m2!3d23.1379469!4d79.9269319?authuser=0&hl=en&rclk=1,23.1379469,79.9269319,Madhya Pradesh
KG Fitness and Yoga center,Gym,"plot no. 4, One Tree Hill Rd, near dr. gyanchandani clinic, Behata, Bairagarh, Bhopal, Madhya Pradesh 462030, India",https://www.google.co.kr/maps/place/KG+Fitness+and+Yoga+center/data=!4m5!3m4!1s0x397c67073c340eff:0xf0316f3e69bfc85!8m2!3d23.26805!4d77.341631?authuser=0&hl=en&rclk=1,23.26805,77.341631,Madhya Pradesh
RAGHUVAR kayakalp,Gym,"Naya Mohalla, Chhatarpur, Madhya Pradesh 471001, India",https://www.google.co.kr/maps/place/RAGHUVAR+kayakalp/data=!4m5!3m4!1s0x398297df7ecc6185:0xddfd1561c37fb299!8m2!3d24.9132417!4d79.5839323?authuser=0&hl=en&rclk=1,24.9132417,79.5839323,Madhya Pradesh
PERFECT FITNESS Gym,Gym,"G7PV+3J4, Narendra Nagar, Amaiya Colony, Rewa, Madhya Pradesh 486001, India",https://www.google.co.kr/maps/place/PERFECT+FITNESS+Gym/data=!4m5!3m4!1s0x39845b6b16707dc3:0x5824318f4f0b52ad!8m2!3d24.5351349!4d81.2940931?authuser=0&hl=en&rclk=1,24.5351349,81.2940931,Madhya Pradesh
Asia's Fitness - Best Nutrition Hub In Jabalpur,Gym,"4th Bridge Rd, Napier Town, Jabalpur, Madhya Pradesh 482001, India",https://www.google.co.kr/maps/place/Asia's+Fitness+-+Best+Nutrition+Hub+In+Jabalpur/data=!4m5!3m4!1s0x3981ad873d138781:0x7a9a8fe607a09352!8m2!3d23.1612233!4d79.9370237?authuser=0&hl=en&rclk=1,23.1612233,79.9370237,Madhya Pradesh
Indian fitness academy,Fitness center,"Bajrang Colony, Ashta, Madhya Pradesh 466116, India",https://www.google.co.kr/maps/place/Indian+fitness+academy/data=!4m5!3m4!1s0x397cc5014c55f16d:0xa9ed5f205d6b4f04!8m2!3d23.0217017!4d76.7318883?authuser=0&hl=en&rclk=1,23.0217017,76.7318883,Madhya Pradesh
Barbarian Power Gym,Gym,"3HR2+V7J, PWD Colony, Barapatthar, Seoni, Madhya Pradesh 480661, India",https://www.google.co.kr/maps/place/Barbarian+Power+Gym/data=!4m5!3m4!1s0x3a2ab002975d9d27:0xf80cd68e26baee64!8m2!3d22.0922197!4d79.5506534?authuser=0&hl=en&rclk=1,22.0922197,79.5506534,Madhya Pradesh
Shivaay fitness empire,Gym,"PW3M+X42, Babai, Madhya Pradesh 461661, India",https://www.google.co.kr/maps/place/Shivaay+fitness+empire/data=!4m5!3m4!1s0x397e779759f67af5:0xcfaffb48f0db7c3d!8m2!3d22.7048809!4d77.9327675?authuser=0&hl=en&rclk=1,22.7048809,77.9327675,Madhya Pradesh
Fitness Garage Gym,Gym,"Mahakal Vanijya, Ujjain, Madhya Pradesh 456010, India",https://www.google.co.kr/maps/place/Fitness+Garage+Gym/data=!4m5!3m4!1s0x39637582d9accc77:0x3fbabfca2a8dd5cd!8m2!3d23.1571814!4d75.7920958?authuser=0&hl=en&rclk=1,23.1571814,75.7920958,Madhya Pradesh
Fitness CULTURE Satna,Gym,"MP Nagar, Satna, Madhya Pradesh 485001, India",https://www.google.co.kr/maps/place/Fitness+CULTURE+Satna/data=!4m5!3m4!1s0x39847f89c5d36f4b:0x3daf98f2a4c3f049!8m2!3d24.574448!4d80.8359545?authuser=0&hl=en&rclk=1,24.574448,80.8359545,Madhya Pradesh
Fitness Planet,Gym,"INFRONT OF RAJ KAMAL HOTEL, VINDHYA NAGAR, MAIN ROAD, Waidhan, Madhya Pradesh 486886, India",https://www.google.co.kr/maps/place/Fitness+Planet/data=!4m5!3m4!1s0x398f36a683aa5549:0x46cab39e663700a7!8m2!3d24.0675963!4d82.6343872?authuser=0&hl=en&rclk=1,24.0675963,82.6343872,Madhya Pradesh
Grand Fitness Zone Gym,Gym,"jadiya market , lakshmipura, Bada Bazaar, Sagar, Madhya Pradesh 470002, India",https://www.google.co.kr/maps/place/Grand+Fitness+Zone+Gym/data=!4m5!3m4!1s0x3978d6a5ca038b6b:0x7a0102036aa615e7!8m2!3d23.8317098!4d78.7337486?authuser=0&hl=en&rclk=1,23.8317098,78.7337486,Madhya Pradesh
Carewell Fitness Station,Gym,"ABR ENVIRO SYSTEMS, 437, Kanadia Main Rd, Alok Nagar, Indore, Madhya Pradesh 452016, India",https://www.google.co.kr/maps/place/Carewell+Fitness+Station/data=!4m5!3m4!1s0x3962e3d226251235:0x89e27be5f4622fb5!8m2!3d22.7228413!4d75.9187898?authuser=0&hl=en&rclk=1,22.7228413,75.9187898,Madhya Pradesh
Fitness point Gym,Gym,"HRG8+CH7, Panna Naka, Umri, Virat Nagar, Satna, Madhya Pradesh 485001, India",https://www.google.co.kr/maps/place/Fitness+point+Gym/data=!4m5!3m4!1s0x39847f820823b5dd:0x123d20e975211f44!8m2!3d24.5760293!4d80.8164351?authuser=0&hl=en&rclk=1,24.5760293,80.8164351,Madhya Pradesh
King Fitness,Gym,"Alok Nagar, Tapti Nagar, Adhartal, Jabalpur, Madhya Pradesh 482004, India",https://www.google.co.kr/maps/place/King+Fitness/data=!4m5!3m4!1s0x3981af0889a09a61:0x3286fcae4682a611!8m2!3d23.201089!4d79.9436755?authuser=0&hl=en&rclk=1,23.201089,79.9436755,Madhya Pradesh
Shri Power House Gym rampura ward sagar m.p.,Gym,"House No: 70, Opp Allah Wali Maszid, Rampura Ward, Madhya Pradesh 470002, India",https://www.google.co.kr/maps/place/Shri+Power+House+Gym+rampura+ward+sagar+m.p./data=!4m5!3m4!1s0x3978d7807deb8181:0xa1c9232dc9024477!8m2!3d23.8382537!4d78.7385116?authuser=0&hl=en&rclk=1,23.8382537,78.7385116,Madhya Pradesh
Lakshya Fitness,Gym,"Garha, Jabalpur, Madhya Pradesh 482003, India",https://www.google.co.kr/maps/place/Lakshya+Fitness/data=!4m5!3m4!1s0x3981b1f17311de3d:0xdc6c680582075940!8m2!3d23.1608839!4d79.9037232?authuser=0&hl=en&rclk=1,23.1608839,79.9037232,Madhya Pradesh
The Iron Man Gym,Gym,"9,Vishal Nagar, near Rajendra Nagar Bridge, Annapurna Rd, Indore, Madhya Pradesh 452012, India",https://www.google.co.kr/maps/place/The+Iron+Man+Gym/data=!4m5!3m4!1s0x3962fdfc8773f26d:0x93047e77bbb6a04b!8m2!3d22.6771907!4d75.8337734?authuser=0&hl=en&rclk=1,22.6771907,75.8337734,Madhya Pradesh
P5 Fitness Studio Gym,Fitness center,"Main Road opp. to Fortune Plaza City Center, Raksha Vihar, Patel Nagar, Gwalior, Madhya Pradesh 474001, India",https://www.google.co.kr/maps/place/P5+Fitness+Studio+Gym/data=!4m5!3m4!1s0x3976c59c654f1bb7:0xf3b2e1d155db4473!8m2!3d26.2092272!4d78.1875146?authuser=0&hl=en&rclk=1,26.2092272,78.1875146,Madhya Pradesh
Evolution Gym,Gym,"256, Jabalpur Road Chhota Fuhara, Old Napier Town 1st floor,ganga dal mill parisar, Gopal Bag Rd, behind bsnl exchange, Jabalpur, Madhya Pradesh 482002, India",https://www.google.co.kr/maps/place/Evolution+Gym/data=!4m5!3m4!1s0x3981af57c682f199:0xf6bd0efaf0accc46!8m2!3d23.1831745!4d79.931742?authuser=0&hl=en&rclk=1,23.1831745,79.931742,Madhya Pradesh
KS Fitness Gym,Gym,"Kanta Shrawan palace, new four lane road opposite bhel gate no 3 narela shankari, Ayodhya Bypass Rd, Bhopal, Madhya Pradesh 462022, India",https://www.google.co.kr/maps/place/KS+Fitness+Gym/data=!4m5!3m4!1s0x397c69477d823e91:0xbbba2cb1ce7a998e!8m2!3d23.265387!4d77.4649882?authuser=0&hl=en&rclk=1,23.265387,77.4649882,Madhya Pradesh
Body power gym,Gym,"69VV+C73, Rustam Ahaata Khan, Shymala Hills Slums, Shymala Hills, Bhopal, Madhya Pradesh 462002, India",https://www.google.co.kr/maps/place/Body+power+gym/data=!4m5!3m4!1s0x397c43c1bd373d91:0x22911d1eabd792b5!8m2!3d23.243517!4d77.3931784?authuser=0&hl=en&rclk=1,23.243517,77.3931784,Madhya Pradesh
Bravo2 Gym,Gym,"248, 4, Nehru Nagar, Indore, Madhya Pradesh 452001, India",https://www.google.co.kr/maps/place/Bravo2+Gym/data=!4m5!3m4!1s0x3962fd182660443f:0x858c9e947b9d5e56!8m2!3d22.7379867!4d75.8824541?authuser=0&hl=en&rclk=1,22.7379867,75.8824541,Madhya Pradesh
Vishal Fitness,Gym,"Link Rd 1, 2nd Stop, STT Nagar, Shivaji Nagar, Bhopal, Madhya Pradesh 462003, India",https://www.google.co.kr/maps/place/Vishal+Fitness/data=!4m5!3m4!1s0x397c4292a448aaa7:0x6119c18808ebf09d!8m2!3d23.231111!4d77.4115183?authuser=0&hl=en&rclk=1,23.231111,77.4115183,Madhya Pradesh
Fitness First,Gym,"Raja Amar Singh Rathore Rd, Tikamgarh, Madhya Pradesh 472001, India",https://www.google.co.kr/maps/place/Fitness+First/data=!4m5!3m4!1s0x397845e3d3944827:0x2d72632d0c8b31e2!8m2!3d24.7519986!4d78.8411763?authuser=0&hl=en&rclk=1,24.7519986,78.8411763,Madhya Pradesh
Iconic Fitness,Gym,"NH43, Shivam Colony, Shahdol, Madhya Pradesh 484001, India",https://www.google.co.kr/maps/place/Iconic+Fitness/data=!4m5!3m4!1s0x3986fb2de654d92d:0xe1e4ddd9d258ac6e!8m2!3d23.3086609!4d81.3703553?authuser=0&hl=en&rclk=1,23.3086609,81.3703553,Madhya Pradesh
Carewell Fitness Station,Gym,"Scheme 97, Vip Paraspar Nagar, Indore, Madhya Pradesh 452012, India",https://www.google.co.kr/maps/place/Carewell+Fitness+Station/data=!4m5!3m4!1s0x3962fc3e658e861f:0x88fd8dd0209bd2ca!8m2!3d22.676173!4d75.8257624?authuser=0&hl=en&rclk=1,22.676173,75.8257624,Madhya Pradesh
A-ONE GYM & FITNESS CENTER GIRLS & BOYS,Gym,"3rd floor Lala ji tower c-sector, JK Rd, near Bima Kunj, Kolar Rd, Bhopal, Madhya Pradesh 462042, India",https://www.google.co.kr/maps/place/A-ONE+GYM+%26+FITNESS+CENTER+GIRLS+%26+BOYS/data=!4m5!3m4!1s0x397c439f223287df:0x4147217688f2e021!8m2!3d23.1794826!4d77.4186821?authuser=0&hl=en&rclk=1,23.1794826,77.4186821,Madhya Pradesh
Hardcore Gym,Gym,"3122, Gopur Square, Sudama Nagar, Indore, Madhya Pradesh 452005, India",https://www.google.co.kr/maps/place/Hardcore+Gym/data=!4m5!3m4!1s0x3962fc386fdec135:0xd5753031921adc85!8m2!3d22.6853597!4d75.8287364?authuser=0&hl=en&rclk=1,22.6853597,75.8287364,Madhya Pradesh
Fitway Gym -Fitness Centres In Jabalpur - Gyms In Jabalpur,Gym,"583, Garha Rd, opp. Kachhpuro Station, Nove Adaresh Colony, Patrakar Colony, Sanjeevani Nagar, Jabalpur, Madhya Pradesh 482003, India",https://www.google.co.kr/maps/place/Fitway+Gym+-Fitness+Centres+In+Jabalpur+-+Gyms+In+Jabalpur/data=!4m5!3m4!1s0x3981b164aff2a537:0xdc84695b7dff6d00!8m2!3d23.1692478!4d79.9174967?authuser=0&hl=en&rclk=1,23.1692478,79.9174967,Madhya Pradesh
Aesthetic fitness bhopal,Fitness center,"G2/115, near Aura Mall, Gulmohar Colony, Bhopal, Madhya Pradesh 462039, India",https://www.google.co.kr/maps/place/Aesthetic+fitness+bhopal/data=!4m5!3m4!1s0x397c43ad515e95a9:0xe5a2f588a2a137ae!8m2!3d23.1903146!4d77.4338092?authuser=0&hl=en&rclk=1,23.1903146,77.4338092,Madhya Pradesh
Paliwal gym,Gym,"38 jun√† tukoganj opposite rambagh petrol pump, Indore, Madhya Pradesh 452001, India",https://www.google.co.kr/maps/place/Paliwal+gym/data=!4m5!3m4!1s0x3962fd0b41ed8407:0x76a4f4d84eacf937!8m2!3d22.7219106!4d75.8579075?authuser=0&hl=en&rclk=1,22.7219106,75.8579075,Madhya Pradesh
Balaji Fitness,Gym,"452001, 61, Bholaram Ustad Marg, Sector A, Sarvanand Nagar, Nanak Palace, Indore, Madhya Pradesh 452014, India",https://www.google.co.kr/maps/place/Balaji+Fitness/data=!4m5!3m4!1s0x3962fcf214f2e89d:0xdd5e5933a003a460!8m2!3d22.6858179!4d75.8632835?authuser=0&hl=en&rclk=1,22.6858179,75.8632835,Madhya Pradesh
Asia's Gym,Gym,"Near samdariya mall, Awadhpuri, Marhatal, Jabalpur, Madhya Pradesh 482002, India",https://www.google.co.kr/maps/place/Asia's+Gym/data=!4m5!3m4!1s0x3981afad112dd7e9:0x6bc6bd960226c946!8m2!3d23.166687!4d79.9331433?authuser=0&hl=en&rclk=1,23.166687,79.9331433,Madhya Pradesh
Ozone Fitness World Gym (THE OLD GYM),Gym,"in front of Durga Mandir, Chandbarh, Jahangirabad, Bhopal, Madhya Pradesh 462010, India",https://www.google.co.kr/maps/place/Ozone+Fitness+World+Gym+(THE+OLD+GYM)/data=!4m5!3m4!1s0x397c68326c946fcb:0x2a19a1e8de1cc95!8m2!3d23.2507768!4d77.4211633?authuser=0&hl=en&rclk=1,23.2507768,77.4211633,Madhya Pradesh
Bold and Vogue,Fitness center,"57 Chunabhatti, in front of indian oil petrol pump, Bhopal, India-462016, Madhya Pradesh 462016, India",https://www.google.co.kr/maps/place/Bold+and+Vogue/data=!4m5!3m4!1s0x397c43c8627ee437:0x1c58c662875c8f0e!8m2!3d23.2028293!4d77.4169492?authuser=0&hl=en&rclk=1,23.2028293,77.4169492,Madhya Pradesh
Indian fitness,Gym,"MF35+6CC, Panchsheel Nagar, Datia, Madhya Pradesh 475661, India",https://www.google.co.kr/maps/place/Indian+fitness/data=!4m5!3m4!1s0x3977135e2a794b05:0x60364bbf5f0f2580!8m2!3d25.6530727!4d78.4585304?authuser=0&hl=en&rclk=1,25.6530727,78.4585304,Madhya Pradesh
Bodyzone gym,Gym,"Gayatri Mandir road Nagar palika park ke samne, Madhya Pradesh 471001, India",https://www.google.co.kr/maps/place/Bodyzone+gym/data=!4m5!3m4!1s0x398297206444fa6f:0xc98ebfb3e397ad5e!8m2!3d24.9179385!4d79.5843714?authuser=0&hl=en&rclk=1,24.9179385,79.5843714,Madhya Pradesh
AD Fitness Studio,Fitness center,"2nd floor Rajeev plaza Hall No 8 & 9 Lashkar, Jayendraganj, Gwalior, Madhya Pradesh 474009, India",https://www.google.co.kr/maps/place/AD+Fitness+Studio/data=!4m5!3m4!1s0x3976c42e9b45c90f:0xa53ef5a3dfcdbacc!8m2!3d26.2034735!4d78.1625417?authuser=0&hl=en&rclk=1,26.2034735,78.1625417,Madhya Pradesh
Fitness affair Gym,Gym,"Main road baktara Panchvati tower, Baktara, Madhya Pradesh 466448, India",https://www.google.co.kr/maps/place/Fitness+affair+Gym/data=!4m5!3m4!1s0x397e7f2a7533b7ad:0x2b46b47b607beaf2!8m2!3d22.9013171!4d78.0108764?authuser=0&hl=en&rclk=1,22.9013171,78.0108764,Madhya Pradesh
Nimar Gym,Gym,"RJH8+545, Jawahar Nagar, Khargone, Madhya Pradesh 451001, India",https://www.google.co.kr/maps/place/Nimar+Gym/data=!4m5!3m4!1s0x3bd885d75678583d:0xdd5e707a75cc65de!8m2!3d21.827879!4d75.6153613?authuser=0&hl=en&rclk=1,21.827879,75.6153613,Madhya Pradesh
Fitness Point Gym,Gym,"66FG+G2V, Morar, Gwalior, Madhya Pradesh 474006, India",https://www.google.co.kr/maps/place/Fitness+Point+Gym/data=!4m5!3m4!1s0x3976c16760fca485:0xc26cce56fe8ba965!8m2!3d26.2238698!4d78.2250476?authuser=0&hl=en&rclk=1,26.2238698,78.2250476,Madhya Pradesh
HARDCORE LIFE FITNESS,Gym,"28. 28/a ghatkrparg marg, Freeganj, Ujjain, Madhya Pradesh 456010, India",https://www.google.co.kr/maps/place/HARDCORE+LIFE+FITNESS/data=!4m5!3m4!1s0x396375e1abf58f81:0xcfd419f77f550246!8m2!3d23.1778247!4d75.7925182?authuser=0&hl=en&rclk=1,23.1778247,75.7925182,Madhya Pradesh
Rudra fitness Noxon nutrition,Gym,"Infront of capital mall, Misrod, Bhopal, Madhya Pradesh 462026, India",https://www.google.co.kr/maps/place/Rudra+fitness+Noxon+nutrition/data=!4m5!3m4!1s0x397c45f3bc3178b7:0xf0bba6bbd025be45!8m2!3d23.1632753!4d77.4677975?authuser=0&hl=en&rclk=1,23.1632753,77.4677975,Madhya Pradesh
Deepesh Health Center Gym,Gym,"Gorakhpur Rd, Gorakhpur, Jabalpur, Madhya Pradesh 482001, India",https://www.google.co.kr/maps/place/Deepesh+Health+Center+Gym/data=!4m5!3m4!1s0x3981ade287db5a1f:0xa53bc13d07ddd5dc!8m2!3d23.1538025!4d79.9331506?authuser=0&hl=en&rclk=1,23.1538025,79.9331506,Madhya Pradesh
RED Gym,Gym,"Near Leeladhar Mandi Marg, Ganj Basoda Near gas agency pichla mandi gate, Ganj Basoda, Madhya Pradesh 464221, India",https://www.google.co.kr/maps/place/RED+Gym/data=!4m5!3m4!1s0x397957efc38cbbd9:0xf8b30d70f07c2176!8m2!3d23.8450282!4d77.9415321?authuser=0&hl=en&rclk=1,23.8450282,77.9415321,Madhya Pradesh
Vishal Fitness Planet,Fitness center,"JK Rd, Narela Shankri, Minal Residency, Bhopal, Madhya Pradesh 462022, India",https://www.google.co.kr/maps/place/Vishal+Fitness+Planet/data=!4m5!3m4!1s0x397c69e2846dc74f:0x21f91bda79e8ae6a!8m2!3d23.2720053!4d77.4595943?authuser=0&hl=en&rclk=1,23.2720053,77.4595943,Madhya Pradesh
Smart Gym Sagar,Gym,"First Floor, Next to Vidhyasagar Shopping Centre Opposite Gate Number 2, Bundelkhand Medical College Dwarika Garden, Tilli, Sagar, Madhya Pradesh 470001, India",https://www.google.co.kr/maps/place/Smart+Gym+Sagar/data=!4m5!3m4!1s0x3978d38a3fd989fb:0xf0dd32485a1c93d9!8m2!3d23.8187048!4d78.754531?authuser=0&hl=en&rclk=1,23.8187048,78.754531,Madhya Pradesh
Royal Fitness gym,Gym,"Satya niwas parisar ekta chowk, Gangasagar Rd, Garha, Jabalpur, Madhya Pradesh 482003, India",https://www.google.co.kr/maps/place/Royal+Fitness+gym/data=!4m5!3m4!1s0x3981b19c7b811873:0xf1db813c1b9ceec8!8m2!3d23.1601378!4d79.9098492?authuser=0&hl=en&rclk=1,23.1601378,79.9098492,Madhya Pradesh
Golds Gym,Gym,"5XJP+HHM, Central Ordinance Depot Area, Jabalpur, Madhya Pradesh 482001, India",https://www.google.co.kr/maps/place/Golds+Gym/data=!4m5!3m4!1s0x3981afdca4eb4b57:0xdcfaa4fabdf067b5!8m2!3d23.181467!4d79.9864071?authuser=0&hl=en&rclk=1,23.181467,79.9864071,Madhya Pradesh
Fitness Villa,Gym,"Panna Naka, Umri, Virat Nagar, Majhbogawan, Madhya Pradesh 485001, India",https://www.google.co.kr/maps/place/Fitness+Villa/data=!4m5!3m4!1s0x39847f7d85723a85:0x9803a084a4f816a0!8m2!3d24.5758996!4d80.8148804?authuser=0&hl=en&rclk=1,24.5758996,80.8148804,Madhya Pradesh
Fitness Fuel Gym,Gym,"9 silver sky building opposite sethi gate, Ranjeet Hanuman Rd, Indore, Madhya Pradesh 452009, India",https://www.google.co.kr/maps/place/Fitness+Fuel+Gym/data=!4m5!3m4!1s0x3962fc4ac71e60cd:0xb11cd7ba276fc618!8m2!3d22.6968375!4d75.831778?authuser=0&hl=en&rclk=1,22.6968375,75.831778,Madhya Pradesh
FIT FOR LIFE GYM,Gym,"HR7J+3H3, Bajaraha Tola, Ganpat Marg, Nazirabad, Satna, Madhya Pradesh 485001, India",https://www.google.co.kr/maps/place/FIT+FOR+LIFE+GYM/data=!4m5!3m4!1s0x39847f9c061470c5:0x679780855ff6fc9!8m2!3d24.5626414!4d80.8314364?authuser=0&hl=en&rclk=1,24.5626414,80.8314364,Madhya Pradesh
Karate-do academy of India (jabalpur),Fitness center,"744, Bajrang Nagar, Karmeta, Jabalpur, Madhya Pradesh 482002, India",https://www.google.co.kr/maps/place/Karate-do+academy+of+India+(jabalpur)/data=!4m5!3m4!1s0x3981b1dda152019d:0x8cc89c12e6d7ab6b!8m2!3d23.204038!4d79.903521?authuser=0&hl=en&rclk=1,23.204038,79.903521,Madhya Pradesh
AR FITNESS,Fitness center,"AR fitness Front in Bindra villa, Suraj Ganj, Itarsi, Madhya Pradesh 461111, India",https://www.google.co.kr/maps/place/AR+FITNESS/data=!4m5!3m4!1s0x397ddca3ed7a41b9:0x1c7e275948b34b6e!8m2!3d22.6210145!4d77.7666649?authuser=0&hl=en&rclk=1,22.6210145,77.7666649,Madhya Pradesh
OM SAI GYM,Gym,"infront of life care nursig home, Janta College Rd, Anantpur, Arun Nagar, Rewa, Madhya Pradesh 486001, India",https://www.google.co.kr/maps/place/OM+SAI+GYM/data=!4m5!3m4!1s0x39845978fcf306e3:0x8b98b46330466b24!8m2!3d24.5594562!4d81.327391?authuser=0&hl=en&rclk=1,24.5594562,81.327391,Madhya Pradesh
The Pro Gym,Gym,"Bus stand, H no 707, near Jama Masjid Gandhinagar, Gandhi Nagar, Bhopal, Madhya Pradesh 462036, India",https://www.google.co.kr/maps/place/The+Pro+Gym/data=!4m5!3m4!1s0x397c664d87ddc7b5:0xaebdbe86ff09fad8!8m2!3d23.298297!4d77.344026?authuser=0&hl=en&rclk=1,23.298297,77.344026,Madhya Pradesh
Fitness planet gym,Gym,"Laxmi Narayan Mandir Gali, Ganj Basoda, Madhya Pradesh 464221, India",https://www.google.co.kr/maps/place/Fitness+planet+gym/data=!4m5!3m4!1s0x3979594480ae950f:0x18a0b955824ba103!8m2!3d23.857872!4d77.942009?authuser=0&hl=en&rclk=1,23.857872,77.942009,Madhya Pradesh
Abhijay The Fitness Rehab,Gym,"Aashima Mall, Hoshangabad Rd, Bhopal, Madhya Pradesh 462026, India",https://www.google.co.kr/maps/place/Abhijay+The+Fitness+Rehab/data=!4m5!3m4!1s0x397c43e8e4a7543f:0x51200200ca4092ec!8m2!3d23.1834767!4d77.4567275?authuser=0&hl=en&rclk=1,23.1834767,77.4567275,Madhya Pradesh
Xtreme fitness gym,Gym,"2nd,3rd floor madan tower, Inderganj Chauraha, near allahbad bank, chouraya, Gwalior, Madhya Pradesh 474001, India",https://www.google.co.kr/maps/place/Xtreme+fitness+gym/data=!4m5!3m4!1s0x3976c42e09c483d7:0x3a3f59a77f8665b3!8m2!3d26.2005937!4d78.1621405?authuser=0&hl=en&rclk=1,26.2005937,78.1621405,Madhya Pradesh
Calorie Gym,Fitness center,"104/2/2, Bhagirath Kripa, Bicholi Hapsi Rd, Prakarti colony, Indore, Madhya Pradesh 452016, India",https://www.google.co.kr/maps/place/Calorie+Gym/data=!4m5!3m4!1s0x3962e2db408b7561:0xccde98319e0ad9e0!8m2!3d22.715139!4d75.926339?authuser=0&hl=en&rclk=1,22.715139,75.926339,Madhya Pradesh
Fitness Yard - Gym/Fitness Center/Crossfit,Fitness center,"1st floor, C21 Business Park Radisson Square, Madhya Pradesh 452010, India",https://www.google.co.kr/maps/place/Fitness+Yard+-+Gym%2FFitness+Center%2FCrossfit/data=!4m5!3m4!1s0x3962e3fac4415d4b:0xbd92a774b5ee28a9!8m2!3d22.7496787!4d75.9051228?authuser=0&hl=en&rclk=1,22.7496787,75.9051228,Madhya Pradesh
Amit Fitness center,Gym,"GRFJ+77M, Umaria, Madhya Pradesh 484661, India",https://www.google.co.kr/maps/place/Amit+Fitness+center/data=!4m5!3m4!1s0x3986b569dd5be043:0x4f235fb0eace694b!8m2!3d23.52321!4d80.8306576?authuser=0&hl=en&rclk=1,23.52321,80.8306576,Madhya Pradesh
Indian fitness gym,Gym,"‡§π‡§æ‡§â‡§∏‡§ø‡§Ç‡§ó ‡§ï‡•â‡§≤‡•ã‡§®‡•Ä (A) | Housing Colony (A, Gas Quarters, Karond, Bhopal, Madhya Pradesh 462038, India",https://www.google.co.kr/maps/place/Indian+fitness+gym/data=!4m5!3m4!1s0x397c691608aa22a9:0x69baf1b5a9917dc4!8m2!3d23.295792!4d77.4040407?authuser=0&hl=en&rclk=1,23.295792,77.4040407,Madhya Pradesh
Joggers Gym,Gym,"10/82, Sadar Bazar, Mathkari Colony, Choudhary Mohalla, Guna, Madhya Pradesh 473001, India",https://www.google.co.kr/maps/place/Joggers+Gym/data=!4m5!3m4!1s0x397a5bf514fa3fe9:0x187992fefba77667!8m2!3d24.6481718!4d77.3064824?authuser=0&hl=en&rclk=1,24.6481718,77.3064824,Madhya Pradesh
GS Fitness,Gym,"Main road khiriya, Haripura, Vidisha, Madhya Pradesh 464001, India",https://www.google.co.kr/maps/place/GS+Fitness/data=!4m5!3m4!1s0x397c05151ff320ab:0x7c625b410523daa!8m2!3d23.5099607!4d77.8043138?authuser=0&hl=en&rclk=1,23.5099607,77.8043138,Madhya Pradesh
My Fitness Planet üí™,Gym,"977W+7F3, Taraisewaniya, Madhya Pradesh 462030, India",https://www.google.co.kr/maps/place/My+Fitness+Planet+%F0%9F%92%AA/data=!4m5!3m4!1s0x397c65595112a483:0xc8caa8e4496d2473!8m2!3d23.3631319!4d77.2961723?authuser=0&hl=en&rclk=1,23.3631319,77.2961723,Madhya Pradesh
always21 fitness studio barwani,Gym,"Unnamed Road, Barwani, Madhya Pradesh 451551, India",https://www.google.co.kr/maps/place/always21+fitness+studio+barwani/data=!4m5!3m4!1s0x3961f9f173a51769:0x6ebdf689ea77d6df!8m2!3d22.0356605!4d74.8980531?authuser=0&hl=en&rclk=1,22.0356605,74.8980531,Madhya Pradesh
A. R Fitness Center,Gym,"633R+HF6, Englishpura, Sehore, Madhya Pradesh 466001, India",https://www.google.co.kr/maps/place/A.+R+Fitness+Center/data=!4m5!3m4!1s0x397cf35d54f17619:0x5318741cbd6f20ed!8m2!3d23.2039197!4d77.0911271?authuser=0&hl=en&rclk=1,23.2039197,77.0911271,Madhya Pradesh
The Royal Gym,Gym,"A-4, Jhansi Rd, near SBI Bank, Rameshwar Colony, Chetakpuri, Vijaynagar, Gwalior, Madhya Pradesh 474009, India",https://www.google.co.kr/maps/place/The+Royal+Gym/data=!4m5!3m4!1s0x3976c43d219e8aef:0x105d79e2ee7076fe!8m2!3d26.1995079!4d78.176678?authuser=0&hl=en&rclk=1,26.1995079,78.176678,Madhya Pradesh
POWER FITNESS GYM,Gym,"Art Degree College, in front of, gaiharanala, Satna, Madhya Pradesh 485001, India",https://www.google.co.kr/maps/place/POWER+FITNESS+GYM/data=!4m5!3m4!1s0x39847fa10a54a68b:0xd212660b0dbac2d9!8m2!3d24.5707988!4d80.8638613?authuser=0&hl=en&rclk=1,24.5707988,80.8638613,Madhya Pradesh
Leo gym,Gym,"RPQQ+G4F, Moti Nagar, Sagar, Madhya Pradesh 470002, India",https://www.google.co.kr/maps/place/Leo+gym/data=!4m5!3m4!1s0x3978d7a52b32d1b9:0x7ad8fabcac99b796!8m2!3d23.838805!4d78.7378068?authuser=0&hl=en&rclk=1,23.838805,78.7378068,Madhya Pradesh
Dawal Fitness Point,Gym,"399, Alankar Square, Old Town, Gomti Nagar, Dewas, Madhya Pradesh 455001, India",https://www.google.co.kr/maps/place/Dawal+Fitness+Point/data=!4m5!3m4!1s0x39631798ab3ead57:0xf2c50f4492b475cd!8m2!3d22.9650837!4d76.0538475?authuser=0&hl=en&rclk=1,22.9650837,76.0538475,Madhya Pradesh
Royal fitness gym & yoga centrer,Gym,"Shivprasad Dube Rd, Gulab Nagar, Chhatrapati Nagar, Rathra, Madhya Pradesh 486003, India",https://www.google.co.kr/maps/place/Royal+fitness+gym+%26+yoga+centrer/data=!4m5!3m4!1s0x39845b33ce01af93:0xf389eb56fc2387ab!8m2!3d24.5434787!4d81.3317751?authuser=0&hl=en&rclk=1,24.5434787,81.3317751,Madhya Pradesh
Black Beast Fitness,Gym,"Vaishali Nagar, Vidisha, Madhya Pradesh 464001, India",https://www.google.co.kr/maps/place/Black+Beast+Fitness/data=!4m5!3m4!1s0x397c05a326e265db:0x64d1f8afe2a85c35!8m2!3d23.532308!4d77.8094452?authuser=0&hl=en&rclk=1,23.532308,77.8094452,Madhya Pradesh
WARRIOR FITNESS,Fitness center,"Sainath Garden Hall, Lalbagh Rd, Burhanpur, Madhya Pradesh 450331, India",https://www.google.co.kr/maps/place/WARRIOR+FITNESS/data=!4m5!3m4!1s0x3bd8330f87c0e1dd:0xdf6e0b7c4930a136!8m2!3d21.321488!4d76.2130409?authuser=0&hl=en&rclk=1,21.321488,76.2130409,Madhya Pradesh
Accelerate fitness,Gym,"126b, Annapurna Rd, Usha Nagar, Sudama Nagar, Indore, Madhya Pradesh 452009, India",https://www.google.co.kr/maps/place/Accelerate+fitness/data=!4m5!3m4!1s0x3962fd9ec53dad9d:0x31e81cc8e9f8d687!8m2!3d22.6974814!4d75.8394213?authuser=0&hl=en&rclk=1,22.6974814,75.8394213,Madhya Pradesh
Roar regiment fitness gym,Gym,"Roar regiment fitness gym front of bethal school, Hoshangabad - Harda Rd, road, Seoni Malwa, Madhya Pradesh 461223, India",https://www.google.co.kr/maps/place/Roar+regiment+fitness+gym/data=!4m5!3m4!1s0x397d970cc6cd6ce7:0xe8aeed799bfd4613!8m2!3d22.4534587!4d77.4696556?authuser=0&hl=en&rclk=1,22.4534587,77.4696556,Madhya Pradesh
Sharma fitness center sfc the gym,Fitness center,"In front of Gov.t Girls School, behind Sharma Printing Press, Ward no 07, New Colony, Budhni, Madhya Pradesh 466445, India",https://www.google.co.kr/maps/place/Sharma+fitness+center+sfc+the+gym/data=!4m5!3m4!1s0x397dcff92c6133dd:0xa337fb4f0a0cca7a!8m2!3d22.7808795!4d77.6826926?authuser=0&hl=en&rclk=1,22.7808795,77.6826926,Madhya Pradesh
B.R.C.,Gym,"WW56+HFR, Vivekanand Ward, Ganj, Betul, Madhya Pradesh 460001, India",https://www.google.co.kr/maps/place/B.R.C./data=!4m5!3m4!1s0x3bd609e9ff090901:0x70390735fb015638!8m2!3d21.9089951!4d77.9111509?authuser=0&hl=en&rclk=1,21.9089951,77.9111509,Madhya Pradesh
JB FITNESS HUB THE GYM,Gym,"Singhal Medical Store, Bhitarwar, Madhya Pradesh 475220, India",https://www.google.co.kr/maps/place/JB+FITNESS+HUB+THE+GYM/data=!4m5!3m4!1s0x39772518be60d111:0xeb1e719089b26657!8m2!3d25.7999752!4d78.1166877?authuser=0&hl=en&rclk=1,25.7999752,78.1166877,Madhya Pradesh
Boxing Taekwondo Karate Centre,Fitness center,"College Ground, search, Chanakyapuri, Sehore, Madhya Pradesh 466001, India",https://www.google.co.kr/maps/place/Boxing+Taekwondo+Karate+Centre/data=!4m5!3m4!1s0x397cf36749555555:0x474b9942a260519d!8m2!3d23.2030116!4d77.096376?authuser=0&hl=en&rclk=1,23.2030116,77.096376,Madhya Pradesh
pumping iron gym,Gymnastics center,"1691, VIP Road, Khanugaon, Bhopal, Madhya Pradesh 462030, India",https://www.google.co.kr/maps/place/pumping+iron+gym/data=!4m5!3m4!1s0x397c67fab83ec877:0xb53e241884d0d6d4!8m2!3d23.2607266!4d77.3682225?authuser=0&hl=en&rclk=1,23.2607266,77.3682225,Madhya Pradesh
Royal Gym,Gym,"Pandhurna, Madhya Pradesh 480334, India",https://www.google.co.kr/maps/place/Royal+Gym/data=!4m5!3m4!1s0x3bd5ae56322b3e89:0xb780a6bf3a8c35e8!8m2!3d21.5922276!4d78.5197672?authuser=0&hl=en&rclk=1,21.5922276,78.5197672,Madhya Pradesh
Fitness 365 Degree,Gym,"798H+9VR, Near Koh E Fiza Hospital, Kohefiza, Bhopal, Madhya Pradesh 462030, India",https://www.google.co.kr/maps/place/Fitness+365+Degree/data=!4m5!3m4!1s0x397c6809c84b1d8f:0x4ca211382bc76587!8m2!3d23.2659789!4d77.379648?authuser=0&hl=en&rclk=1,23.2659789,77.379648,Madhya Pradesh
Power Gym,Gym,"Mandla, Madhya Pradesh 481661, India",https://www.google.co.kr/maps/place/Power+Gym/data=!4m5!3m4!1s0x398096b2c3150fdd:0x1f4577fd42a4a7ba!8m2!3d22.6017068!4d80.3670042?authuser=0&hl=en&rclk=1,22.6017068,80.3670042,Madhya Pradesh
Build Up Fitness Gym,Fitness center,"No Plot No 11, Shop, 113, Ayodhya Bypass Rd, Nerila Shankari, Bhopal, Madhya Pradesh 462041, India",https://www.google.co.kr/maps/place/Build+Up+Fitness+Gym/data=!4m5!3m4!1s0x397c69d423956287:0x24b62021a079ac55!8m2!3d23.2710543!4d77.4675969?authuser=0&hl=en&rclk=1,23.2710543,77.4675969,Madhya Pradesh
fun fitness,Fitness center,"145 Patel Bawan, Shahpura, Bhopal, Madhya Pradesh 462016, India",https://www.google.co.kr/maps/place/fun+fitness/data=!4m5!3m4!1s0x397c434767980f25:0x16844ff7adaaf744!8m2!3d23.1977765!4d77.4310926?authuser=0&hl=en&rclk=1,23.1977765,77.4310926,Madhya Pradesh
YTG - Your Town's Gym,Gymnasium Cz,"YTG 1 Floor, Shiv Gauri plaza, Opp. Mukherji Market, AB Rd, Indore, Madhya Pradesh 453331, India",https://www.google.co.kr/maps/place/YTG+-+Your+Town's+Gym/data=!4m5!3m4!1s0x3962fbfae284e4bf:0xc297e5b1f996983b!8m2!3d22.6401056!4d75.8156348?authuser=0&hl=en&rclk=1,22.6401056,75.8156348,Madhya Pradesh
World Wide Gym Ladies Fitness Center,Gym,"water supply road, Chandangaon, Chhindwara, Madhya Pradesh 480001, India",https://www.google.co.kr/maps/place/World+Wide+Gym+Ladies+Fitness+Center/data=!4m5!3m4!1s0x3bd569a9744a6411:0x7d4478bd08317b7b!8m2!3d22.0346036!4d78.9311085?authuser=0&hl=en&rclk=1,22.0346036,78.9311085,Madhya Pradesh
Ceragem Health Care Narsinghpur,Gym,"housing board colony, near bhau ki dukan k baju m, Madhya Pradesh, India",https://www.google.co.kr/maps/place/Ceragem+Health+Care+Narsinghpur/data=!4m5!3m4!1s0x397f9d4259ee625f:0xe6305220d4ea79a2!8m2!3d22.95281!4d79.1903279?authuser=0&hl=en&rclk=1,22.95281,79.1903279,Madhya Pradesh
Indira Gandhi Gym,Boxing gym,"3W2M+45Q, Sanchar Colony, Chhindwara, Madhya Pradesh 480001, India",https://www.google.co.kr/maps/place/Indira+Gandhi+Gym/data=!4m5!3m4!1s0x3bd568aa47749b83:0xa78a4372fd42a126!8m2!3d22.0503497!4d78.9329863?authuser=0&hl=en&rclk=1,22.0503497,78.9329863,Madhya Pradesh
Kumbhare Gym,Gym,"near Gulauwa Chowk, Ranipur, Jabalpur, Madhya Pradesh 482001, India",https://www.google.co.kr/maps/place/Kumbhare+Gym/data=!4m5!3m4!1s0x3981b1faaab733e1:0x17443527b9b1d2c!8m2!3d23.1646294!4d79.9081426?authuser=0&hl=en&rclk=1,23.1646294,79.9081426,Madhya Pradesh
Armstrong Gym & Nutrition,Gym,"MP SH 19, Satnoor, Madhya Pradesh 480337, India",https://www.google.co.kr/maps/place/Armstrong+Gym+%26+Nutrition/data=!4m5!3m4!1s0x3bd51d9909c5736b:0x31b908b19fe2984e!8m2!3d21.5045411!4d78.8515451?authuser=0&hl=en&rclk=1,21.5045411,78.8515451,Madhya Pradesh
Jb fitness,Gym,"Anjad, Madhya Pradesh 451556, India",https://www.google.co.kr/maps/place/Jb+fitness/data=!4m5!3m4!1s0x396203913c64268f:0xa2b24c1f391abb99!8m2!3d22.043094!4d75.0538136?authuser=0&hl=en&rclk=1,22.043094,75.0538136,Madhya Pradesh
SR Thakur Gymnasium,Gym,"20b, 1, Airport Rd, Anjani Nagar, Parihar Market, Sukhdev Nagar, Indore, Madhya Pradesh 452006, India",https://www.google.co.kr/maps/place/SR+Thakur+Gymnasium/data=!4m5!3m4!1s0x3962fdebe61a9d33:0xd9284864f74503ec!8m2!3d22.7251866!4d75.8249699?authuser=0&hl=en&rclk=1,22.7251866,75.8249699,Madhya Pradesh
Talwalkars Better Value Fitness Limited,Gym,"Bus Stand, Panchratna Towers, 2nd Floor, 1700 Model Road, Above Axis Bank Near, Jabalpur, 482002, India",https://www.google.co.kr/maps/place/Talwalkars+Better+Value+Fitness+Limited/data=!4m5!3m4!1s0x3981ae0f7c604115:0xc12b18adacff2b51!8m2!3d23.1626352!4d79.9307338?authuser=0&hl=en&rclk=1,23.1626352,79.9307338,Madhya Pradesh
Nirvana Gym The Fitness Studio,Gym,"Nirmal Palace Rd, Nirmal Place, Soumya Vihar-I, Awadhpuri, Bhopal, Madhya Pradesh 462021, India",https://www.google.co.kr/maps/place/Nirvana+Gym+The+Fitness+Studio/data=!4m5!3m4!1s0x397c41966752f949:0xa3bd5a560f899d07!8m2!3d23.2290376!4d77.4906412?authuser=0&hl=en&rclk=1,23.2290376,77.4906412,Madhya Pradesh
Tanu Zumba Classes,Fitness center,"Aadharshila, 253, Awadhpuri, Bhopal, Madhya Pradesh 462022, India",https://www.google.co.kr/maps/place/Tanu+Zumba+Classes/data=!4m5!3m4!1s0x397c419a3aa336d3:0xdf0ba13b28da10a2!8m2!3d23.221163!4d77.4856668?authuser=0&hl=en&rclk=1,23.221163,77.4856668,Madhya Pradesh
Xtreme Fitness Gym,Gym,"Kanchanpur, Jabalpur, Madhya Pradesh 482004, India",https://www.google.co.kr/maps/place/Xtreme+Fitness+Gym/data=!4m5!3m4!1s0x3981af3dc51615fb:0x4e0cc8a42b7c47c0!8m2!3d23.2027302!4d79.969641?authuser=0&hl=en&rclk=1,23.2027302,79.969641,Madhya Pradesh
Ironman Gym,Fitness center,"118 Ashoka Estate, Beside Apsara Talkies, Raisen Road, Bhopal, Madhya Pradesh 462023, India",https://www.google.co.kr/maps/place/Ironman+Gym/data=!4m5!3m4!1s0x397c420ada28f051:0xe91966c52802a073!8m2!3d23.2520015!4d77.4360041?authuser=0&hl=en&rclk=1,23.2520015,77.4360041,Madhya Pradesh
CHOICE FITNESS GYM,Gym,"Sajjan Rd, near IN UCO BANK, Teacher Colony, Jhabua, Madhya Pradesh 457661, India",https://www.google.co.kr/maps/place/CHOICE+FITNESS+GYM/data=!4m5!3m4!1s0x39610dca485fc639:0x82aad009a3f3fc53!8m2!3d22.7726617!4d74.5878872?authuser=0&hl=en&rclk=1,22.7726617,74.5878872,Madhya Pradesh
Dwarka Dham Fitness Center,Gym,"894J+C55, Dwarka Dham Colony, Abbas Nagar, Gandhi Nagar, Bhopal, Madhya Pradesh 462038, India",https://www.google.co.kr/maps/place/Dwarka+Dham+Fitness+Center/data=!4m5!3m4!1s0x397c69a1871ce04d:0x4440dde494c5cc12!8m2!3d23.3060029!4d77.380494?authuser=0&hl=en&rclk=1,23.3060029,77.380494,Madhya Pradesh
Classic Sports academy,Fitness center,"near sbi Bank building, Tamia, Madhya Pradesh 480559, India",https://www.google.co.kr/maps/place/Classic+Sports+academy/data=!4m5!3m4!1s0x397fd302c5589b8f:0xa4da0feac1f9bfa5!8m2!3d22.3434884!4d78.6672985?authuser=0&hl=en&rclk=1,22.3434884,78.6672985,Madhya Pradesh
bharti center,Gym,"78GR+7GC, Pooja Shree Nagar, Bairagarh, Bhopal, Madhya Pradesh 462030, India",https://www.google.co.kr/maps/place/bharti+center/data=!4m5!3m4!1s0x397c67a3744a2111:0xc032130869a69d2e!8m2!3d23.2756953!4d77.3412579?authuser=0&hl=en&rclk=1,23.2756953,77.3412579,Madhya Pradesh
Aaryan fitness Gym,Gym,"Unnamed Road, New Indira Colony, Mohammadpura, Madhya Pradesh 450331, India",https://www.google.co.kr/maps/place/Aaryan+fitness+Gym/data=!4m5!3m4!1s0x3bd833486a29d15d:0xdf6df01fd6da4c71!8m2!3d21.313284!4d76.2090225?authuser=0&hl=en&rclk=1,21.313284,76.2090225,Madhya Pradesh
Su-Priya Fitness Centre,Gym,"Vimalsheel Height, Labour Chowk, Jabalpur, Madhya Pradesh 482002, India",https://www.google.co.kr/maps/place/Su-Priya+Fitness+Centre/data=!4m5!3m4!1s0x3981b1e45fdfc133:0x3f3aef7cfd712720!8m2!3d23.167948!4d79.9122795?authuser=0&hl=en&rclk=1,23.167948,79.9122795,Madhya Pradesh
Peak Physique,Fitness center,"301, Gold Stone Multi, Above Divine Jewellers,, New Palasia, Indore, Madhya Pradesh 452001, India",https://www.google.co.kr/maps/place/Peak+Physique/data=!4m5!3m4!1s0x3962fd4765eece9f:0xc6e90d25a679317b!8m2!3d22.726512!4d75.884318?authuser=0&hl=en&rclk=1,22.726512,75.884318,Madhya Pradesh
Body Care Gym,Gymnasium Cz,"Mall Rd, Morar, Gwalior, Madhya Pradesh 474006, India",https://www.google.co.kr/maps/place/Body+Care+Gym/data=!4m5!3m4!1s0x3976c1b527d2b0e9:0xb0f811417e045de7!8m2!3d26.222097!4d78.2223475?authuser=0&hl=en&rclk=1,26.222097,78.2223475,Madhya Pradesh
Government gym,Gym,"RC9R+3CR, Shrivastav Colony, Dr. Shyama Prasad Mukharji Nagar, Damoh, Madhya Pradesh 470661, India",https://www.google.co.kr/maps/place/Government+gym/data=!4m5!3m4!1s0x3982019779b37159:0xe68b661a9b055b3b!8m2!3d23.817747!4d79.4410309?authuser=0&hl=en&rclk=1,23.817747,79.4410309,Madhya Pradesh
Fitness Rush Gym,Gym,"Hariraj Theatre, H B, MDR 2, H B Colony, Morena, Madhya Pradesh 476001, India",https://www.google.co.kr/maps/place/Fitness+Rush+Gym/data=!4m5!3m4!1s0x3976ad908c9014cf:0xe98ffeec620ffaeb!8m2!3d26.4904851!4d77.9865952?authuser=0&hl=en&rclk=1,26.4904851,77.9865952,Madhya Pradesh
Makhija fitness center,Gym,"M.E.S. Madhav nagar road, Madhya Pradesh 483501, India",https://www.google.co.kr/maps/place/Makhija+fitness+center/data=!4m5!3m4!1s0x3981618b43c66c3f:0x3d576b38f4c22f18!8m2!3d23.8104076!4d80.3812591?authuser=0&hl=en&rclk=1,23.8104076,80.3812591,Madhya Pradesh
Transformers the gym,Gym,"chauraha, Double Rd, Bahodapur, Anand Nagar, Gwalior, Madhya Pradesh 474008, India",https://www.google.co.kr/maps/place/Transformers+the+gym/data=!4m5!3m4!1s0x3976c7f4ef497111:0x6f1131347c9e5f21!8m2!3d26.2352833!4d78.1509747?authuser=0&hl=en&rclk=1,26.2352833,78.1509747,Madhya Pradesh
Golden gym,Gym,"Jamindar Colony, Bhatrewas, Mandsaur, Madhya Pradesh 458001, India",https://www.google.co.kr/maps/place/Golden+gym/data=!4m5!3m4!1s0x39642d11ef20c137:0xe438ee70411775ba!8m2!3d24.0720648!4d75.0629339?authuser=0&hl=en&rclk=1,24.0720648,75.0629339,Madhya Pradesh
SP Royal Indian Fitness Gym Rampayli,Gym,"M2G5+98M, Rampayli, Madhya Pradesh 481335, India",https://www.google.co.kr/maps/place/SP+Royal+Indian+Fitness+Gym+Rampayli/data=!4m5!3m4!1s0x3a2afb97c2289d5b:0xfa8096db840ce7c8!8m2!3d21.6759748!4d80.0083037?authuser=0&hl=en&rclk=1,21.6759748,80.0083037,Madhya Pradesh
Sai Trans Fitness,Gym,"NH 75, Madhuri Kothar, Madhya Pradesh 486661, India",https://www.google.co.kr/maps/place/Sai+Trans+Fitness/data=!4m5!3m4!1s0x3985bd09fa52c377:0xd54979d5606cfc60!8m2!3d24.4130007!4d81.8607751?authuser=0&hl=en&rclk=1,24.4130007,81.8607751,Madhya Pradesh
APNA PYALA GOSALPUR,Gym,"C328+95J, Gosalpur, Madhya Pradesh 483222, India",https://www.google.co.kr/maps/place/APNA+PYALA+GOSALPUR/data=!4m5!3m4!1s0x3981a19aae3243bb:0x1135ba782b331f3e!8m2!3d23.4009685!4d80.0653884?authuser=0&hl=en&rclk=1,23.4009685,80.0653884,Madhya Pradesh
Shama Campus Viltharia,Gym,"Q953+MV2, Maharana Pratap Ward, Pipariya, Madhya Pradesh 461775, India",https://www.google.co.kr/maps/place/Shama+Campus+Viltharia/data=!4m5!3m4!1s0x397e433394b17de9:0xc65a7bcbd7c8e2a8!8m2!3d22.7591401!4d78.3546535?authuser=0&hl=en&rclk=1,22.7591401,78.3546535,Madhya Pradesh
Lch Fitness,Gym,"2, Scheme No 78 - II, Scheme Number 78, Part II, Vijay Nagar, Indore, Madhya Pradesh 452010, India",https://www.google.co.kr/maps/place/Lch+Fitness/data=!4m5!3m4!1s0x396302afdd0e1d07:0x23f6ddd27a1a8ce3!8m2!3d22.762145!4d75.884324?authuser=0&hl=en&rclk=1,22.762145,75.884324,Madhya Pradesh
Q sports,Gym,"Vinoba Nagar, Kanadia Rd, Savindnagar, Vinoba Nagar, Tilak Nagar, Indore, Madhya Pradesh 452018, India",https://www.google.co.kr/maps/place/Q+sports/data=!4m5!3m4!1s0x3962fd349d4ff03f:0x9660e974339236fe!8m2!3d22.7212713!4d75.8977322?authuser=0&hl=en&rclk=1,22.7212713,75.8977322,Madhya Pradesh
Neeraj,Gym,"Unnamed Road, Barkhera Pathani, Bhopal, Madhya Pradesh 462022, India",https://www.google.co.kr/maps/place/Neeraj/data=!4m5!3m4!1s0x397c416ff04a667b:0x45fbacf1045351db!8m2!3d23.2109824!4d77.4777844?authuser=0&hl=en&rclk=1,23.2109824,77.4777844,Madhya Pradesh
Hunuman Mandir,Gym,"RPQQ+HFV, Moti Nagar, Sagar, Madhya Pradesh 470002, India",https://www.google.co.kr/maps/place/Hunuman+Mandir/data=!4m5!3m4!1s0x3978d7b61a26e5b7:0xb4cb3857071bc4f3!8m2!3d23.839!4d78.738683?authuser=0&hl=en&rclk=1,23.839,78.738683,Madhya Pradesh
Sai Fitness Gym,Gym,"Bazar, near Garha, Garha, Jabalpur, Madhya Pradesh 482003, India",https://www.google.co.kr/maps/place/Sai+Fitness+Gym/data=!4m5!3m4!1s0x3981b164b04a5b27:0x320b8a9f84be5586!8m2!3d23.1588932!4d79.8966656?authuser=0&hl=en&rclk=1,23.1588932,79.8966656,Madhya Pradesh
Rockway fitness factory,Fitness center,"Main Rd, near Rajora farm house, Khajuri Kala, Regal Town, Awadhpuri, Bhopal, Madhya Pradesh 462022, India",https://www.google.co.kr/maps/place/Rockway+fitness+factory/data=!4m5!3m4!1s0x397c416daaf1b69f:0x785a21280b9c67ff!8m2!3d23.2392146!4d77.4949991?authuser=0&hl=en&rclk=1,23.2392146,77.4949991,Madhya Pradesh
Om Farm House,Gym,"Lakha, Dhandiya, Madhya Pradesh, India",https://www.google.co.kr/maps/place/Om+Farm+House/data=!4m5!3m4!1s0x397fa755680b65d1:0xafbd52bb45f2ed3!8m2!3d22.9588623!4d78.9030003?authuser=0&hl=en&rclk=1,22.9588623,78.9030003,Madhya Pradesh
Ceragem,Fitness center,"RQG3+W2H, Gopal Ganj, Sagar, Madhya Pradesh 470001, India",https://www.google.co.kr/maps/place/Ceragem/data=!4m5!3m4!1s0x3978d1c7c9231567:0xdaa14779f80251c6!8m2!3d23.827309!4d78.7526017?authuser=0&hl=en&rclk=1,23.827309,78.7526017,Madhya Pradesh
TOUCH N Heal REIKI Center,Gym,"A,new-37/389,Bus stand road, Bairagarh, Bhopal, Madhya Pradesh 462031, India",https://www.google.co.kr/maps/place/TOUCH+N+Heal+REIKI+Center/data=!4m5!3m4!1s0x397c670400000003:0xec7728eba3581844!8m2!3d23.2873828!4d77.3267558?authuser=0&hl=en&rclk=1,23.2873828,77.3267558,Madhya Pradesh
Pioneer water sport and welfare society,Gym,"Minto Hall Rd, Lower Lake, Jahangirabad, Bhopal, Madhya Pradesh 462008, India",https://www.google.co.kr/maps/place/Pioneer+water+sport+and+welfare+society/data=!4m5!3m4!1s0x397c433e171b484b:0x84df1b9a871f6b7e!8m2!3d23.2456417!4d77.4071745?authuser=0&hl=en&rclk=1,23.2456417,77.4071745,Madhya Pradesh
Arya Samaj Mandir khojanpur,Gym,"QM6X+263, Hoshangabad, Madhya Pradesh 461001, India",https://www.google.co.kr/maps/place/Arya+Samaj+Mandir+khojanpur/data=!4m5!3m4!1s0x397dcf695fd17c63:0xfff565dbb2d27cf5!8m2!3d22.7600077!4d77.6980319?authuser=0&hl=en&rclk=1,22.7600077,77.6980319,Madhya Pradesh
Rhythmic Power Yoga India,Yoga studio,"S 104, 2nd Floor, Yeshwant Plaza, Behind Central Mall, Flim Colony, near Chhoti Gwaltoli, Indore, Madhya Pradesh 452001, India",https://www.google.co.kr/maps/place/Rhythmic+Power+Yoga+India/data=!4m5!3m4!1s0x396302a501d61f99:0x7a6bbf285d7fad8b!8m2!3d22.7186824!4d75.8697143?authuser=0&hl=en&rclk=1,22.7186824,75.8697143,Madhya Pradesh
Gram Panchayat Sipawa,Gym,"RFJ5+5J5, Sipawa, Madhya Pradesh 460663, India",https://www.google.co.kr/maps/place/Gram+Panchayat+Sipawa/data=!4m5!3m4!1s0x3bd5bd3819102c69:0x23091258ee02a68d!8m2!3d21.8303966!4d78.4591238?authuser=0&hl=en&rclk=1,21.8303966,78.4591238,Madhya Pradesh
Fitness Planet Gym,Gymnasium Cz,"Unnamed Road, Talaiya Mohalla, Vidisha, Madhya Pradesh 464001, India",https://www.google.co.kr/maps/place/Fitness+Planet+Gym/data=!4m5!3m4!1s0x397c0526e09c46a5:0x33cc892c04e4865b!8m2!3d23.5276054!4d77.807747?authuser=0&hl=en&rclk=1,23.5276054,77.807747,Madhya Pradesh
Payal Gymnastics Center,Gymnastics center,"RQ93+5V4, Dwarika Garden, Sagar, Madhya Pradesh 470001, India",https://www.google.co.kr/maps/place/Payal+Gymnastics+Center/data=!4m5!3m4!1s0x3978d3fbb8041539:0x765ba9d4243bbb2a!8m2!3d23.8178883!4d78.754717?authuser=0&hl=en&rclk=1,23.8178883,78.754717,Madhya Pradesh
Mangosteen Eco Life Style,¬∑‚Ç©‚Ç©,"31/4, New Palasia, Indore, Madhya Pradesh 452001, India",https://www.google.co.kr/maps/place/Mangosteen+Eco+Life+Style/data=!4m5!3m4!1s0x3962fd476b6d08e1:0xc533cbb888f64533!8m2!3d22.727166!4d75.884177?authuser=0&hl=en&rclk=1,22.727166,75.884177,Madhya Pradesh
CROWN FITNESS GYM,Gymnasium Cz,"VQ2J+5WM, Makroniya, Madhya Pradesh 470001, India",https://www.google.co.kr/maps/place/CROWN+FITNESS+GYM/data=!4m5!3m4!1s0x3978d1bccef48f9d:0x897c67899fbf7b3b!8m2!3d23.8504658!4d78.7822881?authuser=0&hl=en&rclk=1,23.8504658,78.7822881,Madhya Pradesh
City fitness centre,Gym,"Unnamed Road, Bain Bazar, Sikandra, Babarpur Mustkil, Uttar Pradesh 282007, India",https://www.google.co.kr/maps/place/City+fitness+centre/data=!4m5!3m4!1s0x39747816053063ab:0xbd71655b0b510bb6!8m2!3d27.2315529!4d77.9504186?authuser=0&hl=en&rclk=1,27.2315529,77.9504186,Madhya Pradesh
