Company_Name,Category,Address,Url,latitude,longtitude
MSR Fitness Centre,Gym,"Upper Republic, Aizawl, Mizoram 796001, India",https://www.google.co.kr/maps/place/MSR+Fitness+Centre/data=!4m5!3m4!1s0x374d94c74bc9edaf:0x202b320c309a8f09!8m2!3d23.7215319!4d92.7191548?authuser=0&hl=en&rclk=1,23.7215319,92.7191548
Mizoram WeighLifting Academy,Gym,"Ramhlun Sport Complex Rd, Ramhlun Venglai, Chaltlang, Aizawl, Mizoram 796012, India",https://www.google.co.kr/maps/place/Mizoram+WeighLifting+Academy/data=!4m5!3m4!1s0x374deb323f109793:0xddcd37316547a27!8m2!3d23.743949!4d92.7267671?authuser=0&hl=en&rclk=1,23.743949,92.7267671
Electric Veng Gym Club,Gym,"B15-1, Church St, Electric Veng, Aizawl, Mizoram 796007, India",https://www.google.co.kr/maps/place/Electric+Veng+Gym+Club/data=!4m5!3m4!1s0x374d94ca76dc538f:0x97e5fd44ab009ee1!8m2!3d23.7351072!4d92.7184718?authuser=0&hl=en&rclk=1,23.7351072,92.7184718
BHHO The Fitness Club,Gym,"PPR9+FJ9, Chanmari, Aizawl, Mizoram 796007, India",https://www.google.co.kr/maps/place/BHHO+The+Fitness+Club/data=!4m5!3m4!1s0x374deb356909e21b:0xf21df0ec10d15f7b!8m2!3d23.7411604!4d92.7191045?authuser=0&hl=en&rclk=1,23.7411604,92.7191045
Slick Fitness Gym,Gym,"Bungkawn Damveng Rd, Khatla, Bungkawn Veng, Aizawl, Mizoram 796005, India",https://www.google.co.kr/maps/place/Slick+Fitness+Gym/data=!4m5!3m4!1s0x374d94bc5fd5d797:0x782a4666537493d!8m2!3d23.7203004!4d92.7109472?authuser=0&hl=en&rclk=1,23.7203004,92.7109472
Ramhlun Gymn,Gym,"Ramhlun Sport Complex Rd, Ramhlun Vengthar, Aizawl, Mizoram 796012, India",https://www.google.co.kr/maps/place/Ramhlun+Gymn/data=!4m5!3m4!1s0x374deb323b04f41f:0xa96bb0d7e681a72b!8m2!3d23.7444102!4d92.7265348?authuser=0&hl=en&rclk=1,23.7444102,92.7265348
Gym,Gym,"Lunglei, Venglai, Mizoram, India",https://www.google.co.kr/maps/place/Gym/data=!4m5!3m4!1s0x374d41c708c4018d:0x25a03a37318b19a3!8m2!3d22.8908273!4d92.7435267?authuser=0&hl=en&rclk=1,22.8908273,92.7435267
BHHO Fitness centre,Gym,"Chanmari, Aizawl, Mizoram 796007, India",https://www.google.co.kr/maps/place/BHHO+Fitness+centre/data=!4m5!3m4!1s0x374deb3568f5e585:0x1db727ed1952b3ba!8m2!3d23.741166!4d92.7189891?authuser=0&hl=en&rclk=1,23.741166,92.7189891
Undivided fitness centre,Gym,"North, Zemabawk, Aizawl, Mizoram 796017, India",https://www.google.co.kr/maps/place/Undivided+fitness+centre/data=!4m5!3m4!1s0x374debbb69414edb:0xa64fac02abcdfada!8m2!3d23.7405712!4d92.7484784?authuser=0&hl=en&rclk=1,23.7405712,92.7484784
Slick Gym SBFG,Gym,"PPC7+7X8, Khatla, Aizawl, Mizoram 796005, India",https://www.google.co.kr/maps/place/Slick+Gym+SBFG/data=!4m5!3m4!1s0x374d94bec46e8fe1:0x450afc3a0b2a8451!8m2!3d23.72067!4d92.7149541?authuser=0&hl=en&rclk=1,23.72067,92.7149541
Genesis Gym - The Health and Fitness Club,Gym,"PPM7+FWM, Dinthar Veng, Aizawl, Mizoram 796001, India",https://www.google.co.kr/maps/place/Genesis+Gym+-+The+Health+and+Fitness+Club/data=!4m5!3m4!1s0x374d94b420c07cd3:0x2b52f66b6dfbc056!8m2!3d23.7337138!4d92.7147856?authuser=0&hl=en&rclk=1,23.7337138,92.7147856
JSJ FitPro Gym,Gym,"Peter St, Khatla, Aizawl, Mizoram 796001, India",https://www.google.co.kr/maps/place/JSJ+FitPro+Gym/data=!4m5!3m4!1s0x374d94bf7bdcd9b1:0xde585bcc5320e8f3!8m2!3d23.7192451!4d92.7177741?authuser=0&hl=en&rclk=1,23.7192451,92.7177741
Active Gym & Fitness,Gym,"Y-146; 2/A. Siampuii sailo colony, Luangmual Rd, Vengthlang, Aizawl, Mizoram 796009, India",https://www.google.co.kr/maps/place/Active+Gym+%26+Fitness/data=!4m5!3m4!1s0x374deb370132be77:0xe8a2d6c8a18b84a4!8m2!3d23.740118!4d92.700754?authuser=0&hl=en&rclk=1,23.740118,92.700754
Physique,Gym,"Zarkawt Main Rd, Chaltlang, Aizawl, Mizoram 796007, India",https://www.google.co.kr/maps/place/Physique/data=!4m5!3m4!1s0x374d94b53ef3738d:0x15b6e6fce018e312!8m2!3d23.7382585!4d92.7168082?authuser=0&hl=en&rclk=1,23.7382585,92.7168082
Divine Health & Fitness,Gym,"MX96+GQX, Venghlui, Keifang, Mizoram 796261, India",https://www.google.co.kr/maps/place/Divine+Health+%26+Fitness/data=!4m5!3m4!1s0x374db775ed2fe047:0x27807115f3745a64!8m2!3d23.6688577!4d92.9619698?authuser=0&hl=en&rclk=1,23.6688577,92.9619698
Kuku Fitness Hub,Gym,"Lalbuaia Shopping Complex, Zarkawt, Aizawl, Mizoram 796007, India",https://www.google.co.kr/maps/place/Kuku+Fitness+Hub/data=!4m5!3m4!1s0x374d95de2f86d5b7:0x11497ca5d5f03f78!8m2!3d23.7384784!4d92.716721?authuser=0&hl=en&rclk=1,23.7384784,92.716721
venglai gym,Gymnastics center,"VPRV+8F3, Lunglei, Mizoram 796701, India",https://www.google.co.kr/maps/place/venglai+gym/data=!4m5!3m4!1s0x374d40d12f11b1a7:0x519df412b4f715a7!8m2!3d22.8907545!4d92.7436588?authuser=0&hl=en&rclk=1,22.8907545,92.7436588
Reborn Gym,Fitness center,"Bethel Rd, Khatla, Aizawl, Mizoram 796005, India",https://www.google.co.kr/maps/place/Reborn+Gym/data=!4m5!3m4!1s0x374d94bc318c30a3:0x5407a0aaa1033d49!8m2!3d23.7193123!4d92.7128412?authuser=0&hl=en&rclk=1,23.7193123,92.7128412
Eagle Fitness Gym,Gym,"Ramhlun South, Chaltlang, Aizawl, Mizoram 796007, India",https://www.google.co.kr/maps/place/Eagle+Fitness+Gym/data=!4m5!3m4!1s0x374debe50048ec09:0x53e05a3933dcae00!8m2!3d23.7419835!4d92.7237139?authuser=0&hl=en&rclk=1,23.7419835,92.7237139
RB MMA AND FITNESS GYM,Gym,"D-87, Electric Veng, Aizawl, Mizoram 796007, India",https://www.google.co.kr/maps/place/RB+MMA+AND+FITNESS+GYM/data=!4m5!3m4!1s0x374d955d06e957cd:0x31c9af1c24ea89be!8m2!3d23.7365957!4d92.718666?authuser=0&hl=en&rclk=1,23.7365957,92.718666
rinoma's club,Gym,"Vaivakawn Rd, Aizawl, Mizoram 796001, India",https://www.google.co.kr/maps/place/rinoma's+club/data=!4m5!3m4!1s0x374d95b1acdab299:0x116b4b769a464f7!8m2!3d23.727107!4d92.7176389?authuser=0&hl=en&rclk=1,23.727107,92.7176389
Active Gym & Fitness,Gym,"Luangmual, Chhangurkawn, Aizawl, Mizoram 796009, India",https://www.google.co.kr/maps/place/Active+Gym+%26+Fitness/data=!4m5!3m4!1s0x374deb549ce93bd5:0xec89d8228152cb3d!8m2!3d23.7401507!4d92.7007572?authuser=0&hl=en&rclk=1,23.7401507,92.7007572
Sunrise Fitness Gym,Boxing gym,"AOC Road, College Veng, Aizawl, Mizoram 796901, India",https://www.google.co.kr/maps/place/Sunrise+Fitness+Gym/data=!4m5!3m4!1s0x374d95b2b8d63705:0x78bbb95735e6500c!8m2!3d23.7236884!4d92.7300841?authuser=0&hl=en&rclk=1,23.7236884,92.7300841
BHHO,Gym,"1st floor, D-34 Chanmari, Ramhlun Road, Treasury Square, Aizawl, Mizoram 796001, India",https://www.google.co.kr/maps/place/BHHO/data=!4m5!3m4!1s0x374d94c7ffa5e2d9:0x3558ae02f35e9bf8!8m2!3d23.7411555!4d92.7190659?authuser=0&hl=en&rclk=1,23.7411555,92.7190659
Monster Gym,Gym,"near st joseph hss, Bawngkawn, Aizawl, Mizoram 796017, India",https://www.google.co.kr/maps/place/Monster+Gym/data=!4m5!3m4!1s0x374dead5aa45c6a9:0x428c16cd736e1999!8m2!3d23.7567209!4d92.730419?authuser=0&hl=en&rclk=1,23.7567209,92.730419
S&S Fitness Gym,Gym,"PMRX+3H6, Aizawl, Mizoram 796009, India",https://www.google.co.kr/maps/place/S%26S+Fitness+Gym/data=!4m5!3m4!1s0x374deb55522fdd89:0x37ef16293e100c21!8m2!3d23.7401676!4d92.6988867?authuser=0&hl=en&rclk=1,23.7401676,92.6988867
Monster Gym Thuampui,Gym,"Bus Stop, Pushpak Peng, Aizawl, Mizoram 796007, India",https://www.google.co.kr/maps/place/Monster+Gym+Thuampui/data=!4m5!3m4!1s0x374debf083163053:0x2ef9eb6e1642365c!8m2!3d23.741986!4d92.739004?authuser=0&hl=en&rclk=1,23.741986,92.739004
Indoor Stadium,Gym,"WFGR+5R6, BAZAR VENG, Mamit, Mizoram 796441, India",https://www.google.co.kr/maps/place/Indoor+Stadium/data=!4m5!3m4!1s0x374df785b0199f2f:0x329f013a9d823338!8m2!3d23.9254022!4d92.4920122?authuser=0&hl=en&rclk=1,23.9254022,92.4920122
Origin Gym,Gym,"PPM6+J3H, Kanan Veng, Aizawl, Mizoram 796009, India",https://www.google.co.kr/maps/place/Origin+Gym/data=!4m5!3m4!1s0x374d95107173ab97:0x32e151e10ff3f364!8m2!3d23.7340603!4d92.7102284?authuser=0&hl=en&rclk=1,23.7340603,92.7102284
The Highway Gym,Gym,"Salem Veng, Aizawl, Mizoram 796005, India",https://www.google.co.kr/maps/place/The+Highway+Gym/data=!4m5!3m4!1s0x374d951710d467e1:0x3c7eb8b0aedc34e2!8m2!3d23.7114998!4d92.72817?authuser=0&hl=en&rclk=1,23.7114998,92.72817
DZR Fitness Gym,Gym,"Ramhlun Venglai, Chaltlang, Aizawl, Mizoram 796012, India",https://www.google.co.kr/maps/place/DZR+Fitness+Gym/data=!4m5!3m4!1s0x374deb0a4254a167:0x90dee4598f4c96c0!8m2!3d23.7451809!4d92.7251074?authuser=0&hl=en&rclk=1,23.7451809,92.7251074
Divine Health and Fittness Gym New,Gym,"Keifang, Mizoram 796261, India",https://www.google.co.kr/maps/place/Divine+Health+and+Fittness+Gym+New/data=!4m5!3m4!1s0x374db7ed02c4fd17:0x30998e3eeda173ac!8m2!3d23.669084!4d92.9630115?authuser=0&hl=en&rclk=1,23.669084,92.9630115
GraceLand Health and Fitness Gym,Gym,"M/ C 9, Chaltlang Venglai, Chaltlang, Aizawl, Mizoram 796012, India",https://www.google.co.kr/maps/place/GraceLand+Health+and+Fitness+Gym/data=!4m5!3m4!1s0x374deb9621c2b077:0x121d022c4d14df2a!8m2!3d23.7504902!4d92.7221204?authuser=0&hl=en&rclk=1,23.7504902,92.7221204
Field Tlangnuam,Gym,"Aizawl Venglai Rd 2, Aizawl Venglai, Chaltlang, Aizawl, Mizoram 796007, India",https://www.google.co.kr/maps/place/Field+Tlangnuam/data=!4m5!3m4!1s0x374deb3547af0835:0xb94f7f25cec7d9a9!8m2!3d23.7403774!4d92.7193927?authuser=0&hl=en&rclk=1,23.7403774,92.7193927
7th day tlang,Gym,"PPP6+P6R, Vaivakawn, Aizawl, Mizoram 796009, India",https://www.google.co.kr/maps/place/7th+day+tlang/data=!4m5!3m4!1s0x374d95cb6f1ad3e3:0xcae690bcf7c781e6!8m2!3d23.7368669!4d92.7105139?authuser=0&hl=en&rclk=1,23.7368669,92.7105139
Baptist Church of Mizoram Venghlun Lunglei,Gym,"WFHR+W7P, Venghlun, Mamit, Mizoram 796441, India",https://www.google.co.kr/maps/place/Baptist+Church+of+Mizoram+Venghlun+Lunglei/data=!4m5!3m4!1s0x374df78625555555:0xa2d75949452675a0!8m2!3d23.9298451!4d92.4907128?authuser=0&hl=en&rclk=1,23.9298451,92.4907128
Mission Vengthlang Futsal Ground,Gym,"Unnamed Road, Mission Vengthlang, Aizawl, Mizoram 796005, India",https://www.google.co.kr/maps/place/Mission+Vengthlang+Futsal+Ground/data=!4m5!3m4!1s0x374d95e8c213d29f:0x85d0a43690ab7528!8m2!3d23.7109325!4d92.7018314?authuser=0&hl=en&rclk=1,23.7109325,92.7018314
CCR Fitness Gym,Gym,"Unnamed Road, Lengpui, Mizoram 796410, India",https://www.google.co.kr/maps/place/CCR+Fitness+Gym/data=!4m5!3m4!1s0x374ded09c35b7869:0x1d6c5d6056a9a9e0!8m2!3d23.8335079!4d92.6345002?authuser=0&hl=en&rclk=1,23.8335079,92.6345002
Zotlang Field,Gym,"PPR3+F6X, Zotlang, Aizawl, Mizoram 796009, India",https://www.google.co.kr/maps/place/Zotlang+Field/data=!4m5!3m4!1s0x374deb54a1e18665:0x634add4ca8e29e41!8m2!3d23.7412442!4d92.7031061?authuser=0&hl=en&rclk=1,23.7412442,92.7031061
Alpha Martial Arts and Fitness,Gym,"Brigade Field Rd, Bawngkawn, Aizawl, Mizoram 796012, India",https://www.google.co.kr/maps/place/Alpha+Martial+Arts+and+Fitness/data=!4m5!3m4!1s0x374debe131758f7d:0xbc5ebf72bf20f4e6!8m2!3d23.7576425!4d92.7282776?authuser=0&hl=en&rclk=1,23.7576425,92.7282776
Dawrzawl,Gym,"Theiriat Field(Vengthlang Mual), Lunglei, Mizoram 796701, India",https://www.google.co.kr/maps/place/Dawrzawl/data=!4m5!3m4!1s0x374d4759bda75ca5:0xc045a642b942644b!8m2!3d22.8678493!4d92.7743483?authuser=0&hl=en&rclk=1,22.8678493,92.7743483
Luangmual YMA Ground,Gym,"PMQX+5HR, Aizawl, Mizoram 796009, India",https://www.google.co.kr/maps/place/Luangmual+YMA+Ground/data=!4m5!3m4!1s0x374d94aa99884f6f:0xcc3d530118d1e0a2!8m2!3d23.7379901!4d92.6988991?authuser=0&hl=en&rclk=1,23.7379901,92.6988991
Sports Authority of India,Gym,"PP67+VGV, Mission Vengthlang, Aizawl, Mizoram 796005, India",https://www.google.co.kr/maps/place/Sports+Authority+of+India/data=!4m5!3m4!1s0x374d94942fafb507:0xbaae953348f7addb!8m2!3d23.7122325!4d92.7138001?authuser=0&hl=en&rclk=1,23.7122325,92.7138001
Kulikawn Indoor Stadium,Gym,"Kulikawn Indoor Stadium, Kulikawn, Aizawl, Mizoram 796005, India",https://www.google.co.kr/maps/place/Kulikawn+Indoor+Stadium/data=!4m5!3m4!1s0x374d94eb7d5aaaab:0x4573d402d07055fe!8m2!3d23.7097876!4d92.7201764?authuser=0&hl=en&rclk=1,23.7097876,92.7201764
LayUp Fitness Studio,Fitness center,"C.Lalthansanga building, T-1, Venghlui, Republic Veng Road Pi Pangi Peng Republic Veng, Tawntirh, Mualpui Rd, Aizawl, Mizoram 796001, India",https://www.google.co.kr/maps/place/LayUp+Fitness+Studio/data=!4m5!3m4!1s0x374d95822bd51ec3:0xbb69d4c167279edb!8m2!3d23.7222873!4d92.7196734?authuser=0&hl=en&rclk=1,23.7222873,92.7196734
Open air gym,Gym,"QP5H+5F5, Bawngkawn, Aizawl, Mizoram 796012, India",https://www.google.co.kr/maps/place/Open+air+gym/data=!4m5!3m4!1s0x374debf97bf165b9:0x9908b285ec66b285!8m2!3d23.7578994!4d92.728746?authuser=0&hl=en&rclk=1,23.7578994,92.728746
Tennis Court,Gym,"Ramhlun Sport Complex Rd, Ramhlun Vengthar, Aizawl, Mizoram 796012, India",https://www.google.co.kr/maps/place/Tennis+Court/data=!4m5!3m4!1s0x374deb32395ce2e7:0x356bd79b4726e6b0!8m2!3d23.7441492!4d92.7265972?authuser=0&hl=en&rclk=1,23.7441492,92.7265972
Republic GYM,Gym,"Republic Veng, Aizawl, Mizoram 796005, India",https://www.google.co.kr/maps/place/Republic+GYM/data=!4m5!3m4!1s0x374d95e7dcf7dec1:0x3f3c966b3c79f47f!8m2!3d23.7204604!4d92.7218277?authuser=0&hl=en&rclk=1,23.7204604,92.7218277
Play Ground,Gym,"9Q2W+H9X, Sailam, Mizoram 796230, India",https://www.google.co.kr/maps/place/Play+Ground/data=!4m5!3m4!1s0x374d0aa22811ad31:0x4a349a5044dda63d!8m2!3d23.3514964!4d92.7959866?authuser=0&hl=en&rclk=1,23.3514964,92.7959866
Xpose Gym,Gym,"Tuivamit, Aizawl, Mizoram 796009, India",https://www.google.co.kr/maps/place/Xpose+Gym/data=!4m5!3m4!1s0x374dedbbd802da6f:0xf727489d4d83e177!8m2!3d23.7477786!4d92.6813775?authuser=0&hl=en&rclk=1,23.7477786,92.6813775
ROPIANGLIANA BUILDING,Gym,"HOUSE NO D-4, Y-SECTION, Nursery Veng, Aizawl, Mizoram 796005, India",https://www.google.co.kr/maps/place/ROPIANGLIANA+BUILDING/data=!4m5!3m4!1s0x374d9587c2923643:0x8127f9df46137a8a!8m2!3d23.7173058!4d92.7107685?authuser=0&hl=en&rclk=1,23.7173058,92.7107685
Freddie's Power Gym,Gym,"PPHG+MXG, Bethlehem Vengthlang, Aizawl, Mizoram 796007, India",https://www.google.co.kr/maps/place/Freddie's+Power+Gym/data=!4m5!3m4!1s0x374d959d213d80c1:0xfdd6e81153eb2a87!8m2!3d23.7291944!4d92.7274579?authuser=0&hl=en&rclk=1,23.7291944,92.7274579
B.Thangpuia Building,Gym,"VPQV+34C, Lunglei, Mizoram 796701, India",https://www.google.co.kr/maps/place/B.Thangpuia+Building/data=!4m5!3m4!1s0x374d4189f485998f:0xaa32d5dac2539cea!8m2!3d22.8876824!4d92.7427549?authuser=0&hl=en&rclk=1,22.8876824,92.7427549
Elite MMA & Fitness Gym,Gym,"PPQ6+G5Q, Vaivakawn, Aizawl, Mizoram 796009, India",https://www.google.co.kr/maps/place/Elite+MMA+%26+Fitness+Gym/data=!4m5!3m4!1s0x374d95f1b5206649:0x520918904fec1d86!8m2!3d23.7388441!4d92.7104951?authuser=0&hl=en&rclk=1,23.7388441,92.7104951
Tennis Court,Gym,"Unnamed Road, Electric Veng, Mizoram 796701, India",https://www.google.co.kr/maps/place/Tennis+Court/data=!4m5!3m4!1s0x374d412431b1fd09:0xed490d84635f029a!8m2!3d22.8903285!4d92.7474326?authuser=0&hl=en&rclk=1,22.8903285,92.7474326
Rebel gym,Gym,"Lungli Rd, Thakthing Veng Rd, Mission Veng, Aizawl, Mizoram 796005, India",https://www.google.co.kr/maps/place/Rebel+gym/data=!4m5!3m4!1s0x374d95df2ccc9adf:0x2a2fd25983587920!8m2!3d23.7145643!4d92.7202883?authuser=0&hl=en&rclk=1,23.7145643,92.7202883
Cijw Gym,Gym,"FQP4+793, Vairengte, Mizoram 788163, India",https://www.google.co.kr/maps/place/Cijw+Gym/data=!4m5!3m4!1s0x374e15685c2682cf:0xd3ac78a22d85b089!8m2!3d24.4856336!4d92.7559118?authuser=0&hl=en&rclk=1,24.4856336,92.7559118
Laltea,Gym,"PPG9+R3R, Aizawl, Mizoram 796001, India",https://www.google.co.kr/maps/place/Laltea/data=!4m5!3m4!1s0x374d94b81b2d9743:0xba95b8bb013f339b!8m2!3d23.727107!4d92.7176389?authuser=0&hl=en&rclk=1,23.727107,92.7176389
"Basketball Court, Mizoram University",Gym,"Mizoram University, Aizawl, Mizoram 796004, India","https://www.google.co.kr/maps/place/Basketball+Court,+Mizoram+University/data=!4m5!3m4!1s0x374d932ee9fe783b:0x5fe5d67b3c05ce35!8m2!3d23.7326016!4d92.6648558?authuser=0&hl=en&rclk=1",23.7326016,92.6648558
"PHQ BADMINTON HALL, AIZAWL",Gym,"Mizoram Police Headquarters, SHIVAJI TILLAH, Khatla, Aizawl, Mizoram 796005, India","https://www.google.co.kr/maps/place/PHQ+BADMINTON+HALL,+AIZAWL/data=!4m5!3m4!1s0x374d95577ee1f7b1:0x26c4327a0c96d123!8m2!3d23.720177!4d92.7145776?authuser=0&hl=en&rclk=1",23.720177,92.7145776
RL Building,Gym,"Chanmari - Ramhlun Rd, Ramhlun Venglai, Chaltlang, Aizawl, Mizoram 796012, India",https://www.google.co.kr/maps/place/RL+Building/data=!4m5!3m4!1s0x374debbd4eb30941:0xa90a818896a9f1c3!8m2!3d23.7445013!4d92.7237464?authuser=0&hl=en&rclk=1,23.7445013,92.7237464
Indoor Stadium,Gym,"6MPG+R64, Hmar Veng, Kolasib, Mizoram 796081, India",https://www.google.co.kr/maps/place/Indoor+Stadium/data=!4m5!3m4!1s0x374e0ec1aef0d605:0x4549f21475f46987!8m2!3d24.2370026!4d92.6755918?authuser=0&hl=en&rclk=1,24.2370026,92.6755918
Khawhai Indoor,Gym,"94MG+5XF, Khawhai, Mizoram 796310, India",https://www.google.co.kr/maps/place/Khawhai+Indoor/data=!4m5!3m4!1s0x374c55a855332fed:0xe5456abd64ca5e9d!8m2!3d23.382935!4d93.1274084?authuser=0&hl=en&rclk=1,23.382935,93.1274084
Laipuitlang Recreation Centre,Gym,"PPVC+86J, Laipuitlang, Aizawl, Mizoram 796012, India",https://www.google.co.kr/maps/place/Laipuitlang+Recreation+Centre/data=!4m5!3m4!1s0x374deb35b249f50f:0xdac4958da35eae76!8m2!3d23.743341!4d92.7205304?authuser=0&hl=en&rclk=1,23.743341,92.7205304
Hlimen football field,Gym,"MPC6+HVC, Aizawl, Mizoram 796005, India",https://www.google.co.kr/maps/place/Hlimen+football+field/data=!4m5!3m4!1s0x374d946c608ad8d1:0x3dc2ffd7c090a47d!8m2!3d23.6714294!4d92.7121317?authuser=0&hl=en&rclk=1,23.6714294,92.7121317
Boxing Training Hall,Gym,"PPWG+229, Ramhlun Venglai, Aizawl, Mizoram 796012, India",https://www.google.co.kr/maps/place/Boxing+Training+Hall/data=!4m5!3m4!1s0x374deb33d9e1b6d5:0x72f9e370e710bdd3!8m2!3d23.7450358!4d92.7251045?authuser=0&hl=en&rclk=1,23.7450358,92.7251045
V & V Fitness Gym,Gym,"Bus Station, Vairengte, Mizoram 788114, India",https://www.google.co.kr/maps/place/V+%26+V+Fitness+Gym/data=!4m5!3m4!1s0x374e159dc0aa95bb:0x7068023c004cdf9e!8m2!3d24.4963988!4d92.7609496?authuser=0&hl=en&rclk=1,24.4963988,92.7609496
A.P. Tlâng Tennis Court,Gym,"Lunglei-Thenzawl Rd, Lunglei, Mizoram 796701, India",https://www.google.co.kr/maps/place/A.P.+Tl%C3%A2ng+Tennis+Court/data=!4m5!3m4!1s0x374d41e35abd4a5d:0x2d65bf12e504acdc!8m2!3d22.8871514!4d92.7432735?authuser=0&hl=en&rclk=1,22.8871514,92.7432735
Daddy's Secret (The Fitness Cafe),Gym,"Chanmari, Aizawl, Mizoram 796007, India",https://www.google.co.kr/maps/place/Daddy's+Secret+(The+Fitness+Cafe)/data=!4m5!3m4!1s0x374deb4abee87bb5:0x85ff91b6e89bd807!8m2!3d23.7407406!4d92.7172265?authuser=0&hl=en&rclk=1,23.7407406,92.7172265
Lemonvale Gym,Gym,"Serkawn - Zotlang, Serkawn, Lunglei, Mizoram 796691, India",https://www.google.co.kr/maps/place/Lemonvale+Gym/data=!4m5!3m4!1s0x374d410847f76f63:0x7098eb1585773815!8m2!3d22.910015!4d92.7567945?authuser=0&hl=en&rclk=1,22.910015,92.7567945
Basketball Court,Gym,"VPJR+X79, Lungdai, Mizoram 796014, India",https://www.google.co.kr/maps/place/Basketball+Court/data=!4m5!3m4!1s0x374de854d7bf8d6d:0xfeec88f5c0ede280!8m2!3d23.8824213!4d92.7407345?authuser=0&hl=en&rclk=1,23.8824213,92.7407345
Outdoor Climbing Wall,Gym,"VPRX+63X, Electric Veng, Mizoram 796701, India",https://www.google.co.kr/maps/place/Outdoor+Climbing+Wall/data=!4m5!3m4!1s0x374d40d1d0dd881b:0xbccd59593400d181!8m2!3d22.8906143!4d92.7477241?authuser=0&hl=en&rclk=1,22.8906143,92.7477241
Community Hall,Gym,"VQ2V+4GP, Hrangchalkawn, Lunglei, Mizoram 796701, India",https://www.google.co.kr/maps/place/Community+Hall/data=!4m5!3m4!1s0x374d391d69438009:0x19d847a514fc9bfe!8m2!3d22.8503315!4d92.7938208?authuser=0&hl=en&rclk=1,22.8503315,92.7938208
Kulikawn YMA Field,Fitness center,"Health Department Rd, Kulikawn, Aizawl, Mizoram 796005, India",https://www.google.co.kr/maps/place/Kulikawn+YMA+Field/data=!4m5!3m4!1s0x374d950cb390903d:0x12219a072e3f4d60!8m2!3d23.7093984!4d92.7152145?authuser=0&hl=en&rclk=1,23.7093984,92.7152145
Chhimveng Volleyball Court,Gym,"9RGV+8QR, Chhiahtlang, Serchhip, Mizoram 796181, India",https://www.google.co.kr/maps/place/Chhimveng+Volleyball+Court/data=!4m5!3m4!1s0x374da0b96c93513f:0x33174223faec3b02!8m2!3d23.3758515!4d92.8443854?authuser=0&hl=en&rclk=1,23.3758515,92.8443854
Sihphir Multipurpose Center,Gym,"RP7P+MVM, Theihaingaw Veng, Sihphir, Mizoram 796036, India",https://www.google.co.kr/maps/place/Sihphir+Multipurpose+Center/data=!4m5!3m4!1s0x374debcb234a8889:0xf72247376d1829fe!8m2!3d23.8142153!4d92.7371594?authuser=0&hl=en&rclk=1,23.8142153,92.7371594
Sailamzawl Leilet,Gym,"9QMW+C7G, Aizawl, Mizoram 796230, India",https://www.google.co.kr/maps/place/Sailamzawl+Leilet/data=!4m5!3m4!1s0x374da03fb1f8208f:0xcb1e40963fd08444!8m2!3d23.3835569!4d92.7957104?authuser=0&hl=en&rclk=1,23.3835569,92.7957104
Urban landscape,Gym,"PPG4+7WP, Khatla, Aizawl, Mizoram 796001, India",https://www.google.co.kr/maps/place/Urban+landscape/data=!4m5!3m4!1s0x374d9589a2c1385d:0x22a8701cbe73b9d9!8m2!3d23.7257195!4d92.7073219?authuser=0&hl=en&rclk=1,23.7257195,92.7073219
LfMrUnited Khawlhring,Gym,"JFRH+36P, Chhippui, Mizoram 796431, India",https://www.google.co.kr/maps/place/LfMrUnited+Khawlhring/data=!4m5!3m4!1s0x374d8975865fbd39:0x3544da2638a550d3!8m2!3d23.6402157!4d92.478083?authuser=0&hl=en&rclk=1,23.6402157,92.478083
Lawngtlai Vengpui Playground,Gym,"GVRW+7W3, Lawngtlai, Mizoram 796891, India",https://www.google.co.kr/maps/place/Lawngtlai+Vengpui+Playground/data=!4m5!3m4!1s0x30b2cc54a95385df:0xf204635fe93a5dac!8m2!3d22.540628!4d92.8972927?authuser=0&hl=en&rclk=1,22.540628,92.8972927
College Veng Field,Gym,"PPFG+P2C, College Veng, Aizawl, Mizoram 796005, India",https://www.google.co.kr/maps/place/College+Veng+Field/data=!4m5!3m4!1s0x374d94c44da1214b:0x828dd764772ca0e!8m2!3d23.724322!4d92.7250171?authuser=0&hl=en&rclk=1,23.724322,92.7250171
Bruin GYM Zuangtui,Gym,"near Ringtu House, Zuangtui, Aizawl, Mizoram 796017, India",https://www.google.co.kr/maps/place/Bruin+GYM+Zuangtui/data=!4m5!3m4!1s0x374debf0b9afd8bb:0x67c15bc650c1a98!8m2!3d23.7496028!4d92.7404525?authuser=0&hl=en&rclk=1,23.7496028,92.7404525
Republic Archery Ground,Gym,"Republic Vengthlang, Aizawl, Mizoram 796005, India",https://www.google.co.kr/maps/place/Republic+Archery+Ground/data=!4m5!3m4!1s0x374d95055bc63cb5:0x84cda6192ac3251c!8m2!3d23.7190106!4d92.7236354?authuser=0&hl=en&rclk=1,23.7190106,92.7236354
Zda Te In,Gym,"Dinthar1,Jailroad step,bazar, road, Bungkawn Veng, Aizawl, Mizoram 796001, India",https://www.google.co.kr/maps/place/Zda+Te+In/data=!4m5!3m4!1s0x374d9578777ba56b:0xf799ab311620a1ad!8m2!3d23.7334953!4d92.715225?authuser=0&hl=en&rclk=1,23.7334953,92.715225
kulikawn play ground,Gym,"Kulikawn, Aizawl, Mizoram 796005, India",https://www.google.co.kr/maps/place/kulikawn+play+ground/data=!4m5!3m4!1s0x374d94947f1315fd:0x6c10eb23366b9667!8m2!3d23.7099204!4d92.715579?authuser=0&hl=en&rclk=1,23.7099204,92.715579
Tennis court,Gym,"F6X2+M2G, Khawzawl, Mizoram 796310, India",https://www.google.co.kr/maps/place/Tennis+court/data=!4m5!3m4!1s0x374c51a22fd13169:0x43d498d07413852b!8m2!3d23.4991914!4d93.2000671?authuser=0&hl=en&rclk=1,23.4991914,93.2000671
Burn Out Gym,Gym,"WF8V+45X, New Mamit, Mamit, Mizoram 796441, India",https://www.google.co.kr/maps/place/Burn+Out+Gym/data=!4m5!3m4!1s0x374df7fc44746323:0xd30379c02a326583!8m2!3d23.9153562!4d92.4929778?authuser=0&hl=en&rclk=1,23.9153562,92.4929778
Vengpui Playground,Gym,"GVRW+7VW, Vengpui, Lawngtlai, Mizoram 796891, India",https://www.google.co.kr/maps/place/Vengpui+Playground/data=!4m5!3m4!1s0x30b2cd1a758dbe95:0x1b1333d3197fd6e!8m2!3d22.5407364!4d92.8972001?authuser=0&hl=en&rclk=1,22.5407364,92.8972001
YLA ELectric Veng Branch,Gym,"Electric Veng, Lawngtlai, Mizoram 796891, India",https://www.google.co.kr/maps/place/YLA+ELectric+Veng+Branch/data=!4m5!3m4!1s0x30b2cd43fb993fdb:0x6653d2fb6aef143e!8m2!3d22.5358666!4d92.8888689?authuser=0&hl=en&rclk=1,22.5358666,92.8888689
Govt Complex Field,Gym,"PMJV+WJV, Aizawl, Mizoram 796009, India",https://www.google.co.kr/maps/place/Govt+Complex+Field/data=!4m5!3m4!1s0x374d93174b5b048d:0x3f0ae8969fb9f133!8m2!3d23.7323631!4d92.6940614?authuser=0&hl=en&rclk=1,23.7323631,92.6940614
Badminton Hall,Gym,"828G+FC4, Tuipang, Mizoram 796911, India",https://www.google.co.kr/maps/place/Badminton+Hall/data=!4m5!3m4!1s0x30b2d997a04f0ac5:0x6ffa3455d7a6bd05!8m2!3d22.3161409!4d93.0260684?authuser=0&hl=en&rclk=1,22.3161409,93.0260684
Salem Veng Basketball Court,Gym,"PP7H+7HQ, Salem Veng, Aizawl, Mizoram 796005, India",https://www.google.co.kr/maps/place/Salem+Veng+Basketball+Court/data=!4m5!3m4!1s0x374d94e7cf9f5167:0xfd18a883cf1ac279!8m2!3d23.713212!4d92.728978?authuser=0&hl=en&rclk=1,23.713212,92.728978
Rev Vanlalmuankima Chhangte,Gym,"VQJ3+7P8, Ramthar, Mizoram 796701, India",https://www.google.co.kr/maps/place/Rev+Vanlalmuankima+Chhangte/data=!4m5!3m4!1s0x374d473495555555:0xd3c8a2f1b27e4bdf!8m2!3d22.8806566!4d92.7543376?authuser=0&hl=en&rclk=1,22.8806566,92.7543376
"Ramhlun South, Community Hall",Gym,"PPVF+575, Aizawl, Mizoram 796012, India","https://www.google.co.kr/maps/place/Ramhlun+South,+Community+Hall/data=!4m5!3m4!1s0x374deb34789dda27:0xbef33328e65c70e9!8m2!3d23.7428775!4d92.7232388?authuser=0&hl=en&rclk=1",23.7428775,92.7232388
Dr. Lalzama Building,Gym,"QP2G+XXJ, Chaltlang, Aizawl, Mizoram 796012, India",https://www.google.co.kr/maps/place/Dr.+Lalzama+Building/data=!4m5!3m4!1s0x374deb3074fe2969:0xbfb1dd0407d62c2e!8m2!3d23.7524727!4d92.7274056?authuser=0&hl=en&rclk=1,23.7524727,92.7274056
G-21 Fitness Center,Gym,"AOC Square, Ramthar Veng, India",https://www.google.co.kr/maps/place/G-21+Fitness+Center/data=!4m5!3m4!1s0x374d47f83027245d:0x76ae4fe3447df3cc!8m2!3d22.8788308!4d92.74991?authuser=0&hl=en&rclk=1,22.8788308,92.74991
Indoor Stadium and GYM Complex,Gym,"Aizawl, Mizoram 796014, India",https://www.google.co.kr/maps/place/Indoor+Stadium+and+GYM+Complex/data=!4m5!3m4!1s0x374debb606190651:0xfd9734f115d31081!8m2!3d23.809876!4d92.732948?authuser=0&hl=en&rclk=1,23.809876,92.732948
Monster Gym Thuampui,Gym,"Kendriya Vidhyalaya School Peng, Zemabawk Gali, Aizawl, Mizoram 796017, India",https://www.google.co.kr/maps/place/Monster+Gym+Thuampui/data=!4m5!3m4!1s0x374deb35d46bf887:0xdfee3c1571db6fbf!8m2!3d23.742571!4d92.740701?authuser=0&hl=en&rclk=1,23.742571,92.740701
Public Play Ground,Gym,"9RHV+H27, Chhiahtlang, Serchhip, Mizoram 796181, India",https://www.google.co.kr/maps/place/Public+Play+Ground/data=!4m5!3m4!1s0x374da0bf3591370f:0x2a23b055fcaa8c5!8m2!3d23.3789099!4d92.8425424?authuser=0&hl=en&rclk=1,23.3789099,92.8425424
Ramthar Football Field 1,Gym,"VQM4+54J, Ramthar, Mizoram 796701, India",https://www.google.co.kr/maps/place/Ramthar+Football+Field+1/data=!4m5!3m4!1s0x374d411d371adfab:0xcb0fae307d9116a0!8m2!3d22.8829666!4d92.7552653?authuser=0&hl=en&rclk=1,22.8829666,92.7552653
Saron Veng Indoor Stadium,Gym,"PPJ9+J78, Aizawl, Mizoram 796007, India",https://www.google.co.kr/maps/place/Saron+Veng+Indoor+Stadium/data=!4m5!3m4!1s0x374d94b62774f7ef:0xc68130fe42fa3040!8m2!3d23.7315269!4d92.7182043?authuser=0&hl=en&rclk=1,23.7315269,92.7182043
Tuichawng football ground,Physical fitness program,"NH302, Tuichawng, Mizoram 796730, India",https://www.google.co.kr/maps/place/Tuichawng+football+ground/data=!4m5!3m4!1s0x374d5f04342755dd:0x941a390fee004a4e!8m2!3d22.9188361!4d92.5267556?authuser=0&hl=en&rclk=1,22.9188361,92.5267556
Sports Stadium Balajee Developers,Gym,"Champhai,, East Zotlang, Champhai, Mizoram 796321, India",https://www.google.co.kr/maps/place/Sports+Stadium+Balajee+Developers/data=!4m5!3m4!1s0x374c5bf968d4a29f:0xf969c061e07582ea!8m2!3d23.4499501!4d93.3346242?authuser=0&hl=en&rclk=1,23.4499501,93.3346242
Playground,Gym,"QWCW+99W, Tualbung, Mizoram 796261, India",https://www.google.co.kr/maps/place/Playground/data=!4m5!3m4!1s0x374dc9f9194ac693:0x510932840f5c81e3!8m2!3d23.7709766!4d92.9459644?authuser=0&hl=en&rclk=1,23.7709766,92.9459644
field Khuangleng,Gym,"Khuangleng, Mizoram 796321, India",https://www.google.co.kr/maps/place/field+Khuangleng/data=!4m5!3m4!1s0x374cf65c720da685:0x33f194e9948d6137!8m2!3d23.3075838!4d93.3143088?authuser=0&hl=en&rclk=1,23.3075838,93.3143088
Community Hall,Gym,"JJFF+R3M, Khawrihnim, Mizoram 796501, India",https://www.google.co.kr/maps/place/Community+Hall/data=!4m5!3m4!1s0x374d91e0dd635b37:0xc3e845a838385cc9!8m2!3d23.6245832!4d92.622666?authuser=0&hl=en&rclk=1,23.6245832,92.622666
Volleyball Court,Gym,"J4GG+6VF, Vankal, Mizoram 796310, India",https://www.google.co.kr/maps/place/Volleyball+Court/data=!4m5!3m4!1s0x374c4d3c1e38693f:0xe6a4f6b8d93651f4!8m2!3d23.6255513!4d93.1271584?authuser=0&hl=en&rclk=1,23.6255513,93.1271584
GSA PLAYGROUND,Gym,"VCX7+V4V, Darlak, Mizoram 796441, India",https://www.google.co.kr/maps/place/GSA+PLAYGROUND/data=!4m5!3m4!1s0x375208f07068d793:0x313075473f56c96b!8m2!3d23.8997459!4d92.4127831?authuser=0&hl=en&rclk=1,23.8997459,92.4127831
IVY Groove,Fitness center,"Zotlang, Aizawl, Mizoram 796009, India",https://www.google.co.kr/maps/place/IVY+Groove/data=!4m5!3m4!1s0x374deb5345555555:0x7b8169f815067b83!8m2!3d23.7404952!4d92.7039789?authuser=0&hl=en&rclk=1,23.7404952,92.7039789
Lungleng GSA Playground,Gym,"MM68+XMR, Lungleng, Mizoram 796005, India",https://www.google.co.kr/maps/place/Lungleng+GSA+Playground/data=!4m5!3m4!1s0x374d93cf2fc7bd3b:0x24c21273ff32686!8m2!3d23.6624863!4d92.6666386?authuser=0&hl=en&rclk=1,23.6624863,92.6666386
Kamalanagar Indoor Stadium,Gym,"JJ9R+37C, Kamalanagar III, Kamalanagar, Mizoram 796772, India",https://www.google.co.kr/maps/place/Kamalanagar+Indoor+Stadium/data=!4m5!3m4!1s0x374d4d3f181ebef5:0x2e79747b035aec76!8m2!3d22.6176776!4d92.6406319?authuser=0&hl=en&rclk=1,22.6176776,92.6406319
3MAP Parade Ground,Gym,"PP8P+F6Q, I.T.I Veng, Aizawl, Mizoram 796005, India",https://www.google.co.kr/maps/place/3MAP+Parade+Ground/data=!4m5!3m4!1s0x374d957ab5eae0c5:0x2990046612e348f9!8m2!3d23.7162114!4d92.7356115?authuser=0&hl=en&rclk=1,23.7162114,92.7356115
Mini Sports Complex,Gym,"2W7F+PR6, Darlawn, Mizoram 796111, India",https://www.google.co.kr/maps/place/Mini+Sports+Complex/data=!4m5!3m4!1s0x374dda1b8fffffff:0x29c9cb2e36fa2885!8m2!3d24.0142886!4d92.9245254?authuser=0&hl=en&rclk=1,24.0142886,92.9245254
Sangau iv Playground,Gym,"P2XX+F4R, Sangau, Mizoram 796571, India",https://www.google.co.kr/maps/place/Sangau+iv+Playground/data=!4m5!3m4!1s0x374d291edd3e00dd:0x6a63d4d29ba07861!8m2!3d22.7487299!4d93.0477626?authuser=0&hl=en&rclk=1,22.7487299,93.0477626
Lenchim Community Hall,Gym,"HWXJ+GRV, Lenchim, Mizoram 796261, India",https://www.google.co.kr/maps/place/Lenchim+Community+Hall/data=!4m5!3m4!1s0x374dbb8a0a93ecb7:0xd3451f8f300d8044!8m2!3d23.5988623!4d92.9320414?authuser=0&hl=en&rclk=1,23.5988623,92.9320414
"Judo Training Hall, MSSC",Gym,"PPQX+QCH, Aizawl, Mizoram 796017, India","https://www.google.co.kr/maps/place/Judo+Training+Hall,+MSSC/data=!4m5!3m4!1s0x374deacd5197e5c9:0x439d37c60ec9f987!8m2!3d23.7394292!4d92.7486185?authuser=0&hl=en&rclk=1",23.7394292,92.7486185
Bawngthah football field,Gym,"FJR5+GPR, Bawngthah, Mizoram 796501, India",https://www.google.co.kr/maps/place/Bawngthah+football+field/data=!4m5!3m4!1s0x374d84cffe8feeb3:0x66fd849924ce6fe0!8m2!3d23.491363!4d92.609272?authuser=0&hl=en&rclk=1,23.491363,92.609272
Lena Stadium,Gym,"WQ89+C96, Lunglei, Mizoram 796691, India",https://www.google.co.kr/maps/place/Lena+Stadium/data=!4m5!3m4!1s0x374d415073daf783:0x84d3fe47557ce2dc!8m2!3d22.9160447!4d92.7683793?authuser=0&hl=en&rclk=1,22.9160447,92.7683793
SALEM PLAYGROUND,Gym,"VQG4+9PR, Lunglei, Mizoram 796701, India",https://www.google.co.kr/maps/place/SALEM+PLAYGROUND/data=!4m5!3m4!1s0x374d47f4ae95a86d:0x7ac391d284ca22b9!8m2!3d22.875975!4d92.7567587?authuser=0&hl=en&rclk=1,22.875975,92.7567587
Keifang basketball court,Gym,"MXC5+FWV, Keifang, Mizoram 796261, India",https://www.google.co.kr/maps/place/Keifang+basketball+court/data=!4m5!3m4!1s0x374db78dd7d83bc5:0x50682bd95bcf4e03!8m2!3d23.6712412!4d92.959786?authuser=0&hl=en&rclk=1,23.6712412,92.959786
MSSC Multi Purpose Hall,Gym,"PP7M+8MV, Salem Veng, Aizawl, Mizoram 796005, India",https://www.google.co.kr/maps/place/MSSC+Multi+Purpose+Hall/data=!4m5!3m4!1s0x374d94e0c37096d9:0xd0ece65c4c17fb9!8m2!3d23.7133674!4d92.7341674?authuser=0&hl=en&rclk=1,23.7133674,92.7341674
Community Hall,Gym,"RP9M+WR9, Sihphir, Mizoram 796036, India",https://www.google.co.kr/maps/place/Community+Hall/data=!4m5!3m4!1s0x374debcdb432b787:0x3e19c5051fb5368c!8m2!3d23.8197928!4d92.7345942?authuser=0&hl=en&rclk=1,23.8197928,92.7345942
LEITAN YMA HALL,Gym,"QP9Q+G97, Durtlang Leitan, Aizawl, Mizoram 796025, India",https://www.google.co.kr/maps/place/LEITAN+YMA+HALL/data=!4m5!3m4!1s0x374deae1ff3f3e69:0xa154d72c645111b5!8m2!3d23.7687751!4d92.7384154?authuser=0&hl=en&rclk=1,23.7687751,92.7384154
Lersia Field,Gym,"Ruantlang Rd, East Zotlang, Champhai, Mizoram 796321, India",https://www.google.co.kr/maps/place/Lersia+Field/data=!4m5!3m4!1s0x374c5eaa70c2e763:0x2c59114ec804b77e!8m2!3d23.4415365!4d93.3421531?authuser=0&hl=en&rclk=1,23.4415365,93.3421531
1.IR Bn. Hall,Gym,"2MF7+CRG, 1st IR Bn Hqrs, Mizoram 796070, India",https://www.google.co.kr/maps/place/1.IR+Bn.+Hall/data=!4m5!3m4!1s0x374de5a027572387:0x55eceffbdd833758!8m2!3d24.0235665!4d92.6645825?authuser=0&hl=en&rclk=1,24.0235665,92.6645825
Chite Veng Playground,Gym,"PPPM+5QG, Aizawl, Mizoram 796008, India",https://www.google.co.kr/maps/place/Chite+Veng+Playground/data=!4m5!3m4!1s0x374d94d442a6757d:0x5dfe492349dd9c77!8m2!3d23.7354498!4d92.7344558?authuser=0&hl=en&rclk=1,23.7354498,92.7344558
Venghnuai Playground,Gym,"PP7F+FV3, Venghnuai, Aizawl, Mizoram 796005, India",https://www.google.co.kr/maps/place/Venghnuai+Playground/data=!4m5!3m4!1s0x374d94e9bc2cb92b:0xbcf06fc83aa157d!8m2!3d23.7136409!4d92.7246778?authuser=0&hl=en&rclk=1,23.7136409,92.7246778
Borapansury Indoor Stadium,Gym,"PG4C+RQW, Borapansury II, Mizoram 796770, India",https://www.google.co.kr/maps/place/Borapansury+Indoor+Stadium/data=!4m5!3m4!1s0x374d579ac8ac8275:0x9e23fcad443377ca!8m2!3d22.7071078!4d92.5219601?authuser=0&hl=en&rclk=1,22.7071078,92.5219601
DSZ Production,Gym,"PPC9+JJH, Aizawl, Mizoram 796001, India",https://www.google.co.kr/maps/place/DSZ+Production/data=!4m5!3m4!1s0x374d94c0b33b719b:0x9ccdcdf9499e3a89!8m2!3d23.7215737!4d92.7191087?authuser=0&hl=en&rclk=1,23.7215737,92.7191087
"Basket Ball Court, Durtlang Leitan",Gym,"QPCQ+2RP, Durtlang Leitan, Aizawl, Mizoram 796025, India","https://www.google.co.kr/maps/place/Basket+Ball+Court,+Durtlang+Leitan/data=!4m5!3m4!1s0x374deae23ef6cf3b:0x3623865ff589b25d!8m2!3d23.7700926!4d92.7395838?authuser=0&hl=en&rclk=1",23.7700926,92.7395838
Zaluta Poultry Farm,Gym,"QM3P+5J3, Aizawl, Mizoram 796009, India",https://www.google.co.kr/maps/place/Zaluta+Poultry+Farm/data=!4m5!3m4!1s0x374decba8e2d6551:0x45dfd8d84a01096f!8m2!3d23.7528829!4d92.686547?authuser=0&hl=en&rclk=1,23.7528829,92.686547
Tuizém (water Reservoir,Gym,"5687+XPJ, South Khawbung, Mizoram 796320, India",https://www.google.co.kr/maps/place/Tuiz%C3%A9m+(water+Reservoir/data=!4m5!3m4!1s0x374cfb2922e91fa7:0xb9e0f3c7d85f7c5e!8m2!3d23.1674559!4d93.2142719?authuser=0&hl=en&rclk=1,23.1674559,93.2142719
Biate Play Ground,Gym,"64XC+GJ2, Biate, Mizoram 796370, India",https://www.google.co.kr/maps/place/Biate+Play+Ground/data=!4m5!3m4!1s0x374cfddc15555555:0xb5be6304e4b40c91!8m2!3d23.248772!4d93.1215165?authuser=0&hl=en&rclk=1,23.248772,93.1215165
PTS PARADE GROUND,Fitness center,"Thenzawl-Buarpui Rd, Thenzawl, Mizoram 796186, India",https://www.google.co.kr/maps/place/PTS+PARADE+GROUND/data=!4m5!3m4!1s0x374d75e4f6b36c77:0xa353a3778c04ee3e!8m2!3d23.2881194!4d92.7481226?authuser=0&hl=en&rclk=1,23.2881194,92.7481226
Chhara Te In,Gym,"2MVF+7FW, N.Kawnpui, Mizoram 796070, India",https://www.google.co.kr/maps/place/Chhara+Te+In/data=!4m5!3m4!1s0x374de393ff003a69:0x5fec0d525c348e49!8m2!3d24.0432295!4d92.6737034?authuser=0&hl=en&rclk=1,24.0432295,92.6737034
Public Play Ground,Gym,"53P3+GF3, N. Mualcheng, Mizoram 796370, India",https://www.google.co.kr/maps/place/Public+Play+Ground/data=!4m5!3m4!1s0x374d031f5f11d261:0xf86b949dfb4b9309!8m2!3d23.1862715!4d93.0536661?authuser=0&hl=en&rclk=1,23.1862715,93.0536661
Serkhan Field,Gym,"WP5Q+CGJ, Serkhan, Mizoram 796036, India",https://www.google.co.kr/maps/place/Serkhan+Field/data=!4m5!3m4!1s0x374de861d2a93dc5:0x1bcea1792edfc628!8m2!3d23.908589!4d92.7387741?authuser=0&hl=en&rclk=1,23.908589,92.7387741
Community Hall North Serzawl,Gym,"2VGR+PG5, North Serzawl, Mizoram 796111, India",https://www.google.co.kr/maps/place/Community+Hall+North+Serzawl/data=!4m5!3m4!1s0x374dd93d0b23df49:0xa613769554aa5c79!8m2!3d24.0267583!4d92.8913704?authuser=0&hl=en&rclk=1,24.0267583,92.8913704
Khawkawn football ground,Gym,"26C9+5W2, Khawkawn, Mizoram 796290, India",https://www.google.co.kr/maps/place/Khawkawn+football+ground/data=!4m5!3m4!1s0x374c28d5db445fd3:0x61194cc8ad53984!8m2!3d24.0203951!4d93.2197676?authuser=0&hl=en&rclk=1,24.0203951,93.2197676
Vaitin Playground,Gym,"6XGG+6W2, Vaitin, Mizoram 796111, India",https://www.google.co.kr/maps/place/Vaitin+Playground/data=!4m5!3m4!1s0x374e7a332dd6b801:0xc52ec27201a64438!8m2!3d24.2255244!4d92.9772604?authuser=0&hl=en&rclk=1,24.2255244,92.9772604
C.Sangthanga's Residence,Gym,"Y-73, D.B Colony, Luangmual Rd, Venthlang, Aizawl, Mizoram 796009, India",https://www.google.co.kr/maps/place/C.Sangthanga's+Residence/data=!4m5!3m4!1s0x374debec3928b89b:0x18058054ab387fa1!8m2!3d23.7409545!4d92.700897?authuser=0&hl=en&rclk=1,23.7409545,92.700897
IDC,Gym,"PP75+59R, Mission Vengthlang, Aizawl, Mizoram 796005, India",https://www.google.co.kr/maps/place/IDC/data=!4m5!3m4!1s0x374d9497801663fd:0x335b4fd8105899de!8m2!3d23.712985!4d92.7083978?authuser=0&hl=en&rclk=1,23.712985,92.7083978
1st BN BSF,Gym,"Serkhan - Bagha Rd, Mizoram 796075, India",https://www.google.co.kr/maps/place/1st+BN+BSF/data=!4m5!3m4!1s0x374ddf35303888ad:0x5a758ac801cfe2e7!8m2!3d24.0590819!4d92.7882257?authuser=0&hl=en&rclk=1,24.0590819,92.7882257
Lamchhip playground,Gym,"CQPH+5Q9, Lamchhip, Mizoram 796190, India",https://www.google.co.kr/maps/place/Lamchhip+playground/data=!4m5!3m4!1s0x374da1e22138a5c1:0x23044863dbfdfe23!8m2!3d23.435407!4d92.7794817?authuser=0&hl=en&rclk=1,23.435407,92.7794817
Volleyball Playground,Gym,"2WFC+C9X, Thiltlang, Mizoram 796571, India",https://www.google.co.kr/maps/place/Volleyball+Playground/data=!4m5!3m4!1s0x374d1775bde85119:0x997e004872e4f458!8m2!3d23.0236097!4d92.9209929?authuser=0&hl=en&rclk=1,23.0236097,92.9209929
Ocean Gym,Gymnasium school,"PP69+3W6, Kulikawn, Aizawl, Mizoram 796005, India",https://www.google.co.kr/maps/place/Ocean+Gym/data=!4m5!3m4!1s0x374d94eb66ba5f6f:0x94ddc984800e0fea!8m2!3d23.710173!4d92.719778?authuser=0&hl=en&rclk=1,23.710173,92.719778
Boxing Hall,Boxing ring,"Dam Veng Kual Rd, New Serchhip, Serchhip, Mizoram 796181, India",https://www.google.co.kr/maps/place/Boxing+Hall/data=!4m5!3m4!1s0x374d0b6e64f2bacf:0x2c17e46fee01c66!8m2!3d23.3300976!4d92.8562767?authuser=0&hl=en&rclk=1,23.3300976,92.8562767
RSC Field,Gym,"Ramhlun North, Aizawl, Mizoram 796012, India",https://www.google.co.kr/maps/place/RSC+Field/data=!4m5!3m4!1s0x374deb3104215bd1:0xc2a7d52199676d33!8m2!3d23.7478118!4d92.7254033?authuser=0&hl=en&rclk=1,23.7478118,92.7254033
The Blù Trident,Indoor swimming pool,"C-1/21, Chawlhhmun, Aizawl, Mizoram 796009, India",https://www.google.co.kr/maps/place/The+Bl%C3%B9+Trident/data=!4m5!3m4!1s0x374ded184ca5c513:0xfdb0fe2e389c78ea!8m2!3d23.7451842!4d92.6934311?authuser=0&hl=en&rclk=1,23.7451842,92.6934311
Village playground,Gym,"5PHP+HWP, Ramlaitui, Mizoram 796691, India",https://www.google.co.kr/maps/place/Village+playground/data=!4m5!3m4!1s0x374d7317db86574f:0xb3debb78c56cfcf!8m2!3d23.1789504!4d92.737317?authuser=0&hl=en&rclk=1,23.1789504,92.737317
Ocean Gym,Gymnasium Cz,"PP5C+7RJ, Kulikawn, Aizawl, Mizoram 796005, India",https://www.google.co.kr/maps/place/Ocean+Gym/data=!4m5!3m4!1s0x374d94ec15555555:0x88602a0a65490aaa!8m2!3d23.7082228!4d92.7220024?authuser=0&hl=en&rclk=1,23.7082228,92.7220024
Stay Fit Kitchen Aizawl,Restaurant,"1st Floor,MSR Building, Hmar Veng Rd, below MSR Fitness Centre, Upper Republic, Aizawl, Mizoram 796001, India",https://www.google.co.kr/maps/place/Stay+Fit+Kitchen+Aizawl/data=!4m5!3m4!1s0x374d955684256d7b:0x16fd0e2b97e8455a!8m2!3d23.7215094!4d92.7191612?authuser=0&hl=en&rclk=1,23.7215094,92.7191612
Heal Rehabilitation and Fitness Center,Physical therapy clinic,"Ramhlun N Road, Bawngkawn South, Aizawl, Mizoram 796014, India",https://www.google.co.kr/maps/place/Heal+Rehabilitation+and+Fitness+Center/data=!4m5!3m4!1s0x374deb3009530d5f:0xbea20f179012ca1f!8m2!3d23.750872!4d92.727311?authuser=0&hl=en&rclk=1,23.750872,92.727311
Vanghmun Sport Complex,Gym,"X7QH+6P2, Vanghmun, Tripura 799269, India",https://www.google.co.kr/maps/place/Vanghmun+Sport+Complex/data=!4m5!3m4!1s0x37521b1ef26a7bbb:0x7a62e26eb61059d5!8m2!3d23.9880041!4d92.2792638?authuser=0&hl=en&rclk=1,23.9880041,92.2792638
Fitness planet. Unisex Gym,Gym,"Saratpally, Baruakandi, Tripura 799251, India",https://www.google.co.kr/maps/place/Fitness+planet.+Unisex+Gym/data=!4m5!3m4!1s0x3751ecb8b77730c7:0x3711077fccf5bf87!8m2!3d24.391419!4d92.15919?authuser=0&hl=en&rclk=1,24.391419,92.15919
Dasda gym,Gym,"Kanchanpur - Dasda Laxmipur Rd, Kumbal Hathai, Dasda Bazar, Tripura 799271, India",https://www.google.co.kr/maps/place/Dasda+gym/data=!4m5!3m4!1s0x37521964b346c2eb:0xb35571f1175fcf24!8m2!3d23.9485657!4d92.2129857?authuser=0&hl=en&rclk=1,23.9485657,92.2129857
Sushil Kumar Sharma,Gym,"Sushil Kumar Reang, Gachirampara, Tripura 799271, India",https://www.google.co.kr/maps/place/Sushil+Kumar+Sharma/data=!4m5!3m4!1s0x3752179fbed3c7d7:0xee473826096289f0!8m2!3d23.9008797!4d92.200632?authuser=0&hl=en&rclk=1,23.9008797,92.200632
মাহিল্লা আর্মি ক্যাম্প,Gym,"26MR+6WW, Bangladesh",https://www.google.co.kr/maps/place/%E0%A6%AE%E0%A6%BE%E0%A6%B9%E0%A6%BF%E0%A6%B2%E0%A7%8D%E0%A6%B2%E0%A6%BE+%E0%A6%86%E0%A6%B0%E0%A7%8D%E0%A6%AE%E0%A6%BF+%E0%A6%95%E0%A7%8D%E0%A6%AF%E0%A6%BE%E0%A6%AE%E0%A7%8D%E0%A6%AA/data=!4m5!3m4!1s0x375297da703b8ae3:0x6dda39b341a93dfc!8m2!3d23.0331032!4d92.2423381?authuser=0&hl=en&rclk=1,23.0331032,92.2423381
Baghaichhari Multi-Fitness Center,Gym,"Dighinala - Baghaichhari Rd, Baghaichhari, Bangladesh",https://www.google.co.kr/maps/place/Baghaichhari+Multi-Fitness+Center/data=!4m5!3m4!1s0x375293d3c10a159b:0x84829fa6d792867a!8m2!3d23.1647959!4d92.1912758?authuser=0&hl=en&rclk=1,23.1647959,92.1912758
Madawnga gym centre,Pre gymnasium school,"Unnamed Road, Aizawl, Mizoram 796009, India",https://www.google.co.kr/maps/place/Madawnga+gym+centre/data=!4m5!3m4!1s0x374d93748c06c4b7:0x5d207baa59cc6648!8m2!3d23.7347727!4d92.6960029?authuser=0&hl=en&rclk=1,23.7347727,92.6960029
Tiger Gym,Gym,"Family Lane, Jangnomphai, Bijang, Manipur 795128, India",https://www.google.co.kr/maps/place/Tiger+Gym/data=!4m5!3m4!1s0x374eb3a789201ff1:0x842eb28ec48cb4f!8m2!3d24.3505785!4d93.7026115?authuser=0&hl=en&rclk=1,24.3505785,93.7026115
রাংঙ্গামাটি শরীর গঠন কেন্দ্র,Gym,"J5VW+F63, Bangladesh",https://www.google.co.kr/maps/place/%E0%A6%B0%E0%A6%BE%E0%A6%82%E0%A6%99%E0%A7%8D%E0%A6%97%E0%A6%BE%E0%A6%AE%E0%A6%BE%E0%A6%9F%E0%A6%BF+%E0%A6%B6%E0%A6%B0%E0%A7%80%E0%A6%B0+%E0%A6%97%E0%A6%A0%E0%A6%A8+%E0%A6%95%E0%A7%87%E0%A6%A8%E0%A7%8D%E0%A6%A6%E0%A7%8D%E0%A6%B0/data=!4m5!3m4!1s0x3752b5c19e0ad4ab:0x6e285643e560b77e!8m2!3d22.6436425!4d92.195543?authuser=0&hl=en&rclk=1,22.6436425,92.195543
Gym World,Gymnasium Cz,"Karimganj - Agartala - Sabroom Rd, Teliamura, Tripura 799205, India",https://www.google.co.kr/maps/place/Gym+World/data=!4m5!3m4!1s0x3753c6851417ba43:0x668d305e25073b5b!8m2!3d23.8398171!4d91.6289542?authuser=0&hl=en&rclk=1,23.8398171,91.6289542
Genesis Fitness Hub,Gym,"Council Rd, B.Aizalon, Churachandpur, Manipur 795128, India",https://www.google.co.kr/maps/place/Genesis+Fitness+Hub/data=!4m5!3m4!1s0x374eb384dfac5285:0x22859bb0e99a157!8m2!3d24.3545872!4d93.698953?authuser=0&hl=en&rclk=1,24.3545872,93.698953
Rangamati Gymnasium,Gym,"N 106, Rangamati, Bangladesh",https://www.google.co.kr/maps/place/Rangamati+Gymnasium/data=!4m5!3m4!1s0x3752b5a3a257b3fb:0x9688c66e07f08fab!8m2!3d22.6613338!4d92.1682334?authuser=0&hl=en&rclk=1,22.6613338,92.1682334
The Pathway Fitness Center,Gym,"Penglam Zawi, Gouchinkhup Veng, Churachandpur, Manipur 795128, India",https://www.google.co.kr/maps/place/The+Pathway+Fitness+Center/data=!4m5!3m4!1s0x374eb252f7bf2d2f:0xe9a32679b13fb89!8m2!3d24.3340291!4d93.6945565?authuser=0&hl=en&rclk=1,24.3340291,93.6945565
Kawkhali Fitness Club,Gym,"J2HQ+6R6, Kawkhali, Bangladesh",https://www.google.co.kr/maps/place/Kawkhali+Fitness+Club/data=!4m5!3m4!1s0x3752cd24a471d3e5:0x3a8c426b07234cd1!8m2!3d22.6280447!4d92.0395189?authuser=0&hl=en&rclk=1,22.6280447,92.0395189
Toisama Bru Baptist Church,Gym,"W683+X6G, Tuisama, Tripura 799271, India",https://www.google.co.kr/maps/place/Toisama+Bru+Baptist+Church/data=!4m5!3m4!1s0x3752176a63e2da9b:0x881188b327779b76!8m2!3d23.9174464!4d92.203079?authuser=0&hl=en&rclk=1,23.9174464,92.203079
Mawng phung Zaang,Gym,"4CWV+589, Lungthul L, Manipur 795139, India",https://www.google.co.kr/maps/place/Mawng+phung+Zaang/data=!4m5!3m4!1s0x374ea13b9d4d1e87:0x4ccbe6f154402d93!8m2!3d24.1454169!4d93.4433445?authuser=0&hl=en&rclk=1,24.1454169,93.4433445
