Company_Name,Category,Address,Url,Latitude,Longitude,State
RAJASTHAN GYM INDUSTRIES,Gym,"G-1, 124, RIICO I.I.D.Center, Kaladwas, Rajasthan 313003, India",https://www.google.co.kr/maps/place/RAJASTHAN+GYM+INDUSTRIES/data=!4m5!3m4!1s0x3967e9b80964f231:0xe164aa7e0e062c9c!8m2!3d24.5601856!4d73.7580823?authuser=0&hl=en&rclk=1,24.5601856,73.7580823,Rajasthan
Fitness Plus,Physical fitness program,"Online India ONLINE INDIA, Sector1, Gandhi Nagar, Chittorgarh, Rajasthan 312001, India",https://www.google.co.kr/maps/place/Fitness+Plus/data=!4m5!3m4!1s0x3968a172fa3705f5:0x5a05af3cf3f64add!8m2!3d24.8847402!4d74.6336397?authuser=0&hl=en&rclk=1,24.8847402,74.6336397,Rajasthan
Fit India Gym,Gym,"near Bright land school, Bajrang Nagar, Kota, Rajasthan 324001, India",https://www.google.co.kr/maps/place/Fit+India+Gym/data=!4m5!3m4!1s0x396f9bca715783ab:0xdd77177f051d71e2!8m2!3d25.1805298!4d75.8629042?authuser=0&hl=en&rclk=1,25.1805298,75.8629042,Rajasthan
ClutchFit- The House of Fitness,Fitness center,"D-82, JS plaza 3rd, Shyam Nagar, Jaipur, Rajasthan 302019, India",https://www.google.co.kr/maps/place/ClutchFit-+The+House+of+Fitness/data=!4m5!3m4!1s0x396db5a6b7c67703:0x9a7b25657a4191ff!8m2!3d26.8942354!4d75.7696582?authuser=0&hl=en&rclk=1,26.8942354,75.7696582,Rajasthan
Suncity Gym & Fitness,Gym,"7X88+J5C, Chopasni Housing Board, Jodhpur, Rajasthan 342003, India",https://www.google.co.kr/maps/place/Suncity+Gym+%26+Fitness/data=!4m5!3m4!1s0x39418fb32fc1728b:0xea938a8c51a18773!8m2!3d26.2665712!4d72.9654015?authuser=0&hl=en&rclk=1,26.2665712,72.9654015,Rajasthan
Mr. India Fat to Fit Gym - Fitness zone,Gym,"2nd floor, Aone palace, near menaria guest house, Sector 5, Hiran Magri, Udaipur, Rajasthan 313002, India",https://www.google.co.kr/maps/place/Mr.+India+Fat+to+Fit+Gym+-+Fitness+zone/data=!4m5!3m4!1s0x3967ef2059a9a29f:0x8b4611390f08fb3b!8m2!3d24.5620628!4d73.7227774?authuser=0&hl=en&rclk=1,24.5620628,73.7227774,Rajasthan
Hawk Fitness Jodhpur,Gym,"Plot No. 91, near Bodhi International School, Tirupati Vihar, Shikargarh Enclave, Shikargad, Jodhpur, Rajasthan 342001, India",https://www.google.co.kr/maps/place/Hawk+Fitness+Jodhpur/data=!4m5!3m4!1s0x39418d3da204b4c3:0xd76c0e70173bb005!8m2!3d26.2752572!4d73.0736762?authuser=0&hl=en&rclk=1,26.2752572,73.0736762,Rajasthan
fitness,Fitness center,"21 ratanjeet complex, Rajasthan 313001, India",https://www.google.co.kr/maps/place/fitness/data=!4m5!3m4!1s0x3967e588db315b5b:0x1d0f8e18672acdf6!8m2!3d24.598284!4d73.7242486?authuser=0&hl=en&rclk=1,24.598284,73.7242486,Rajasthan
KC Complete Fitness,Gym,"S3, basement adarsh niketan hostel, RIICO colony, sitapura (india gate, Rajasthan 302022, India",https://www.google.co.kr/maps/place/KC+Complete+Fitness/data=!4m5!3m4!1s0x396dc900a05fa42f:0x58dd4be00bdeec1a!8m2!3d26.7865536!4d75.8225976?authuser=0&hl=en&rclk=1,26.7865536,75.8225976,Rajasthan
Sharma Fitness Point,Gym,"Sadri Haweli Vishwakarma Temple, near Naiyo Ki Talai, Rajasthan 313001, India",https://www.google.co.kr/maps/place/Sharma+Fitness+Point/data=!4m5!3m4!1s0x3967e576cc6d4939:0x57bfbc946804158f!8m2!3d24.5774797!4d73.689244?authuser=0&hl=en&rclk=1,24.5774797,73.689244,Rajasthan
Indian Gym,Gym,"Lalsot Rd, full, Dausa, Rajasthan 303303, India",https://www.google.co.kr/maps/place/Indian+Gym/data=!4m5!3m4!1s0x396d8dd8aabb3a81:0xcf884fae4b8a704a!8m2!3d26.8931931!4d76.3375284?authuser=0&hl=en&rclk=1,26.8931931,76.3375284,Rajasthan
Fitness Zone,Gym,"MDR 84, Kisan Ganj, Beawar, Rajasthan 305901, India",https://www.google.co.kr/maps/place/Fitness+Zone/data=!4m5!3m4!1s0x396970b2b45d1edb:0x82d77a1088c8aaaa!8m2!3d26.1029126!4d74.3120438?authuser=0&hl=en&rclk=1,26.1029126,74.3120438,Rajasthan
The Inspiration Slimming & Fitness Center,Gym,"Apex Mall 65, behind Lalkothi, Satya Vihar, Greater Kailash Colony, Jaipur, Rajasthan 302015, India",https://www.google.co.kr/maps/place/The+Inspiration+Slimming+%26+Fitness+Center/data=!4m5!3m4!1s0x396db424432442bf:0x62d07236c8627dee!8m2!3d26.8892042!4d75.8026096?authuser=0&hl=en&rclk=1,26.8892042,75.8026096,Rajasthan
Fit O'Clock Gym Jaipur,Gym,"1st Floor, Jamuna Tower, Govind Marg, Anand Puri, Bees Dukan, Adarsh Nagar, Jaipur, Rajasthan 302004, India",https://www.google.co.kr/maps/place/Fit+O'Clock+Gym+Jaipur/data=!4m5!3m4!1s0x396db695e42c0001:0xaed143f30a49cbed!8m2!3d26.8976542!4d75.8248648?authuser=0&hl=en&rclk=1,26.8976542,75.8248648,Rajasthan
Throw Back Fitness Gym,Gym,"Kalka Mata Mandir Rd, near shiv mandir, Maharshi COlony, Gandhi Nagar, Udaipur, Rajasthan 313001, India",https://www.google.co.kr/maps/place/Throw+Back+Fitness+Gym/data=!4m5!3m4!1s0x3967e59850e5a1f5:0x5c45d83c6ac7588c!8m2!3d24.5978642!4d73.7268785?authuser=0&hl=en&rclk=1,24.5978642,73.7268785,Rajasthan
Fit & Fine Gym,Gym,"24 bhagwan pura road 24 dev nagar, Bhagwanpura, Alwar, Rajasthan 301001, India",https://www.google.co.kr/maps/place/Fit+%26+Fine+Gym/data=!4m5!3m4!1s0x39729922ecac5933:0x2376fff01d455a9c!8m2!3d27.5961054!4d76.625718?authuser=0&hl=en&rclk=1,27.5961054,76.625718,Rajasthan
Ryan's Gym,Gym,"Unnamed Road, Sitapura Industrial Area, Sitapura, Jaipur, Rajasthan 302029, India",https://www.google.co.kr/maps/place/Ryan's+Gym/data=!4m5!3m4!1s0x396dc9e4933d2c5b:0xa4149ab83fadb81a!8m2!3d26.7694167!4d75.8353025?authuser=0&hl=en&rclk=1,26.7694167,75.8353025,Rajasthan
Winning moves women's health & fitness.Jaipur India,Women's health clinic,"C-9/3,2nd floor Dr.mahendra orthopaedic hospital, main, Chitrakoot Marg, Jaipur, Rajasthan 302021, India",https://www.google.co.kr/maps/place/Winning+moves+women's+health+%26+fitness.Jaipur+India/data=!4m5!3m4!1s0x396db54f6639dc59:0x7783667cb6b36a8d!8m2!3d26.8984265!4d75.7389878?authuser=0&hl=en&rclk=1,26.8984265,75.7389878,Rajasthan
MuscleFit India Unisex Gym,Gym,"40, Kailashpuri, near Sai Baba Mandir, Khandaka hospital road, Tonk Rd, Jaipur, Rajasthan 302018, India",https://www.google.co.kr/maps/place/MuscleFit+India+Unisex+Gym/data=!4m5!3m4!1s0x396db5905b46ed17:0x400dc97f41b0a814!8m2!3d26.8562841!4d75.7975281?authuser=0&hl=en&rclk=1,26.8562841,75.7975281,Rajasthan
Gym Fitness,Gym,"Tonk Road, Indian Gate, Tonk Road, Jaipur, Rajasthan 302018, India",https://www.google.co.kr/maps/place/Gym+Fitness/data=!4m5!3m4!1s0x396dc983777ff2a5:0x14fd6b090b92063f!8m2!3d26.78753!4d75.81581?authuser=0&hl=en&rclk=1,26.78753,75.81581,Rajasthan
Anytime Fitness,Gym,"Naval Tower, 2nd Floor, 1-A, Jawahar Lal Nehru Marg, Lal Bahadur Nagar, Sector 8, Malviya Nagar, Jaipur, Rajasthan 302017, India",https://www.google.co.kr/maps/place/Anytime+Fitness/data=!4m5!3m4!1s0x396db5e3e99aaaab:0x921d93b9230bb939!8m2!3d26.8438156!4d75.8025511?authuser=0&hl=en&rclk=1,26.8438156,75.8025511,Rajasthan
Sisodia House,Gym,"RJ SH 2, Nawa, Rajasthan 341509, India",https://www.google.co.kr/maps/place/Sisodia+House/data=!4m5!3m4!1s0x396c7f62ff885de7:0x3ec63d88304a452!8m2!3d27.0229039!4d74.9996066?authuser=0&hl=en&rclk=1,27.0229039,74.9996066,Rajasthan
Fitness @ first Shalimar Branch,Gym,"Apna ghar shalimar, Papari Rd, Alwar, Rajasthan 301001, India",https://www.google.co.kr/maps/place/Fitness+@+first+Shalimar+Branch/data=!4m5!3m4!1s0x3972982d9f7fea93:0x4411e34c6d8fcb40!8m2!3d27.6044081!4d76.6311579?authuser=0&hl=en&rclk=1,27.6044081,76.6311579,Rajasthan
Metallic Xystus Fitness Center,Gym,"B-214, Sadul Ganj Rd, Sadul Ganj, Bikaner, Rajasthan 334003, India",https://www.google.co.kr/maps/place/Metallic+Xystus+Fitness+Center/data=!4m5!3m4!1s0x393fe7632a94cec7:0xa6586bca83c54ea9!8m2!3d28.0115797!4d73.3356095?authuser=0&hl=en&rclk=1,28.0115797,73.3356095,Rajasthan
The Power Gym,Gym,"Tower Lordiya Paal Bajrang Baag Road, Vasant Vihar Rd, Pali Marwar, Pali, Rajasthan 306401, India",https://www.google.co.kr/maps/place/The+Power+Gym/data=!4m5!3m4!1s0x3942730ca9174567:0x901128ce882abc64!8m2!3d25.7751128!4d73.341046?authuser=0&hl=en&rclk=1,25.7751128,73.341046,Rajasthan
Body power Fitness Gym Laxmangarh,Gym,"Raghunath Market, Near Clock Tower, Laxmangarh, Rajasthan 332311, India",https://www.google.co.kr/maps/place/Body+power+Fitness+Gym+Laxmangarh/data=!4m5!3m4!1s0x396cab6b32d98945:0x95c443354256a4e6!8m2!3d27.8209572!4d75.0263399?authuser=0&hl=en&rclk=1,27.8209572,75.0263399,Rajasthan
The Strongsoul Studio,Fitness center,"16, Frontier Colony, Adarsh Nagar, Jaipur, Rajasthan 302004, India",https://www.google.co.kr/maps/place/The+Strongsoul+Studio/data=!4m5!3m4!1s0x396db7c57ed86605:0x3bb9586ccbde74af!8m2!3d26.8973162!4d75.8277319?authuser=0&hl=en&rclk=1,26.8973162,75.8277319,Rajasthan
F3 MUSCLE FACTORY FIGHT FOR FITNESS,Gym,"F3 muscle factory, Shivaji circle,bangur, College Rd, near Ganpati Asha apartment, Pali, Rajasthan 306401, India",https://www.google.co.kr/maps/place/F3+MUSCLE+FACTORY+FIGHT+FOR+FITNESS/data=!4m5!3m4!1s0x39427349906333bd:0xc8ef50a2df7e667d!8m2!3d25.7727667!4d73.3368953?authuser=0&hl=en&rclk=1,25.7727667,73.3368953,Rajasthan
Rudra fit culture,Fitness center,"Ma plaza, Ambedkar Cir, above pc jewellers, Pali, Rajasthan 306401, India",https://www.google.co.kr/maps/place/Rudra+fit+culture/data=!4m5!3m4!1s0x394273362add6161:0x200d5d5df62e45cb!8m2!3d25.7776642!4d73.3308404?authuser=0&hl=en&rclk=1,25.7776642,73.3308404,Rajasthan
J18 Fitness Centre,Gym,"5-A-15, Aazad Complex,2nd floor, Kudi Bhagtasni Housing Board, Jodhpur, Rajasthan 342001, India",https://www.google.co.kr/maps/place/J18+Fitness+Centre/data=!4m5!3m4!1s0x39418b1a9bd83591:0x514e33b2d295a9e1!8m2!3d26.2133428!4d73.0235834?authuser=0&hl=en&rclk=1,26.2133428,73.0235834,Rajasthan
World Gym Ratanada,Gym,"72FM+C7G, Ratanada, Jodhpur, Rajasthan 342011, India",https://www.google.co.kr/maps/place/World+Gym+Ratanada/data=!4m5!3m4!1s0x39418dba24b0ce77:0xc9020da33520f212!8m2!3d26.2735658!4d73.0332155?authuser=0&hl=en&rclk=1,26.2735658,73.0332155,Rajasthan
Hardcore Fitness Gym,Gym,"2855+5W5, Chhipon Ka Mohalla, Bikaner, Rajasthan 334001, India",https://www.google.co.kr/maps/place/Hardcore+Fitness+Gym/data=!4m5!3m4!1s0x393fe72e0bd2c729:0x2cda994926ae252b!8m2!3d28.0078837!4d73.3098548?authuser=0&hl=en&rclk=1,28.0078837,73.3098548,Rajasthan
Gold's Gym (Malviya Nagar Jaipur),Gym,"SDC Building, 4th And 5th Floor, Calgiri Marg, Malviya Nagar, Jaipur, Rajasthan 302017, India",https://www.google.co.kr/maps/place/Gold's+Gym+(Malviya+Nagar+Jaipur)/data=!4m5!3m4!1s0x396db675f5b02183:0xed2a0ca7351c6582!8m2!3d26.8591604!4d75.8088152?authuser=0&hl=en&rclk=1,26.8591604,75.8088152,Rajasthan
Fit India Gym,Gym,"near Bright land school, Bajrang Nagar, Kota, Rajasthan 324001, India",https://www.google.co.kr/maps/place/Fit+India+Gym/data=!4m5!3m4!1s0x396f9bccae6ad093:0x3e08e4b7508bf9!8m2!3d25.1793935!4d75.8623327?authuser=0&hl=en&rclk=1,25.1793935,75.8623327,Rajasthan
Good life fitness GYM,Gym,"Harni kala harni mahadev road Harni kala, Rajasthan 311001, India",https://www.google.co.kr/maps/place/Good+life+fitness+GYM/data=!4m5!3m4!1s0x3968c1d68986331d:0x51db7903add4250e!8m2!3d25.3185278!4d74.6569082?authuser=0&hl=en&rclk=1,25.3185278,74.6569082,Rajasthan
Paradise Gymnasium,Gym,"80, Mahaveer Colony B, Mahaveer Colony, Bambala, Jaipur, Rajasthan 302022, India",https://www.google.co.kr/maps/place/Paradise+Gymnasium/data=!4m5!3m4!1s0x396dc99d2bb9725f:0x83a1042cda2de1c2!8m2!3d26.7854367!4d75.8187861?authuser=0&hl=en&rclk=1,26.7854367,75.8187861,Rajasthan
Lion fitness gym,Gym,"Sisodia house, Vyas Colony Rd, Nawa, Rajasthan 341509, India",https://www.google.co.kr/maps/place/Lion+fitness+gym/data=!4m5!3m4!1s0x396c7fa59037ae69:0x88fd286bdc1b0010!8m2!3d27.0228851!4d74.9995962?authuser=0&hl=en&rclk=1,27.0228851,74.9995962,Rajasthan
Rock Gym,Gym,"Tonk Rd, Sitapura Industrial Area, Sitapura, Jaipur, Rajasthan 302022, India",https://www.google.co.kr/maps/place/Rock+Gym/data=!4m5!3m4!1s0x396dc99c73110e63:0xe529c8dd9ddc63cb!8m2!3d26.7884832!4d75.8227672?authuser=0&hl=en&rclk=1,26.7884832,75.8227672,Rajasthan
Hit'n'fit gym💪,Gym,"#13, Scheme No.2, Lajpat Nagar, Alwar, Rajasthan 301001, India",https://www.google.co.kr/maps/place/Hit'n'fit+gym%F0%9F%92%AA/data=!4m5!3m4!1s0x397299f054f449ed:0xad9a415bb2d7eb2a!8m2!3d27.5702054!4d76.6142506?authuser=0&hl=en&rclk=1,27.5702054,76.6142506,Rajasthan
The fitness factory,Gym,"Kidwai Nagar, Chittorgarh, Rajasthan 312001, India",https://www.google.co.kr/maps/place/The+fitness+factory/data=!4m5!3m4!1s0x3968a128dbefacc7:0x5881eb8520cbfe7b!8m2!3d24.8859839!4d74.6263957?authuser=0&hl=en&rclk=1,24.8859839,74.6263957,Rajasthan
GOLD'S GYM,Gym,"E1, E45, UDB Hallmark Building, Gautam Marg, Vaishali Nagar, Jaipur, Rajasthan 302021, India",https://www.google.co.kr/maps/place/GOLD'S+GYM/data=!4m5!3m4!1s0x396db49bf8d1b535:0x4eb52e1e2c5bf558!8m2!3d26.9076548!4d75.7434405?authuser=0&hl=en&rclk=1,26.9076548,75.7434405,Rajasthan
Super Bodies Fitness Centre,Fitness center,"D-112, Sector-D, Shastri Nagar, Jodhpur, Rajasthan 342003, India",https://www.google.co.kr/maps/place/Super+Bodies+Fitness+Centre/data=!4m5!3m4!1s0x39418c2352e48f83:0x3e6c603d4d6b6b06!8m2!3d26.2673178!4d73.0049265?authuser=0&hl=en&rclk=1,26.2673178,73.0049265,Rajasthan
Vaishali Gym,Gym,"Goverdhan Nagar, Hindaun, Rajasthan 322230, India",https://www.google.co.kr/maps/place/Vaishali+Gym/data=!4m5!3m4!1s0x39722ffb04765a5b:0xa8493a2542271ef6!8m2!3d26.7538488!4d77.0198528?authuser=0&hl=en&rclk=1,26.7538488,77.0198528,Rajasthan
Fitness Society - The best gym and fitness center in Jaipur,Gym,"Plot no. A, 17, opposite Science Park, Subash Nagar, Shastri Nagar, Jaipur, Rajasthan 302016, India",https://www.google.co.kr/maps/place/Fitness+Society+-+The+best+gym+and+fitness+center+in+Jaipur/data=!4m5!3m4!1s0x396db5207b430547:0x989e7014d9bc807a!8m2!3d26.9400307!4d75.7987748?authuser=0&hl=en&rclk=1,26.9400307,75.7987748,Rajasthan
Gold's gym,Gymnasium Cz,"608-a, Ambedkar Colony, Sector - A, Talwandi, Kota, Rajasthan 324005, India",https://www.google.co.kr/maps/place/Gold's+gym/data=!4m5!3m4!1s0x396f84dbc38fea01:0x4cb4146ce53a3957!8m2!3d25.1500149!4d75.8465725?authuser=0&hl=en&rclk=1,25.1500149,75.8465725,Rajasthan
Fitness Planet Gym (ALI BHAI),Gym,"Jeet Apartment, Airport Road, Near Hotel Park Plaza, Cantt Area, Jodhpur, Rajasthan 342001, India",https://www.google.co.kr/maps/place/Fitness+Planet+Gym+(ALI+BHAI)/data=!4m5!3m4!1s0x39418c5f1c71c527:0xa117ae1d6aa245df!8m2!3d26.2699596!4d73.0378322?authuser=0&hl=en&rclk=1,26.2699596,73.0378322,Rajasthan
Viewsonic Fitness,Gym,"174/122, S K Tower, Kumbha Marg, Pratap Nagar, Pratap Nagar, Jaipur, Rajasthan 302033, India",https://www.google.co.kr/maps/place/Viewsonic+Fitness/data=!4m5!3m4!1s0x396dc9befd6f4aa3:0xd84912505798371f!8m2!3d26.805748!4d75.832708?authuser=0&hl=en&rclk=1,26.805748,75.832708,Rajasthan
SDS Gym,Gym,"Delhi Darwaja Rd, Sojat, Rajasthan 306104, India",https://www.google.co.kr/maps/place/SDS+Gym/data=!4m5!3m4!1s0x3969e895e18b80bb:0x74d1c15488dba6d7!8m2!3d25.927045!4d73.6713951?authuser=0&hl=en&rclk=1,25.927045,73.6713951,Rajasthan
Speed Fitness,Gym,"Rawatsar Road,Nai Abadi, Street Number 10, Hanumangarh, Rajasthan 335513, India",https://www.google.co.kr/maps/place/Speed+Fitness/data=!4m5!3m4!1s0x39168d735989bebd:0xe9f98c981575732c!8m2!3d29.5731361!4d74.3232041?authuser=0&hl=en&rclk=1,29.5731361,74.3232041,Rajasthan
"Passion Fitness centerZumba, Power Yoga, Stretching Exercise, Spinning/Step Aerobics, Weight loss",Fitness center,"up to c.k medical, 32/9, Swarn Path, Mansarovar Sector 1, Mansarovar, Jaipur, Rajasthan 302020, India","https://www.google.co.kr/maps/place/Passion+Fitness+centerZumba,+Power+Yoga,+Stretching+Exercise,+Spinning%2FStep+Aerobics,+Weight+loss/data=!4m5!3m4!1s0x396db5a8283dff53:0xcb39a0a6f06e130b!8m2!3d26.871847!4d75.7559?authuser=0&hl=en&rclk=1",26.871847,75.7559,Rajasthan
Body Power Fitness GYM,Gym,"Opp. Court, 1st Floor, Suraj Sadan, Court Rd, Sikar, Rajasthan 332001, India",https://www.google.co.kr/maps/place/Body+Power+Fitness+GYM/data=!4m5!3m4!1s0x396ca50d84342dd5:0x2ef5db24f6af5a68!8m2!3d27.6186882!4d75.1508232?authuser=0&hl=en&rclk=1,27.6186882,75.1508232,Rajasthan
Muscle 18 fitness,Gym,"38, Navratna Complex Rd, Navratna Complex, Pulla Bhuwana, Mahaveer Colony Park, Udaipur, Rajasthan 313001, India",https://www.google.co.kr/maps/place/Muscle+18+fitness/data=!4m5!3m4!1s0x3967e5b3a10e577d:0x16614d0d39fd2a6d!8m2!3d24.6166549!4d73.6933354?authuser=0&hl=en&rclk=1,24.6166549,73.6933354,Rajasthan
"Body Garage The Gym - Gaurav lakhara best Gym in sec-4, Udaipur, In Your buget Only 499",Gym,"Above Hemant General store ,Indian oil, Petrol Pump Rd, Udaipur, Rajasthan 313001, India","https://www.google.co.kr/maps/place/Body+Garage+The+Gym+-+Gaurav+lakhara+best+Gym+in+sec-4,+Udaipur,+In+Your+buget+Only+499/data=!4m5!3m4!1s0x3967efe4d0a81ca9:0x788bb8bd5369f2aa!8m2!3d24.5665446!4d73.7249739?authuser=0&hl=en&rclk=1",24.5665446,73.7249739,Rajasthan
Aryans fitness,Gym,"7XR6+QJ3, Naya Bass, Churu, Rajasthan 331001, India",https://www.google.co.kr/maps/place/Aryans+fitness/data=!4m5!3m4!1s0x39149fc303a8f0eb:0xd85fe2d268f3d12e!8m2!3d28.2918972!4d74.961542?authuser=0&hl=en&rclk=1,28.2918972,74.961542,Rajasthan
EIFER FITNESS (Best Fitness Center in Jaipur | Fitness Center Near Me | Best GYM in Jaipur),Gym,"74, Raj Bhavan Rd, Jai Ambey Colony, Civil Lines, Jaipur, Rajasthan 302006, India",https://www.google.co.kr/maps/place/EIFER+FITNESS+(Best+Fitness+Center+in+Jaipur+%7C+Fitness+Center+Near+Me+%7C+Best+GYM+in+Jaipur)/data=!4m5!3m4!1s0x396db5e5347d60c5:0xa75c3f5107bf2b4a!8m2!3d26.9040702!4d75.7811594?authuser=0&hl=en&rclk=1,26.9040702,75.7811594,Rajasthan
Cult Malviya Nagar,Gym,"3rd Floor, GT Square, opposite Gaurav Tower, PL, 43, Sector 9 Rd, Kalyan Colony, D-Block, Sector 4, Jaipur, Rajasthan 302017, India",https://www.google.co.kr/maps/place/Cult+Malviya+Nagar/data=!4m5!3m4!1s0x396db723a71aaa11:0x466814499105dbb8!8m2!3d26.8548344!4d75.8071357?authuser=0&hl=en&rclk=1,26.8548344,75.8071357,Rajasthan
Proxy Gym (health & Fitness Center),Gym,"350, Ram Nagar, Shastri Nagar, Jaipur, Rajasthan 302016, India",https://www.google.co.kr/maps/place/Proxy+Gym+(health+%26+Fitness+Center)/data=!4m5!3m4!1s0x396db3dc29298e71:0xe1c5592dffe7bc16!8m2!3d26.945769!4d75.800758?authuser=0&hl=en&rclk=1,26.945769,75.800758,Rajasthan
One Dream Fitness,Gym,"3rd floor,Tiberwala Tower,Near Roadways Bus Stand, Jhunjhunu, Rajasthan 333001, India",https://www.google.co.kr/maps/place/One+Dream+Fitness/data=!4m5!3m4!1s0x391339f6de647913:0xc7e1744dce44782a!8m2!3d28.1162336!4d75.3919852?authuser=0&hl=en&rclk=1,28.1162336,75.3919852,Rajasthan
Hardcore Fitness gym,Gym,"Near jain girls collage, inside bidasar bari, Bikaner, Rajasthan 334001, India",https://www.google.co.kr/maps/place/Hardcore+Fitness+gym/data=!4m5!3m4!1s0x393fe7b9cc2e679b:0x7bc12e5e3135719d!8m2!3d28.0080311!4d73.3093412?authuser=0&hl=en&rclk=1,28.0080311,73.3093412,Rajasthan
Fitness freedom India,Fitness center,"Sector 5, Malviya Nagar, Jaipur, Rajasthan 302017, India",https://www.google.co.kr/maps/place/Fitness+freedom+India/data=!4m5!3m4!1s0x396db549cd78e683:0x18db292240866398!8m2!3d26.8455022!4d75.8047457?authuser=0&hl=en&rclk=1,26.8455022,75.8047457,Rajasthan
Fitness Force Gym,Gym,"Plot number 4, Tejaji ke mandir ke paas, Tonk Road, Van Vihar, Jaipur, Rajasthan 302018, India",https://www.google.co.kr/maps/place/Fitness+Force+Gym/data=!4m5!3m4!1s0x396db53493551f01:0x4536e33b8a020970!8m2!3d26.8688969!4d75.7897009?authuser=0&hl=en&rclk=1,26.8688969,75.7897009,Rajasthan
xtreme bravo gym,Gym,"near Vivekanand circle, Shastri Nagar, Tonk, Rajasthan 304001, India",https://www.google.co.kr/maps/place/xtreme+bravo+gym/data=!4m5!3m4!1s0x396e61d8a7159d8b:0xd15ef7b6a8074bbd!8m2!3d26.1608837!4d75.7796834?authuser=0&hl=en&rclk=1,26.1608837,75.7796834,Rajasthan
F3 GYM & FITNESS CENTRE,Gym,"Q8FM+P7R, Veer Durga Das Nagar, Pali, Rajasthan 306401, India",https://www.google.co.kr/maps/place/F3+GYM+%26+FITNESS+CENTRE/data=!4m5!3m4!1s0x3942730785d0dd43:0xb744cd3fd4f8a3dc!8m2!3d25.7743569!4d73.3331414?authuser=0&hl=en&rclk=1,25.7743569,73.3331414,Rajasthan
Buildup Gym And Fitness Centre,Gym,"2, 133, Mahant Swami Marg, Guru Jambeshwar Nagar, Khatipura, Jaipur, Rajasthan 302012, India",https://www.google.co.kr/maps/place/Buildup+Gym+And+Fitness+Centre/data=!4m5!3m4!1s0x396db369538bb567:0x371e97857bbcaae8!8m2!3d26.9020689!4d75.7459253?authuser=0&hl=en&rclk=1,26.9020689,75.7459253,Rajasthan
National Gym,Gym,"Dhobi Ghatta, budhvihar, Alwar, Rajasthan 301001, India",https://www.google.co.kr/maps/place/National+Gym/data=!4m5!3m4!1s0x397299baa7f44ef3:0xac0dd984c147c06e!8m2!3d27.5871223!4d76.6071788?authuser=0&hl=en&rclk=1,27.5871223,76.6071788,Rajasthan
A1 Gym Center,Gym,"Residency Rd, Near Manidhari Hospital, Sardarpura, Jodhpur, Rajasthan 342003, India",https://www.google.co.kr/maps/place/A1+Gym+Center/data=!4m5!3m4!1s0x39418c2fe6bd28c5:0xcdcb15571836155b!8m2!3d26.2747771!4d73.0046546?authuser=0&hl=en&rclk=1,26.2747771,73.0046546,Rajasthan
Fitness Centre,Gym,"Lakheri, Rajasthan 323603, India",https://www.google.co.kr/maps/place/Fitness+Centre/data=!4m5!3m4!1s0x396fcc00ffffffff:0x5483f50cdba44089!8m2!3d25.6649505!4d76.181272?authuser=0&hl=en&rclk=1,25.6649505,76.181272,Rajasthan
Assured Fit Gym,Gym,"Raj. India, Plot No. 3-A, Sanjay Nagar, Krishna Tower, Joshi Marg Kalwar Road, Oppo Maxx Hospital, Jaipur, Rajasthan 302012, India",https://www.google.co.kr/maps/place/Assured+Fit+Gym/data=!4m5!3m4!1s0x396db3c7c1a10187:0xe483eca483df4d2f!8m2!3d26.9451597!4d75.735977?authuser=0&hl=en&rclk=1,26.9451597,75.735977,Rajasthan
Golden Gym,Gym,"nawab Kallan ka bagh, MI Rd, Jaipur, Rajasthan 302001, India",https://www.google.co.kr/maps/place/Golden+Gym/data=!4m5!3m4!1s0x396db5150c87fe69:0x427285c5aaa19775!8m2!3d26.9180623!4d75.805542?authuser=0&hl=en&rclk=1,26.9180623,75.805542,Rajasthan
24Fitness Gym,Fitness center,"Dhanlaxmi Complex, Station Road, Ghanta Ghar, Greater Duliya, Sujangarh, Rajasthan 331507, India",https://www.google.co.kr/maps/place/24Fitness+Gym/data=!4m5!3m4!1s0x396b338f080c6cd1:0xe1d8c669f54ed75c!8m2!3d27.6978672!4d74.4688216?authuser=0&hl=en&rclk=1,27.6978672,74.4688216,Rajasthan
Fitness island gym (Lalkothi),Gym,"A1, Nehru Path, Satya Vihar, Friends Colony, Krishna Nagar II, Lalkothi, Jaipur, Rajasthan 302015, India",https://www.google.co.kr/maps/place/Fitness+island+gym+(Lalkothi)/data=!4m5!3m4!1s0x396db5c35b2f6b19:0x595e5d263fd57f25!8m2!3d26.8887645!4d75.7998572?authuser=0&hl=en&rclk=1,26.8887645,75.7998572,Rajasthan
Antimatter Fitness Studio,Gym,"6-sector-1, Vaishali Rd, Sagar Vihar Colony, Vaishali Nagar, Ajmer, Rajasthan 305001, India",https://www.google.co.kr/maps/place/Antimatter+Fitness+Studio/data=!4m5!3m4!1s0x396be7ba7aa8af4b:0x3754350f437bb85c!8m2!3d26.487699!4d74.6276184?authuser=0&hl=en&rclk=1,26.487699,74.6276184,Rajasthan
THE IRON WORLD GYM,Fitness center,"Peetal Factory, near gagandeep sinema in, Gandhi nagar, Madanganj, Kishangarh, Rajasthan 305801, India",https://www.google.co.kr/maps/place/THE+IRON+WORLD+GYM/data=!4m5!3m4!1s0x396bf18706f5f977:0x4aae3a2939129ae3!8m2!3d26.5883142!4d74.8544584?authuser=0&hl=en&rclk=1,26.5883142,74.8544584,Rajasthan
Indian gym,Gym,"Indian gym, mehandi ka bas, Jaipur, Rajasthan 303902, India",https://www.google.co.kr/maps/place/Indian+gym/data=!4m5!3m4!1s0x396db5a8abad3d1b:0x44cb153399b944b9!8m2!3d26.9124336!4d75.7872709?authuser=0&hl=en&rclk=1,26.9124336,75.7872709,Rajasthan
Fitness First,Gym,"U.I.T., A7, Bhagat Singh Colony, Bhiwadi, Rajasthan 123106, India",https://www.google.co.kr/maps/place/Fitness+First/data=!4m5!3m4!1s0x390d480ddb642aef:0x66e5882777d91527!8m2!3d28.2069521!4d76.8080539?authuser=0&hl=en&rclk=1,28.2069521,76.8080539,Rajasthan
Dolphin'x fitness,Gym,"station road ,palawat market, opp. HDFC Bank, Alwar, Rajasthan 301001, India",https://www.google.co.kr/maps/place/Dolphin'x+fitness/data=!4m5!3m4!1s0x397299116a112611:0xe494a386d7212fd4!8m2!3d27.5643328!4d76.6167842?authuser=0&hl=en&rclk=1,27.5643328,76.6167842,Rajasthan
Indian Mucles Gym & fitness center,Gym,"1, Jhalamand Cir, Vayu Vihar, C.M.H, O OFFICE ROD, Jodhpur, Rajasthan 342005, India",https://www.google.co.kr/maps/place/Indian+Mucles+Gym+%26+fitness+center/data=!4m5!3m4!1s0x39418b77ef300669:0xba94fd1cbb7f439c!8m2!3d26.2311742!4d73.04134?authuser=0&hl=en&rclk=1,26.2311742,73.04134,Rajasthan
Fitness Avengers Gym,Gym,"Fitness Avengers Gym, Shree Radhe Plaza 1st Floor, Sector no. 04, Hiran Magri Main Rd, Udaipur, Rajasthan 313001, India",https://www.google.co.kr/maps/place/Fitness+Avengers+Gym/data=!4m5!3m4!1s0x3967effc6e6c1461:0x484c069a3509dc80!8m2!3d24.5664829!4d73.7200658?authuser=0&hl=en&rclk=1,24.5664829,73.7200658,Rajasthan
Viewsonic Fitness,Gym,"Karwani's, 93/86, Vijay Path, Sector 9, Mansarovar, Jaipur, Rajasthan 302020, India",https://www.google.co.kr/maps/place/Viewsonic+Fitness/data=!4m5!3m4!1s0x396db5bd3a044cd3:0x8facd92bd4dda7fc!8m2!3d26.8491478!4d75.7728359?authuser=0&hl=en&rclk=1,26.8491478,75.7728359,Rajasthan
Xtreme Fitness Academy,Yoga studio,"C-219, BR birla School, Vinayak Nagar, Jodhpur, Rajasthan 342001, India",https://www.google.co.kr/maps/place/Xtreme+Fitness+Academy/data=!4m5!3m4!1s0x39418f36265f32bd:0x4f3b2b3ab5862f0d!8m2!3d26.2472162!4d72.9635106?authuser=0&hl=en&rclk=1,26.2472162,72.9635106,Rajasthan
I Fitness,Gym,"Raja Park, Rajasthan University Campus, Jaipur, Rajasthan 302004, India",https://www.google.co.kr/maps/place/I+Fitness/data=!4m5!3m4!1s0x396db691595f978d:0xcd2c9b80864980a0!8m2!3d26.8918523!4d75.8239684?authuser=0&hl=en&rclk=1,26.8918523,75.8239684,Rajasthan
Flex 'N' Fit The Gym Panchsheel,Gym,"House no, G648, Panchsheel Nagar, Ajmer, Rajasthan 305004, India",https://www.google.co.kr/maps/place/Flex+'N'+Fit+The+Gym+Panchsheel/data=!4m5!3m4!1s0x396be62ab544bc0f:0x87b24950e6233ce4!8m2!3d26.5186005!4d74.6401003?authuser=0&hl=en&rclk=1,26.5186005,74.6401003,Rajasthan
The Fitness Point Gym,Gym,"Sahu Vihar, Behind Indian Bank, Foysagar Road, Kirti Nagar Rd, Ajmer, Rajasthan 305001, India",https://www.google.co.kr/maps/place/The+Fitness+Point+Gym/data=!4m5!3m4!1s0x396be771afdbf3b5:0xab5b16909c2cc861!8m2!3d26.4612418!4d74.6085067?authuser=0&hl=en&rclk=1,26.4612418,74.6085067,Rajasthan
Curve fitness,Gym,"16, Sec.3 Gordhan Tower,near Swagat Vatika, New, 100 Feet Rd, Udaipur, Rajasthan 313001, India",https://www.google.co.kr/maps/place/Curve+fitness/data=!4m5!3m4!1s0x3967ef61c5d451fd:0x7ea80107f1d773b!8m2!3d24.5737193!4d73.7203828?authuser=0&hl=en&rclk=1,24.5737193,73.7203828,Rajasthan
Arnold's gym & fitness,Gym,"Samudayik Kendra, A141 Durbal nath ji ka mandir, Jaipur, Rajasthan 302003, India",https://www.google.co.kr/maps/place/Arnold's+gym+%26+fitness/data=!4m5!3m4!1s0x396db779994bb13f:0xf11b0e7c891021e6!8m2!3d26.9234232!4d75.8424559?authuser=0&hl=en&rclk=1,26.9234232,75.8424559,Rajasthan
FITNESS FIRE,Gym,"Chennai - Delhi Hwy, Shastri Nagar, Dholpur, Rajasthan 328001, India",https://www.google.co.kr/maps/place/FITNESS+FIRE/data=!4m5!3m4!1s0x3973ff064e611b1f:0x63949f78c0072661!8m2!3d26.7030229!4d77.8919784?authuser=0&hl=en&rclk=1,26.7030229,77.8919784,Rajasthan
Gold Gym,Gym,"55/152, Rajat Path, Jaipur, Rajasthan 302020, India",https://www.google.co.kr/maps/place/Gold+Gym/data=!4m5!3m4!1s0x396db5a8ffffffff:0x4858df1195d8032e!8m2!3d26.8655449!4d75.7604675?authuser=0&hl=en&rclk=1,26.8655449,75.7604675,Rajasthan
the gym box,Gymnasium Cz,"Front of Arora motors, Gulabsingh Building, Near, Bombay Motors Cir, Sardarpura, Jodhpur, Rajasthan 342003, India",https://www.google.co.kr/maps/place/the+gym+box/data=!4m5!3m4!1s0x39418c295533857b:0x9a938c7f18715be6!8m2!3d26.2785841!4d72.999267?authuser=0&hl=en&rclk=1,26.2785841,72.999267,Rajasthan
Natholiya Gym,Gymnastics center,"CFQQ+W5Q, Sharif Gouri, Sardarshahr, Rajasthan 331403, India",https://www.google.co.kr/maps/place/Natholiya+Gym/data=!4m5!3m4!1s0x3914f6a52c450aa3:0x34b7ae08e6351390!8m2!3d28.4398335!4d74.4879709?authuser=0&hl=en&rclk=1,28.4398335,74.4879709,Rajasthan
Vidhas Fitness,Gym,"296, 297, 298, Brijpuri Colony, Mahal Road, opposite Union Bank, near Railway Overbridged, Jagatpura, Jaipur, Rajasthan 302017, India",https://www.google.co.kr/maps/place/Vidhas+Fitness/data=!4m5!3m4!1s0x396dc9d6c597c067:0xa6fc660ce4ef5836!8m2!3d26.8266896!4d75.8456397?authuser=0&hl=en&rclk=1,26.8266896,75.8456397,Rajasthan
SEVEN CORE FITNESS - Modern Fitness Gym in Malviya Nagar Jaipur | Best Amenities | 24 Hours GYM,Fitness center,"H-1, SL Marg, near Fort Restaurant, Lal Bahadur Nagar, Malviya Nagar, Jaipur, Rajasthan 302017, India",https://www.google.co.kr/maps/place/SEVEN+CORE+FITNESS+-+Modern+Fitness+Gym+in+Malviya+Nagar+Jaipur+%7C+Best+Amenities+%7C+24+Hours+GYM/data=!4m5!3m4!1s0x396db5e0bef80ccf:0x80e2b6ecdf937bcc!8m2!3d26.8490852!4d75.8023657?authuser=0&hl=en&rclk=1,26.8490852,75.8023657,Rajasthan
The STATE GYM,Gym,"Khora, Main RIICO Moad, Sarna Dungar, Benar Rd, Via, Jhotwara, Jaipur, Rajasthan 302012, India",https://www.google.co.kr/maps/place/The+STATE+GYM/data=!4m5!3m4!1s0x396c52ad2cfd6c1b:0x7ee27920dae14f0c!8m2!3d27.0117001!4d75.7138088?authuser=0&hl=en&rclk=1,27.0117001,75.7138088,Rajasthan
24Fitness Gym,Fitness center,"opposite of police station, Ladnun, Rajasthan 341306, India",https://www.google.co.kr/maps/place/24Fitness+Gym/data=!4m5!3m4!1s0x396b2f67cecebb13:0xe632ef5087b51bf1!8m2!3d27.6449369!4d74.388503?authuser=0&hl=en&rclk=1,27.6449369,74.388503,Rajasthan
Fitness A to Z gym,Gym,"Rani Sati Nagar, Nirman Nagar, Brijlalpura, Jaipur, Rajasthan 302019, India",https://www.google.co.kr/maps/place/Fitness+A+to+Z+gym/data=!4m5!3m4!1s0x396db5efbba621c9:0x90e16c5a7dfc83a3!8m2!3d26.8859112!4d75.7444222?authuser=0&hl=en&rclk=1,26.8859112,75.7444222,Rajasthan
Perfect Fitness Gym,Gym,"Chauhan Circle Near Jagdamba Mandir Gaushala, NH 3, Gaushala Colony, Dholpur, Rajasthan 328001, India",https://www.google.co.kr/maps/place/Perfect+Fitness+Gym/data=!4m5!3m4!1s0x3973ff0612073c81:0x363d9df5489a4003!8m2!3d26.7048473!4d77.8927915?authuser=0&hl=en&rclk=1,26.7048473,77.8927915,Rajasthan
High Touch Fitness Gym,Gymnastics center,"circle, Bohra Ganesh Rd, Jai Shree Colony, Ganapati Nagar, Udaipur, Rajasthan 313001, India",https://www.google.co.kr/maps/place/High+Touch+Fitness+Gym/data=!4m5!3m4!1s0x3967e5ed211e988b:0x2601a57635bbda07!8m2!3d24.5895399!4d73.7254835?authuser=0&hl=en&rclk=1,24.5895399,73.7254835,Rajasthan
Crown Gym,Gym,"28, Gayatri Vihar-2, Canal, Road, Borkhera, Kota, Rajasthan 324002, India",https://www.google.co.kr/maps/place/Crown+Gym/data=!4m5!3m4!1s0x396f9ab922e98219:0x35849cabc20a975e!8m2!3d25.185333!4d75.8802405?authuser=0&hl=en&rclk=1,25.185333,75.8802405,Rajasthan
X CORE Fitness - Gym & Fitness Center | C-scheme Jaipur,Fitness center,"406 to 411, 4rth Floor, Ashok Marg, City Mall, C-Scheme Opposite St. Xavier's School, Rajasthan 302001, India",https://www.google.co.kr/maps/place/X+CORE+Fitness+-+Gym+%26+Fitness+Center+%7C+C-scheme+Jaipur/data=!4m5!3m4!1s0x396db4106fbbc2b1:0x46a5f786538741cf!8m2!3d26.9142094!4d75.8084872?authuser=0&hl=en&rclk=1,26.9142094,75.8084872,Rajasthan
L.A. Fitness Studio,Gym,"B-105, Katariya Farm, Sirsi Rd, Panchyawala, Jaipur, Rajasthan 302034, India",https://www.google.co.kr/maps/place/L.A.+Fitness+Studio/data=!4m5!3m4!1s0x396db327df76e1e9:0xa9891f1b5f6cdcbf!8m2!3d26.9294977!4d75.7221712?authuser=0&hl=en&rclk=1,26.9294977,75.7221712,Rajasthan
Fitness House,Gym,"shivangan sng group, a-26, Ram Nagar, Shastri Nagar, Jaipur, Rajasthan 302016, India",https://www.google.co.kr/maps/place/Fitness+House/data=!4m5!3m4!1s0x396db32ddc3f718d:0xf83c6d28a65efc70!8m2!3d26.9492928!4d75.7966623?authuser=0&hl=en&rclk=1,26.9492928,75.7966623,Rajasthan
Fitness @ First Gym,Gym,"Bhagat Singh Circle, 1st & 2nd Floor, Sawariya Tower, Jay Marg, Opp. Senior Secondary School, Sector 7, Alwar, Rajasthan 301001, India",https://www.google.co.kr/maps/place/Fitness+@+First+Gym/data=!4m5!3m4!1s0x397299923b0281eb:0xfb3d05e8918bbc9c!8m2!3d27.5668679!4d76.613247?authuser=0&hl=en&rclk=1,27.5668679,76.613247,Rajasthan
FitCity by Abhishek,Gym,"D-29, Subhash Marg, Panch Batti, C Scheme, Ashok Nagar, Jaipur, Rajasthan 302001, India",https://www.google.co.kr/maps/place/FitCity+by+Abhishek/data=!4m5!3m4!1s0x396db5b8ef453b73:0x2cd3d579cafe5619!8m2!3d26.9109157!4d75.8021996?authuser=0&hl=en&rclk=1,26.9109157,75.8021996,Rajasthan
Runway fitness centre,Gym,"Haribhau Upadhyay Nagar Extension, Ajmer, Rajasthan 305004, India",https://www.google.co.kr/maps/place/Runway+fitness+centre/data=!4m5!3m4!1s0x396be785f388189f:0xdc9fe7081f707304!8m2!3d26.4807421!4d74.600279?authuser=0&hl=en&rclk=1,26.4807421,74.600279,Rajasthan
Olympia Fitness Centre,Gym,"6, Ratanada Bazar, opp. Petrol Pump, Jodhpur, Rajasthan 342001, India",https://www.google.co.kr/maps/place/Olympia+Fitness+Centre/data=!4m5!3m4!1s0x39418c5ed4af65af:0xef1b5dff1cf235bb!8m2!3d26.2719548!4d73.0373031?authuser=0&hl=en&rclk=1,26.2719548,73.0373031,Rajasthan
Muscle's Empire Gym :- A Fitness Studio,Gym,"A-2, 101, Basement , Scheme, No 13, Singh Bhoomi Khatipura Rd, near Marudhar Hospital, Jaipur, Rajasthan 302012, India",https://www.google.co.kr/maps/place/Muscle's+Empire+Gym+:-+A+Fitness+Studio/data=!4m5!3m4!1s0x396db36fb769e3e5:0x79a6b39b108d3a9a!8m2!3d26.9274615!4d75.7470178?authuser=0&hl=en&rclk=1,26.9274615,75.7470178,Rajasthan
Muscles revolution THE GYM,Gym,"c-70 behind balaji market, st. stephen circle, Makarwali Rd, Ajmer, Rajasthan 305001, India",https://www.google.co.kr/maps/place/Muscles+revolution+THE+GYM/data=!4m5!3m4!1s0x396be7c8dffbfcfd:0x570073906bf44380!8m2!3d26.5003004!4d74.6311237?authuser=0&hl=en&rclk=1,26.5003004,74.6311237,Rajasthan
Body Steel Gym,Gym,"near Govt. Sec. School, Sudsar, Rajasthan 331811, India",https://www.google.co.kr/maps/place/Body+Steel+Gym/data=!4m5!3m4!1s0x39154104e12d7405:0x44f3e872b19ec602!8m2!3d28.0144108!4d73.7863851?authuser=0&hl=en&rclk=1,28.0144108,73.7863851,Rajasthan
Body Power Fitness Gym,Gym,"Opp. Court, 1st Floor, Suraj Sadan, Court Rd, Sikar, Rajasthan 332001, India",https://www.google.co.kr/maps/place/Body+Power+Fitness+Gym/data=!4m5!3m4!1s0x396ca4cdae2be3c7:0xfb67010b6aaeb7db!8m2!3d27.6186797!4d75.150803?authuser=0&hl=en&rclk=1,27.6186797,75.150803,Rajasthan
Natural Fitness Center,Gym,"4J6H+QV2, Jalsu, Rajasthan 303702, India",https://www.google.co.kr/maps/place/Natural+Fitness+Center/data=!4m5!3m4!1s0x396c55183667f3c9:0xc6b1edc0c136e94d!8m2!3d27.1118966!4d75.629656?authuser=0&hl=en&rclk=1,27.1118966,75.629656,Rajasthan
Olympia Gym & Fitness Zone,Gym,"6 E 12, Meera Marg, Jawahar Nagar, opp. Indira Vatika, 1 A, Rajasthan 335001, India",https://www.google.co.kr/maps/place/Olympia+Gym+%26+Fitness+Zone/data=!4m5!3m4!1s0x3917b5216f421b37:0x4626cadd481a0735!8m2!3d29.9121568!4d73.8841271?authuser=0&hl=en&rclk=1,29.9121568,73.8841271,Rajasthan
Fitness Pro Mansrover,Gym,"Fitness Pro, Shipra Path, near IPS School, Shanthi Nagar B, Mansarovar, Jaipur, Rajasthan 302019, India",https://www.google.co.kr/maps/place/Fitness+Pro+Mansrover/data=!4m5!3m4!1s0x396db45533a78fab:0xd558d735d093ee4a!8m2!3d26.8719574!4d75.7634188?authuser=0&hl=en&rclk=1,26.8719574,75.7634188,Rajasthan
Fit N fine Gym,Gym,"Rupangarh Rd, Gandhi Nagar, Kishangarh, Rajasthan 305802, India",https://www.google.co.kr/maps/place/Fit+N+fine+Gym/data=!4m5!3m4!1s0x396bf17ad76c420d:0x431dedee3e310f9e!8m2!3d26.5936836!4d74.8507028?authuser=0&hl=en&rclk=1,26.5936836,74.8507028,Rajasthan
Audichya's Fitness hub,Fitness center,"Airport Rd, Sunderwas, Ostwal Nagar, Ganapati Nagar, Udaipur, Rajasthan 313001, India",https://www.google.co.kr/maps/place/Audichya's+Fitness+hub/data=!4m5!3m4!1s0x3967e5f059f65601:0x9fd2e8de9161edbb!8m2!3d24.5852677!4d73.733851?authuser=0&hl=en&rclk=1,24.5852677,73.733851,Rajasthan
select fitness,Gym,"PLOT NO.1, near SBI BANK, Ambika Nagar, Sector 4, Hiran Magri, Udaipur, Rajasthan 313002, India",https://www.google.co.kr/maps/place/select+fitness/data=!4m5!3m4!1s0x3967ef5d45d9ddb3:0x84bae2164b50a29c!8m2!3d24.5638636!4d73.7296879?authuser=0&hl=en&rclk=1,24.5638636,73.7296879,Rajasthan
Quantum Fitness,Gym,"2nd & 3rd Floor, E-48, SL Marg, Lal Bahadur Nagar, Jaipur, Rajasthan 302018, India",https://www.google.co.kr/maps/place/Quantum+Fitness/data=!4m5!3m4!1s0x396db55c0a38bbfd:0xdc13f8f3a8e73b48!8m2!3d26.8489762!4d75.802097?authuser=0&hl=en&rclk=1,26.8489762,75.802097,Rajasthan
Coach AJ Fitness - Elite Fitness Studio,Gym,"A-24, 5th Floor, Jharwal House, Sardar Patel Marg, opp. Government Press, C-Scheme, Patel Colony, Jaipur, Rajasthan 302001, India",https://www.google.co.kr/maps/place/Coach+AJ+Fitness+-+Elite+Fitness+Studio/data=!4m5!3m4!1s0x396db51f8f9e21dd:0xbf6fc9cc024a9aed!8m2!3d26.9154325!4d75.7999768?authuser=0&hl=en&rclk=1,26.9154325,75.7999768,Rajasthan
B. S. defence Budsu,Gym,"4PMH+RJW, Budsu, Rajasthan 341505, India",https://www.google.co.kr/maps/place/B.+S.+defence+Budsu/data=!4m5!3m4!1s0x396b76fc6ba4f673:0x2645361bba6e351!8m2!3d27.1346138!4d74.7290733?authuser=0&hl=en&rclk=1,27.1346138,74.7290733,Rajasthan
Golden Fitness Centre,Gym,"Opp. Senior Secondary School Bhagat singh circle, Jay Marg, Sector 7, Alwar, Rajasthan 301001, India",https://www.google.co.kr/maps/place/Golden+Fitness+Centre/data=!4m5!3m4!1s0x397299923af2bebb:0x79c59e9f7fedc944!8m2!3d27.5671776!4d76.6132567?authuser=0&hl=en&rclk=1,27.5671776,76.6132567,Rajasthan
Gold's Gym Jodhpur,Gym,"Akhaliya Circle, Pratap Nagar, Jodhpur, Rajasthan 342003, India",https://www.google.co.kr/maps/place/Gold's+Gym+Jodhpur/data=!4m5!3m4!1s0x39418e81f354cd3b:0xc12c3b24526e2fad!8m2!3d26.2797886!4d72.9908144?authuser=0&hl=en&rclk=1,26.2797886,72.9908144,Rajasthan
Anytime Fitness,Gym,"Plot no. 328 & 329, Main, Hoshiar Singh Marg, Nemi Sagar Colony, Vaishali Nagar, Jaipur, Rajasthan 302021, India",https://www.google.co.kr/maps/place/Anytime+Fitness/data=!4m5!3m4!1s0x396db52be379bd1b:0x26d677d98d9cd045!8m2!3d26.9124493!4d75.7527335?authuser=0&hl=en&rclk=1,26.9124493,75.7527335,Rajasthan
V3 Fitness,Gym,"2177, Raja Shiv Das Ji Ka Rasta, Chandpole, Pink City, Jaipur, Rajasthan 302001, India",https://www.google.co.kr/maps/place/V3+Fitness/data=!4m5!3m4!1s0x396db151db6d2445:0x89a3a477e1e9e0e7!8m2!3d26.9285534!4d75.8186185?authuser=0&hl=en&rclk=1,26.9285534,75.8186185,Rajasthan
Fitness first an unisex gym,Gym,"1 nakoda nagar madri link road hiran magri, sec-3, Udaipur, Rajasthan 313001, India",https://www.google.co.kr/maps/place/Fitness+first+an+unisex+gym/data=!4m5!3m4!1s0x3967ef63921acea7:0xbb4e83e094a0cf03!8m2!3d24.5720741!4d73.7321575?authuser=0&hl=en&rclk=1,24.5720741,73.7321575,Rajasthan
Anas Fitness center,Gym,"Narayan Colony, Dholpur, Rajasthan 328001, India",https://www.google.co.kr/maps/place/Anas+Fitness+center/data=!4m5!3m4!1s0x3973ffa728c3efe9:0xdf7253245508611f!8m2!3d26.6986652!4d77.890645?authuser=0&hl=en&rclk=1,26.6986652,77.890645,Rajasthan
National Gym,Gym,"Opposite Gopal CInema, Kabir Colony, Alwar, Rajasthan 301001, India",https://www.google.co.kr/maps/place/National+Gym/data=!4m5!3m4!1s0x397299852be257a7:0x23843a210fad0d3a!8m2!3d27.5637346!4d76.6040208?authuser=0&hl=en&rclk=1,27.5637346,76.6040208,Rajasthan
force fitness gym,Gym,"45, Joshi Colony, J.D.A. Market, Kanwar Nagar, Jaipur, Rajasthan 302002, India",https://www.google.co.kr/maps/place/force+fitness+gym/data=!4m5!3m4!1s0x396db18e14de6255:0xa3b31fd2e9faa16f!8m2!3d26.9343691!4d75.8243983?authuser=0&hl=en&rclk=1,26.9343691,75.8243983,Rajasthan
fitness Fire,Gym,"MQRM+MC6, Nakatpura, Rajasthan 328030, India",https://www.google.co.kr/maps/place/fitness+Fire/data=!4m5!3m4!1s0x3973fd014f19eba5:0x488b66cefd8b1608!8m2!3d26.6916593!4d77.7835283?authuser=0&hl=en&rclk=1,26.6916593,77.7835283,Rajasthan
DRC Fitness Center,Gym,"behind MPS school, Alakananda Colony, Vaishali Nagar, Ajmer, Rajasthan 305004, India",https://www.google.co.kr/maps/place/DRC+Fitness+Center/data=!4m5!3m4!1s0x396be7a0ed474a35:0x4b3287a178990a48!8m2!3d26.4900084!4d74.6174584?authuser=0&hl=en&rclk=1,26.4900084,74.6174584,Rajasthan
K2 Fitness studio,Gym,"K2 fitness studio janyati Mall 2nd floor, Nagli Cir, Alwar, Rajasthan 301001, India",https://www.google.co.kr/maps/place/K2+Fitness+studio/data=!4m5!3m4!1s0x397299418bb7faf5:0xc735a2060de997ca!8m2!3d27.5598137!4d76.613126?authuser=0&hl=en&rclk=1,27.5598137,76.613126,Rajasthan
Talwalkars Vaishali Nagar,Gym,"107, 108, Amrapali Marg, opp. Surya Mahal Restaurant, Rathore Nagar, Vaishali Nagar, Jaipur, Rajasthan 302021, India",https://www.google.co.kr/maps/place/Talwalkars+Vaishali+Nagar/data=!4m5!3m4!1s0x396db4a01f05f929:0x466874eb5152aa5a!8m2!3d26.9113396!4d75.7513161?authuser=0&hl=en&rclk=1,26.9113396,75.7513161,Rajasthan
X GYM & FITNESS,Gym,"210, 2nd Floor, Goverdhan Sky Mall, Main, Khatipura Rd, Jhotwara, Jaipur, Rajasthan 302012, India",https://www.google.co.kr/maps/place/X+GYM+%26+FITNESS/data=!4m5!3m4!1s0x396db375289a492b:0xce6dcc87fa48a49f!8m2!3d26.9372217!4d75.7577932?authuser=0&hl=en&rclk=1,26.9372217,75.7577932,Rajasthan
Anytime Fitness,Gym,"1st Floor, UDB Business Avenue, B-13, Govind Marg, Raja Park, Jaipur, Rajasthan 302004, India",https://www.google.co.kr/maps/place/Anytime+Fitness/data=!4m5!3m4!1s0x396db6befe69d1bb:0x2f2e9ec2ed503819!8m2!3d26.8997742!4d75.8344254?authuser=0&hl=en&rclk=1,26.8997742,75.8344254,Rajasthan
Bull Fitness Kota,Fitness center,"Ground Floor, 16-B, Sector - B, Shrinath Puram, Kota, Rajasthan 324010, India",https://www.google.co.kr/maps/place/Bull+Fitness+Kota/data=!4m5!3m4!1s0x396f85845a12c565:0x5544d7f07a8e438e!8m2!3d25.1377924!4d75.821524?authuser=0&hl=en&rclk=1,25.1377924,75.821524,Rajasthan
Anytime Fitness,Gym,"3rd Floor, Plot No 4, G K Tower Gaurav Path, Ratanada Cir, opposite Discom Sub. Station, Ratanada, Jodhpur, Rajasthan 342002, India",https://www.google.co.kr/maps/place/Anytime+Fitness/data=!4m5!3m4!1s0x39418d6a88dc0d0b:0x6c1b36d5273dec3b!8m2!3d26.270351!4d73.0377092?authuser=0&hl=en&rclk=1,26.270351,73.0377092,Rajasthan
The Real Fitness Gym,Gym,"A, 7, Jamnalal Bajaj Marg, C Scheme, Hathroi, Jaipur, Rajasthan 302001, India",https://www.google.co.kr/maps/place/The+Real+Fitness+Gym/data=!4m5!3m4!1s0x396db40e48c665a7:0xf04f95f3e822f361!8m2!3d26.9086007!4d75.7918068?authuser=0&hl=en&rclk=1,26.9086007,75.7918068,Rajasthan
Fitness Plus,Gym,"Mansarovar Sector 3, Shanthi Nagar, Mansarovar, Jaipur, Rajasthan 302019, India",https://www.google.co.kr/maps/place/Fitness+Plus/data=!4m5!3m4!1s0x396db598320cc153:0xe507e3a27f5bd05!8m2!3d26.8694467!4d75.7622999?authuser=0&hl=en&rclk=1,26.8694467,75.7622999,Rajasthan
Hulk gym Vaishali Nagar,Gym,"Mohan Tower Vidyut Nagar, Ajmer Rd, opposite Subh hospital, DCM, Jaipur, Rajasthan 302021, India",https://www.google.co.kr/maps/place/Hulk+gym+Vaishali+Nagar/data=!4m5!3m4!1s0x396db51c7b1b1b89:0x73e76d71c4571c1d!8m2!3d26.8969057!4d75.7518396?authuser=0&hl=en&rclk=1,26.8969057,75.7518396,Rajasthan
Talwalkars C-Scheme,Gym,"Ramesh Marg, Durgadas Colony, C Scheme, Ashok Nagar, Jaipur, Rajasthan 302001, India",https://www.google.co.kr/maps/place/Talwalkars+C-Scheme/data=!4m5!3m4!1s0x396db4106f98f693:0x606d69ee8a615f70!8m2!3d26.9049459!4d75.7943777?authuser=0&hl=en&rclk=1,26.9049459,75.7943777,Rajasthan
Aravali Fitness and Testing Center Chittorgarh,Gym,"NH 78, near puliya, Narpat Ki Kheri, Rajasthan, India",https://www.google.co.kr/maps/place/Aravali+Fitness+and+Testing+Center+Chittorgarh/data=!4m5!3m4!1s0x39689f641758502d:0x9970283ee194fae6!8m2!3d24.9004722!4d74.5819069?authuser=0&hl=en&rclk=1,24.9004722,74.5819069,Rajasthan
Fitness A To Z Gym,Gym,"Krishna Marg, Saket Nagar, Shyam Nagar, Jaipur, Rajasthan 302019, India",https://www.google.co.kr/maps/place/Fitness+A+To+Z+Gym/data=!4m5!3m4!1s0x396db466a142cc8f:0xa39c68c104655283!8m2!3d26.8982918!4d75.767393?authuser=0&hl=en&rclk=1,26.8982918,75.767393,Rajasthan
KLEAN FIT Iconic C-SCHEME,Gym,"3rd Floor, Crystal Palm Mall, 22 Godown Circle, Sardar Patel Marg, near Nehru Sahkar Bhavan, Jaipur, Rajasthan 302001, India",https://www.google.co.kr/maps/place/KLEAN+FIT+Iconic+C-SCHEME/data=!4m5!3m4!1s0x396db54a33736aa1:0x4027bf3c99ff9974!8m2!3d26.9032764!4d75.7927392?authuser=0&hl=en&rclk=1,26.9032764,75.7927392,Rajasthan
BALAJI GYM & FITNESS CENTER,Gym,"Rajput Colony, Sadri, Rajasthan 306702, India",https://www.google.co.kr/maps/place/BALAJI+GYM+%26+FITNESS+CENTER/data=!4m5!3m4!1s0x39429e0f9e0b238b:0x8f53e46f56d5d78b!8m2!3d25.1813069!4d73.4521889?authuser=0&hl=en&rclk=1,25.1813069,73.4521889,Rajasthan
Fitrix Fitness,Fitness center,"Under Triveni Pulia, Plot No 1a, Gopalpura Bypass Rd, Gopal Pura Mode, Jaipur, Rajasthan 302018, India",https://www.google.co.kr/maps/place/Fitrix+Fitness/data=!4m5!3m4!1s0x396db593a7020f6b:0xb2f4e6f02d9fc9c7!8m2!3d26.8641073!4d75.7883384?authuser=0&hl=en&rclk=1,26.8641073,75.7883384,Rajasthan
The blue city gym,Gym,"832Q+F92, Jambheshwar Colony, Saran Nagar, Jodhpur, Rajasthan 342015, India",https://www.google.co.kr/maps/place/The+blue+city+gym/data=!4m5!3m4!1s0x3941f33e885ef755:0x9e691da801e01e53!8m2!3d26.3011489!4d73.0883956?authuser=0&hl=en&rclk=1,26.3011489,73.0883956,Rajasthan
The Real Fitness Gym,Weight loss service,"198, Chandak Road, near Ram leela Ground, G Block, Sri Ganganagar, Rajasthan 335001, India",https://www.google.co.kr/maps/place/The+Real+Fitness+Gym/data=!4m5!3m4!1s0x3917b511312fb127:0xa8ea14eee6d2fba9!8m2!3d29.9198824!4d73.8728953?authuser=0&hl=en&rclk=1,29.9198824,73.8728953,Rajasthan
Anytime Fitness,Gym,"5th Floor, City Mall, C21-B, Bhagwan Das Rd, C-Scheme, C Scheme, Ashok Nagar, Jaipur, Rajasthan 302001, India",https://www.google.co.kr/maps/place/Anytime+Fitness/data=!4m5!3m4!1s0x396db403d0ffa8e9:0x15b4db284e2da98c!8m2!3d26.9142864!4d75.8083111?authuser=0&hl=en&rclk=1,26.9142864,75.8083111,Rajasthan
Metalix Gym Paota,Gym,"3/4C, Near Global Care Hospital, Ship House, Paota, Jodhpur, Rajasthan 342001, India",https://www.google.co.kr/maps/place/Metalix+Gym+Paota/data=!4m5!3m4!1s0x39418da8837c3eaf:0x25a70ff313dd830e!8m2!3d26.3000865!4d73.0371854?authuser=0&hl=en&rclk=1,26.3000865,73.0371854,Rajasthan
Gym,Gym,"112/SP-3, Gulab Tower, Kumbha Marg, Sec-11, Pratap Nagar, near Govt. Dispensary, Jaipur, Rajasthan 302032, India",https://www.google.co.kr/maps/place/Gym/data=!4m5!3m4!1s0x396dca05a7b42e09:0x20b731709e98624!8m2!3d26.801562!4d75.8247042?authuser=0&hl=en&rclk=1,26.801562,75.8247042,Rajasthan
THE FITNESS PLACE,Gym,"main 120ft road 120ft road,gayatry nagar sec.5, near by bsnl colony, Udaipur, Rajasthan 313002, India",https://www.google.co.kr/maps/place/THE+FITNESS+PLACE/data=!4m5!3m4!1s0x3967ef07cf6ca9ab:0xf17af199c47ec17f!8m2!3d24.5603556!4d73.7281871?authuser=0&hl=en&rclk=1,24.5603556,73.7281871,Rajasthan
K2 Fitness Center,Gym,"Royal square, K2 fitness Center,near Vaijaynti hospital, Manu Marg, Alwar, 301001, India",https://www.google.co.kr/maps/place/K2+Fitness+Center/data=!4m5!3m4!1s0x397299856b2c0f51:0x31ddb95b850fecd!8m2!3d27.562634!4d76.6051561?authuser=0&hl=en&rclk=1,27.562634,76.6051561,Rajasthan
FitPro Gym Jodhpur,Boxing gym,"2nd Floor in The Fern Residency Hotel, Jodhpur, 203, New Locco Rd, Subhash Chowk, Ratanada, Jodhpur, Rajasthan 342011, India",https://www.google.co.kr/maps/place/FitPro+Gym+Jodhpur/data=!4m5!3m4!1s0x39418c51b4388f77:0x167e0d9c370cc028!8m2!3d26.2793965!4d73.0296714?authuser=0&hl=en&rclk=1,26.2793965,73.0296714,Rajasthan
Ninja Fitness,Gym,"278, Rajeev Gandhi Nagar, Instrumentation Limited Colony, Kota, Rajasthan 324005, India",https://www.google.co.kr/maps/place/Ninja+Fitness/data=!4m5!3m4!1s0x396f85129165ff4b:0x6ab88e1b7927c1f4!8m2!3d25.1361588!4d75.8485636?authuser=0&hl=en&rclk=1,25.1361588,75.8485636,Rajasthan
GOLDEN GYM,Gym,"near Sitaram market, nansa gate, Nawalgarh, Rajasthan 333042, India",https://www.google.co.kr/maps/place/GOLDEN+GYM/data=!4m5!3m4!1s0x396cb50f6c5d5f9f:0xc5e1cecfc25b209e!8m2!3d27.8522968!4d75.2709571?authuser=0&hl=en&rclk=1,27.8522968,75.2709571,Rajasthan
A star fitness and crossfit gym,Gym,"d-391f, Murlidhar Vyas Colony, Bikaner, Rajasthan 334004, India",https://www.google.co.kr/maps/place/A+star+fitness+and+crossfit+gym/data=!4m5!3m4!1s0x393fe75e797f0fcd:0xc0b7028e79bb19de!8m2!3d28.0206554!4d73.2782416?authuser=0&hl=en&rclk=1,28.0206554,73.2782416,Rajasthan
Marshall Gym,Gym,"Sec-10,first floor, Kumbha Marg, above HDFC Bank, Pratap Nagar, Jaipur, Rajasthan 302033, India",https://www.google.co.kr/maps/place/Marshall+Gym/data=!4m5!3m4!1s0x396dc99ce13a97ff:0x3ef8c6ad89d9c148!8m2!3d26.7999624!4d75.8193207?authuser=0&hl=en&rclk=1,26.7999624,75.8193207,Rajasthan
The Universal Gym,Gym,"Unnamed Road, Chak Rajasar, Rajasthan 335523, India",https://www.google.co.kr/maps/place/The+Universal+Gym/data=!4m5!3m4!1s0x39141ca6f8a8863f:0x4b0e4cc2b9c55d0e!8m2!3d29.189079!4d74.7658793?authuser=0&hl=en&rclk=1,29.189079,74.7658793,Rajasthan
Pahalwan gym,Gym,"Surajpura Colony, Tilak Nagar, Bikaner, Rajasthan 334001, India",https://www.google.co.kr/maps/place/Pahalwan+gym/data=!4m5!3m4!1s0x393fddf89b8fe513:0x83f15a2cec74134c!8m2!3d28.0184211!4d73.36297?authuser=0&hl=en&rclk=1,28.0184211,73.36297,Rajasthan
Fitness Center,Boxing gym,"Narayan Vihar, 7, Rampura Rd, Narayan Vihar, Sanganer, Jaipur, Rajasthan 302029, India",https://www.google.co.kr/maps/place/Fitness+Center/data=!4m5!3m4!1s0x396dca7bd5823463:0x77037c2f1feb28db!8m2!3d26.8180456!4d75.7689339?authuser=0&hl=en&rclk=1,26.8180456,75.7689339,Rajasthan
N.S. Fitness Gym,Gym,"VQCH+X42, Mohan Nagar, Triveni Nagar, Arjun Nagar, Jaipur, Rajasthan 302018, India",https://www.google.co.kr/maps/place/N.S.+Fitness+Gym/data=!4m5!3m4!1s0x396db5adffc77283:0x65f762647e879945!8m2!3d26.8723904!4d75.7777576?authuser=0&hl=en&rclk=1,26.8723904,75.7777576,Rajasthan
Body Balance Gym,Gym,"Basant Vihar Colony, Onkar Nagar, Basant Vihar, Ajmer, Rajasthan 305001, India",https://www.google.co.kr/maps/place/Body+Balance+Gym/data=!4m5!3m4!1s0x396be7f4f4abeb3f:0x730710fbeae9d533!8m2!3d26.4783324!4d74.6468603?authuser=0&hl=en&rclk=1,26.4783324,74.6468603,Rajasthan
India International Gym,Gym,"Sansar Chandra Road, Sansar Chandra Road, Sansar Chandra Road, Jaipur, Rajasthan 302001, India",https://www.google.co.kr/maps/place/India+International+Gym/data=!4m5!3m4!1s0x396db1523d921b5f:0xca44a62eeaa83f6f!8m2!3d26.92576!4d75.81703?authuser=0&hl=en&rclk=1,26.92576,75.81703,Rajasthan
Om Fitness Studio,Gym,"49HJ+J9Q, Pt. Deendayal Nagar, Jhunjhunu, Rajasthan 333001, India",https://www.google.co.kr/maps/place/Om+Fitness+Studio/data=!4m5!3m4!1s0x39133908f4b08323:0x8f5dd76999176b65!8m2!3d28.1290976!4d75.3809936?authuser=0&hl=en&rclk=1,28.1290976,75.3809936,Rajasthan
FitConic,Physical fitness program,"C-17, BAJAJ NAGAR, BEHIND ICICI BANK, Jaipur, Rajasthan 302015, India",https://www.google.co.kr/maps/place/FitConic/data=!4m5!3m4!1s0x396db6802787017b:0xb622c8253dd96ec!8m2!3d26.865652!4d75.799862?authuser=0&hl=en&rclk=1,26.865652,75.799862,Rajasthan
1RM fitness,Gymnasium Cz,"Paota B Rd, Paota, Jodhpur, Rajasthan 342006, India",https://www.google.co.kr/maps/place/1RM+fitness/data=!4m5!3m4!1s0x39418d0630fbbe49:0xdf94a5ac2ce77938!8m2!3d26.3003529!4d73.0434703?authuser=0&hl=en&rclk=1,26.3003529,73.0434703,Rajasthan
Amar Inshape Gym,Gym,"Hotel Amar Holi Ka Chowk, Pushkar, Rajasthan, India",https://www.google.co.kr/maps/place/Amar+Inshape+Gym/data=!4m5!3m4!1s0x396bdd224ca94aff:0x1adf3f1db0d425ed!8m2!3d26.4903404!4d74.554045?authuser=0&hl=en&rclk=1,26.4903404,74.554045,Rajasthan
The Royal Fitness Gym,Gymnastics center,"Plot No 10 58 Opposite Chitrkoot Pratap Stadium Chitrkoot Vaishali Nagar, Jaipur, Rajasthan 302021, India",https://www.google.co.kr/maps/place/The+Royal+Fitness+Gym/data=!4m5!3m4!1s0x396db4bd599e4ab5:0x7c5de44880018c4!8m2!3d26.9004228!4d75.7368205?authuser=0&hl=en&rclk=1,26.9004228,75.7368205,Rajasthan
Gymshark,Gym,"Dargah Bypass Rd, Lakhan Kothri, Ajmer, Rajasthan 305001, India",https://www.google.co.kr/maps/place/Gymshark/data=!4m5!3m4!1s0x396be74549153107:0xd830a298d23040b5!8m2!3d26.4563776!4d74.6251504?authuser=0&hl=en&rclk=1,26.4563776,74.6251504,Rajasthan
Guru fitness Gym,Gym,"7269+R6M, Surya Colony, Jodhpur, Rajasthan 342001, India",https://www.google.co.kr/maps/place/Guru+fitness+Gym/data=!4m5!3m4!1s0x39418dc8d7684495:0x3184ca58f19bd999!8m2!3d26.2620766!4d73.018056?authuser=0&hl=en&rclk=1,26.2620766,73.018056,Rajasthan
Golds Gym Ajmer,Gym,"387/10 Raj Nissan Building, Jaipur Road Opposite Patel stadium, near Bajrang petrol pump, Rajasthan 305001, India",https://www.google.co.kr/maps/place/Golds+Gym+Ajmer/data=!4m5!3m4!1s0x396be702ffffffff:0x5e95d91998d7ccb0!8m2!3d26.4669717!4d74.6394741?authuser=0&hl=en&rclk=1,26.4669717,74.6394741,Rajasthan
Fitness Center,Gym,"WP3P+FMW, Maloni Panwar, Rajasthan 328023, India",https://www.google.co.kr/maps/place/Fitness+Center/data=!4m5!3m4!1s0x3973efa0a4bcc5e7:0x17abf7528daae411!8m2!3d26.9037338!4d77.736707?authuser=0&hl=en&rclk=1,26.9037338,77.736707,Rajasthan
Reniwal's Salon,Gym,"CJWW+8JQ, Arya Nagar, Ajmer, Rajasthan 305001, India",https://www.google.co.kr/maps/place/Reniwal's+Salon/data=!4m5!3m4!1s0x396be6dbf83cbbb5:0xd86aae067a7ce4e1!8m2!3d26.4458477!4d74.6466209?authuser=0&hl=en&rclk=1,26.4458477,74.6466209,Rajasthan
Fitness 360 gym,Gym,"Pradhan Marg, Vidyut Abhiyanta Colony, Sector 4, Malviya Nagar, Jaipur, Rajasthan 302017, India",https://www.google.co.kr/maps/place/Fitness+360+gym/data=!4m5!3m4!1s0x396db60c8bafeba9:0x1ff221df37595574!8m2!3d26.8488253!4d75.8139507?authuser=0&hl=en&rclk=1,26.8488253,75.8139507,Rajasthan
Fitness Mantra Cardio Gym,Gym,"FJF6+P3H, Haribhau Upadhyay Nagar, Ajmer, Rajasthan 305004, India",https://www.google.co.kr/maps/place/Fitness+Mantra+Cardio+Gym/data=!4m5!3m4!1s0x396be79c2f72591d:0x87b01a7c34372fd3!8m2!3d26.4743011!4d74.6102212?authuser=0&hl=en&rclk=1,26.4743011,74.6102212,Rajasthan
Imperial Fitness Zone,Gym,"Near, Sector A-5/I, Dalle Khan Cir, Shastri Nagar, Jodhpur, Rajasthan 342008, India",https://www.google.co.kr/maps/place/Imperial+Fitness+Zone/data=!4m5!3m4!1s0x39418ddda6334a4f:0x5acf26aec7765263!8m2!3d26.2680454!4d72.9949477?authuser=0&hl=en&rclk=1,26.2680454,72.9949477,Rajasthan
Shape Up The Gym,Gym,"Lajpat Nagar, Ramganj, Ajmer, Rajasthan 305001, India",https://www.google.co.kr/maps/place/Shape+Up+The+Gym/data=!4m5!3m4!1s0x396be0d41dd2cad1:0x4371a713c56a1c8!8m2!3d26.4218579!4d74.635247?authuser=0&hl=en&rclk=1,26.4218579,74.635247,Rajasthan
Saini Fitness Gym Center,Gym,"QMJR+488, bagholi, Rajasthan 333801, India",https://www.google.co.kr/maps/place/Saini+Fitness+Gym+Center/data=!4m5!3m4!1s0x396cd7ca9f03e68d:0xe75756755d6b8b11!8m2!3d27.7802923!4d75.6908306?authuser=0&hl=en&rclk=1,27.7802923,75.6908306,Rajasthan
NAYA BILLU,Gym,"WMP4+JPX, Biloo, Rajasthan 341542, India",https://www.google.co.kr/maps/place/NAYA+BILLU/data=!4m5!3m4!1s0x396b9909ee06853f:0xc6302edf2aa5b439!8m2!3d26.9366211!4d74.6568454?authuser=0&hl=en&rclk=1,26.9366211,74.6568454,Rajasthan
Fit 4 yourself,Fitness center,"13 A Dana Pani restaurant, Jan Path, syam, Jaipur, Rajasthan 302006, India",https://www.google.co.kr/maps/place/Fit+4+yourself/data=!4m5!3m4!1s0x396db59632b4e917:0x8fe3079bf1e1370f!8m2!3d26.8909361!4d75.7574653?authuser=0&hl=en&rclk=1,26.8909361,75.7574653,Rajasthan
Hardcore gym,Gym,"Bakra mandi road, ghaushla ke samne, Siwanchi Gate Rd, Jodhpur, Rajasthan 342001, India",https://www.google.co.kr/maps/place/Hardcore+gym/data=!4m5!3m4!1s0x39418de9e2cbdeb5:0xfcf0b58a6d76eb8c!8m2!3d26.2882035!4d73.0121399?authuser=0&hl=en&rclk=1,26.2882035,73.0121399,Rajasthan
Paradise Gym and fitness centre,Gym,"Rose Villa, near Saras chauraha, Rajasthan 321001, India",https://www.google.co.kr/maps/place/Paradise+Gym+and+fitness+centre/data=!4m5!3m4!1s0x3973a386a7ec70c9:0x1ade76a167414420!8m2!3d27.2073559!4d77.5110166?authuser=0&hl=en&rclk=1,27.2073559,77.5110166,Rajasthan
T.S Fitness,Gym,"2nd Floor,4-B-2,Talwandi Circle,Just Side By Kotak Mahindra Bank, Kota, Rajasthan 324005, India",https://www.google.co.kr/maps/place/T.S+Fitness/data=!4m5!3m4!1s0x396f84d996ca7c45:0x3a1db8086d5ba74d!8m2!3d25.1467275!4d75.8398608?authuser=0&hl=en&rclk=1,25.1467275,75.8398608,Rajasthan
BALARA TOWER,Fitness center,"72, Kalwar Rd, Shyam Vihar, Roop Nagar, Jhotwara, Jaipur, Rajasthan 302012, India",https://www.google.co.kr/maps/place/BALARA+TOWER/data=!4m5!3m4!1s0x396db3270afae26f:0x66073fa8dd757966!8m2!3d26.9485653!4d75.7147563?authuser=0&hl=en&rclk=1,26.9485653,75.7147563,Rajasthan
The dream fitness,Gym,"Keshav Path, Ward Number 5, Subash Chowk, Churu Rural, Rajasthan 331001, India",https://www.google.co.kr/maps/place/The+dream+fitness/data=!4m5!3m4!1s0x39149d5a12c9f267:0xd3e842f081ec057a!8m2!3d28.3019199!4d74.9564123?authuser=0&hl=en&rclk=1,28.3019199,74.9564123,Rajasthan
Rupa Ram,Gym,"Hous No102 Vasant Kunj, Gangashahar, Bikaner, Rajasthan 334401, India",https://www.google.co.kr/maps/place/Rupa+Ram/data=!4m5!3m4!1s0x393fe701d84908f5:0x22334227f7a253a3!8m2!3d27.9898389!4d73.297175?authuser=0&hl=en&rclk=1,27.9898389,73.297175,Rajasthan
Naksh Mens Parlour,Gym,"Q94J+WW4, Patel Nagar, Deoli, Rajasthan 311201, India",https://www.google.co.kr/maps/place/Naksh+Mens+Parlour/data=!4m5!3m4!1s0x396ee0d7523de0cd:0x555beabe29328de2!8m2!3d25.757254!4d75.3823213?authuser=0&hl=en&rclk=1,25.757254,75.3823213,Rajasthan
Fitness fusion,Gym,"J-29, Subhash Marg, C Scheme, Ashok Nagar, Jaipur, Rajasthan 302001, India",https://www.google.co.kr/maps/place/Fitness+fusion/data=!4m5!3m4!1s0x396db404d3500d43:0xf252ac682200bc9b!8m2!3d26.90729!4d75.7980178?authuser=0&hl=en&rclk=1,26.90729,75.7980178,Rajasthan
The Rock,Gym,"7XFW+WH7, Masuria Colony, Baldev Nagar, Jodhpur, Rajasthan 342003, India",https://www.google.co.kr/maps/place/The+Rock/data=!4m5!3m4!1s0x39418c28f781821b:0xa0562a8f4fa4fe3a!8m2!3d26.2747834!4d72.9964223?authuser=0&hl=en&rclk=1,26.2747834,72.9964223,Rajasthan
K.G.F GYM kamal gym fitness,Fitness center,"Kamal boys hostel near jecrc collage sitapura, Tonk Rd, Sanganer, Rajasthan 302022, India",https://www.google.co.kr/maps/place/K.G.F+GYM+kamal+gym+fitness/data=!4m5!3m4!1s0x396dc92468f5e30f:0xc65926364bb43be2!8m2!3d26.7812246!4d75.8217094?authuser=0&hl=en&rclk=1,26.7812246,75.8217094,Rajasthan
FIGHT 2 FIT GYM BEAWAR,Gym,"3rd Floor, Gandhar Shopping Arcade,Outside Ajmeri Gate, near Bhagat Chouraha, Beawar, Rajasthan 305901, India",https://www.google.co.kr/maps/place/FIGHT+2+FIT+GYM+BEAWAR/data=!4m5!3m4!1s0x3969718ef2f41a3f:0xa31e35a7f09539d4!8m2!3d26.103988!4d74.32043?authuser=0&hl=en&rclk=1,26.103988,74.32043,Rajasthan
sattu Banna Fitness Centre,Gym,"R8F8+Q6C, Badnor, Rajasthan 311302, India",https://www.google.co.kr/maps/place/sattu+Banna+Fitness+Centre/data=!4m5!3m4!1s0x39690f675f9671a1:0x17f9726df0d7eb81!8m2!3d25.8244442!4d74.3155002?authuser=0&hl=en&rclk=1,25.8244442,74.3155002,Rajasthan
National Gym Nagaur,Gym,"Station Rd, Kansaro Ka Mohalla, Nagaur, Rajasthan 341001, India",https://www.google.co.kr/maps/place/National+Gym+Nagaur/data=!4m5!3m4!1s0x396a9177c81a9317:0x553db977a278e06e!8m2!3d27.197721!4d73.7337572?authuser=0&hl=en&rclk=1,27.197721,73.7337572,Rajasthan
Gym,Gym,"GC3Q+432, Bari, Rajasthan 342307, India",https://www.google.co.kr/maps/place/Gym/data=!4m5!3m4!1s0x39409d86bb7221c7:0x26918b0a9e5177df!8m2!3d27.5027651!4d72.4376499?authuser=0&hl=en&rclk=1,27.5027651,72.4376499,Rajasthan
Samson's Gym & Fitness Centre,Gym,"Prathvi Nagar, Sector-3, Naya Khera, Vidyadhar Nagar, Jaipur, Rajasthan 302023, India",https://www.google.co.kr/maps/place/Samson's+Gym+%26+Fitness+Centre/data=!4m5!3m4!1s0x396db3b7d57186af:0x7354b400a8f4d7f1!8m2!3d26.9548588!4d75.7835921?authuser=0&hl=en&rclk=1,26.9548588,75.7835921,Rajasthan
GSS graund Badsar Rajasthan India,Gym,"HWH8+FGV, Badsar, Rajasthan 331518, India",https://www.google.co.kr/maps/place/GSS+graund+Badsar+Rajasthan+India/data=!4m5!3m4!1s0x396ac98b83521d4f:0x723962ac7438cfb1!8m2!3d27.5787273!4d73.91631?authuser=0&hl=en&rclk=1,27.5787273,73.91631,Rajasthan
Fitness Zone Gym,Gym,"184 Veshvesvaraiya Nagar extension, Veshvesvaraiya Nagar, Jaipur, Rajasthan 302018, India",https://www.google.co.kr/maps/place/Fitness+Zone+Gym/data=!4m5!3m4!1s0x396db5b47602baa9:0xdf8a98d09353eb83!8m2!3d26.8668499!4d75.7774143?authuser=0&hl=en&rclk=1,26.8668499,75.7774143,Rajasthan
Gandas Property,Gym,"Unnamed Road, Gandhi Basti, Sujangarh, Rajasthan 331507, India",https://www.google.co.kr/maps/place/Gandas+Property/data=!4m5!3m4!1s0x396b335d68bc5715:0xa50a853fa4199195!8m2!3d27.7201459!4d74.4607183?authuser=0&hl=en&rclk=1,27.7201459,74.4607183,Rajasthan
SHRI BALWANT VYAYAM SHALA,Fitness center,"Shri Balwant Vyayam Shala Behind, Chougan Stadium Rd, Jaipur, Rajasthan 302001, India",https://www.google.co.kr/maps/place/SHRI+BALWANT+VYAYAM+SHALA/data=!4m5!3m4!1s0x396db14f6a29e06b:0x5bafa13b2226d6c1!8m2!3d26.9318885!4d75.8228007?authuser=0&hl=en&rclk=1,26.9318885,75.8228007,Rajasthan
Flex Studio's Gym & Fitness,Gymnasium Cz,"Tatkaleshwarpuri, Hida Ki Mori, Ramganj Bazar, Jaipur, Rajasthan 302003, India",https://www.google.co.kr/maps/place/Flex+Studio's+Gym+%26+Fitness/data=!4m5!3m4!1s0x396db133179a7327:0x5b7bfe57cad224e2!8m2!3d26.9246794!4d75.838079?authuser=0&hl=en&rclk=1,26.9246794,75.838079,Rajasthan
Sonu Bhargav,Gym,"Unnamed Road, Adsar Bass, Shri Dungargarh, Rajasthan 331803, India",https://www.google.co.kr/maps/place/Sonu+Bhargav/data=!4m5!3m4!1s0x391517e71f3a9ee1:0x3f613a311f5650c9!8m2!3d28.1036496!4d74.0091268?authuser=0&hl=en&rclk=1,28.1036496,74.0091268,Rajasthan
Arhaan Khan Aesthetics,Fitness center,"near Nagar Palika, Parbatsar, Rajasthan 341512, India",https://www.google.co.kr/maps/place/Arhaan+Khan+Aesthetics/data=!4m5!3m4!1s0x396b919b3f5670a3:0x122808a2eccf0b44!8m2!3d26.8856982!4d74.7644289?authuser=0&hl=en&rclk=1,26.8856982,74.7644289,Rajasthan
GAURAV MATHUR,Gym,"2183, Khejron Ka Rasta, Chandpole Bazar, Chandpole, Chandpol, Jaipur, Rajasthan 302001, India",https://www.google.co.kr/maps/place/GAURAV+MATHUR/data=!4m5!3m4!1s0x396db148a9098ba5:0x8d21746712f690bc!8m2!3d26.9244578!4d75.8145596?authuser=0&hl=en&rclk=1,26.9244578,75.8145596,Rajasthan
Vidhadhar Nagar,Gym,"3/257/6, Sector-3, Naya Khera, Vidyadhar Nagar, Jaipur, Rajasthan 302039, India",https://www.google.co.kr/maps/place/Vidhadhar+Nagar/data=!4m5!3m4!1s0x396db3b8e575299f:0x2d849b4f254a5de1!8m2!3d26.948127!4d75.78139?authuser=0&hl=en&rclk=1,26.948127,75.78139,Rajasthan
Gym time,Gym,"5Q8M+7QM, Rajban, Tonk, Rajasthan 304001, India",https://www.google.co.kr/maps/place/Gym+time/data=!4m5!3m4!1s0x396e61b129c2a617:0xe1fcf31e6a202157!8m2!3d26.1657033!4d75.7844129?authuser=0&hl=en&rclk=1,26.1657033,75.7844129,Rajasthan
Jalam Service Center,Gym,"6FH9+F3C, Lamana, Rajasthan 305202, India",https://www.google.co.kr/maps/place/Jalam+Service+Center/data=!4m5!3m4!1s0x396963891b9bcded:0xec7be7fbf16c369!8m2!3d26.2286874!4d74.4676488?authuser=0&hl=en&rclk=1,26.2286874,74.4676488,Rajasthan
Kolayat Boat,Gym,"RXR2+MW5, Kolayat, Rajasthan 334302, India",https://www.google.co.kr/maps/place/Kolayat+Boat/data=!4m5!3m4!1s0x393f911b5385d953:0xa896f07ca39932f7!8m2!3d27.8416414!4d72.9523556?authuser=0&hl=en&rclk=1,27.8416414,72.9523556,Rajasthan
Rolsabsar Cricket Council,Gym,"2VR9+JR8, RolSabsar, Rajasthan 332302, India",https://www.google.co.kr/maps/place/Rolsabsar+Cricket+Council/data=!4m5!3m4!1s0x3914a5deb5d0d445:0x20743bb6ff20a131!8m2!3d28.0415306!4d74.8695713?authuser=0&hl=en&rclk=1,28.0415306,74.8695713,Rajasthan
Jodhpur Parivahan Fitness Centre,Fitness center,"Junawa Complex, Junawo ki Dhani, Dangiyawas Bypass, Junawo Ki Dhani, M.I.A. 1st Phase, Basni, Basni, Pal Rural, Rajasthan 342008, India",https://www.google.co.kr/maps/place/Jodhpur+Parivahan+Fitness+Centre/data=!4m5!3m4!1s0x39418966b67c2471:0xfdda4394bcce34f1!8m2!3d26.2127667!4d72.9887411?authuser=0&hl=en&rclk=1,26.2127667,72.9887411,Rajasthan
Defence Academy,Gym,"7MWR+XQV, Ajmer, Rajasthan 305601, India",https://www.google.co.kr/maps/place/Defence+Academy/data=!4m5!3m4!1s0x396958d5c5232439:0x932b9f7e2a44338b!8m2!3d26.2974927!4d74.6919254?authuser=0&hl=en&rclk=1,26.2974927,74.6919254,Rajasthan
"Royal Fitness Gym 314 314,Chaapol House, Bajrang Nagar kota Raj.",Gym,"314, Chhapol House, Bajrang Nagar, Kota, Rajasthan 324001, India","https://www.google.co.kr/maps/place/Royal+Fitness+Gym+314+314,Chaapol+House,+Bajrang+Nagar+kota+Raj./data=!4m5!3m4!1s0x396f9adab46b6a95:0x8d68e681f2c5e9a!8m2!3d25.180274!4d75.864747?authuser=0&hl=en&rclk=1",25.180274,75.864747,Rajasthan
Bhanu Pehelwan,Gym,"Unnamed Road, Pahar Ganj, Ajmer, Rajasthan 305001, India",https://www.google.co.kr/maps/place/Bhanu+Pehelwan/data=!4m5!3m4!1s0x396be748b41d8cc1:0x43ad18f9628c7361!8m2!3d26.4493847!4d74.6315456?authuser=0&hl=en&rclk=1,26.4493847,74.6315456,Rajasthan
ThakurJi Mandir Play Ground Bandolai City Play Ground,Gym,"runing ground bandolai ki dhani didwana nagour Rajasthan india asiya, Nagaur - Didwana Rd, Rajasthan, India",https://www.google.co.kr/maps/place/ThakurJi+Mandir+Play+Ground+Bandolai+City+Play+Ground/data=!4m5!3m4!1s0x396b1757d9e20f19:0x839f1a6b5338e36!8m2!3d27.3418425!4d74.4736995?authuser=0&hl=en&rclk=1,27.3418425,74.4736995,Rajasthan
RAM NARAYAN CHOUDHARY,Fitness center,"Choudhary Colony Rd, Gangashahar, Bikaner, Rajasthan 334001, India",https://www.google.co.kr/maps/place/RAM+NARAYAN+CHOUDHARY/data=!4m5!3m4!1s0x393fe7bdca501f45:0x8d900a8c8b0104ff!8m2!3d27.9888593!4d73.3137101?authuser=0&hl=en&rclk=1,27.9888593,73.3137101,Rajasthan
Aditya Raj,Gym,"Dadabari Extension, Dadabari, Kota, Rajasthan 324009, India",https://www.google.co.kr/maps/place/Aditya+Raj/data=!4m5!3m4!1s0x396f8571649a88e7:0xa0a21b263cbe1441!8m2!3d25.1576864!4d75.8332722?authuser=0&hl=en&rclk=1,25.1576864,75.8332722,Rajasthan
Mansi Health Care,Gym,"Plot No. 11, Prakash Nagar, Near Filter Plant, Gali No. 1, Foy Sagar Road, Ajmer, Rajasthan 305022, India",https://www.google.co.kr/maps/place/Mansi+Health+Care/data=!4m5!3m4!1s0x396be70cf107282b:0xd6eb350a9d9aee8a!8m2!3d26.4639529!4d74.6190098?authuser=0&hl=en&rclk=1,26.4639529,74.6190098,Rajasthan
Fitness Fobia Gym,Gym,"Jail Road, near Aayushman Hospital, Vikas Vihar Colony, Tonk, Rajasthan Raj) 304001, India",https://www.google.co.kr/maps/place/Fitness+Fobia+Gym/data=!4m5!3m4!1s0x396e61871abf0a91:0x29fa67b7f686c5d7!8m2!3d26.1567708!4d75.7787081?authuser=0&hl=en&rclk=1,26.1567708,75.7787081,Rajasthan
Royal Meena,Gym,"74 dhanka basti, Hasanpura A, Hasanpura, Jaipur, Rajasthan 302006, India",https://www.google.co.kr/maps/place/Royal+Meena/data=!4m5!3m4!1s0x396db3a4b2a9ec1d:0xfdfe3e09b897d0f7!8m2!3d26.9218858!4d75.7794723?authuser=0&hl=en&rclk=1,26.9218858,75.7794723,Rajasthan
TIRANGA E MITRA & STUDIO ALAY,Gym,"BISHNOI BASS ALAY, Alai, Rajasthan 341012, India",https://www.google.co.kr/maps/place/TIRANGA+E+MITRA+%26+STUDIO+ALAY/data=!4m5!3m4!1s0x396aa21243b4b84f:0x7e76b1c14f4a03e6!8m2!3d27.3286589!4d73.5741357?authuser=0&hl=en&rclk=1,27.3286589,73.5741357,Rajasthan
Lucky Defence Academy,Physical fitness program,"near Babuji Nursing collage, Ladnun, Rajasthan 341306, India",https://www.google.co.kr/maps/place/Lucky+Defence+Academy/data=!4m5!3m4!1s0x396b2f187ca0ddc9:0x32bce4779a2a6151!8m2!3d27.6230512!4d74.3877707?authuser=0&hl=en&rclk=1,27.6230512,74.3877707,Rajasthan
Mantrayana Yoga Studio,Yoga studio,"14, Jwala Vihar, 5th Pulia, Main Chopasni Road, Jodhpur, Rajasthan 342001, India",https://www.google.co.kr/maps/place/Mantrayana+Yoga+Studio/data=!4m5!3m4!1s0x39418eed090befef:0xb721ae0bf6dc5d19!8m2!3d26.2671778!4d72.9669299?authuser=0&hl=en&rclk=1,26.2671778,72.9669299,Rajasthan
Srijan Yoga Studio,Yoga studio,"192, Sector-C, Shastri Nagar, Jodhpur, Rajasthan 342003, India",https://www.google.co.kr/maps/place/Srijan+Yoga+Studio/data=!4m5!3m4!1s0x39418c3ccae2bd17:0x62898ae9d59d06de!8m2!3d26.2664003!4d73.0053132?authuser=0&hl=en&rclk=1,26.2664003,73.0053132,Rajasthan
Devnarayan Defence Academy,Physical fitness program,"Khariya Rd, Kuchaman City, Rajasthan 341508, India",https://www.google.co.kr/maps/place/Devnarayan+Defence+Academy/data=!4m5!3m4!1s0x396b7f89f297107d:0x1ececeb99ff24f06!8m2!3d27.1400025!4d74.8871331?authuser=0&hl=en&rclk=1,27.1400025,74.8871331,Rajasthan
Priyanka's Yoga Studio,Yoga studio,"Sabji Mandi Link Rd, Ratanada, Jodhpur, Rajasthan 342011, India",https://www.google.co.kr/maps/place/Priyanka's+Yoga+Studio/data=!4m5!3m4!1s0x39418c594cd23f57:0xbf5f7499bbd24dd6!8m2!3d26.2717962!4d73.0355359?authuser=0&hl=en&rclk=1,26.2717962,73.0355359,Rajasthan
Indian Institute of Yoga & Naturopathy Sciences,Yoga studio,"A-11 “Mahal Palace, Gokul Vatika, Durgapura, Jaipur, Rajasthan 302018, India",https://www.google.co.kr/maps/place/Indian+Institute+of+Yoga+%26+Naturopathy+Sciences/data=!4m5!3m4!1s0x396db5c0fecbdbdf:0xb9a75e12b1d671a8!8m2!3d26.8453266!4d75.7976401?authuser=0&hl=en&rclk=1,26.8453266,75.7976401,Rajasthan
