Company_Name,Category,Address,Url,Latitude,Longitude,Territory
Fitness ONE Gym Peelamedu,Gym,"Sri Towers 23 Bharathi St, Sowripalayam - Masakalipalayam Rd, above indian bank, Peelamedu, Coimbatore, Tamil Nadu 641004, India",https://www.google.co.kr/maps/place/Fitness+ONE+Gym+Peelamedu/data=!4m5!3m4!1s0x3ba85785b7e5b533:0x2c513f10fbcab5d8!8m2!3d11.0245528!4d77.0174589?authuser=0&hl=en&rclk=1,11.0245528,77.0174589,Tamil Nadu
Fitness One Kilpauk,Fitness center,"25, Ramanathan St, Alagappa Nagar, Kilpauk, Chennai, Tamil Nadu 600010, India",https://www.google.co.kr/maps/place/Fitness+One+Kilpauk/data=!4m5!3m4!1s0x3a52667fb0e4502b:0x41e7563f75cce9fe!8m2!3d13.0776776!4d80.2338762?authuser=0&hl=en&rclk=1,13.0776776,80.2338762,Tamil Nadu
Aashiq Fitness center Gym In Ayanavaram,Gym,"8/15, 2nd floor ,Market Street Ayanavaram Chennai, Chennnai, Tamil Nadu 600022, India",https://www.google.co.kr/maps/place/Aashiq+Fitness+center+Gym+In+Ayanavaram/data=!4m5!3m4!1s0x3a526521294d57b7:0xd84981daa8a5abe9!8m2!3d13.098829!4d80.2305618?authuser=0&hl=en&rclk=1,13.098829,80.2305618,Tamil Nadu
Bodyzeal Fitworks - Crossfit Gym in Coimbatore | Zumba Fitness | Aerobics classes,Fitness center,"Nava India, No 556/1, Hem Garden Road, Behind Pricol Apartment, Peelamedu, Tamil Nadu 641004, India",https://www.google.co.kr/maps/place/Bodyzeal+Fitworks+-+Crossfit+Gym+in+Coimbatore+%7C+Zumba+Fitness+%7C+Aerobics+classes/data=!4m5!3m4!1s0x3ba85968bbb77fdb:0xdf5779d7a79fd22a!8m2!3d11.0188181!4d76.9892193?authuser=0&hl=en&rclk=1,11.0188181,76.9892193,Tamil Nadu
FitnessOne Salem,Gym,"103/1E,Sriram Nagar, Sarada College Rd, Alagapuram Periyaputhur, Salem, Tamil Nadu 636016, India",https://www.google.co.kr/maps/place/FitnessOne+Salem/data=!4m5!3m4!1s0x3babf05caf830209:0x209d6a70139ffe2f!8m2!3d11.6769098!4d78.1381677?authuser=0&hl=en&rclk=1,11.6769098,78.1381677,Tamil Nadu
EXCELFITNESSANDSPORTS(DINDIGUL),Fitness center,"No 10/73, Trichy Road, Near Kattu Aspathiri, Dindigul, Tamil Nadu 624001, India",https://www.google.co.kr/maps/place/EXCELFITNESSANDSPORTS(DINDIGUL)/data=!4m5!3m4!1s0x3b00aa57a54881e3:0xa0025cc189e39ed9!8m2!3d10.35672!4d77.976051?authuser=0&hl=en&rclk=1,10.35672,77.976051,Tamil Nadu
PowerMax Fitness,Gym,"NO:1705 A, 1st Floor ,Trichy Road Olympus,Near Max Showroom, Ramanathapuram, opp. All India Radio, Olymbus, Ramasamy Nagar, Coimbatore, Tamil Nadu 641045, India",https://www.google.co.kr/maps/place/PowerMax+Fitness/data=!4m5!3m4!1s0x3ba859c15078ef6b:0xb2a01faa1d1239bb!8m2!3d11.0253901!4d77.1246499?authuser=0&hl=en&rclk=1,11.0253901,77.1246499,Tamil Nadu
Gold’s Gym,Gym,"No 7, 1st Ave, Shastri Nagar, Adyar, Chennai, Tamil Nadu 600020, India",https://www.google.co.kr/maps/place/Gold%E2%80%99s+Gym/data=!4m5!3m4!1s0x3a525d5f8e070ce1:0x2aa2debd49b14088!8m2!3d13.0009711!4d80.2595057?authuser=0&hl=en&rclk=1,13.0009711,80.2595057,Tamil Nadu
Avengers Fitness Studio,Gymnasium Cz,"Annasagram Rd, Indhira Nagar, Dharmapuri, Tamil Nadu 636701, India",https://www.google.co.kr/maps/place/Avengers+Fitness+Studio/data=!4m5!3m4!1s0x3bac16e0e9a675cd:0x764b7599f84c3bb5!8m2!3d12.11635!4d78.1578571?authuser=0&hl=en&rclk=1,12.11635,78.1578571,Tamil Nadu
Muscle warrior fitness,Gym,"suguna store, 158.A1 2nd floor, Anna Nagar, Madurai, Tamil Nadu 625020, India",https://www.google.co.kr/maps/place/Muscle+warrior+fitness/data=!4m5!3m4!1s0x3b00c50e4375160b:0x3f48ab88e03035d7!8m2!3d9.9214267!4d78.1481951?authuser=0&hl=en&rclk=1,9.9214267,78.1481951,Tamil Nadu
Fit@gain Fitness Center,Gym,"Thandavarayan St, Ethraj Nagar, Ariyalur, Tamil Nadu 621704, India",https://www.google.co.kr/maps/place/Fit@gain+Fitness+Center/data=!4m5!3m4!1s0x3baadf451f58c5fb:0xe607eab629ff8834!8m2!3d11.1394804!4d79.0704361?authuser=0&hl=en&rclk=1,11.1394804,79.0704361,Tamil Nadu
Star Fitness Gym,Gym,"Sathan Kuttai St, Periya, Kanchipuram, Tamil Nadu 631502, India",https://www.google.co.kr/maps/place/Star+Fitness+Gym/data=!4m5!3m4!1s0x3a52c252c486abe1:0xda8275ca66940b74!8m2!3d12.8418635!4d79.6961391?authuser=0&hl=en&rclk=1,12.8418635,79.6961391,Tamil Nadu
CULT,Fitness center,"No. 3/416, 1st Floor State Highway 49, East Coast Rd, above McDonald's, Palavakkam, Tamil Nadu 600041, India",https://www.google.co.kr/maps/place/CULT/data=!4m5!3m4!1s0x3a555920cd55148f:0xce5c28bf77fdd342!8m2!3d12.9582616!4d80.2556988?authuser=0&hl=en&rclk=1,12.9582616,80.2556988,Tamil Nadu
Kongu Gym,Gym,"7JF3+CQC, Vidya Nagar East, Tamil Nadu 638052, India",https://www.google.co.kr/maps/place/Kongu+Gym/data=!4m5!3m4!1s0x3ba96d79d1b3724d:0x7ec359833011b3ef!8m2!3d11.2735506!4d77.6043829?authuser=0&hl=en&rclk=1,11.2735506,77.6043829,Tamil Nadu
Fitness India,Fitness center,"L 76a, Anna Nagar, Near Chinthamani, Anna Nagar, Chennai, Tamil Nadu 600040, India",https://www.google.co.kr/maps/place/Fitness+India/data=!4m5!3m4!1s0x3a525da00fffffff:0x652a765c844a6ee6!8m2!3d13.084684!4d80.22477?authuser=0&hl=en&rclk=1,13.084684,80.22477,Tamil Nadu
IronParadise Fitness studio,Gym,"Peravurani Main Rd, Peravurani, Tamil Nadu 614804, India",https://www.google.co.kr/maps/place/IronParadise+Fitness+studio/data=!4m5!3m4!1s0x3b000f8eeb9e6ab5:0x943dab3bf10a08db!8m2!3d10.2879212!4d79.1990309?authuser=0&hl=en&rclk=1,10.2879212,79.1990309,Tamil Nadu
Pink Fitness - Ladies Gym Kodambakkam,Gym,"10, 1st Main Rd, opposite to Liberty Park Hotel, United India Colony, Kodambakkam, Chennai, Tamil Nadu 600024, India",https://www.google.co.kr/maps/place/Pink+Fitness+-+Ladies+Gym+Kodambakkam/data=!4m5!3m4!1s0x3a5266f41a504555:0xff82b500982e2b13!8m2!3d13.0526041!4d80.2274598?authuser=0&hl=en&rclk=1,13.0526041,80.2274598,Tamil Nadu
Arokya Fitness,Gym,"Kannankurichi Main Rd, Gurukkal Colony, Chinna Thirupathi, Tamil Nadu 636008, India",https://www.google.co.kr/maps/place/Arokya+Fitness/data=!4m5!3m4!1s0x3babf1a5678bc389:0x615f02a18fd87806!8m2!3d11.6785537!4d78.1684565?authuser=0&hl=en&rclk=1,11.6785537,78.1684565,Tamil Nadu
Justin Bieber Gym,Gym,"Periyar St, Vettavalam, Tamil Nadu 605757, India",https://www.google.co.kr/maps/place/Justin+Bieber+Gym/data=!4m5!3m4!1s0x3bacb11da8f0fdff:0x7ce16cac11c6c4a3!8m2!3d12.1090297!4d79.2419233?authuser=0&hl=en&rclk=1,12.1090297,79.2419233,Tamil Nadu
STRONG FITNESS INDIA,Gym,"No 86, Madhavaram High Rd, KKR Nagar, Chennai, Tamil Nadu 600118, India",https://www.google.co.kr/maps/place/STRONG+FITNESS+INDIA/data=!4m5!3m4!1s0x3a52653bf364db9d:0x2b92cfba69a8347!8m2!3d13.1358252!4d80.2382463?authuser=0&hl=en&rclk=1,13.1358252,80.2382463,Tamil Nadu
PowerFit Gym,Gym,"2nd floor,Jansi complex, Nizam Colony, Pudukkottai, Tamil Nadu 622303, India",https://www.google.co.kr/maps/place/PowerFit+Gym/data=!4m5!3m4!1s0x3b00791315922ec7:0x38450e5d1ee28059!8m2!3d10.3752035!4d78.820347?authuser=0&hl=en&rclk=1,10.3752035,78.820347,Tamil Nadu
GINN FITNESS STUDIO,Gym,"95, Bharathidasan Salai, Cantonment, Tiruchirappalli, Tamil Nadu 620001, India",https://www.google.co.kr/maps/place/GINN+FITNESS+STUDIO/data=!4m5!3m4!1s0x3baaf50dbdf062df:0xaccf23669ed99a87!8m2!3d10.8061115!4d78.6842183?authuser=0&hl=en&rclk=1,10.8061115,78.6842183,Tamil Nadu
Athithya Fitness,Gym,"opp. INDIAN BANK, Velagoundampatti, Tamil Nadu 637212, India",https://www.google.co.kr/maps/place/Athithya+Fitness/data=!4m5!3m4!1s0x3babdb7431425fdb:0xcb0fca7647727e6f!8m2!3d11.2863998!4d78.0697324?authuser=0&hl=en&rclk=1,11.2863998,78.0697324,Tamil Nadu
SMS GYM,Fitness center,"New Bustand, Sbi building, Mecheri, Tamil Nadu 636453, India",https://www.google.co.kr/maps/place/SMS+GYM/data=!4m5!3m4!1s0x3bac012c1154f625:0xf2fbf25f58082579!8m2!3d11.834574!4d77.9428261?authuser=0&hl=en&rclk=1,11.834574,77.9428261,Tamil Nadu
Raw 1 Fitness,Gym,"33H/3rd Floor, Periyar Nagar, Erode, Tamil Nadu 638001, India",https://www.google.co.kr/maps/place/Raw+1+Fitness/data=!4m5!3m4!1s0x3ba96f14de07df11:0x3c53cd999b00a5b7!8m2!3d11.33164!4d77.7209286?authuser=0&hl=en&rclk=1,11.33164,77.7209286,Tamil Nadu
SMS Fitness Gym,Gym,"Kaliyamman Temple, Arukil, Vanavasi, Tamil Nadu 636457, India",https://www.google.co.kr/maps/place/SMS+Fitness+Gym/data=!4m5!3m4!1s0x3ba955a320b7d83d:0x44f619e058ba244f!8m2!3d11.750445!4d77.8822541?authuser=0&hl=en&rclk=1,11.750445,77.8822541,Tamil Nadu
Ultimate fitness gym,Gym,"Attur Main Rd, Muttampatti, Tamil Nadu 636115, India",https://www.google.co.kr/maps/place/Ultimate+fitness+gym/data=!4m5!3m4!1s0x3bab8f5ec505e2fd:0xd2a4e82392bc00b5!8m2!3d11.6565025!4d78.3909213?authuser=0&hl=en&rclk=1,11.6565025,78.3909213,Tamil Nadu
Erode Gym,Gym,"9P2F+H6G, Moolapatrai, Thirunagar Colony, Tamil Nadu 638001, India",https://www.google.co.kr/maps/place/Erode+Gym/data=!4m5!3m4!1s0x3ba96f49f790fd8f:0x8b068ebd203fbeac!8m2!3d11.3514331!4d77.7230895?authuser=0&hl=en&rclk=1,11.3514331,77.7230895,Tamil Nadu
"HFS, Hardcore Fitness Studio Thanjavur",Gym,"No: 30, MGM Building Don Bosco School Road, opp. to Indian Bank, Yagappa Nagar, Thanjavur, Tamil Nadu 613007, India","https://www.google.co.kr/maps/place/HFS,+Hardcore+Fitness+Studio+Thanjavur/data=!4m5!3m4!1s0x3baab8c1ca947429:0x72ffe987320a8d9!8m2!3d10.7625392!4d79.1321805?authuser=0&hl=en&rclk=1",10.7625392,79.1321805,Tamil Nadu
Anjaneya Gym,Gym,"Unnamed Road,, Rajapalayam, Tamil Nadu 637501, India",https://www.google.co.kr/maps/place/Anjaneya+Gym/data=!4m5!3m4!1s0x3babe6a2616fca59:0x5a0e05726e22598e!8m2!3d11.540688!4d78.0412648?authuser=0&hl=en&rclk=1,11.540688,78.0412648,Tamil Nadu
Anjaneya Gym,Gym,"East street, Upparpatti, Tamil Nadu 625534, India",https://www.google.co.kr/maps/place/Anjaneya+Gym/data=!4m5!3m4!1s0x3b0713e2b85c2781:0x8ba926dd6b19e2f1!8m2!3d9.9528775!4d77.4202639?authuser=0&hl=en&rclk=1,9.9528775,77.4202639,Tamil Nadu
Lifespring Healthplus India Private Limited,Fitness center,"6, Udayampalayam Rd, near DTDC Courier Office, Coimbatore, Tamil Nadu 641028, India",https://www.google.co.kr/maps/place/Lifespring+Healthplus+India+Private+Limited/data=!4m5!3m4!1s0x3ba859cda1ac9d63:0xf5b8196ca3eeec9f!8m2!3d11.0122707!4d76.9976887?authuser=0&hl=en&rclk=1,11.0122707,76.9976887,Tamil Nadu
MONSTER FITNESS STUDIO,Gym,"Sankaran Pillaiyar Koyil St, VOC Nagar, Nagapattinam, Tamil Nadu 611001, India",https://www.google.co.kr/maps/place/MONSTER+FITNESS+STUDIO/data=!4m5!3m4!1s0x3a556d9bbedc32c9:0x318c91a678c722c4!8m2!3d10.7751099!4d79.8399142?authuser=0&hl=en&rclk=1,10.7751099,79.8399142,Tamil Nadu
Dr.Geethanjali's Fitness Centre,Fitness center,"No 74/93, Big Bazaar, Kalla Street, Tiruchirappalli, Tamil Nadu 620008, India",https://www.google.co.kr/maps/place/Dr.Geethanjali's+Fitness+Centre/data=!4m5!3m4!1s0x3baaf5ab81854449:0xc0026185ec79688d!8m2!3d10.822497!4d78.6992959?authuser=0&hl=en&rclk=1,10.822497,78.6992959,Tamil Nadu
Cult OMR Perungudi,Gym,"MOTI Towers, 2nd & 3rd Floor, Old Mahabalipuram Rd, Perungudi, Chennai, Tamil Nadu 600097, India",https://www.google.co.kr/maps/place/Cult+OMR+Perungudi/data=!4m5!3m4!1s0x3a5251ddb4c57381:0x56eaf0119754ba3!8m2!3d12.9629457!4d80.2467111?authuser=0&hl=en&rclk=1,12.9629457,80.2467111,Tamil Nadu
Lifespring Healthplus India Private Limited,Gym,"No. 3/2, 10 641 034., B1, 4 th St, VKL Nagar, Thudiyalur, Tamil Nadu 641034, India",https://www.google.co.kr/maps/place/Lifespring+Healthplus+India+Private+Limited/data=!4m5!3m4!1s0x3ba8f619eb392a1d:0x8ec512e3c1fe0861!8m2!3d11.0666363!4d76.9366799?authuser=0&hl=en&rclk=1,11.0666363,76.9366799,Tamil Nadu
DSF Gym,Gym,"Victoria Extension Road, Rathna Colony, Shanmugapuram, Thoothukudi, Tamil Nadu 628003, India",https://www.google.co.kr/maps/place/DSF+Gym/data=!4m5!3m4!1s0x3b03efa2a18688c7:0x542cc2fba08e0a6a!8m2!3d8.8017826!4d78.1463206?authuser=0&hl=en&rclk=1,8.8017826,78.1463206,Tamil Nadu
Super Power Gym,Gym,"R4CQ+FH4, KTC Nagar, Thoothukudi, Tamil Nadu 628002, India",https://www.google.co.kr/maps/place/Super+Power+Gym/data=!4m5!3m4!1s0x3b03ef8a2c0268af:0xe19a2edf1ea2a698!8m2!3d8.8211459!4d78.1389529?authuser=0&hl=en&rclk=1,8.8211459,78.1389529,Tamil Nadu
Fitness Solutions,Fitness center,"75, Avinashi Rd, Opposite Power House, Nava India, STV Nagar, Coimbatore, Tamil Nadu 641004, India",https://www.google.co.kr/maps/place/Fitness+Solutions/data=!4m5!3m4!1s0x3ba858314ff324c1:0x17873a84c2fe0eb6!8m2!3d11.0213893!4d76.9938055?authuser=0&hl=en&rclk=1,11.0213893,76.9938055,Tamil Nadu
Fitness 7 GYM,Gym,"First floor Sbi Atm, Adhiyaman Kottai, Nallampalli, Tamil Nadu 636807, India",https://www.google.co.kr/maps/place/Fitness+7+GYM/data=!4m5!3m4!1s0x3bac116f0b1b34af:0xc38737c1831e2aa6!8m2!3d12.0625832!4d78.1145984?authuser=0&hl=en&rclk=1,12.0625832,78.1145984,Tamil Nadu
60 Minute workouts fitness studio,Gym,"51, Hindustan Avenue, Nava India Rd, Coimbatore, Tamil Nadu 641028, India",https://www.google.co.kr/maps/place/60+Minute+workouts+fitness+studio/data=!4m5!3m4!1s0x3ba859fef6ec8ff7:0x8ef8135f87e5abc!8m2!3d11.0129161!4d76.9967037?authuser=0&hl=en&rclk=1,11.0129161,76.9967037,Tamil Nadu
Fitness Zone saligramam,Gym,"1, 80 Feet Road, Landmark opposite to Indian petrol bunk, Sathya Garden, Saligramam, Chennai, Tamil Nadu 600093, India",https://www.google.co.kr/maps/place/Fitness+Zone+saligramam/data=!4m5!3m4!1s0x3a5266c559316379:0x712d07f72518640b!8m2!3d13.0460285!4d80.1988358?authuser=0&hl=en&rclk=1,13.0460285,80.1988358,Tamil Nadu
CULT,Fitness center,"3rd Floor, Above Hot Chips Restaurant, Karappakam, Old Mahabalipuram Rd, OMR, Sholinganallur, Chennai, Tamil Nadu 600097, India",https://www.google.co.kr/maps/place/CULT/data=!4m5!3m4!1s0x3a525d3726bbd6c1:0x76d376550a4fac83!8m2!3d12.9159634!4d80.2297861?authuser=0&hl=en&rclk=1,12.9159634,80.2297861,Tamil Nadu
Tamil fitness,Fitness center,"back side, 6/11 west mada street , thirumullaivoyal 1st floor Next to patchaiamman kovil, Shivan Kovil St, Chennai, Tamil Nadu 600062, India",https://www.google.co.kr/maps/place/Tamil+fitness/data=!4m5!3m4!1s0x3a5263470b5e9705:0x455855b87dd0e7b7!8m2!3d13.1355648!4d80.1315337?authuser=0&hl=en&rclk=1,13.1355648,80.1315337,Tamil Nadu
Fitkits Gym,Gym,"11/4, 3rd Floor, Padmanabha Nagar, Adyar, Chennai, Tamil Nadu 600020, India",https://www.google.co.kr/maps/place/Fitkits+Gym/data=!4m5!3m4!1s0x3a5266381da55013:0xe53f675f3ee34826!8m2!3d13.0066896!4d80.2580385?authuser=0&hl=en&rclk=1,13.0066896,80.2580385,Tamil Nadu
சேந்தன்குடி,Gym,"73VC+632, Sendankudi, Tamil Nadu 614624, India",https://www.google.co.kr/maps/place/%E0%AE%9A%E0%AF%87%E0%AE%A8%E0%AF%8D%E0%AE%A4%E0%AE%A9%E0%AF%8D%E0%AE%95%E0%AF%81%E0%AE%9F%E0%AE%BF/data=!4m5!3m4!1s0x3b000dd0c3966fa3:0x7fbfe950229cd071!8m2!3d10.2930121!4d79.0701548?authuser=0&hl=en&rclk=1,10.2930121,79.0701548,Tamil Nadu
1ON1 Fitness Holidays,Boot camp,"A3Milhaven, Hill top Road Next to Golf Club, Kodaikanal, Tamil Nadu 624103, India",https://www.google.co.kr/maps/place/1ON1+Fitness+Holidays/data=!4m5!3m4!1s0x3b07660c74c1130f:0x9a8623067aa7c4c7!8m2!3d10.2112036!4d77.4770511?authuser=0&hl=en&rclk=1,10.2112036,77.4770511,Tamil Nadu
Fitness and gym,Fitness center,"AMB complex, Wahab Nagar, Krishnagiri, Tamil Nadu 635001, India",https://www.google.co.kr/maps/place/Fitness+and+gym/data=!4m5!3m4!1s0x3bac335866794885:0xc00ecc8fe52f5d87!8m2!3d12.5281024!4d78.2024245?authuser=0&hl=en&rclk=1,12.5281024,78.2024245,Tamil Nadu
Bullz Fitness,Fitness center,"#489, 2nd Floor, Sri Shakthe Tower, T.V.K Road Ammapet Landmark - State Bank Of India, Ammapet Branch Building's 2nd floor, Salem, Tamil Nadu 636003, India",https://www.google.co.kr/maps/place/Bullz+Fitness/data=!4m5!3m4!1s0x3babf1d6adda3cf3:0xefcdf489c6426129!8m2!3d11.6597059!4d78.1867899?authuser=0&hl=en&rclk=1,11.6597059,78.1867899,Tamil Nadu
MAC Gym,Gym,"Chennai - Thiruttani - Renigunta Hwy, Thiruninravur, Thiruvenkada Nagar, Tamil Nadu 602024, India",https://www.google.co.kr/maps/place/MAC+Gym/data=!4m5!3m4!1s0x3a5288dc2b55587f:0x35f807c9b262719c!8m2!3d13.1244815!4d80.0283381?authuser=0&hl=en&rclk=1,13.1244815,80.0283381,Tamil Nadu
Jai Gym,Gym,"H8H2+8H2, Krishnagiri, Tamil Nadu 635001, India",https://www.google.co.kr/maps/place/Jai+Gym/data=!4m5!3m4!1s0x3badb5644def1423:0x2ef0d625b1c9c3ee!8m2!3d12.5782557!4d78.3014056?authuser=0&hl=en&rclk=1,12.5782557,78.3014056,Tamil Nadu
Cult T Nagar,Fitness center,"4th Floor, Prashanth Gold Tower, 40, N Usman Rd, T. Nagar, Chennai, Tamil Nadu 600017, India",https://www.google.co.kr/maps/place/Cult+T+Nagar/data=!4m5!3m4!1s0x3a5267197f7c3855:0xb517921fee375ade!8m2!3d13.0469609!4d80.2332042?authuser=0&hl=en&rclk=1,13.0469609,80.2332042,Tamil Nadu
fit&gain fitness center,Gym,"6973+3VH, Jayankondam, Tamil Nadu 621802, India",https://www.google.co.kr/maps/place/fit%26gain+fitness+center/data=!4m5!3m4!1s0x3bab2bb93481974b:0x7805404256e51ae2!8m2!3d11.2126958!4d79.3547255?authuser=0&hl=en&rclk=1,11.2126958,79.3547255,Tamil Nadu
V-FIT GYM & FITNESS CENTRE,Gym,"Marudhamalai Rd, near Bimetal Bearing Company, P N Pudur, Tamil Nadu 641007, India",https://www.google.co.kr/maps/place/V-FIT+GYM+%26+FITNESS+CENTRE/data=!4m5!3m4!1s0x3ba858d4779dbf39:0x633e47b7fdd82711!8m2!3d11.0211501!4d76.9174997?authuser=0&hl=en&rclk=1,11.0211501,76.9174997,Tamil Nadu
Namakkal Fitness & Health Equipments,Gym,"5/1B, Trichy Main Rd, Ganesapuram, Kamaraj Nagar, Namakkal, Tamil Nadu 637001, India",https://www.google.co.kr/maps/place/Namakkal+Fitness+%26+Health+Equipments/data=!4m5!3m4!1s0x3babcfdb36e8c259:0x36b4279b2969c070!8m2!3d11.2180695!4d78.1695855?authuser=0&hl=en&rclk=1,11.2180695,78.1695855,Tamil Nadu
STAR GYM (SELVAM MASTER),Gym,"Arumuga Achari St, Dharmapuri, Tamil Nadu 636701, India",https://www.google.co.kr/maps/place/STAR+GYM+(SELVAM+MASTER)/data=!4m5!3m4!1s0x3bac178af4e98aab:0x3b767051c688a92c!8m2!3d12.1352166!4d78.1631662?authuser=0&hl=en&rclk=1,12.1352166,78.1631662,Tamil Nadu
DREAM FITNESS,Gym,"ITI Compound, DVD Colony, Chenthooran Nagar, Nagercoil, Tamil Nadu 629002, India",https://www.google.co.kr/maps/place/DREAM+FITNESS/data=!4m5!3m4!1s0x3b04f16333a76dc5:0xbe2f7e4227865110!8m2!3d8.1701975!4d77.4342109?authuser=0&hl=en&rclk=1,8.1701975,77.4342109,Tamil Nadu
Fitness One Puliakulam,Gym,"Manchester Square, 12, basement, Puliakulam Rd, opp. kidney center hospital, Coimbatore, Tamil Nadu 641037, India",https://www.google.co.kr/maps/place/Fitness+One+Puliakulam/data=!4m5!3m4!1s0x3ba859bccfb4eee5:0xd940dc7340f99188!8m2!3d11.0103352!4d76.9891923?authuser=0&hl=en&rclk=1,11.0103352,76.9891923,Tamil Nadu
JK Life fitness,Gym,"NAGA & LAKSHMI, ROUND ROAD ALPHA TOWER, SBI BANK, above 3RD FLOOR, opp. DINDIGUL, Tamil Nadu 624005, India",https://www.google.co.kr/maps/place/JK+Life+fitness/data=!4m5!3m4!1s0x3b00ab3ec7450291:0xb0ffed6f3e5a14f9!8m2!3d10.362379!4d77.990039?authuser=0&hl=en&rclk=1,10.362379,77.990039,Tamil Nadu
"GLOBAL FITNESS CENTER, THANJAVUR",Fitness center,"M.S.COMPLEX, COLLECTOR MURUGARAJ NAGAR, MATHAKOTTAI ROAD, INFANT JESUS, CHURCH,, Thanjavur, Tamil Nadu 613005, India","https://www.google.co.kr/maps/place/GLOBAL+FITNESS+CENTER,+THANJAVUR/data=!4m5!3m4!1s0x3baab936aaaaaa95:0xe611f5e4b061c6af!8m2!3d10.756145!4d79.124471?authuser=0&hl=en&rclk=1",10.756145,79.124471,Tamil Nadu
நடை பயிற்சி இடம்,Gym,"Nehru Park Rd, Neyveli T.S, Tamil Nadu 607801, India",https://www.google.co.kr/maps/place/%E0%AE%A8%E0%AE%9F%E0%AF%88+%E0%AE%AA%E0%AE%AF%E0%AE%BF%E0%AE%B1%E0%AF%8D%E0%AE%9A%E0%AE%BF+%E0%AE%87%E0%AE%9F%E0%AE%AE%E0%AF%8D/data=!4m5!3m4!1s0x3a54b1be0329cd1f:0x77c84bd27fda5695!8m2!3d11.6134542!4d79.5167225?authuser=0&hl=en&rclk=1,11.6134542,79.5167225,Tamil Nadu
Neo Gym,Gym,"X29X+5PR, Reddipalayam, Karur, Tamil Nadu 639002, India",https://www.google.co.kr/maps/place/Neo+Gym/data=!4m5!3m4!1s0x3baa2f1dc8995d63:0xdee49337d891e082!8m2!3d10.9679919!4d78.0492541?authuser=0&hl=en&rclk=1,10.9679919,78.0492541,Tamil Nadu
V FITNESS,Gym,"Kamarajar St, KARUKKUPET, Tamil Nadu 631601, India",https://www.google.co.kr/maps/place/V+FITNESS/data=!4m5!3m4!1s0x3a52e86e82e65517:0xad4fb5c6629e18e5!8m2!3d12.8046892!4d79.7681662?authuser=0&hl=en&rclk=1,12.8046892,79.7681662,Tamil Nadu
Fitness Centre,Gym,"no.40, 52, 100 Feet Rd, Velachery, Chennai, Tamil Nadu 600042, India",https://www.google.co.kr/maps/place/Fitness+Centre/data=!4m5!3m4!1s0x3a5267629257ba33:0x7ed880b851a2f181!8m2!3d12.9817965!4d80.2197223?authuser=0&hl=en&rclk=1,12.9817965,80.2197223,Tamil Nadu
Love Stars,Gym,"Unnamed Road, Ammampalayam, Tamil Nadu 636141, India",https://www.google.co.kr/maps/place/Love+Stars/data=!4m5!3m4!1s0x3bab9d947f6ee013:0xa7a72f947d6263eb!8m2!3d11.598533!4d78.639818?authuser=0&hl=en&rclk=1,11.598533,78.639818,Tamil Nadu
Fitness centre,Gym,"Periyar Rd, Mathur, Tamil Nadu 620024, India",https://www.google.co.kr/maps/place/Fitness+centre/data=!4m5!3m4!1s0x3baa89eb7d3e208b:0x66e8420d55d83e18!8m2!3d10.6750844!4d78.7402495?authuser=0&hl=en&rclk=1,10.6750844,78.7402495,Tamil Nadu
REBEL fitness,Fitness center,"H3P7+QGJ, Salem, Tamil Nadu 636308, India",https://www.google.co.kr/maps/place/REBEL+fitness/data=!4m5!3m4!1s0x3babe5d9cd633a19:0x704f8ebe8a8716f!8m2!3d11.5869537!4d78.0637598?authuser=0&hl=en&rclk=1,11.5869537,78.0637598,Tamil Nadu
Muthu Gym,Boxing gym,"Panjakalipatti, Tamil Nadu 636455, India",https://www.google.co.kr/maps/place/Muthu+Gym/data=!4m5!3m4!1s0x3babfed0ce4fe25f:0x7fcf95745a8ebeca!8m2!3d11.7650947!4d78.0101294?authuser=0&hl=en&rclk=1,11.7650947,78.0101294,Tamil Nadu
Vasan Nagar Gym,Gym,"RJ7R+PF5, Vasan City, Tiruchirappalli, Tamil Nadu 620102, India",https://www.google.co.kr/maps/place/Vasan+Nagar+Gym/data=!4m5!3m4!1s0x3baa5f9ded2152d3:0x225caf7e698aa27f!8m2!3d10.8142586!4d78.6412257?authuser=0&hl=en&rclk=1,10.8142586,78.6412257,Tamil Nadu
KARTHICK GYM,Gym,"Nandhavana St, Namakkal, Tamil Nadu 637001, India",https://www.google.co.kr/maps/place/KARTHICK+GYM/data=!4m5!3m4!1s0x3babceed7ba69a33:0xa7e7c0c274b137d9!8m2!3d11.2217723!4d78.1682558?authuser=0&hl=en&rclk=1,11.2217723,78.1682558,Tamil Nadu
Pink Fitness - Ladies Gym Vadavalli,Gym,"Vadavalli, Marudhamalai Rd, above INDIAN BANK, Coimbatore, Tamil Nadu 641041, India",https://www.google.co.kr/maps/place/Pink+Fitness+-+Ladies+Gym+Vadavalli/data=!4m5!3m4!1s0x3ba85fcd59d17213:0x34672c5fab50daa8!8m2!3d11.0278135!4d76.9039814?authuser=0&hl=en&rclk=1,11.0278135,76.9039814,Tamil Nadu
MRT Multi Gym,Gym,"Pookollai, 62, Pookkollai Rd, Pookollai, Mannargudi, Tamil Nadu 614001, India",https://www.google.co.kr/maps/place/MRT+Multi+Gym/data=!4m5!3m4!1s0x3a554dc9b3fe2a85:0xbf408a54f738541c!8m2!3d10.658059!4d79.4496556?authuser=0&hl=en&rclk=1,10.658059,79.4496556,Tamil Nadu
Madhan kumar Gym,Gym,"Unnamed Road, Sanjeevi Nagar, Tiruchirappalli, Tamil Nadu 620002, India",https://www.google.co.kr/maps/place/Madhan+kumar+Gym/data=!4m5!3m4!1s0x3baaf549158bfa07:0x570d7dbf07819ec2!8m2!3d10.8329313!4d78.7039269?authuser=0&hl=en&rclk=1,10.8329313,78.7039269,Tamil Nadu
10 FITNESS LABORATORY,Gym,"3rd floor, Hyundai show room upstairs, Old no. 94, New, no.162, Luz Church Rd, Mylapore, Chennai, Tamil Nadu 600004, India",https://www.google.co.kr/maps/place/10+FITNESS+LABORATORY/data=!4m5!3m4!1s0x3a5267fd7fda4b95:0xccc55801bc0b2c09!8m2!3d13.038973!4d80.2576079?authuser=0&hl=en&rclk=1,13.038973,80.2576079,Tamil Nadu
Slam Lifestyle And Fitness Studio (ERODE),Gym,"No.4,374/6A Third floor, Perundurai road,(Opp to reliance mall, Tamil Nadu 638011, India",https://www.google.co.kr/maps/place/Slam+Lifestyle+And+Fitness+Studio+(ERODE)/data=!4m5!3m4!1s0x3ba96f1f55988847:0x82a7f5a8c2e6ccc2!8m2!3d11.3340533!4d77.7049225?authuser=0&hl=en&rclk=1,11.3340533,77.7049225,Tamil Nadu
ARUMUGAM GYM,Gym,"J34F+4C5, Magarur R.F., Tamil Nadu 606304, India",https://www.google.co.kr/maps/place/ARUMUGAM+GYM/data=!4m5!3m4!1s0x3bab433ed9d69f7b:0x99e6c8ebb9c8bbc6!8m2!3d11.6052652!4d79.0736032?authuser=0&hl=en&rclk=1,11.6052652,79.0736032,Tamil Nadu
Sri samy belt&wire Works,Gym,"HJV8+8W2, Thulukkanur, Tamil Nadu 636141, India",https://www.google.co.kr/maps/place/Sri+samy+belt%26wire+Works/data=!4m5!3m4!1s0x3bab9dd1be27aed3:0x81cf3a49e2ca900f!8m2!3d11.5932549!4d78.6172719?authuser=0&hl=en&rclk=1,11.5932549,78.6172719,Tamil Nadu
சிவசக்தி கன்சல்டிங்,Gym,"HMR9+G8Q, Vadachennimalai, Tamil Nadu 636121, India",https://www.google.co.kr/maps/place/%E0%AE%9A%E0%AE%BF%E0%AE%B5%E0%AE%9A%E0%AE%95%E0%AF%8D%E0%AE%A4%E0%AE%BF+%E0%AE%95%E0%AE%A9%E0%AF%8D%E0%AE%9A%E0%AE%B2%E0%AF%8D%E0%AE%9F%E0%AE%BF%E0%AE%99%E0%AF%8D/data=!4m5!3m4!1s0x3bab7765ed6061df:0xacaec90e5a173066!8m2!3d11.5913475!4d78.6683613?authuser=0&hl=en&rclk=1,11.5913475,78.6683613,Tamil Nadu
Cult Velachery,Gym,"Cult Velachery, 3rd Floor, ASV Crown Plaza, No.391, Velachery - Tambaram Main Rd, Velachery, Chennai, Tamil Nadu 600042, India",https://www.google.co.kr/maps/place/Cult+Velachery/data=!4m5!3m4!1s0x3a525d0042e36bc7:0xb0d539c3867aef16!8m2!3d12.9717157!4d80.2196228?authuser=0&hl=en&rclk=1,12.9717157,80.2196228,Tamil Nadu
Soldier Gym,Gym,"5Q67+WG9, Batlagundu, Tamil Nadu 624202, India",https://www.google.co.kr/maps/place/Soldier+Gym/data=!4m5!3m4!1s0x3b074f29a1335ad7:0x87eef493ffd4229a!8m2!3d10.1622904!4d77.7638698?authuser=0&hl=en&rclk=1,10.1622904,77.7638698,Tamil Nadu
Gym Center in Trichy - S2 Fitness GYM,Gym,"SH 30, Thuraiyur, Tamil Nadu 621010, India",https://www.google.co.kr/maps/place/Gym+Center+in+Trichy+-+S2+Fitness+GYM/data=!4m5!3m4!1s0x3babab391d29d8e5:0x1ebd77b9b32f0d70!8m2!3d11.1392929!4d78.5918103?authuser=0&hl=en&rclk=1,11.1392929,78.5918103,Tamil Nadu
Kris Fitness,Gym,"2nd Gandhiji Street, Karur by-pass road, near Ashram School, Kollampalayam, Tamil Nadu 638002, India",https://www.google.co.kr/maps/place/Kris+Fitness/data=!4m5!3m4!1s0x3ba96fec9e3bce85:0x445f64a684ef1304!8m2!3d11.3230639!4d77.7355924?authuser=0&hl=en&rclk=1,11.3230639,77.7355924,Tamil Nadu
SLAM Lifestyle and Fitness Studio (Kilpauk),Gym,"6, Harleys Rd, Davidpuram, Kilpauk, Chennai, Tamil Nadu 600010, India",https://www.google.co.kr/maps/place/SLAM+Lifestyle+and+Fitness+Studio+(Kilpauk)/data=!4m5!3m4!1s0x3a5265d7964e765b:0x99662ee82dfbfad8!8m2!3d13.0828214!4d80.2419982?authuser=0&hl=en&rclk=1,13.0828214,80.2419982,Tamil Nadu
Maaruthu gym,Gym,"Bus Stop, Madam, Veeravanallur, Tamil Nadu 627426, India",https://www.google.co.kr/maps/place/Maaruthu+gym/data=!4m5!3m4!1s0x3b043f5181cb177f:0x17d441e35c9c010c!8m2!3d8.6955325!4d77.5171719?authuser=0&hl=en&rclk=1,8.6955325,77.5171719,Tamil Nadu
Oriens,Fitness center,"MDR1001, Verupasandiram, Tamil Nadu 635121, India",https://www.google.co.kr/maps/place/Oriens/data=!4m5!3m4!1s0x3badce495628b81d:0xfed5d56e29d0da5a!8m2!3d12.6705481!4d78.1388444?authuser=0&hl=en&rclk=1,12.6705481,78.1388444,Tamil Nadu
SLAM Lifestyle and Fitness Studio - Chromepet,Gym,"Balaji Medical College, New Colony First Main Road, 14/57A 14/57B, CLC Works Rd, Opp to, Pallavapuram, New Colony, Chromepet, Chennai, Tamil Nadu 600044, India",https://www.google.co.kr/maps/place/SLAM+Lifestyle+and+Fitness+Studio+-+Chromepet/data=!4m5!3m4!1s0x3a525f641ac76a3b:0xe8ab913c03094257!8m2!3d12.9530868!4d80.1398859?authuser=0&hl=en&rclk=1,12.9530868,80.1398859,Tamil Nadu
Fionis - Inspiring Fitness Services,Gym,"Old Mahabalipuram Road (Beside Gokulam Sabari Inn Hotel Egattur, Thazhambur, Tamil Nadu 603103, India",https://www.google.co.kr/maps/place/Fionis+-+Inspiring+Fitness+Services/data=!4m5!3m4!1s0x3a525a5c0924a605:0x286b64b7755c4861!8m2!3d12.8413347!4d80.2275191?authuser=0&hl=en&rclk=1,12.8413347,80.2275191,Tamil Nadu
Arima Gym & Fitness Centre,Gym,"3QCR+9VF, Ananda Nagar, Karaikudi, Tamil Nadu 630003, India",https://www.google.co.kr/maps/place/Arima+Gym+%26+Fitness+Centre/data=!4m5!3m4!1s0x3b00677f9cdb1aa1:0xbad6a4f3294fe7bb!8m2!3d10.0709279!4d78.7921868?authuser=0&hl=en&rclk=1,10.0709279,78.7921868,Tamil Nadu
Her Fitness Studio.,Gym,"50, Big Chetty St, Tharanallur, Tiruchirappalli, Tamil Nadu 620002, India",https://www.google.co.kr/maps/place/Her+Fitness+Studio./data=!4m5!3m4!1s0x3baaf5672f3d6a1f:0x31abaf619c5edcef!8m2!3d10.819262!4d78.6949363?authuser=0&hl=en&rclk=1,10.819262,78.6949363,Tamil Nadu
"Winner Gym, Anjugramam",Gym,"4HWC+H95, Anjugramam, Tamil Nadu 629401, India","https://www.google.co.kr/maps/place/Winner+Gym,+Anjugramam/data=!4m5!3m4!1s0x3b048d30568d3cff:0xf2ad213fad8c0ffc!8m2!3d8.1463809!4d77.5709821?authuser=0&hl=en&rclk=1",8.1463809,77.5709821,Tamil Nadu
Endurancee Gym and Fitness Centre,Gym,"46 Bharathi Colony, Shri Anirudh Gardens Main Rd, Opp Mahaveer Store, Peelamedu, Lal Bahadhur Colony, Tamil Nadu 641004, India",https://www.google.co.kr/maps/place/Endurancee+Gym+and+Fitness+Centre/data=!4m5!3m4!1s0x3ba858317b11faaf:0x396c1a7c2c7150eb!8m2!3d11.0271885!4d76.9950449?authuser=0&hl=en&rclk=1,11.0271885,76.9950449,Tamil Nadu
Olympic Fitness Center,Gym,"Street Number 39, TNHB Colony, Dharma Nagar, Ayappakkam, Chennai, Tamil Nadu 600077, India",https://www.google.co.kr/maps/place/Olympic+Fitness+Center/data=!4m5!3m4!1s0x3a52637c5355cdc5:0xc619be276013c791!8m2!3d13.0981983!4d80.136465?authuser=0&hl=en&rclk=1,13.0981983,80.136465,Tamil Nadu
Fitness Center,Gym,"37GC+738, Chintadripet, Chennai, Tamil Nadu 600002, India",https://www.google.co.kr/maps/place/Fitness+Center/data=!4m5!3m4!1s0x3a52677913c565d3:0x532ddc4e07582901!8m2!3d13.0756592!4d80.2702164?authuser=0&hl=en&rclk=1,13.0756592,80.2702164,Tamil Nadu
JP gym,Gym,"Jp gym street Thangam hospital backside, Tamil Nadu 636704, India",https://www.google.co.kr/maps/place/JP+gym/data=!4m5!3m4!1s0x3bac1732d939f05d:0x1052f58e2459c582!8m2!3d12.1189794!4d78.156226?authuser=0&hl=en&rclk=1,12.1189794,78.156226,Tamil Nadu
Shaai Fitness Centre,Gym,"155/48, Near opposite to aero kids school, Salem- 8, Kambar St, Thirunagar, Tamil Nadu 625006, India",https://www.google.co.kr/maps/place/Shaai+Fitness+Centre/data=!4m5!3m4!1s0x3babf1aecd2a82c9:0x516e66732da31a1e!8m2!3d11.682515!4d78.1641041?authuser=0&hl=en&rclk=1,11.682515,78.1641041,Tamil Nadu
Hari Gym and Fitness,Fitness center,"154, Jagannathan Salai, Periyar Nagar West, Perambur, Chennai, Tamil Nadu 600082, India",https://www.google.co.kr/maps/place/Hari+Gym+and+Fitness/data=!4m5!3m4!1s0x3a5264505217f817:0x8978dbfdb9f06caa!8m2!3d13.1168096!4d80.223468?authuser=0&hl=en&rclk=1,13.1168096,80.223468,Tamil Nadu
Arumugam Power Gym,Gym,"Q2QF+PRF, Semmandapatti, Tamil Nadu 636309, India",https://www.google.co.kr/maps/place/Arumugam+Power+Gym/data=!4m5!3m4!1s0x3babf8cbefffffff:0xe15bf474f4972bde!8m2!3d11.7893009!4d78.0245437?authuser=0&hl=en&rclk=1,11.7893009,78.0245437,Tamil Nadu
So fitness studio,Gym,"second floor, Temple View Apartments, No.89, Santhome High Rd, Raja Annamalai Puram, Chennai, Tamil Nadu 600028, India",https://www.google.co.kr/maps/place/So+fitness+studio/data=!4m5!3m4!1s0x3a5267e73e59896f:0xb20a7b7665217584!8m2!3d13.0192829!4d80.2670718?authuser=0&hl=en&rclk=1,13.0192829,80.2670718,Tamil Nadu
MultiFit Salem,Gym,"Gateway Hotel, Opp to Gujarati Samaj Kalayana Mandapam,Near Kurinji Hospital, Five Roads, Near Chenneys, Salem, Tamil Nadu 636016, India",https://www.google.co.kr/maps/place/MultiFit+Salem/data=!4m5!3m4!1s0x3babf138743c6cd7:0xcda52ddc783f62e1!8m2!3d11.6768875!4d78.1354591?authuser=0&hl=en&rclk=1,11.6768875,78.1354591,Tamil Nadu
Talwalkars Now FFitness Trichy,Gym,"A5 2nd Floor,,( New Passport Office), Salai Road, Tiruchirappalli, Tamil Nadu 620018, India",https://www.google.co.kr/maps/place/Talwalkars+Now+FFitness+Trichy/data=!4m5!3m4!1s0x3baaf5a4bc6cbf25:0xcc3b109622ac9ecc!8m2!3d10.8269139!4d78.6861356?authuser=0&hl=en&rclk=1,10.8269139,78.6861356,Tamil Nadu
FIONIS CrossFit,Fitness center,"Old Mahabalipuram Rd, Beside Gokulam Sabari OMR, Egattur, Navalur, Tamil Nadu 603103, India",https://www.google.co.kr/maps/place/FIONIS+CrossFit/data=!4m5!3m4!1s0x3a525bdfad7a6b45:0x55bf713130633ae4!8m2!3d12.8418852!4d80.2273165?authuser=0&hl=en&rclk=1,12.8418852,80.2273165,Tamil Nadu
NEW LIFE FITNESS CENTER & GYM,Gym,"135, VSA COMPLEX, Bethaniapuram, Tamil Nadu 625016, India",https://www.google.co.kr/maps/place/NEW+LIFE+FITNESS+CENTER+%26+GYM/data=!4m5!3m4!1s0x3b00cf42f6766de9:0x702ca4e72a2fa6d3!8m2!3d9.9358227!4d78.0966836?authuser=0&hl=en&rclk=1,9.9358227,78.0966836,Tamil Nadu
Revive Women Weight Loss & Fitness Centre (Womens Fitness Centre/Ladies Fitness Centre/Ladies Gym),Fitness center,"No: 19/35, Ramanujam Street, near Jain School, Old Washermanpet, Chennai, Tamil Nadu 600021, India",https://www.google.co.kr/maps/place/Revive+Women+Weight+Loss+%26+Fitness+Centre+(Womens+Fitness+Centre%2FLadies+Fitness+Centre%2FLadies+Gym)/data=!4m5!3m4!1s0x3a526f6571e0b9ed:0x2518a2b8a8cd7523!8m2!3d13.1157459!4d80.2841946?authuser=0&hl=en&rclk=1,13.1157459,80.2841946,Tamil Nadu
Golden gym and Fitness center,Gym,"samathur pirivu, Pollachi Rd, Dharapuram, Tamil Nadu, India",https://www.google.co.kr/maps/place/Golden+gym+and+Fitness+center/data=!4m5!3m4!1s0x3ba9bf7cd465319d:0x19a888f1e1421281!8m2!3d10.7297502!4d77.5048636?authuser=0&hl=en&rclk=1,10.7297502,77.5048636,Tamil Nadu
Sai Fitness - Unisex Fitness Center Trichy,Gym,"No-11A, Subramania Swamy Kovil Street, 8, W Blvd Rd, near Old Passport Office, Tiruchirappalli, Tamil Nadu 620008, India",https://www.google.co.kr/maps/place/Sai+Fitness+-+Unisex+Fitness+Center+Trichy/data=!4m5!3m4!1s0x3baaf5a9c7973c1d:0x893dde8c3b05ec6b!8m2!3d10.818409!4d78.6946194?authuser=0&hl=en&rclk=1,10.818409,78.6946194,Tamil Nadu
Fitfam Fitness,Gym,"Navalur, Tamil Nadu 600130, India",https://www.google.co.kr/maps/place/Fitfam+Fitness/data=!4m5!3m4!1s0x3a525a59ed5dd497:0xda87698220fa815b!8m2!3d12.8401428!4d80.2272746?authuser=0&hl=en&rclk=1,12.8401428,80.2272746,Tamil Nadu
Hitech Fitnes System,Fitness center,"Woods Road, 7, Krishnappa St, Express Estate, Chennai, Tamil Nadu 600002, India",https://www.google.co.kr/maps/place/Hitech+Fitnes+System/data=!4m5!3m4!1s0x3a5266179e7cf693:0x547cca33e0036611!8m2!3d13.0619654!4d80.2643769?authuser=0&hl=en&rclk=1,13.0619654,80.2643769,Tamil Nadu
Sportsman games and fitness centre - snooker,Gym,"manakula vinayakar street, vivek plaza, near ramanashram post office, Tiruvannamalai, Tamil Nadu, India",https://www.google.co.kr/maps/place/Sportsman+games+and+fitness+centre+-+snooker/data=!4m5!3m4!1s0x3bacc07857bf1999:0xa8d52c4c46410c4e!8m2!3d12.2209206!4d79.055934?authuser=0&hl=en&rclk=1,12.2209206,79.055934,Tamil Nadu
MASS GYM AND FITNESS CENTER,Gym,"Irrendalaiparai, Tamil Nadu 624003, India",https://www.google.co.kr/maps/place/MASS+GYM+AND+FITNESS+CENTER/data=!4m5!3m4!1s0x3b00ab642b2b26e1:0xb752313ad2f382da!8m2!3d10.3158218!4d78.0081221?authuser=0&hl=en&rclk=1,10.3158218,78.0081221,Tamil Nadu
GK Gym,Gym,"PPJ8+5PH, Gundur, Tamil Nadu 620007, India",https://www.google.co.kr/maps/place/GK+Gym/data=!4m5!3m4!1s0x3baa8becc2211133:0xc9f3637131f80894!8m2!3d10.7304454!4d78.7168687?authuser=0&hl=en&rclk=1,10.7304454,78.7168687,Tamil Nadu
Ligment Fitness,Fitness center,"Gandhi Nagar, Udumalaipettai, Tamil Nadu 642128, India",https://www.google.co.kr/maps/place/Ligment+Fitness/data=!4m5!3m4!1s0x3ba9cdb47c00ec49:0xa323310b59fcaea0!8m2!3d10.581078!4d77.2581275?authuser=0&hl=en&rclk=1,10.581078,77.2581275,Tamil Nadu
Gorkha Hill Gym,Gym,"Unnamed Road, gorkha hill, Aruvankadu, Tamil Nadu 643231, India",https://www.google.co.kr/maps/place/Gorkha+Hill+Gym/data=!4m5!3m4!1s0x3ba895a6925136e7:0x6d0c3edb666d08be!8m2!3d11.3734276!4d76.7832056?authuser=0&hl=en&rclk=1,11.3734276,76.7832056,Tamil Nadu
Hi Tech Gym,Gym,"Rajalakshmi Building, Bharathi Complex 106A, 1343 Sathyamangalam Main Road ICICI ATM, Near Surya Hospital, Ganapathy, Coimbatore, Tamil Nadu 641006, India",https://www.google.co.kr/maps/place/Hi+Tech+Gym/data=!4m5!3m4!1s0x3ba8586bda31f9b9:0x70b8688c3f08a1ea!8m2!3d11.0405866!4d76.9824313?authuser=0&hl=en&rclk=1,11.0405866,76.9824313,Tamil Nadu
LEE FITNESS CENTRE,Gym,"old by pass road union bank upstir P.Velure, Tamilnadu, Velur, Tamil Nadu 638182, India",https://www.google.co.kr/maps/place/LEE+FITNESS+CENTRE/data=!4m5!3m4!1s0x3babd4b11347bea5:0x21dfac6d11f4fd3c!8m2!3d11.1092766!4d78.0042372?authuser=0&hl=en&rclk=1,11.1092766,78.0042372,Tamil Nadu
IRON KINGDOM FITNESS AND GYM,Gym,"Sulur, Tamil Nadu 641401, India",https://www.google.co.kr/maps/place/IRON+KINGDOM+FITNESS+AND+GYM/data=!4m5!3m4!1s0x3ba8556e596b2bff:0xb553242a22c25f14!8m2!3d11.0275156!4d77.1534359?authuser=0&hl=en&rclk=1,11.0275156,77.1534359,Tamil Nadu
Crunch Fitness Studio,Fitness center,"2054/b, Rais Towers, 2nd Ave, L Block, Kurinji Colony, Anna Nagar, Chennai, Tamil Nadu 600040, India",https://www.google.co.kr/maps/place/Crunch+Fitness+Studio/data=!4m5!3m4!1s0x3a52641c9d031937:0x26432ffff72e720d!8m2!3d13.0850206!4d80.2006198?authuser=0&hl=en&rclk=1,13.0850206,80.2006198,Tamil Nadu
S2 Fitness Gym Thuraiyur-Gym in trichy,Gym,"2nd Floor, Trichy Rd, Kollapuram, Thuraiyur, Tamil Nadu 621010, India",https://www.google.co.kr/maps/place/S2+Fitness+Gym+Thuraiyur-Gym+in+trichy/data=!4m5!3m4!1s0x3babab3900be1fd9:0xaa52d27cffa4a3eb!8m2!3d11.1386412!4d78.5918996?authuser=0&hl=en&rclk=1,11.1386412,78.5918996,Tamil Nadu
Muscle Garage,Gym,"No 189, Asma Building, TT Krishnamachari Rd, Sriram Colony, Alwarpet, Chennai, Tamil Nadu 600018, India",https://www.google.co.kr/maps/place/Muscle+Garage/data=!4m5!3m4!1s0x3a52663538415555:0xe86a8eece93bc0b8!8m2!3d13.0368454!4d80.2559376?authuser=0&hl=en&rclk=1,13.0368454,80.2559376,Tamil Nadu
S.V Rajan Gym & Fitness Center,Gym,"Q2WF+H56, Maraimalai Nagar, Tamil Nadu 603204, India",https://www.google.co.kr/maps/place/S.V+Rajan+Gym+%26+Fitness+Center/data=!4m5!3m4!1s0x3a52f9016d5193e5:0xd291663e3b57118b!8m2!3d12.7964211!4d80.0228966?authuser=0&hl=en&rclk=1,12.7964211,80.0228966,Tamil Nadu
Olympia Fitness - The Real Hardcore Gym,Gym,"126, Kamarajar Salai, Tamil Nadu 625009, India",https://www.google.co.kr/maps/place/Olympia+Fitness+-+The+Real+Hardcore+Gym/data=!4m5!3m4!1s0x3b00c5a0cc174d99:0x1ddb6bff85ca1293!8m2!3d9.915943!4d78.1378589?authuser=0&hl=en&rclk=1,9.915943,78.1378589,Tamil Nadu
M.S.Jalandhar GYM,Gym,"Bus Stand, Flower bazar, Ambur, Tamil Nadu 635802, India",https://www.google.co.kr/maps/place/M.S.Jalandhar+GYM/data=!4m5!3m4!1s0x3bad08e670798a1b:0xb26813bdfdab3d3!8m2!3d12.7830191!4d78.7198466?authuser=0&hl=en&rclk=1,12.7830191,78.7198466,Tamil Nadu
A one gym,Gymnasium Cz,"N Car St, Chidambaram, Tamil Nadu 608001, India",https://www.google.co.kr/maps/place/A+one+gym/data=!4m5!3m4!1s0x3a54c3b2d6068753:0xa733b740c83b44be!8m2!3d11.3510627!4d79.6852359?authuser=0&hl=en&rclk=1,11.3510627,79.6852359,Tamil Nadu
Badru's Bodyline Gym,Gym,"80, Cherry Rd, Ram Nagar, Seerangapalayam, Salem, Tamil Nadu 636007, India",https://www.google.co.kr/maps/place/Badru's+Bodyline+Gym/data=!4m5!3m4!1s0x3babf1b4979895d5:0x8317fc40dcc6b939!8m2!3d11.6702808!4d78.158014?authuser=0&hl=en&rclk=1,11.6702808,78.158014,Tamil Nadu
KJK FItness Gym,Gym,"32/B, Mosque St, Mahathma Gandhi Nagar, Tharamani, Chennai, Tamil Nadu 600113, India",https://www.google.co.kr/maps/place/KJK+FItness+Gym/data=!4m5!3m4!1s0x3a525d7b1efa11d1:0x3537e570a84bcd77!8m2!3d12.9815471!4d80.2397006?authuser=0&hl=en&rclk=1,12.9815471,80.2397006,Tamil Nadu
SLAM Lifestyle and Fitness Studio (Sholinganallur),Gym,"No 40, 2nd Floor, Old Mahabalipuram Rd, Opp RTO Office, Sholinganallur, Chennai, Tamil Nadu 600119, India",https://www.google.co.kr/maps/place/SLAM+Lifestyle+and+Fitness+Studio+(Sholinganallur)/data=!4m5!3m4!1s0x3a525d1077a73e9f:0x61e3d33c901b226b!8m2!3d12.8990306!4d80.228095?authuser=0&hl=en&rclk=1,12.8990306,80.228095,Tamil Nadu
Almighty Fitness Center,Gym,"Sivapuri Main Rd, Annamalai Nagar, Chidambaram, Tamil Nadu 608002, India",https://www.google.co.kr/maps/place/Almighty+Fitness+Center/data=!4m5!3m4!1s0x3a54c250aeecbced:0x928c2e34a159028!8m2!3d11.3949875!4d79.7058682?authuser=0&hl=en&rclk=1,11.3949875,79.7058682,Tamil Nadu
Diamond Gym,Gym,"38X8+M59, Kulathuputhur, Periyandipalayam, Tiruppur, Tamil Nadu 641687, India",https://www.google.co.kr/maps/place/Diamond+Gym/data=!4m5!3m4!1s0x3ba907894161c8dd:0x74d5cb426c47cc7d!8m2!3d11.0991636!4d77.3154802?authuser=0&hl=en&rclk=1,11.0991636,77.3154802,Tamil Nadu
"Faith Fit Gym Unisex - Workout, Fitness, Weight loss in KK Nagar, Trichy",Fitness center,"3rd floor kings bakes upstars, Sundar Nagar, K K Nagar, Tamil Nadu 620021, India","https://www.google.co.kr/maps/place/Faith+Fit+Gym+Unisex+-+Workout,+Fitness,+Weight+loss+in+KK+Nagar,+Trichy/data=!4m5!3m4!1s0x3baa8b7cd8e00db1:0xfe2eaa0aa2d018a6!8m2!3d10.7668283!4d78.6838976?authuser=0&hl=en&rclk=1",10.7668283,78.6838976,Tamil Nadu
SREE GYM,Gym,"FJCR+3QV, Jambai, Tamil Nadu 638312, India",https://www.google.co.kr/maps/place/SREE+GYM/data=!4m5!3m4!1s0x3ba94198a63e5d41:0x70b3792136027ed6!8m2!3d11.4702456!4d77.6419072?authuser=0&hl=en&rclk=1,11.4702456,77.6419072,Tamil Nadu
VJ Fitness studio,Gym,"Veppambaattu, Tamil Nadu 602024, India",https://www.google.co.kr/maps/place/VJ+Fitness+studio/data=!4m5!3m4!1s0x3a528fcb5b5db2af:0x731c6adb1a8486ae!8m2!3d13.1250555!4d79.9988603?authuser=0&hl=en&rclk=1,13.1250555,79.9988603,Tamil Nadu
"SHRI RAMANA GYM, SALEM",Gym,"D.NO:40, KMJ ILLAM, Udayappa Colony, Sankar Nagar, Salem, Tamil Nadu 636007, India","https://www.google.co.kr/maps/place/SHRI+RAMANA+GYM,+SALEM/data=!4m5!3m4!1s0x3babf1cad2a68e41:0x2691fe3149902f4d!8m2!3d11.6633097!4d78.1565012?authuser=0&hl=en&rclk=1",11.6633097,78.1565012,Tamil Nadu
vj fitness studio,Gym,"2/26, Chennai - Tiruvallur High Rd, Veppambaattu, Tamil Nadu 602024, India",https://www.google.co.kr/maps/place/vj+fitness+studio/data=!4m5!3m4!1s0x3a528fc2c5f2870d:0xa0cae6ef0d254e50!8m2!3d13.1272543!4d79.9895192?authuser=0&hl=en&rclk=1,13.1272543,79.9895192,Tamil Nadu
Vijay Fitness,Gym,"55/4, Astalakshmi Nagar, Maharishi Vedathri Nagar, Pappakurichi Kattur, Tiruchirappalli, Tamil Nadu 620019, India",https://www.google.co.kr/maps/place/Vijay+Fitness/data=!4m5!3m4!1s0x3baaf343a902874b:0xfa7fe5c48586675d!8m2!3d10.7936766!4d78.7602594?authuser=0&hl=en&rclk=1,10.7936766,78.7602594,Tamil Nadu
Pink Fitness - Ladies Gym Dindigul,Gym,"Sree Tower, 46 - I/6, Indira Nagar, Nagal Nagar, Tamil Nadu 624003, India",https://www.google.co.kr/maps/place/Pink+Fitness+-+Ladies+Gym+Dindigul/data=!4m5!3m4!1s0x3b00aa5188c7cf21:0x4002cbfa575f9664!8m2!3d10.3544647!4d77.9843611?authuser=0&hl=en&rclk=1,10.3544647,77.9843611,Tamil Nadu
Pink Fitness - Ladies Gym Trichy,Gym,"B7 Green's Avenue, 1st Cross Rd, North East Extension, Thillai Nagar, Tiruchirappalli, Tamil Nadu 620018, India",https://www.google.co.kr/maps/place/Pink+Fitness+-+Ladies+Gym+Trichy/data=!4m5!3m4!1s0x3baaf5a4942a1807:0xaf605104f6711227!8m2!3d10.8262813!4d78.6866453?authuser=0&hl=en&rclk=1,10.8262813,78.6866453,Tamil Nadu
Dhruv gym & Fitness centre,Gym,"QVQ7+2JG, Mathur, Tamil Nadu 606207, India",https://www.google.co.kr/maps/place/Dhruv+gym+%26+Fitness+centre/data=!4m5!3m4!1s0x3bab634bf7a03ccf:0x870c267a2fda67c6!8m2!3d11.7875724!4d78.8640626?authuser=0&hl=en&rclk=1,11.7875724,78.8640626,Tamil Nadu
New Champions Gym,Gym,"Bharathi Salai, Narayana Krishnaraja Puram, Triplicane, Chennai, Tamil Nadu 600014, India",https://www.google.co.kr/maps/place/New+Champions+Gym/data=!4m5!3m4!1s0x3a5266200e05291d:0xa4f6148aa6fd00dc!8m2!3d13.0585385!4d80.2760696?authuser=0&hl=en&rclk=1,13.0585385,80.2760696,Tamil Nadu
karupamudhaliyar kottai,Gym,"Unnamed Road, Arundavapuram II, Tamil Nadu 614401, India",https://www.google.co.kr/maps/place/karupamudhaliyar+kottai/data=!4m5!3m4!1s0x3baab52f7f8478bd:0x70a1df12cf4de01c!8m2!3d10.7452555!4d79.3369615?authuser=0&hl=en&rclk=1,10.7452555,79.3369615,Tamil Nadu
S Master Fitness & Gym (AC),Gym,"Sri Lingam Auto, 36, Railway Road, 1st Floor, nearby Rajaji Market, Kanchipuram, Tamil Nadu 631501, India",https://www.google.co.kr/maps/place/S+Master+Fitness+%26+Gym+(AC)/data=!4m5!3m4!1s0x3a52c2f635da44d3:0x1cd6f62004a3cb6f!8m2!3d12.8296413!4d79.7090279?authuser=0&hl=en&rclk=1,12.8296413,79.7090279,Tamil Nadu
Step 'n Slim Ladies gym,Fitness center,"50, Pudupalaya St, near ARR school, Valayapettai Agraharam, Kumbakonam, Tamil Nadu 612001, India",https://www.google.co.kr/maps/place/Step+'n+Slim+Ladies+gym/data=!4m5!3m4!1s0x3baacd354d929629:0x99d6165f5dd163dc!8m2!3d10.9554469!4d79.3715811?authuser=0&hl=en&rclk=1,10.9554469,79.3715811,Tamil Nadu
i5 Fitness Studio,Gym,"117, Nelson Tower, 1st Wing, Nelson Manickam Rd, Aminjikarai, Chennai, Tamil Nadu 600029, India",https://www.google.co.kr/maps/place/i5+Fitness+Studio/data=!4m5!3m4!1s0x3a5267448e34a2a9:0x1a640fd887ac1442!8m2!3d13.0683913!4d80.2264276?authuser=0&hl=en&rclk=1,13.0683913,80.2264276,Tamil Nadu
Aeroslim Fitness Centre,Fitness center,"No 106, 3rd Street, Visalakshi Nagar, Jyothi Nagar, Ekkatuthangal, Chennai, Tamil Nadu 600032, India",https://www.google.co.kr/maps/place/Aeroslim+Fitness+Centre/data=!4m5!3m4!1s0x3a526725126e24ff:0x9a4e075fa1adaefc!8m2!3d13.0246175!4d80.2002919?authuser=0&hl=en&rclk=1,13.0246175,80.2002919,Tamil Nadu
Bipin Muilty Specility Fitness Centre,Fitness center,"10, Vivekananda St, R.M.S Colony, Papa Colony, Edamalaipatti Pudur, Tamil Nadu 620012, India",https://www.google.co.kr/maps/place/Bipin+Muilty+Specility+Fitness+Centre/data=!4m5!3m4!1s0x3baaf54c7bfffff9:0x81a222643d0cc9f7!8m2!3d10.775624!4d78.6732882?authuser=0&hl=en&rclk=1,10.775624,78.6732882,Tamil Nadu
Friends Fitness,Gym,"Shastri Nagar Main Rd, Erode, Tamil Nadu 638002, India",https://www.google.co.kr/maps/place/Friends+Fitness/data=!4m5!3m4!1s0x3ba96f6a287ce30b:0xa50ca74ca52630ea!8m2!3d11.3197423!4d77.7158851?authuser=0&hl=en&rclk=1,11.3197423,77.7158851,Tamil Nadu
Lee Fitness Studio,Fitness center,"Jeyam Arul Plaza, Opp to Fairlands Police station, Advaidha, Advaitha Ashram Rd, Fairlands, Salem, Tamil Nadu 636016, India",https://www.google.co.kr/maps/place/Lee+Fitness+Studio/data=!4m5!3m4!1s0x3babf05ad6882961:0x72b6a24eea114b02!8m2!3d11.6764363!4d78.1423019?authuser=0&hl=en&rclk=1,11.6764363,78.1423019,Tamil Nadu
Mukkali Work Shop,Gym,"HJV4+X3C, Attur, Tamil Nadu 636102, India",https://www.google.co.kr/maps/place/Mukkali+Work+Shop/data=!4m5!3m4!1s0x3bab9d7b91eca7d5:0xa73b691fcf88a335!8m2!3d11.5949358!4d78.6051366?authuser=0&hl=en&rclk=1,11.5949358,78.6051366,Tamil Nadu
Volleyball ground,Gym,"HJQM+MX3, Thulukkanur, Tamil Nadu 636141, India",https://www.google.co.kr/maps/place/Volleyball+ground/data=!4m5!3m4!1s0x3bab9dbbfbf9992f:0x201c63a4c80ca806!8m2!3d11.5891376!4d78.6349228?authuser=0&hl=en&rclk=1,11.5891376,78.6349228,Tamil Nadu
Slim City Fitness Centre,Gym,"Kamaraja Nagar Main Rd, Nehru Colony, Kamaraj Nagar, Avadi, Tamil Nadu 600071, India",https://www.google.co.kr/maps/place/Slim+City+Fitness+Centre/data=!4m5!3m4!1s0x3a5289d9c6042079:0xfe6244461d93df66!8m2!3d13.1086245!4d80.0946332?authuser=0&hl=en&rclk=1,13.1086245,80.0946332,Tamil Nadu
BodyFocus Gym,Gym,"Arrs Complex,mettur Main Road,, Ammapettai, Tamil Nadu 638311, India",https://www.google.co.kr/maps/place/BodyFocus+Gym/data=!4m5!3m4!1s0x3ba94553975fa8e1:0x30bf963c8cba42af!8m2!3d11.618989!4d77.741482?authuser=0&hl=en&rclk=1,11.618989,77.741482,Tamil Nadu
velu gym,Gym,"Pallavan St, oilmil, Thiruvallur, Tamil Nadu 602003, India",https://www.google.co.kr/maps/place/velu+gym/data=!4m5!3m4!1s0x3a529159908b033b:0x788ad2a919b7f5!8m2!3d13.1236799!4d79.9129713?authuser=0&hl=en&rclk=1,13.1236799,79.9129713,Tamil Nadu
Kishore Gym,Gym,"7th St, Surveyor Colony, Pandian Nagar, Tamil Nadu 625007, India",https://www.google.co.kr/maps/place/Kishore+Gym/data=!4m5!3m4!1s0x3b00c67ee07a209b:0x3ce4221e416328de!8m2!3d9.960924!4d78.15219?authuser=0&hl=en&rclk=1,9.960924,78.15219,Tamil Nadu
Atlas Gym And Fitness,Gym,"35b, Vengalakadai St, Madurai Main, Madurai, Tamil Nadu 625001, India",https://www.google.co.kr/maps/place/Atlas+Gym+And+Fitness/data=!4m5!3m4!1s0x3b00c58f98cfb84d:0x1f2ab9c4edcbde87!8m2!3d9.9184861!4d78.1224523?authuser=0&hl=en&rclk=1,9.9184861,78.1224523,Tamil Nadu
Lord's Gym,Gym,"Cheranmahadevi - Panagudi Rd, Kalakkad, Tamil Nadu 627501, India",https://www.google.co.kr/maps/place/Lord's+Gym/data=!4m5!3m4!1s0x3b0443a98003990f:0x44d7fcdae26cf86d!8m2!3d8.5181563!4d77.558153?authuser=0&hl=en&rclk=1,8.5181563,77.558153,Tamil Nadu
Fortitude fitness studio,Gym,"2nd Floor, PVG Towers, Dr Vimala Nagar, Velachery Main Road, Medavakkam, Chennai, Tamil Nadu 600100, India",https://www.google.co.kr/maps/place/Fortitude+fitness+studio/data=!4m5!3m4!1s0x3a525c1fc7f0b06d:0xea961c3f8f24e6e9!8m2!3d12.9177611!4d80.1889582?authuser=0&hl=en&rclk=1,12.9177611,80.1889582,Tamil Nadu
Xtreme Fitness Gym Thuraiyur,Gym,"Hari Plaza, Nehru Nagar West, Thuraiyur, Tamil Nadu 621010, India",https://www.google.co.kr/maps/place/Xtreme+Fitness+Gym+Thuraiyur/data=!4m5!3m4!1s0x3babab3855113269:0xa489a1a8e993ebf9!8m2!3d11.1338348!4d78.5921431?authuser=0&hl=en&rclk=1,11.1338348,78.5921431,Tamil Nadu
SR Gym and Fitness centre,Gym,"Kovur, Kovur Colony, Tharapakkam, Chennai, Tamil Nadu 600116, India",https://www.google.co.kr/maps/place/SR+Gym+and+Fitness+centre/data=!4m5!3m4!1s0x3a526176483e2b0f:0x8bf6db7c1ce67cb6!8m2!3d13.0113859!4d80.1296157?authuser=0&hl=en&rclk=1,13.0113859,80.1296157,Tamil Nadu
krish Power Gym,Gym,"JH2H+WFQ, Narasingapuram, Tamil Nadu 636108, India",https://www.google.co.kr/maps/place/krish+Power+Gym/data=!4m5!3m4!1s0x3bab9b13b48530ef:0x4684da5816b33b35!8m2!3d11.6023258!4d78.5787499?authuser=0&hl=en&rclk=1,11.6023258,78.5787499,Tamil Nadu
FEEL FREE ZUMBA FITNESS STUDIO (A/C),Gym,"No. 1 ,ram Nagar, rice mill stop, park town extension, Tamil Nadu 625017, India",https://www.google.co.kr/maps/place/FEEL+FREE+ZUMBA+FITNESS+STUDIO+(A%2FC)/data=!4m5!3m4!1s0x3b00c7ae21e0a135:0xdb5f333d33877d51!8m2!3d9.9727495!4d78.1269987?authuser=0&hl=en&rclk=1,9.9727495,78.1269987,Tamil Nadu
G-Fit,Gym,"41/1, Tamil Sangam Rd, opposite of Tamil sangam mandapam, Sankar Nagar, Salem, Tamil Nadu 636007, India",https://www.google.co.kr/maps/place/G-Fit/data=!4m5!3m4!1s0x3babf191ddf69e55:0x2b453a29e6c672d6!8m2!3d11.6613435!4d78.1528702?authuser=0&hl=en&rclk=1,11.6613435,78.1528702,Tamil Nadu
V shape fitness,Gym,"3rd floor, no, 3, 1st Cross St, Karambakkam, Devi Nagar, Porur, Chennai, Tamil Nadu 600116, India",https://www.google.co.kr/maps/place/V+shape+fitness/data=!4m5!3m4!1s0x3a52611ce0df7bc9:0x6f028167d6ad215a!8m2!3d13.0356802!4d80.1563141?authuser=0&hl=en&rclk=1,13.0356802,80.1563141,Tamil Nadu
The Youth Gym,Gym,"D no.36 ,5,Ranga Nagar Main Road,Opp to Uzhavar Sandhai, Suramangalam, Salem, Tamil Nadu 636005, India",https://www.google.co.kr/maps/place/The+Youth+Gym/data=!4m5!3m4!1s0x3babf1a0adbba02d:0xce8fbada4963b54e!8m2!3d11.6700447!4d78.11584?authuser=0&hl=en&rclk=1,11.6700447,78.11584,Tamil Nadu
A leo gym,Gym,"6b, Kamadenu Nagar, Karur, Tamil Nadu 639006, India",https://www.google.co.kr/maps/place/A+leo+gym/data=!4m5!3m4!1s0x3baa2feff3a3fae9:0x9f837437058d0e76!8m2!3d10.9711797!4d78.0806403?authuser=0&hl=en&rclk=1,10.9711797,78.0806403,Tamil Nadu
Vandayar A/C Fitness Center,Gym,"9PV2+XPC, Chidambaram, Tamil Nadu 608001, India",https://www.google.co.kr/maps/place/Vandayar+A%2FC+Fitness+Center/data=!4m5!3m4!1s0x3a54c2514f2a4ba1:0x3cc97e85996be7cc!8m2!3d11.3949362!4d79.7017577?authuser=0&hl=en&rclk=1,11.3949362,79.7017577,Tamil Nadu
Acfit Academy,Physical fitness program,"Kohinoor Complex, 2/232, East Coast Rd, Vettuvankeni, Chennai, Tamil Nadu 600115, India",https://www.google.co.kr/maps/place/Acfit+Academy/data=!4m5!3m4!1s0x3a525ce7a76c0001:0x83e64416ac4c36ab!8m2!3d12.9357669!4d80.2525286?authuser=0&hl=en&rclk=1,12.9357669,80.2525286,Tamil Nadu
Sri Maruthi Gym,Gym,"Chetty Street, Shanmuga Nagar, Coimbatore, Tamil Nadu 635112, India",https://www.google.co.kr/maps/place/Sri+Maruthi+Gym/data=!4m5!3m4!1s0x3bac36c54ab0d1bf:0x3583a2e09360a6a3!8m2!3d12.4201849!4d78.2147648?authuser=0&hl=en&rclk=1,12.4201849,78.2147648,Tamil Nadu
SLAM Lifestyle & Fitness Studio,Gym,"52/1, 1st Floor, Dandeeshwaram Main Rd, Velachery, Chennai, Tamil Nadu 600042, India",https://www.google.co.kr/maps/place/SLAM+Lifestyle+%26+Fitness+Studio/data=!4m5!3m4!1s0x3a525d85efbc6b5b:0xe2fe91df5ef763f3!8m2!3d12.9826819!4d80.2217348?authuser=0&hl=en&rclk=1,12.9826819,80.2217348,Tamil Nadu
vj fitness studio,Gym,"4XGX+2FM, Veppambaattu, Tamil Nadu 602024, India",https://www.google.co.kr/maps/place/vj+fitness+studio/data=!4m5!3m4!1s0x3a528f083e6cab05:0xebe2b4da58349fd8!8m2!3d13.1250965!4d79.9986721?authuser=0&hl=en&rclk=1,13.1250965,79.9986721,Tamil Nadu
Sanjiv Fitness Gym,Gym,"Jeeva Complex, 001, Trichy Main Rd, Namakkal, Tamil Nadu, India",https://www.google.co.kr/maps/place/Sanjiv+Fitness+Gym/data=!4m5!3m4!1s0x3babce96f63d3bf9:0xbf50c6c23ad0bafb!8m2!3d11.2123433!4d78.1764767?authuser=0&hl=en&rclk=1,11.2123433,78.1764767,Tamil Nadu
A leo gym,Gym,"6b, Kamadenu Nagar, Karur, Tamil Nadu 639006, India",https://www.google.co.kr/maps/place/A+leo+gym/data=!4m5!3m4!1s0x3baa2fe581f224a3:0x59082f86b2ba7a93!8m2!3d10.9713604!4d78.0806212?authuser=0&hl=en&rclk=1,10.9713604,78.0806212,Tamil Nadu
G-Boss Fitness Gym,Gym,"Veera Vanji St, Kalarampatti, Salem, Tamil Nadu 636006, India",https://www.google.co.kr/maps/place/G-Boss+Fitness+Gym/data=!4m5!3m4!1s0x3babee2bd21ad9e9:0x1a67b2070ca76e3d!8m2!3d11.6401821!4d78.1611961?authuser=0&hl=en&rclk=1,11.6401821,78.1611961,Tamil Nadu
Baseko Fitness,Gym,"Vadalur, Cuddalore NH-532, Neyveli Main Road, Chidambaram Chidambaram, Tamil Nadu 607303, India",https://www.google.co.kr/maps/place/Baseko+Fitness/data=!4m5!3m4!1s0x3a54b78451bc4fcb:0xfe0e636216b90f2e!8m2!3d11.5548758!4d79.5524992?authuser=0&hl=en&rclk=1,11.5548758,79.5524992,Tamil Nadu
Goals Fitness Center Karur,Gym,"17,Sun Towers,New, Salem Bypass Rd, Karur, Tamil Nadu 639002, India",https://www.google.co.kr/maps/place/Goals+Fitness+Center+Karur/data=!4m5!3m4!1s0x3baa2f49e3d30955:0xb85209679ab0baf4!8m2!3d10.9639297!4d78.0609?authuser=0&hl=en&rclk=1,10.9639297,78.0609,Tamil Nadu
Star gym,Gym,"Ramilingam St, Dharmapuri, Tamil Nadu 636701, India",https://www.google.co.kr/maps/place/Star+gym/data=!4m5!3m4!1s0x3bac17f489f27c63:0xa3be977cbcbf6522!8m2!3d12.1294951!4d78.1604669?authuser=0&hl=en&rclk=1,12.1294951,78.1604669,Tamil Nadu
A.M.S.Mordern Gym,Gym,"MVWH+JG2, Jalakandapuram, Tamil Nadu 636501, India",https://www.google.co.kr/maps/place/A.M.S.Mordern+Gym/data=!4m5!3m4!1s0x3ba956f4efa0c25b:0xb77419aa5ef84a55!8m2!3d11.6965241!4d77.8787743?authuser=0&hl=en&rclk=1,11.6965241,77.8787743,Tamil Nadu
49 fitness studio,Gym,"96, 3rd St, New Housing Unit, Thanjavur, Tamil Nadu 613004, India",https://www.google.co.kr/maps/place/49+fitness+studio/data=!4m5!3m4!1s0x3baab94b112b1293:0x153824e40ee0dac!8m2!3d10.7547719!4d79.1204903?authuser=0&hl=en&rclk=1,10.7547719,79.1204903,Tamil Nadu
Sri Vishnu Gym,Gym,"Kanthapodi St, Kallakkurichi, Tamil Nadu 606202, India",https://www.google.co.kr/maps/place/Sri+Vishnu+Gym/data=!4m5!3m4!1s0x3bab66e58a8f9c51:0x9d38131e353d13c0!8m2!3d11.7354959!4d78.9628102?authuser=0&hl=en&rclk=1,11.7354959,78.9628102,Tamil Nadu
Aesthetic Fitness Factory,Fitness center,"Theppakulam street, Kulithalai, Tamil Nadu 639104, India",https://www.google.co.kr/maps/place/Aesthetic+Fitness+Factory/data=!4m5!3m4!1s0x3baa458b3b15295b:0xfdf5227356d6f9f6!8m2!3d10.9354197!4d78.4233285?authuser=0&hl=en&rclk=1,10.9354197,78.4233285,Tamil Nadu
Golden Gym,Boxing gym,"Tiruchirappalli, Srirangam, Thiruvanaikoil, Tamil Nadu 620005, India",https://www.google.co.kr/maps/place/Golden+Gym/data=!4m5!3m4!1s0x3baaf43329812625:0x9db7a590455d95ac!8m2!3d10.8477656!4d78.7026342?authuser=0&hl=en&rclk=1,10.8477656,78.7026342,Tamil Nadu
Gladiator Gym,Gym,"Kallakudi, Tamil Nadu 621652, India",https://www.google.co.kr/maps/place/Gladiator+Gym/data=!4m5!3m4!1s0x3baae7d0b8e6f1af:0x9114bb9c832d2a2c!8m2!3d10.9757703!4d78.9508083?authuser=0&hl=en&rclk=1,10.9757703,78.9508083,Tamil Nadu
Just Fitt Gym,Gym,"No 332/5 C, Nehru nagar west, kalappati main road, kalappati, post, Coimbatore, Tamil Nadu 641014, India",https://www.google.co.kr/maps/place/Just+Fitt+Gym/data=!4m5!3m4!1s0x3ba857bc6da8b735:0x96ef8eee6537339c!8m2!3d11.052979!4d77.0373968?authuser=0&hl=en&rclk=1,11.052979,77.0373968,Tamil Nadu
The energy fitness studio gym A/C (unisex),Gym,"14 New Agraharam Palani, Road, near S.S Hospital, Pandian Nagar, Nehruji Nagar, Dindigul, Tamil Nadu 624001, India",https://www.google.co.kr/maps/place/The+energy+fitness+studio+gym+A%2FC+(unisex)/data=!4m5!3m4!1s0x3b00ab2319c598f7:0x4fbecb52e39f094d!8m2!3d10.3666761!4d77.9768038?authuser=0&hl=en&rclk=1,10.3666761,77.9768038,Tamil Nadu
Arnold Power GYM,Fitness center,"Plot NO 15 SV Nagar, 89 Perumalpattu Veppampattu, dist, Chennai, Tamil Nadu 602024, India",https://www.google.co.kr/maps/place/Arnold+Power+GYM/data=!4m5!3m4!1s0x3a528f1e6a0102b7:0xa637cb4916a74422!8m2!3d13.1055014!4d79.9975209?authuser=0&hl=en&rclk=1,13.1055014,79.9975209,Tamil Nadu
UNITED FITNESS CENTER,Gym,"Cherambadi, Tamil Nadu 643205, India",https://www.google.co.kr/maps/place/UNITED+FITNESS+CENTER/data=!4m5!3m4!1s0x3ba611574e46618b:0xba8d5b97bda91b41!8m2!3d11.5174463!4d76.2652517?authuser=0&hl=en&rclk=1,11.5174463,76.2652517,Tamil Nadu
Anjaneyavilas Gym,Gymnastics center,"Vanni Mara Street, Paramakudi, Tamil Nadu 623707, India",https://www.google.co.kr/maps/place/Anjaneyavilas+Gym/data=!4m5!3m4!1s0x3b010625b9d63f19:0x1a1aebb65fee3976!8m2!3d9.5426266!4d78.5977909?authuser=0&hl=en&rclk=1,9.5426266,78.5977909,Tamil Nadu
"Hi power Gym, Nellikuppam",Gym,"QMG8+5RM, Nellikuppam, Tamil Nadu 607105, India","https://www.google.co.kr/maps/place/Hi+power+Gym,+Nellikuppam/data=!4m5!3m4!1s0x3a54a3e952ab36e1:0xec636dbdd72e4ed5!8m2!3d11.7754647!4d79.6670526?authuser=0&hl=en&rclk=1",11.7754647,79.6670526,Tamil Nadu
Bluto fitness studio,Gym,"No:18 AGS Colony, Chokkalingam Nagar Rd, Chennai, Tamil Nadu 600042, India",https://www.google.co.kr/maps/place/Bluto+fitness+studio/data=!4m5!3m4!1s0x3a525dbc840f6fe5:0xf7433622feb42e96!8m2!3d12.9782233!4d80.2128737?authuser=0&hl=en&rclk=1,12.9782233,80.2128737,Tamil Nadu
LevelNext Fitness and Physiocare,Fitness center,"1/2, 1st Cross St, Maravaneri, Salem, Tamil Nadu 636007, India",https://www.google.co.kr/maps/place/LevelNext+Fitness+and+Physiocare/data=!4m5!3m4!1s0x3babf1cb71cb4095:0xd27c20763790d80e!8m2!3d11.6607305!4d78.1587124?authuser=0&hl=en&rclk=1,11.6607305,78.1587124,Tamil Nadu
Aadhavan Fitness Point,Gym,"Karthika Complex, Kovilpatti Rd, Manapparai, Tamil Nadu 621306, India",https://www.google.co.kr/maps/place/Aadhavan+Fitness+Point/data=!4m5!3m4!1s0x3baa6e34f1d66739:0x38c2cecd52833186!8m2!3d10.6039543!4d78.427577?authuser=0&hl=en&rclk=1,10.6039543,78.427577,Tamil Nadu
ACtive fitness and sports,Gym,"No 157, Nethaji Rd, opp. sujatha Hospitals, Manjakuppam, Cuddalore, Tamil Nadu 607001, India",https://www.google.co.kr/maps/place/ACtive+fitness+and+sports/data=!4m5!3m4!1s0x3a54994c04dad4e9:0x6a5d4c21c7af9d31!8m2!3d11.765017!4d79.7647854?authuser=0&hl=en&rclk=1,11.765017,79.7647854,Tamil Nadu
Purple Fitness Studio,Gym,"No:24,1st Floor, Landon's, Road, Kilpauk, Chennai, Tamil Nadu 600010, India",https://www.google.co.kr/maps/place/Purple+Fitness+Studio/data=!4m5!3m4!1s0x3a52667812740dbf:0xc398ab3c3be3db81!8m2!3d13.080335!4d80.242134?authuser=0&hl=en&rclk=1,13.080335,80.242134,Tamil Nadu
RV Fitness Point,Gym,"Nagaramalai Main Rd, Thangavel Nagar, New Fairlands, Alagapuram Periyaputhur, Salem, Tamil Nadu 636016, India",https://www.google.co.kr/maps/place/RV+Fitness+Point/data=!4m5!3m4!1s0x3babf15112897b7f:0x5afdf3160a52fccc!8m2!3d11.6771974!4d78.1390344?authuser=0&hl=en&rclk=1,11.6771974,78.1390344,Tamil Nadu
Raj ladies fitness center,Fitness center,"NO 9 F C I Nagar, Semmandalam, Tamil Nadu 607001, India",https://www.google.co.kr/maps/place/Raj+ladies+fitness+center/data=!4m5!3m4!1s0x3a54992b0fb1a50f:0x6b8df52fe62ff031!8m2!3d11.7616516!4d79.7491876?authuser=0&hl=en&rclk=1,11.7616516,79.7491876,Tamil Nadu
Soldiers Boxing Academy,Boxing gym,"Mellur, Tallakulam, Tamil Nadu 625020, India",https://www.google.co.kr/maps/place/Soldiers+Boxing+Academy/data=!4m5!3m4!1s0x3b00c5bf4af0c6a1:0x6b7034c930a2c079!8m2!3d9.9328764!4d78.1398323?authuser=0&hl=en&rclk=1,9.9328764,78.1398323,Tamil Nadu
JB FITNESS UNISEX GYM,Fitness center,"No.20-B,, Saraswathy Nagar South Main road Pandian Salai, Chennai, Tamil Nadu 600115, India",https://www.google.co.kr/maps/place/JB+FITNESS+UNISEX+GYM/data=!4m5!3m4!1s0x3a525d1e9ffb79e5:0xe7d3e70bd1013d0b!8m2!3d12.949138!4d80.248803?authuser=0&hl=en&rclk=1,12.949138,80.248803,Tamil Nadu
Fitness Freak,Gym,"Aavin Junction, Nethaji Bypass, Weavers Colony, opposite, Dharmapuri, Tamil Nadu 636701, India",https://www.google.co.kr/maps/place/Fitness+Freak/data=!4m5!3m4!1s0x3bac17df4e5c2a3d:0x2cfb7654adb3cfca!8m2!3d12.1307227!4d78.1588841?authuser=0&hl=en&rclk=1,12.1307227,78.1588841,Tamil Nadu
Logu Fitness,Gym,"Subramaniyar Kovil 3rd St, Subramaniyapuram, Railway Colony, Tiruchirappalli, Tamil Nadu 620020, India",https://www.google.co.kr/maps/place/Logu+Fitness/data=!4m5!3m4!1s0x3baaf4d8092e63e5:0xf7f496c4753dec73!8m2!3d10.7849666!4d78.7025959?authuser=0&hl=en&rclk=1,10.7849666,78.7025959,Tamil Nadu
Royal’s Fitness Centre & Multi Gym,Physical fitness program,"10, Annur Road, Near Bus Stand, Mettupalayam, India",https://www.google.co.kr/maps/place/Royal%E2%80%99s+Fitness+Centre+%26+Multi+Gym/data=!4m5!3m4!1s0x3ba8eebfc79ca233:0xe97c0a0386a7df8b!8m2!3d11.3022828!4d76.9392585?authuser=0&hl=en&rclk=1,11.3022828,76.9392585,Tamil Nadu
The Little Gym,Gym,"No. 35, TT Krishnamachari Rd, Cooperative Colony, Sri Ram Nagar, Alwarpet, Chennai, Tamil Nadu 600018, India",https://www.google.co.kr/maps/place/The+Little+Gym/data=!4m5!3m4!1s0x3a526636d435dfdb:0xc9a01a420da6ed1a!8m2!3d13.0320053!4d80.2520874?authuser=0&hl=en&rclk=1,13.0320053,80.2520874,Tamil Nadu
abi fitness,Gym,"Nagapattinam - Coimbatore - Gundlupet Hwy, Gnanam Nagar, Pulianthoppu, Tamil Nadu 613501, India",https://www.google.co.kr/maps/place/abi+fitness/data=!4m5!3m4!1s0x3baab97770412b71:0xb39e0df989a67103!8m2!3d10.7817363!4d79.1737994?authuser=0&hl=en&rclk=1,10.7817363,79.1737994,Tamil Nadu
Venus Fitness Center & Gym,Gym,"எல்லை மாரியம்மன் கோவில், 5, வரதராஜீலு தெரு, அருகில், Rasipuram, Tamil Nadu 637408, India",https://www.google.co.kr/maps/place/Venus+Fitness+Center+%26+Gym/data=!4m5!3m4!1s0x3babe9e2b704aea3:0xb234d3c23f98641a!8m2!3d11.4669355!4d78.1901251?authuser=0&hl=en&rclk=1,11.4669355,78.1901251,Tamil Nadu
Fierse Fitness,Fitness center,"Oriental Bank of Commerce Building-1st floor, Gandhi Mandapam Rd, Chitra Nagar, Kotturpuram, Chennai, Tamil Nadu 600085, India",https://www.google.co.kr/maps/place/Fierse+Fitness/data=!4m5!3m4!1s0x3a5267a3003cceed:0xa1813ed622cf4a31!8m2!3d13.0155597!4d80.2405975?authuser=0&hl=en&rclk=1,13.0155597,80.2405975,Tamil Nadu
Godhumalai Rf India,Gym,"Gudamalai R.F., Tamil Nadu 636139, India",https://www.google.co.kr/maps/place/Godhumalai+Rf+India/data=!4m5!3m4!1s0x3bab8dbab7a77e71:0x283066f02daae7b8!8m2!3d11.6894395!4d78.3171334?authuser=0&hl=en&rclk=1,11.6894395,78.3171334,Tamil Nadu
Olympia Gym,Gym,"32C7+R29, Velayuthampalayam, Tamil Nadu 639113, India",https://www.google.co.kr/maps/place/Olympia+Gym/data=!4m5!3m4!1s0x3baa2b64662e3125:0x2d70db3b3d473bf4!8m2!3d11.0720493!4d78.0126134?authuser=0&hl=en&rclk=1,11.0720493,78.0126134,Tamil Nadu
Kavin fitness & Gym,Gym,"27/55, PN Rd, Muruganathanapuram, Tiruppur, Tamil Nadu 641602, India",https://www.google.co.kr/maps/place/Kavin+fitness+%26+Gym/data=!4m5!3m4!1s0x3ba907671d724817:0x435d0609e7470fd5!8m2!3d11.130611!4d77.341886?authuser=0&hl=en&rclk=1,11.130611,77.341886,Tamil Nadu
Vj Nutrition,Fitness center,"School Street, Periyakollappatty, Mallasamudram, Tamil Nadu 637503, India",https://www.google.co.kr/maps/place/Vj+Nutrition/data=!4m5!3m4!1s0x3babe79fba0cef0b:0x98f8179f4e976750!8m2!3d11.4982044!4d78.0413763?authuser=0&hl=en&rclk=1,11.4982044,78.0413763,Tamil Nadu
55 Gym,Gym,"FRWW+RX9, Naluvethapathi, Tamil Nadu 611112, India",https://www.google.co.kr/maps/place/55+Gym/data=!4m5!3m4!1s0x3a5563dd10ecd28d:0x753d115cd08ba909!8m2!3d10.4970331!4d79.8474966?authuser=0&hl=en&rclk=1,10.4970331,79.8474966,Tamil Nadu
Marvel Fitness,Gym,"263, Erumapalayam Main Rd, Gugai, Salem, Tamil Nadu 636015, India",https://www.google.co.kr/maps/place/Marvel+Fitness/data=!4m5!3m4!1s0x3babf10fc3a37111:0xee820070f151d1e3!8m2!3d11.6466425!4d78.1623136?authuser=0&hl=en&rclk=1,11.6466425,78.1623136,Tamil Nadu
K7 FITNESS GYM,Fitness center,"West, S Car St, Kamalar, Tiruchengode, Tamil Nadu 637211, India",https://www.google.co.kr/maps/place/K7+FITNESS+GYM/data=!4m5!3m4!1s0x3ba961fd39cc2509:0xc7dec56e255386af!8m2!3d11.379107!4d77.8951595?authuser=0&hl=en&rclk=1,11.379107,77.8951595,Tamil Nadu
fight for fit,Fitness center,"no 113, Chennai - Theni Hwy, Kamarajapuram, Tambaram, Chennai, Tamil Nadu 603202, India",https://www.google.co.kr/maps/place/fight+for+fit/data=!4m5!3m4!1s0x3a52f7ac931e0cc1:0x76e1eaf230710f4a!8m2!3d12.844621!4d80.06037?authuser=0&hl=en&rclk=1,12.844621,80.06037,Tamil Nadu
"Powerkadu, Primary Health Centre",Fitness center,"Sangarai - Navagadu, Edappulinadu, Tamil Nadu 637411, India","https://www.google.co.kr/maps/place/Powerkadu,+Primary+Health+Centre/data=!4m5!3m4!1s0x3babb92fe8df921f:0x2baf08e726dd3d96!8m2!3d11.3727299!4d78.3492015?authuser=0&hl=en&rclk=1",11.3727299,78.3492015,Tamil Nadu
AA CLASSIC FITNESS GYM,Gym,"Nadaraja, AL Mudaliar St, Mannargudi, Tamil Nadu 614001, India",https://www.google.co.kr/maps/place/AA+CLASSIC+FITNESS+GYM/data=!4m5!3m4!1s0x3a554d4d1ba242a9:0x70400d934d1057e!8m2!3d10.6684379!4d79.4637017?authuser=0&hl=en&rclk=1,10.6684379,79.4637017,Tamil Nadu
Woraiyur,Gym,"70, First Main Rd, Ramlinga Nagar, Woraiyur, Tiruchirappalli, Tamil Nadu 620003, India",https://www.google.co.kr/maps/place/Woraiyur/data=!4m5!3m4!1s0x3baaf59ea5708701:0x6281f98eaeb01f63!8m2!3d10.821149!4d78.674476?authuser=0&hl=en&rclk=1,10.821149,78.674476,Tamil Nadu
Cricket Paly ground,Gym,"GJG7+6W8, Salem, Tamil Nadu 636141, India",https://www.google.co.kr/maps/place/Cricket+Paly+ground/data=!4m5!3m4!1s0x3bab9ffa24c08e89:0xf54f1c268ee52dfb!8m2!3d11.5255412!4d78.6148271?authuser=0&hl=en&rclk=1,11.5255412,78.6148271,Tamil Nadu
Commando Gym,Gym,"X52F+X6J, Uthangudi, Tamil Nadu 625020, India",https://www.google.co.kr/maps/place/Commando+Gym/data=!4m5!3m4!1s0x3b00c4240f067d2d:0xe18e1877e542616d!8m2!3d9.952472!4d78.1730309?authuser=0&hl=en&rclk=1,9.952472,78.1730309,Tamil Nadu
Archery Coaching Centre,Gym,"PQX6+5P6, Pudupalayam, Cuddalore, Tamil Nadu 607001, India",https://www.google.co.kr/maps/place/Archery+Coaching+Centre/data=!4m5!3m4!1s0x3a5498607ab7b03f:0x53842b26c152c740!8m2!3d11.7479072!4d79.761752?authuser=0&hl=en&rclk=1,11.7479072,79.761752,Tamil Nadu
POLICE GROUND,Gym,"J4VX+45Q, Linemedu, Gugai, Salem, Tamil Nadu 636006, India",https://www.google.co.kr/maps/place/POLICE+GROUND/data=!4m5!3m4!1s0x3babf029d499b743:0xcd6d7ee6db7de126!8m2!3d11.6428429!4d78.1479942?authuser=0&hl=en&rclk=1,11.6428429,78.1479942,Tamil Nadu
The Little Gym of ECR,Gym,"Door 3/184, Ground & 1st Floor Time Square Plot C, SH 49, Uthandi, Chennai, Tamil Nadu 600119, India",https://www.google.co.kr/maps/place/The+Little+Gym+of+ECR/data=!4m5!3m4!1s0x3a525d14115d1815:0x5a496d59bc71e197!8m2!3d12.8768751!4d80.2437749?authuser=0&hl=en&rclk=1,12.8768751,80.2437749,Tamil Nadu
Flower moon sports academy ( badminton acadamy ),Gym,"HJW2+CRX, Pungavadi Puthur, Attur, Tamil Nadu 636102, India",https://www.google.co.kr/maps/place/Flower+moon+sports+academy+(+badminton+acadamy+)/data=!4m5!3m4!1s0x3bab9c485ad51935:0x9528ccc355276657!8m2!3d11.5961106!4d78.602109?authuser=0&hl=en&rclk=1,11.5961106,78.602109,Tamil Nadu
S P Gopinaath,Gym,"68CX+Q8X, Sengunthapuram, Tamil Nadu 621802, India",https://www.google.co.kr/maps/place/S+P+Gopinaath/data=!4m5!3m4!1s0x3bab2b6d47a659bb:0xe210fa8568674cd9!8m2!3d11.2219765!4d79.3483483?authuser=0&hl=en&rclk=1,11.2219765,79.3483483,Tamil Nadu
Coach Biglee,Physical fitness program,coachbiglee.com,https://www.google.co.kr/maps/place/Coach+Biglee/data=!4m5!3m4!1s0x3a526742c55c82bd:0x44b1dd81b1d7038!8m2!3d13.0475604!4d80.2090117?authuser=0&hl=en&rclk=1,13.0475604,80.2090117,Tamil Nadu
Csk Play Ground,Gym,"4RXG+MJX, Manigramam, Tamil Nadu 609107, India",https://www.google.co.kr/maps/place/Csk+Play+Ground/data=!4m5!3m4!1s0x3a551f1abbf2d8f1:0x9a47f271128db95f!8m2!3d11.1492407!4d79.8266142?authuser=0&hl=en&rclk=1,11.1492407,79.8266142,Tamil Nadu
EMPIRE FITNESS,Fitness center,"Third Empire Arcade 356/1, Omalur Main Road, opp. New Bus Stand, Salem, Tamil Nadu 636004, India",https://www.google.co.kr/maps/place/EMPIRE+FITNESS/data=!4m5!3m4!1s0x3babf1ec7bdef44b:0x1643ca24888c84db!8m2!3d11.6715864!4d78.1373382?authuser=0&hl=en&rclk=1,11.6715864,78.1373382,Tamil Nadu
Gym Madapattu,Rock climbing gym,"QCX3+PFP, Madapattu, Tamil Nadu 607107, India",https://www.google.co.kr/maps/place/Gym+Madapattu/data=!4m5!3m4!1s0x3a54ab6a1afb8bdd:0xb35c00191689bb08!8m2!3d11.7993275!4d79.4037147?authuser=0&hl=en&rclk=1,11.7993275,79.4037147,Tamil Nadu
Black and White Saloon A/C,Gym,"SH 142, Sungu Pettai, Perambalur, Tamil Nadu 621212, India",https://www.google.co.kr/maps/place/Black+and+White+Saloon+A%2FC/data=!4m5!3m4!1s0x3bab1b7992ebf8c9:0xa7932f72f42b8935!8m2!3d11.2343562!4d78.8787112?authuser=0&hl=en&rclk=1,11.2343562,78.8787112,Tamil Nadu
RR Constructions,Gym,"39Q6+J2X, Thumbaipatti, Tamil Nadu 625108, India",https://www.google.co.kr/maps/place/RR+Constructions/data=!4m5!3m4!1s0x3b0095328a59da25:0xc1263b9bf0955f79!8m2!3d10.0891187!4d78.360105?authuser=0&hl=en&rclk=1,10.0891187,78.360105,Tamil Nadu
Kazhumangalam Lake,Gym,"M9QJ+JC9, Eda Keelaiyur, Tamil Nadu 614013, India",https://www.google.co.kr/maps/place/Kazhumangalam+Lake/data=!4m5!3m4!1s0x3a554cb4d9f4107f:0x2f39e82221705598!8m2!3d10.6890407!4d79.3811173?authuser=0&hl=en&rclk=1,10.6890407,79.3811173,Tamil Nadu
Aravandiamman Kovil,Gym,"Unnamed Road, Mangalam, Tamil Nadu 621205, India",https://www.google.co.kr/maps/place/Aravandiamman+Kovil/data=!4m5!3m4!1s0x3baa520b8345c7d1:0x43e7f3754b1941d!8m2!3d11.0505063!4d78.4802197?authuser=0&hl=en&rclk=1,11.0505063,78.4802197,Tamil Nadu
Nalam Yoga & Naturopathy Training Center Kumbakonam,Yoga studio,"3rd cross, opposite to JAYAM RESIDENCY, Thiruvalluvar Nagar, Kumbakonam, Tamil Nadu 612001, India",https://www.google.co.kr/maps/place/Nalam+Yoga+%26+Naturopathy+Training+Center+Kumbakonam/data=!4m5!3m4!1s0x3a553323172524e9:0xb3267c789f1efb40!8m2!3d10.9676264!4d79.3914735?authuser=0&hl=en&rclk=1,10.9676264,79.3914735,Tamil Nadu
"Magadheera Yoga - Teacher Training - Become certified by YCB, Gov of India",Yoga studio,"Perur Main Road, Kalampalayam, theethipalayam, near Kovaipudur, Coimbatore, Tamil Nadu 641010, India","https://www.google.co.kr/maps/place/Magadheera+Yoga+-+Teacher+Training+-+Become+certified+by+YCB,+Gov+of+India/data=!4m5!3m4!1s0x3ba85e9f233850a1:0xc79342a9c0cc2a74!8m2!3d10.9708305!4d76.8929389?authuser=0&hl=en&rclk=1",10.9708305,76.8929389,Tamil Nadu
The Little Gym India (Bannerghatta Road),Physical fitness program,"3rd Floor, Vinyas Mansion, Sir M. Visvesvaraya Rd, Muthuraya Swamy Layout, Hanuman Nagar, Hulimavu, Bengaluru, Karnataka 560076, India",https://www.google.co.kr/maps/place/The+Little+Gym+India+(Bannerghatta+Road)/data=!4m5!3m4!1s0x3bae15528dd6e97b:0xcc6f070c83b8ea23!8m2!3d12.8801484!4d77.6098986?authuser=0&hl=en&rclk=1,12.8801484,77.6098986,Tamil Nadu
"ANANDA MARGA MISSION ERODE,TAMILNADU,INDIA",Yoga studio,"post, Veerappanchatram, Tamil Nadu 638004, India","https://www.google.co.kr/maps/place/ANANDA+MARGA+MISSION+ERODE,TAMILNADU,INDIA/data=!4m5!3m4!1s0x3ba96f5886ed86bd:0x191860d77edd1205!8m2!3d11.3539437!4d77.7137335?authuser=0&hl=en&rclk=1",11.3539437,77.7137335,Tamil Nadu
Gold's Gym,Gym,"VGHW+R8Q, Raghuvanahalli, Bangalore City Municipal Corporation Layout, Bengaluru, Karnataka 560062, India",https://www.google.co.kr/maps/place/Gold's+Gym/data=!4m5!3m4!1s0x3bae3f21b3bd1a4b:0x248e71d00b97a710!8m2!3d12.8795829!4d77.5458593?authuser=0&hl=en&rclk=1,12.8795829,77.5458593,Tamil Nadu
"ISHA YOGA CENTER, NEYVELI",Yoga studio,"D-14, Rabindra Nath Road, Neyveli Twp Block-20, Neyveli T.S, Tamil Nadu 607802, India","https://www.google.co.kr/maps/place/ISHA+YOGA+CENTER,+NEYVELI/data=!4m5!3m4!1s0x3a54b153fd333ebf:0x830b499c84401186!8m2!3d11.6091888!4d79.4774195?authuser=0&hl=en&rclk=1",11.6091888,79.4774195,Tamil Nadu
"Sri Sivananda Yoga Vedanta Alagar Ashram, Madurai, South India",Ashram,"Moogambigai Street, Anand Nagar, Narayanapuram, Madurai, Tamil Nadu 625014, India","https://www.google.co.kr/maps/place/Sri+Sivananda+Yoga+Vedanta+Alagar+Ashram,+Madurai,+South+India/data=!4m5!3m4!1s0x3b00c58f98cfb84d:0x66a7bed63b648ce2!8m2!3d10.0524857!4d78.153073?authuser=0&hl=en&rclk=1",10.0524857,78.153073,Tamil Nadu
Gold's Gym,Gym,"1st Floor, Regent Prime, 48, Whitefield Main Rd, Whitefield, Bengaluru, Karnataka 560066, India",https://www.google.co.kr/maps/place/Gold's+Gym/data=!4m5!3m4!1s0x3bae0dfe794a000d:0xd80644cfceac0af9!8m2!3d12.972201!4d77.750662?authuser=0&hl=en&rclk=1,12.972201,77.750662,Tamil Nadu
கபிஸ்தலம் அறிவுத்திருக்கோயில்,Yoga studio,"W7V5+6HV, Kabisthalam, Tamil Nadu 614203, India",https://www.google.co.kr/maps/place/%E0%AE%95%E0%AE%AA%E0%AE%BF%E0%AE%B8%E0%AF%8D%E0%AE%A4%E0%AE%B2%E0%AE%AE%E0%AF%8D+%E0%AE%85%E0%AE%B1%E0%AE%BF%E0%AE%B5%E0%AF%81%E0%AE%A4%E0%AF%8D%E0%AE%A4%E0%AE%BF%E0%AE%B0%E0%AF%81%E0%AE%95%E0%AF%8D%E0%AE%95%E0%AF%8B%E0%AE%AF%E0%AE%BF%E0%AE%B2%E0%AF%8D/data=!4m5!3m4!1s0x3baace467f5ee1c1:0x45b52f2caed712df!8m2!3d10.9431238!4d79.2589307?authuser=0&hl=en&rclk=1,10.9431238,79.2589307,Tamil Nadu
