Company_Name,Category,Address,Url,latitude,longtitude
FITPASS,Physical fitness program,"2E/8, Second Floor, Jhandewalan Extension, Jhandewalan, New Delhi, Delhi 110055, India",https://www.google.co.kr/maps/place/FITPASS/data=!4m5!3m4!1s0x390cfd60ab1d8cf7:0x9cbaa302b5ab7b0e!8m2!3d28.6449131!4d77.201224?authuser=0&hl=en&rclk=1,28.6449131,77.201224
The Indian Gym,Fitness center,"The Indian gym, JVTS Garden, gate, Chhatarpur, New Delhi, Delhi 110074, India",https://www.google.co.kr/maps/place/The+Indian+Gym/data=!4m5!3m4!1s0x390d1e30f36b1def:0x8dc46bd9ca0901cf!8m2!3d28.4911124!4d77.168567?authuser=0&hl=en&rclk=1,28.4911124,77.168567
Delhi Gym,Gymnastics center,"F6XG+MPV, Durga Vihar, Devli, Sangam Vihar, New Delhi, Delhi 110062, India",https://www.google.co.kr/maps/place/Delhi+Gym/data=!4m5!3m4!1s0x390ce13a36c724bf:0x204e364f46ff5bd9!8m2!3d28.4992254!4d77.226801?authuser=0&hl=en&rclk=1,28.4992254,77.226801
Anatomy Lifestyle Fitness,Fitness center,"C-2/10, Block C 2, Safdarjung Development Area, Hauz Khas, New Delhi, Delhi 110016, India",https://www.google.co.kr/maps/place/Anatomy+Lifestyle+Fitness/data=!4m5!3m4!1s0x390ce20d519be6ed:0x965ee87cda26988c!8m2!3d28.5508293!4d77.2035475?authuser=0&hl=en&rclk=1,28.5508293,77.2035475
Fitness India,Gym,"B-4, Gali No 4, I P Extension, Patparganj, Delhi, 110092, India",https://www.google.co.kr/maps/place/Fitness+India/data=!4m5!3m4!1s0x390ce35442053fed:0xe59bd90f96836ae4!8m2!3d28.6295233!4d77.3123396?authuser=0&hl=en&rclk=1,28.6295233,77.3123396
GFFI Fitness Academy,Physical fitness program,"35, NWA, Club Rd, above OBC Bank, Punjabi Bagh, New Delhi, Delhi 110026, India",https://www.google.co.kr/maps/place/GFFI+Fitness+Academy/data=!4m5!3m4!1s0x390d038626439519:0x4ec8d7ed12bb5737!8m2!3d28.6665265!4d77.1239567?authuser=0&hl=en&rclk=1,28.6665265,77.1239567
My Fitness Kapsule,Gym,"F 4 And F 9, First Floor, Plot Number 16, Pankaj Arcade Sector 5, Main Market, Dwaraka Near Mc Donald's and, above Kotak Mahindra Bank Ltd, New Delhi, Delhi 110075, India",https://www.google.co.kr/maps/place/My+Fitness+Kapsule/data=!4m5!3m4!1s0x390d1ac4af2104d9:0x85b748d976bd554e!8m2!3d28.5946756!4d77.0535485?authuser=0&hl=en&rclk=1,28.5946756,77.0535485
Fitness First,Fitness center,"Select Citywalk Mall, The New Delhi Dome, 5th & 6th Floor, Saket District Centre, New Delhi, Delhi 110017, India",https://www.google.co.kr/maps/place/Fitness+First/data=!4m5!3m4!1s0x390ce1f4d9805413:0x50f2b5f11e11b8e2!8m2!3d28.5284974!4d77.2189807?authuser=0&hl=en&rclk=1,28.5284974,77.2189807
Fitness First Hamilton House,Gym,"Building No. 1 & 2, 1-A, Radial Rd Number 2, Connaught Place, New Delhi, Delhi 110001, India",https://www.google.co.kr/maps/place/Fitness+First+Hamilton+House/data=!4m5!3m4!1s0x390cfd37d3c04285:0xb9bd717604038081!8m2!3d28.632223!4d77.2178333?authuser=0&hl=en&rclk=1,28.632223,77.2178333
Fitness Gym And Health Club,Gym,"Shop No-I-49, Rama Park Road, Bhagwati Garden, Rajouri Garden, Delhi, 110059, India",https://www.google.co.kr/maps/place/Fitness+Gym+And+Health+Club/data=!4m5!3m4!1s0x390d053e36301dab:0x2caa34b4e9acaeb6!8m2!3d28.627555!4d77.03682?authuser=0&hl=en&rclk=1,28.627555,77.03682
Fitness,Gym,"603A, Near East Metro Station, Janakpuri, B1 Market, Pocket B 1, Block B1, Janakpuri, New Delhi, Delhi 110058, India",https://www.google.co.kr/maps/place/Fitness/data=!4m5!3m4!1s0x390d0594cf514e5d:0x2c171585b7904d1b!8m2!3d28.631633!4d77.085183?authuser=0&hl=en&rclk=1,28.631633,77.085183
Fitness Trainer Delhi,Fitness center,"Plot 1, Street Number 1, Ram Nagar, Om Vihar, Uttam Nagar, Delhi, 110059, India",https://www.google.co.kr/maps/place/Fitness+Trainer+Delhi/data=!4m5!3m4!1s0x390d0529e09bac35:0xe9dc01f99a91ffdd!8m2!3d28.6208173!4d77.0513211?authuser=0&hl=en&rclk=1,28.6208173,77.0513211
Anytime Fitness,Gym,"2nd & 3rd floor, C -53, Vikas Marg, C Block, Preet Vihar, New Delhi, Delhi 110092, India",https://www.google.co.kr/maps/place/Anytime+Fitness/data=!4m5!3m4!1s0x390cfb512f8efae3:0x902343d5488bce54!8m2!3d28.6390735!4d77.2924585?authuser=0&hl=en&rclk=1,28.6390735,77.2924585
21 FITNESS,Gym,"272 AGCR ENCLAVE, East Delhi, Delhi 110092, India",https://www.google.co.kr/maps/place/21+FITNESS/data=!4m5!3m4!1s0x390cfb4313e91f83:0x199f75566d72c02d!8m2!3d28.6499243!4d77.2997926?authuser=0&hl=en&rclk=1,28.6499243,77.2997926
TORQ FITNESS,Fitness center,"31st satnam park chander nagar, bhagat singh road Chander nagar KRISHNA NAGAR, landmark, union bank of india building, Delhi, 110051, India",https://www.google.co.kr/maps/place/TORQ+FITNESS/data=!4m5!3m4!1s0x390cfb9a583a90e1:0xbb34536462d240!8m2!3d28.6556722!4d77.2820144?authuser=0&hl=en&rclk=1,28.6556722,77.2820144
Anytime Fitness,Gym,"B-37 & 38, 1st Floor, Connaught Place, New Delhi, Delhi 110001, India",https://www.google.co.kr/maps/place/Anytime+Fitness/data=!4m5!3m4!1s0x390cfd39d0d18699:0x38b5b257e58c4d5e!8m2!3d28.6342771!4d77.2194521?authuser=0&hl=en&rclk=1,28.6342771,77.2194521
Gym I Lift Fitness with Cult.fit,Gymnasium Cz,"S-2, 1st & 2nd Floor, Green Park, New Delhi, Delhi 110016, India",https://www.google.co.kr/maps/place/Gym+I+Lift+Fitness+with+Cult.fit/data=!4m5!3m4!1s0x390ce359b2fcead1:0xfb4e5439a432db25!8m2!3d28.5582969!4d77.2027029?authuser=0&hl=en&rclk=1,28.5582969,77.2027029
Health India Gym,Gym,"1809/B, Guru Ravidas Marg, Govindpuri Extension, Kalkaji, New Delhi, Delhi 110019, India",https://www.google.co.kr/maps/place/Health+India+Gym/data=!4m5!3m4!1s0x390ce1618372a659:0x2b808cadace5e492!8m2!3d28.5328569!4d77.2584393?authuser=0&hl=en&rclk=1,28.5328569,77.2584393
Fitness First,Gym,"C-61, Block C, Surya Enclave, Shakur Basti, Delhi, 110063, India",https://www.google.co.kr/maps/place/Fitness+First/data=!4m5!3m4!1s0x390d038b0169ae8f:0x50058b6edca1fd43!8m2!3d28.6788757!4d77.1056278?authuser=0&hl=en&rclk=1,28.6788757,77.1056278
KIRAT INTERNATIONAL,Importer,"#19, Forest Lane, Mehrauli-Gurgaon Rd, Sultanpur, New Delhi, Delhi 110030, India",https://www.google.co.kr/maps/place/KIRAT+INTERNATIONAL/data=!4m5!3m4!1s0x390d1ef231229f05:0xb8256bb3bbd5ab45!8m2!3d28.4998118!4d77.1511825?authuser=0&hl=en&rclk=1,28.4998118,77.1511825
InHouseGym - Treadmill Rental Service,Equipment rental agency,"Style Plaza, #206, Jharsa Rd, Kirti Nagar, Sector 15 Part 1, Sector 15, Gurugram, Haryana 122001, India",https://www.google.co.kr/maps/place/InHouseGym+-+Treadmill+Rental+Service/data=!4m5!3m4!1s0x390d18467ea07e29:0xf8022d94e9f2bc0b!8m2!3d28.454516!4d77.0388164?authuser=0&hl=en&rclk=1,28.454516,77.0388164
Anytime Fitness,Gym,"D-83 Main Market, opp. Mother Dairy, Malviya Nagar, New Delhi, Delhi 110017, India",https://www.google.co.kr/maps/place/Anytime+Fitness/data=!4m5!3m4!1s0x390ce21c145daac1:0x1902d0830c08bbee!8m2!3d28.5350541!4d77.210484?authuser=0&hl=en&rclk=1,28.5350541,77.210484
Workout Studio,Gym,"Floor C-50, 2, Block C, Malviya Nagar, New Delhi, Delhi 110017, India",https://www.google.co.kr/maps/place/Workout+Studio/data=!4m5!3m4!1s0x390ce21c12c0af39:0x45dac518ae993e63!8m2!3d28.5356377!4d77.2104016?authuser=0&hl=en&rclk=1,28.5356377,77.2104016
Fitness health club,Gym,"M5JG+MQP, Bunkar Colony, Bunker Colony, Nimri Colony, Ashok Vihar, New Delhi, Delhi 110052, India",https://www.google.co.kr/maps/place/Fitness+health+club/data=!4m5!3m4!1s0x390d0393c1a38189:0xd189e241c91e9e89!8m2!3d28.681713!4d77.1769397?authuser=0&hl=en&rclk=1,28.681713,77.1769397
Health India Gym,Gym,"65 -A Mehrauli Badarpur Road, Khanpur Village, Khanpur, New Delhi, Delhi 110062, India",https://www.google.co.kr/maps/place/Health+India+Gym/data=!4m5!3m4!1s0x390ce1999c17945f:0x7573ea365f544f4a!8m2!3d28.5151349!4d77.2315998?authuser=0&hl=en&rclk=1,28.5151349,77.2315998
"CrossFit Himalaya, Chattarpur",Gym,"Qutab Minar Metro Station, The Dhanmill Compund,100 Foot Road Chattarpur, Near:, New Delhi, Delhi 110074, India","https://www.google.co.kr/maps/place/CrossFit+Himalaya,+Chattarpur/data=!4m5!3m4!1s0x390d1e22f87cf3c3:0xdf9b664186bd3a37!8m2!3d28.5034899!4d77.1844786?authuser=0&hl=en&rclk=1",28.5034899,77.1844786
Fitness First Mall of India,Gym,"Plot No M, DLF Mall of India, 03, Sector 18, Noida, Uttar Pradesh 201301, India",https://www.google.co.kr/maps/place/Fitness+First+Mall+of+India/data=!4m5!3m4!1s0x390ce448811f4f45:0x41f569f37841521d!8m2!3d28.5668972!4d77.3213901?authuser=0&hl=en&rclk=1,28.5668972,77.3213901
Anaerobic Gym,Gym,"Building No 37, 1st Floor, Community Center, near M Cinema, East of Kailash, New Delhi, Delhi 110065, India",https://www.google.co.kr/maps/place/Anaerobic+Gym/data=!4m5!3m4!1s0x390ce1325e0ee6c1:0xd4d671c6b3630976!8m2!3d28.5234032!4d77.2077992?authuser=0&hl=en&rclk=1,28.5234032,77.2077992
Cult South Extension,Fitness center,"1st & 2nd Floor, D-16, South Extension II, New Delhi, Delhi 110049, India",https://www.google.co.kr/maps/place/Cult+South+Extension/data=!4m5!3m4!1s0x390cfd366599619b:0xc472e8b0b7fdeece!8m2!3d28.5684242!4d77.217188?authuser=0&hl=en&rclk=1,28.5684242,77.217188
Fitness First Health Club,Gymnastics club,"878 /37B, Ward NUMBER 6, MEHRAULI, New Delhi, Delhi 110030, India",https://www.google.co.kr/maps/place/Fitness+First+Health+Club/data=!4m5!3m4!1s0x390d1e0e6de60051:0x1f289ec94ad44fd1!8m2!3d28.5181131!4d77.1780605?authuser=0&hl=en&rclk=1,28.5181131,77.1780605
REHAB GYM,Gym,"OFFICE 1st FLOOR, MADAN LAL MLA, 79, Amrit Nagar, South Extension I, New Delhi, Delhi 110003, India",https://www.google.co.kr/maps/place/REHAB+GYM/data=!4m5!3m4!1s0x390ce34e6e333f05:0xd55bf70bcdd3ff92!8m2!3d28.5748937!4d77.2189638?authuser=0&hl=en&rclk=1,28.5748937,77.2189638
Anytime Fitness,Gym,"B-4/8, 1st Floor, Shahid Ramprasad Bismil Marg, Model Town Phase I, New Delhi, Delhi 110009, India",https://www.google.co.kr/maps/place/Anytime+Fitness/data=!4m5!3m4!1s0x390cfdf87d81b2d7:0x84e1015141290092!8m2!3d28.7044565!4d77.1952193?authuser=0&hl=en&rclk=1,28.7044565,77.1952193
The Fitness Center,Gym,"Middle Cir, Block G, Connaught Place, New Delhi, Delhi 110001, India",https://www.google.co.kr/maps/place/The+Fitness+Center/data=!4m5!3m4!1s0x390cfd4828c15feb:0x2b9ad081f53b2a6c!8m2!3d28.6326005!4d77.2171947?authuser=0&hl=en&rclk=1,28.6326005,77.2171947
First Fitness Gym,Gym,"1/204, 2nd Floor, Sadar Bazar Near Indian Overseas Bank) Gurudwara, above Piyare Lal Hari Singh Builders, New Delhi, Delhi 110010, India",https://www.google.co.kr/maps/place/First+Fitness+Gym/data=!4m5!3m4!1s0x390d1d79410ca09b:0x1d6445f889ada670!8m2!3d28.5915596!4d77.11997?authuser=0&hl=en&rclk=1,28.5915596,77.11997
Stamina A Complete Fitness And Wellness Centre,Gym,"72, E Block, Hansraj Gupta Rd, Greater Kailash-1, Block E, Greater Kailash I, Greater Kailash, New Delhi, Delhi 110048, India",https://www.google.co.kr/maps/place/Stamina+A+Complete+Fitness+And+Wellness+Centre/data=!4m5!3m4!1s0x390ce2330755f86d:0x513ab5f4f5c57b72!8m2!3d28.5504997!4d77.2436482?authuser=0&hl=en&rclk=1,28.5504997,77.2436482
Anytime Fitness,Gym,"47, Mathura Rd, Block A, Friends Colony East, New Friends Colony, New Delhi, Delhi 110025, India",https://www.google.co.kr/maps/place/Anytime+Fitness/data=!4m5!3m4!1s0x390ce3636f382e2d:0x31fe9e8fb566bcd0!8m2!3d28.5612767!4d77.2670911?authuser=0&hl=en&rclk=1,28.5612767,77.2670911
D3 Fitness,Gym,"WZ-80A, 2nd floor, Pankha Rd, near Neelgagan Hotel, Mohan Nagar, New Delhi, Delhi 110046, India",https://www.google.co.kr/maps/place/D3+Fitness/data=!4m5!3m4!1s0x390d05edda4c9017:0xc7b13a8c9ac5cef9!8m2!3d28.6066239!4d77.1064214?authuser=0&hl=en&rclk=1,28.6066239,77.1064214
Anytime Fitness,Gym,"D-10 1st & 2nd Floor, South Extension II, Delhi 110049, India",https://www.google.co.kr/maps/place/Anytime+Fitness/data=!4m5!3m4!1s0x390ce25dbad548bb:0xdd9a0d7e5e61b5b3!8m2!3d28.5683899!4d77.2188544?authuser=0&hl=en&rclk=1,28.5683899,77.2188544
The Fitness First,Gym,"1513, Lower Ground Floor, Bhishma Pitamah Marg, Wazir Nagar, South Extension 1, New Delhi, Delhi 110003, India",https://www.google.co.kr/maps/place/The+Fitness+First/data=!4m5!3m4!1s0x390ce25b1afd5f9b:0x6b158a065b9a1077!8m2!3d28.5703844!4d77.2264097?authuser=0&hl=en&rclk=1,28.5703844,77.2264097
Anytime Fitness Bungalow Road,Gym,"1st floor, 38, Bungalow Rd, opp. Amithab Banquit, Kamla Nagar, Delhi, 110007, India",https://www.google.co.kr/maps/place/Anytime+Fitness+Bungalow+Road/data=!4m5!3m4!1s0x390cfd8e15487031:0x6730c390055d7005!8m2!3d28.683863!4d77.204629?authuser=0&hl=en&rclk=1,28.683863,77.204629
Gold's Gym,Gym,"A1, 289, Pankha Rd, Block A1, Janakpuri, New Delhi, Delhi 110058, India",https://www.google.co.kr/maps/place/Gold's+Gym/data=!4m5!3m4!1s0x390d04b60e0530cf:0x6f533cb08438aad2!8m2!3d28.6225239!4d77.0691558?authuser=0&hl=en&rclk=1,28.6225239,77.0691558
SS Fitness Personal Training - Best Fitness Centre in New Delhi | Fitness Studio,Gym,"C-37 Basement, East of Kailash, New Delhi, Delhi 110065, India",https://www.google.co.kr/maps/place/SS+Fitness+Personal+Training+-+Best+Fitness+Centre+in+New+Delhi+%7C+Fitness+Studio/data=!4m5!3m4!1s0x390ce3b8c8f03bfb:0x9ced1c1e94e988a4!8m2!3d28.5599757!4d77.2571663?authuser=0&hl=en&rclk=1,28.5599757,77.2571663
Craft Fitness Gym,Gym,"DCA JCO Club, A Block, Block A, Defence Colony, New Delhi, Delhi 110024, India",https://www.google.co.kr/maps/place/Craft+Fitness+Gym/data=!4m5!3m4!1s0x390ce25765407ed5:0x7b85b73c1fd957a8!8m2!3d28.5764157!4d77.2309152?authuser=0&hl=en&rclk=1,28.5764157,77.2309152
Her Fitness,Gym,"B-1/7, Janakpuri East, New Delhi, Delhi 110058, India",https://www.google.co.kr/maps/place/Her+Fitness/data=!4m5!3m4!1s0x390d055d6319a3fd:0xbd5e287314cb1487!8m2!3d28.6335122!4d77.0884342?authuser=0&hl=en&rclk=1,28.6335122,77.0884342
Classic Fitness Academy,Fitness center,"d-83, 3rd floor next to canara bank, Malviya Nagar, New Delhi, Delhi 110017, India",https://www.google.co.kr/maps/place/Classic+Fitness+Academy/data=!4m5!3m4!1s0x390ce21dcdd28a89:0x78f6045335f74a53!8m2!3d28.5349744!4d77.2103925?authuser=0&hl=en&rclk=1,28.5349744,77.2103925
The Life Fitness,Gym,"D-97, 98, LGF, Near Jungpura Faatak, Dr Ramlal Verma Marg, Block D, Lajpat Nagar I, Lajpat Nagar, New Delhi, Delhi 110024, India",https://www.google.co.kr/maps/place/The+Life+Fitness/data=!4m5!3m4!1s0x390ce3aac4c137a7:0x6ec990337c5796f6!8m2!3d28.5771771!4d77.241578?authuser=0&hl=en&rclk=1,28.5771771,77.241578
The World Gym,Gym,"4, Club Road, Western Avenue, Anupam Garden, Punjabi Bagh, Sainik Farm, New Delhi, Delhi 110026, India",https://www.google.co.kr/maps/place/The+World+Gym/data=!4m5!3m4!1s0x390ce1e5e329eb8d:0x419cbc381b555398!8m2!3d28.5133479!4d77.2054392?authuser=0&hl=en&rclk=1,28.5133479,77.2054392
Anytime Fitness,Gym,"N 41, 42, Block N, Kirti Nagar, New Delhi, Delhi 110015, India",https://www.google.co.kr/maps/place/Anytime+Fitness/data=!4m5!3m4!1s0x390d031359de48e1:0x5ce6f19d722cee8e!8m2!3d28.6557259!4d77.1405281?authuser=0&hl=en&rclk=1,28.6557259,77.1405281
Fitness,Fitness center,"Janakpuri A-1 302 Block-C, New Delhi, Delhi, India",https://www.google.co.kr/maps/place/Fitness/data=!4m5!3m4!1s0x390d04c4c16c670f:0xdcd8880e63a751f1!8m2!3d28.6246245!4d77.0691558?authuser=0&hl=en&rclk=1,28.6246245,77.0691558
FITNESS STUDIO GYM,Gym,"C24, A Baisment, Acharya Niketan, Mayur Vihar, Delhi 110091, India",https://www.google.co.kr/maps/place/FITNESS+STUDIO+GYM/data=!4m5!3m4!1s0x390ce5f3d3142515:0x37d27db1607d3287!8m2!3d28.60719!4d77.296092?authuser=0&hl=en&rclk=1,28.60719,77.296092
Anytime Fitness,Gym,"A-3/25, Block A3, Janakpuri, Delhi, 110058, India",https://www.google.co.kr/maps/place/Anytime+Fitness/data=!4m5!3m4!1s0x390d04b7539376b7:0x42d38913c687a58f!8m2!3d28.6211471!4d77.0811799?authuser=0&hl=en&rclk=1,28.6211471,77.0811799
Fitness Destination Gym,Gym,"Block F, Malka Ganj, Delhi, 110007, India",https://www.google.co.kr/maps/place/Fitness+Destination+Gym/data=!4m5!3m4!1s0x390cfd85232d6937:0x99ee787dcbfda025!8m2!3d28.6773426!4d77.2048075?authuser=0&hl=en&rclk=1,28.6773426,77.2048075
LIONIX Fitness Studio,Gym,"410, Sultanpur Mandi Rd, new delhi, New Delhi, Delhi 110030, India",https://www.google.co.kr/maps/place/LIONIX+Fitness+Studio/data=!4m5!3m4!1s0x390d1e45e9f456ad:0xd8ab557fd059bf40!8m2!3d28.4935765!4d77.1648119?authuser=0&hl=en&rclk=1,28.4935765,77.1648119
Fitness online,Fitness center,"J- 195 First floor, New Delhi, Delhi 110018, India",https://www.google.co.kr/maps/place/Fitness+online/data=!4m5!3m4!1s0x390d0491bed066a5:0xcfc98932e9f2574b!8m2!3d28.6436082!4d77.0869837?authuser=0&hl=en&rclk=1,28.6436082,77.0869837
Anytime Fitness,Gym,"2nd Floor, AL Market, Shalimar Bagh, New Delhi, Delhi 110088, India",https://www.google.co.kr/maps/place/Anytime+Fitness/data=!4m5!3m4!1s0x390d0225db697d21:0xc4c6bfd71a9bfab0!8m2!3d28.70349!4d77.161984?authuser=0&hl=en&rclk=1,28.70349,77.161984
FITWELL MANTRA| Experience The True Fitness,Fitness center,"145, J-Block, Rampuri, Kalkaji, New Delhi, Delhi 110019, India",https://www.google.co.kr/maps/place/FITWELL+MANTRA%7C+Experience+The+True+Fitness/data=!4m5!3m4!1s0x390ce317c1865c39:0xbb48daafea836e10!8m2!3d28.5370736!4d77.2604128?authuser=0&hl=en&rclk=1,28.5370736,77.2604128
O2 Fitness Studio/ Outwork Fitness Studio,Gym,"C1 LAJPAT NAGAR 1, near KRISHNA MARKET, New Delhi, Delhi 110024, India",https://www.google.co.kr/maps/place/O2+Fitness+Studio%2F+Outwork+Fitness+Studio/data=!4m5!3m4!1s0x390ce3f6add5f407:0x91e5c017eede6b24!8m2!3d28.5772431!4d77.2413319?authuser=0&hl=en&rclk=1,28.5772431,77.2413319
The X Gym,Fitness center,"B1/10 (Basement) Road No.30 Near PC Jeweller, India, Paschim Vihar, Delhi, 110063, India",https://www.google.co.kr/maps/place/The+X+Gym/data=!4m5!3m4!1s0x390d038f5f7229f7:0x4c6d13714feb2fdd!8m2!3d28.6702878!4d77.1095516?authuser=0&hl=en&rclk=1,28.6702878,77.1095516
Fitness World Gym,Gym,"Krishna Plaza, Plot No.1, Block 88, Basement,, main Bazar, Paharganj, New Delhi, Delhi 110055, India",https://www.google.co.kr/maps/place/Fitness+World+Gym/data=!4m5!3m4!1s0x390cfd43f23ce44d:0x95277c5087a018b5!8m2!3d28.6404453!4d77.2104114?authuser=0&hl=en&rclk=1,28.6404453,77.2104114
Fitness Manzil,Fitness center,"E - 187, Block E, East of Kailash, New Delhi, Delhi 110065, India",https://www.google.co.kr/maps/place/Fitness+Manzil/data=!4m5!3m4!1s0x390ce3d445cd4d1b:0xcaf4eec4f40cef28!8m2!3d28.5565945!4d77.2423335?authuser=0&hl=en&rclk=1,28.5565945,77.2423335
Fitness First Health Club,Gym,"Block D, Shashi Garden, Mayur Vihar, New Delhi, Delhi 110091, India",https://www.google.co.kr/maps/place/Fitness+First+Health+Club/data=!4m5!3m4!1s0x390ce54c9b659505:0x499f77e14d4cc718!8m2!3d28.610041!4d77.2927369?authuser=0&hl=en&rclk=1,28.610041,77.2927369
Anytime Fitness,Gym,"Basement, 01, Ring Rd, near Moolchand Metro Station, Nirmal Puri, Nirmal Colony, Block 6, Lajpat Nagar IV, Lajpat Nagar 4, New Delhi, Delhi 110024, India",https://www.google.co.kr/maps/place/Anytime+Fitness/data=!4m5!3m4!1s0x390ce3b3324102f1:0xccc306f101f8cf32!8m2!3d28.564549!4d77.240773?authuser=0&hl=en&rclk=1,28.564549,77.240773
Crush Fitness,Gym,"81/3, Sri Aurobindo Marg, MMTC Colony, Sarvodaya Enclave, New Delhi, Delhi 110017, India",https://www.google.co.kr/maps/place/Crush+Fitness/data=!4m5!3m4!1s0x390ce206d5de2c31:0x3d9aef662327a26e!8m2!3d28.5357769!4d77.1974915?authuser=0&hl=en&rclk=1,28.5357769,77.1974915
Gold's Gym Rohini,Fitness center,"Gold's Gym 8th Floor Ring Road Mall, Sector 3, Mangalam Place,Rohini New, Delhi,, Rohini New Delhi, Delhi 110085, India",https://www.google.co.kr/maps/place/Gold's+Gym+Rohini/data=!4m5!3m4!1s0x390d03e49000001f:0xaa195424c484cf79!8m2!3d28.6981159!4d77.1160218?authuser=0&hl=en&rclk=1,28.6981159,77.1160218
Anytime Fitness,Gym,"PVR Anupam Saket, 28, Community Center, Saket, New Delhi, Delhi 110017, India",https://www.google.co.kr/maps/place/Anytime+Fitness/data=!4m5!3m4!1s0x390ce18e5ce62465:0xec114b173432c05e!8m2!3d28.5237397!4d77.2077637?authuser=0&hl=en&rclk=1,28.5237397,77.2077637
Her Fitness,Fitness center,"A -29, Vishal Cinema Rd, Block A, Vishal Enclave, Rajouri Garden, New Delhi, Delhi 110027, India",https://www.google.co.kr/maps/place/Her+Fitness/data=!4m5!3m4!1s0x390d03714a9e33db:0xc17f193ccd281389!8m2!3d28.6494491!4d77.1208192?authuser=0&hl=en&rclk=1,28.6494491,77.1208192
Green Fitness,Gym,"Harsh Bhawan, 67-68 Building, 3rd Floor, Nehru Place, New Delhi, Delhi 110019, India, Nehru Place, New Delhi, Delhi 110048, India",https://www.google.co.kr/maps/place/Green+Fitness/data=!4m5!3m4!1s0x390ce3a11cf2b7db:0xe913190b382e96c5!8m2!3d28.549669!4d77.253475?authuser=0&hl=en&rclk=1,28.549669,77.253475
FITNESS EQUIPMENT IMPORTERS IN DELHI,Gym,"Veer Savarkar Block, Block U, Shakarpur Khas, New Delhi, Delhi 110092, India",https://www.google.co.kr/maps/place/FITNESS+EQUIPMENT+IMPORTERS+IN+DELHI/data=!4m5!3m4!1s0x390cfcacd899439f:0x67c4857e4d5f219c!8m2!3d28.6300922!4d77.2778964?authuser=0&hl=en&rclk=1,28.6300922,77.2778964
Fitness Tree,Gym,"Tagore Park Extension, 301, Prince Road, Opposite HDFC Bank, Model Town Phase I, Delhi, 110009, India",https://www.google.co.kr/maps/place/Fitness+Tree/data=!4m5!3m4!1s0x390cfdf90ca8a7dd:0xa465d6fd17bb360c!8m2!3d28.7041043!4d77.1951413?authuser=0&hl=en&rclk=1,28.7041043,77.1951413
Body Cult Gym,Fitness center,"249, 1, Nelson Mandela Marg, Rama Market, Anand Gram, Vasant Vihar, New Delhi, Delhi 110070, India",https://www.google.co.kr/maps/place/Body+Cult+Gym/data=!4m5!3m4!1s0x390d1dbd766d84bf:0x50b840aee58fe1c6!8m2!3d28.5399032!4d77.1541332?authuser=0&hl=en&rclk=1,28.5399032,77.1541332
Beyond Yoga Fitness-Online Yoga Sessions( Best yoga center in delhi) Best yoga classes and zumba classes in Delhi and India,Yoga studio,"199, Kalyan Vihar, Delhi, 110009, India",https://www.google.co.kr/maps/place/Beyond+Yoga+Fitness-Online+Yoga+Sessions(+Best+yoga+center+in+delhi)+Best+yoga+classes+and+zumba+classes+in+Delhi+and+India/data=!4m5!3m4!1s0x390cfdabf02cfa27:0x7d2101255495f103!8m2!3d28.6908209!4d77.1974671?authuser=0&hl=en&rclk=1,28.6908209,77.1974671
Her Fitness,Fitness center,"H 1 Block, 139, Block H, Vikaspuri, New Delhi, Delhi 110019, India",https://www.google.co.kr/maps/place/Her+Fitness/data=!4m5!3m4!1s0x390d04ec02678593:0xc4e37c6be14b4617!8m2!3d28.6430397!4d77.0791578?authuser=0&hl=en&rclk=1,28.6430397,77.0791578
Cult Punjabi Bagh,Fitness center,"1st floor, Cult, 15-C, Club Rd, Punjabi Bagh, Delhi, 110026, India",https://www.google.co.kr/maps/place/Cult+Punjabi+Bagh/data=!4m5!3m4!1s0x390d0354af5270bb:0xbf91a475bc062c39!8m2!3d28.6664377!4d77.1256225?authuser=0&hl=en&rclk=1,28.6664377,77.1256225
Anytime Fitness,Gym,"M-64, 2nd & 3RD Floor, Near Twenty Four Seven Convenience Store Market, Block M, Greater Kailash II, New Delhi, Delhi 110048, India",https://www.google.co.kr/maps/place/Anytime+Fitness/data=!4m5!3m4!1s0x390ce17e3041f731:0xcf799a34a8b27ed2!8m2!3d28.5333356!4d77.2439157?authuser=0&hl=en&rclk=1,28.5333356,77.2439157
Fitness Groovee,Yoga studio,"60, Maharaja Agrasen Marg, Pocket 9, Sector 6A, Pitam Pura, New Delhi, Delhi 110085, India",https://www.google.co.kr/maps/place/Fitness+Groovee/data=!4m5!3m4!1s0x390d03d5fcb5ed53:0xc794713d5184f9e3!8m2!3d28.7078697!4d77.1086291?authuser=0&hl=en&rclk=1,28.7078697,77.1086291
Fitness Planet,Gym,"C-66, Bhimsen Dhingra Rd, Block C, Kirti Nagar, New Delhi, Delhi 110015, India",https://www.google.co.kr/maps/place/Fitness+Planet/data=!4m5!3m4!1s0x390d03051033eb5b:0x1c9cf21d592e68b4!8m2!3d28.65235!4d77.139006?authuser=0&hl=en&rclk=1,28.65235,77.139006
Fitness trainer,Fitness center,"f.floor, L-44, Street Number 17, New Mahavir Nagar, new delhi, New Delhi, Delhi 110018, India",https://www.google.co.kr/maps/place/Fitness+trainer/data=!4m5!3m4!1s0x390d05207257b09b:0x808737208d58f1d!8m2!3d28.6348037!4d77.0832558?authuser=0&hl=en&rclk=1,28.6348037,77.0832558
Adya Fitness Centre,Gym,"Crowne Plaza New Delhi Rohini, Twin District Centre, Sector - 10, Rohini, New Delhi - 110085, India, Sector 10, Rohini, Delhi, 110085, India",https://www.google.co.kr/maps/place/Adya+Fitness+Centre/data=!4m5!3m4!1s0x390d014eed21471b:0x4d880642b3e788c4!8m2!3d28.72!4d77.1097222?authuser=0&hl=en&rclk=1,28.72,77.1097222
Health 4 Life Gym,Gym,"E-68, Amar Colony, Lajpat Nagar 4, New Delhi, Delhi 110024, India",https://www.google.co.kr/maps/place/Health+4+Life+Gym/data=!4m5!3m4!1s0x390ce3b5aabb7c8f:0xdbd89d9dc2732f11!8m2!3d28.55982!4d77.243443?authuser=0&hl=en&rclk=1,28.55982,77.243443
Anytime Fitness,Gym,"1-B, Bhawani Kunj, Vasant Kunj, New Delhi, Delhi 110070, India",https://www.google.co.kr/maps/place/Anytime+Fitness/data=!4m5!3m4!1s0x390d1f7530181879:0x2ade7fe21d9c63a1!8m2!3d28.507764!4d77.166686?authuser=0&hl=en&rclk=1,28.507764,77.166686
DNA Fitness JP,Fitness center,"C-1-124, Block C1, Janakpuri, Delhi, 110058, India",https://www.google.co.kr/maps/place/DNA+Fitness+JP/data=!4m5!3m4!1s0x390d04b7c1fb7529:0xf8f82d7852d163ad!8m2!3d28.620249!4d77.080584?authuser=0&hl=en&rclk=1,28.620249,77.080584
Young India Health Club,Gym,"45, Rd Number 68, Chhajjupur, Shahdara, Delhi, 110032, India",https://www.google.co.kr/maps/place/Young+India+Health+Club/data=!4m5!3m4!1s0x390cfb883ae17f49:0x3e4b59130bfaa225!8m2!3d28.6892696!4d77.2873047?authuser=0&hl=en&rclk=1,28.6892696,77.2873047
Gym,Gym,"G5RM+4XC, NRPC Colony, Block B, Qutab Institutional Area, New Delhi, Delhi 110016, India",https://www.google.co.kr/maps/place/Gym/data=!4m5!3m4!1s0x390d1d0bf1078dc3:0x682ca21f22628e99!8m2!3d28.5403214!4d77.1848824?authuser=0&hl=en&rclk=1,28.5403214,77.1848824
Health India GYM,Gym,"Shop No.: D.8, Basement, Patparganj, New Delhi, Delhi 110092, India",https://www.google.co.kr/maps/place/Health+India+GYM/data=!4m5!3m4!1s0x390ce357b4063427:0xd96839ec15f3387!8m2!3d28.62085!4d77.284705?authuser=0&hl=en&rclk=1,28.62085,77.284705
Fitness Future Gym,Gym,"A-6/5 Basement, Chaudhary Balbir Singh Marg, near Sagar Ratna Restaurant, A 6 Block, Paschim Vihar, Delhi, 110063, India",https://www.google.co.kr/maps/place/Fitness+Future+Gym/data=!4m5!3m4!1s0x390d0389c12175eb:0x486673d061e5fe9a!8m2!3d28.673814!4d77.103731?authuser=0&hl=en&rclk=1,28.673814,77.103731
Fitness House,Fitness center,"C-133, Lajpat Nagar Part- 2, Delhi 110024, India",https://www.google.co.kr/maps/place/Fitness+House/data=!4m5!3m4!1s0x390ce3acb54c7da5:0x46ccdd327acbd412!8m2!3d28.5725938!4d77.2405646?authuser=0&hl=en&rclk=1,28.5725938,77.2405646
Cult Dwarka Sector 5,Fitness center,"Cult Dwarka Sector 5, F 105, 1st Floor HL Square, Ashirwad Chowk, Sector 5 Market, Pocket 1, Sector 5, Delhi, 110075, India",https://www.google.co.kr/maps/place/Cult+Dwarka+Sector+5/data=!4m5!3m4!1s0x390d1be90750de9f:0x8d52b9f0c20caf3!8m2!3d28.5968494!4d77.0507477?authuser=0&hl=en&rclk=1,28.5968494,77.0507477
SLIM SURE FITNESS STUDIO,Gym,"D14-90/92, Sector 3D, Rohini, Delhi, 110085, India",https://www.google.co.kr/maps/place/SLIM+SURE+FITNESS+STUDIO/data=!4m5!3m4!1s0x390d01d738130303:0x6d8d3651d3926fb!8m2!3d28.7061334!4d77.1081611?authuser=0&hl=en&rclk=1,28.7061334,77.1081611
Ozone Fitness & Spa,Gym,"R.K. Khanna Tennis Stadium 1 Marg, Africa Ave, Safdarjung Enclave, New Delhi, Delhi 110022, India",https://www.google.co.kr/maps/place/Ozone+Fitness+%26+Spa/data=!4m5!3m4!1s0x390d1d8ecdfa606f:0x4a1ab97a2664f80a!8m2!3d28.5593387!4d77.1882269?authuser=0&hl=en&rclk=1,28.5593387,77.1882269
Fitness First,Gym,"768/21, Gali Number 8, Block F, Raj Nagar II Extension, Palam, New Delhi, Delhi 110045, India",https://www.google.co.kr/maps/place/Fitness+First/data=!4m5!3m4!1s0x390d1b0d2d7590ad:0x59b090e5c79be09d!8m2!3d28.573386!4d77.079861?authuser=0&hl=en&rclk=1,28.573386,77.079861
Anytime Fitness,Gym,"202, 2nd floor, N&N mall, Plot no 15 Mangalam Palace, District Centre, Sector 3, Rohini, Delhi, 110085, India",https://www.google.co.kr/maps/place/Anytime+Fitness/data=!4m5!3m4!1s0x390d033362caf383:0x533238c304b4f7d3!8m2!3d28.7014065!4d77.1167216?authuser=0&hl=en&rclk=1,28.7014065,77.1167216
Ozone Fitness ‘n’ Spa,Gym,"23, NWA-14, Club Rd, Punjabi Bagh, Delhi, 110026, India",https://www.google.co.kr/maps/place/Ozone+Fitness+%E2%80%98n%E2%80%99+Spa/data=!4m5!3m4!1s0x390d039965fb779b:0x53f70cde8e9de7bd!8m2!3d28.6668922!4d77.1215179?authuser=0&hl=en&rclk=1,28.6668922,77.1215179
The fitness First,Gym,"P43W+4VM, Poorvi Pitampura, Pitam Pura, Delhi, 110034, India",https://www.google.co.kr/maps/place/The+fitness+First/data=!4m5!3m4!1s0x390d03985d41cd8d:0x6f4946ebec349503!8m2!3d28.70285!4d77.147183?authuser=0&hl=en&rclk=1,28.70285,77.147183
Fitness 14 Gym,Gym,"WZ-2, opp of Smart Enclave, Raj Nagar, Pitam Pura, Delhi, 110034, India",https://www.google.co.kr/maps/place/Fitness+14+Gym/data=!4m5!3m4!1s0x390d03c9ef476777:0xbae227b2e05a8660!8m2!3d28.685721!4d77.141747?authuser=0&hl=en&rclk=1,28.685721,77.141747
Daybreakers fitness studio,Gym,"M-10, Guru Harkishan Nagar, Paschim Vihar, Delhi, 110087, India",https://www.google.co.kr/maps/place/Daybreakers+fitness+studio/data=!4m5!3m4!1s0x390d0505d395a6e1:0x3232f91a34578c44!8m2!3d28.670887!4d77.087437?authuser=0&hl=en&rclk=1,28.670887,77.087437
Her fitness,Gym,"Bhera Enclave, 418, Paschim Vihar, Delhi, 110087, India",https://www.google.co.kr/maps/place/Her+fitness/data=!4m5!3m4!1s0x390d046fe6182b49:0x72a194fe904177ff!8m2!3d28.6696294!4d77.090468?authuser=0&hl=en&rclk=1,28.6696294,77.090468
Anytime Fitness,Gym,"Building No.15,, Mahatma Hansraj Marg, Shakti Vihar, Pitam Pura, Delhi, 110034, India",https://www.google.co.kr/maps/place/Anytime+Fitness/data=!4m5!3m4!1s0x390d03c313ffffc5:0xeac7428aad0a57b!8m2!3d28.6943071!4d77.1304481?authuser=0&hl=en&rclk=1,28.6943071,77.1304481
Fitness World Gym by Bajaj,Gym,"I-110, 3rd Floor Kirti Nagar, Delhi, 110015, India",https://www.google.co.kr/maps/place/Fitness+World+Gym+by+Bajaj/data=!4m5!3m4!1s0x390d03033372467d:0x99c6ad4b7b5be4ed!8m2!3d28.650946!4d77.144636?authuser=0&hl=en&rclk=1,28.650946,77.144636
Balifitness.Rohini,Gym,"C9/90 3,4 floor sector 8 rohini main road opposite piller no 385, Delhi 110085, India",https://www.google.co.kr/maps/place/Balifitness.Rohini/data=!4m5!3m4!1s0x390d03bde9971db7:0x1f10e57fdf0744e6!8m2!3d28.7052234!4d77.1288598?authuser=0&hl=en&rclk=1,28.7052234,77.1288598
All Time Fitness Gym,Gym,"G-7/19, Sec-11 Rohini New Delhi, Delhi, 110085, India",https://www.google.co.kr/maps/place/All+Time+Fitness+Gym/data=!4m5!3m4!1s0x390d0128b4a23c35:0xaad0f078b20e48a0!8m2!3d28.7288259!4d77.1068059?authuser=0&hl=en&rclk=1,28.7288259,77.1068059
Shiv Health India Gym,Gym,"Shastri Market, Nala Rd, Block RZ, Sagar Pur, New Delhi, Delhi 110046, India",https://www.google.co.kr/maps/place/Shiv+Health+India+Gym/data=!4m5!3m4!1s0x390d1b53bcd83dc9:0xda477fe52af6555c!8m2!3d28.608149!4d77.0946905?authuser=0&hl=en&rclk=1,28.608149,77.0946905
FITNESS,Fitness center,"Palam Village, Palam, New Delhi, Delhi 110077, India",https://www.google.co.kr/maps/place/FITNESS/data=!4m5!3m4!1s0x390d1b4a817299d1:0xe4f217235ff11a2f!8m2!3d28.5884993!4d77.0780316?authuser=0&hl=en&rclk=1,28.5884993,77.0780316
World Gym,Gym,"C-123 Main Road New Seelam Puri, Brahampuri Rd, Maujpur, Shahdara, Delhi, 110053, India",https://www.google.co.kr/maps/place/World+Gym/data=!4m5!3m4!1s0x390cfc6eda1381b9:0xc6b04c0bd209de1e!8m2!3d28.6819643!4d77.2678042?authuser=0&hl=en&rclk=1,28.6819643,77.2678042
Ozone Fitness 'N' Spa,Gym,"TDI Mall, A-36, Vishal Enclave, Opp, Rajouri Garden, New Delhi, Delhi 110027, India",https://www.google.co.kr/maps/place/Ozone+Fitness+'N'+Spa/data=!4m5!3m4!1s0x390d03714a9e33db:0xf9e86fde87df8218!8m2!3d28.6499752!4d77.1204347?authuser=0&hl=en&rclk=1,28.6499752,77.1204347
Ministry Of Fitness,Gym,"11, Vikas Marg, Laxmi Nagar, Block S1, Nanakpura, Shakarpur, New Delhi, Delhi 110092, India",https://www.google.co.kr/maps/place/Ministry+Of+Fitness/data=!4m5!3m4!1s0x390cfcaa1d8db7c5:0x62ee26810f7abff8!8m2!3d28.6306645!4d77.2781709?authuser=0&hl=en&rclk=1,28.6306645,77.2781709
Indian Fitness Club,Gym,"Shop No. B-15, Ambika Vihar, 33 Foot Rd, Shiv Vihar, Karawal Nagar, Delhi, 110094, India",https://www.google.co.kr/maps/place/Indian+Fitness+Club/data=!4m5!3m4!1s0x390cfeaf24272b0f:0x8822e87da37528d6!8m2!3d28.72752!4d77.2775?authuser=0&hl=en&rclk=1,28.72752,77.2775
LA FITNESS,Gym,"WP BLOCK SHOP-5, DDA MARKET, Pitampura, New Delhi, Delhi 110034, India",https://www.google.co.kr/maps/place/LA+FITNESS/data=!4m5!3m4!1s0x390d017eacbd77fd:0x23d1bcfc3e1f409a!8m2!3d28.6967964!4d77.1298071?authuser=0&hl=en&rclk=1,28.6967964,77.1298071
DARK SWEAT HEALTH CLUB,Fitness center,"DDA MARKET, D3 BLOCK, CSC-5 FIRST FLOOR, near MAHALAXMI DHABHA, Sector 11, Rohini, Delhi, 110085, India",https://www.google.co.kr/maps/place/DARK+SWEAT+HEALTH+CLUB/data=!4m5!3m4!1s0x390d017c166ee6ab:0xc0c6e382e8429ec3!8m2!3d28.7311421!4d77.1094639?authuser=0&hl=en&rclk=1,28.7311421,77.1094639
Fitness Finesse Premium,Fitness center,"2, Masjid Moth Rd, South Extension, Masjid Moth, South Extension II, New Delhi, Delhi 110048, India",https://www.google.co.kr/maps/place/Fitness+Finesse+Premium/data=!4m5!3m4!1s0x390ce2330f4a0d45:0x9910ec99fdcaf9db!8m2!3d28.562474!4d77.2191206?authuser=0&hl=en&rclk=1,28.562474,77.2191206
The Say Fitness,Fitness center,"E-215, Block E, East of Kailash, New Delhi, Delhi 110065, India",https://www.google.co.kr/maps/place/The+Say+Fitness/data=!4m5!3m4!1s0x390ce3b4101cf1e5:0xdac997a67c7d023d!8m2!3d28.555815!4d77.2431061?authuser=0&hl=en&rclk=1,28.555815,77.2431061
My Fitness Destination by Mohit Tyagi,Gym,"12, Pocket 9, Sector 7C, Rohini, New Delhi, Delhi 110085, India",https://www.google.co.kr/maps/place/My+Fitness+Destination+by+Mohit+Tyagi/data=!4m5!3m4!1s0x390d01ed1a154285:0x6679860cd3bfa91!8m2!3d28.7089518!4d77.123687?authuser=0&hl=en&rclk=1,28.7089518,77.123687
CHISEL Pitampura,Gym,"DP-1, Muni Maya Ram Jain Marg, Block DP,, Poorvi Pitampura, Pitampura, Delhi, 110034, India",https://www.google.co.kr/maps/place/CHISEL+Pitampura/data=!4m5!3m4!1s0x390d03d737a92a77:0x1731485a78536f34!8m2!3d28.700257!4d77.1425863?authuser=0&hl=en&rclk=1,28.700257,77.1425863
RDX Gym,Gym,"253 1st floor,, Deepali Enclave, Pitampura, Delhi, 110034, India",https://www.google.co.kr/maps/place/RDX+Gym/data=!4m5!3m4!1s0x390d03e4fd3a3e85:0x4c35afb8bdb42e5c!8m2!3d28.6969215!4d77.1164482?authuser=0&hl=en&rclk=1,28.6969215,77.1164482
Shapper's fitness centre( only for ladies),Gym,"B-8/223, Sector 5, Rohini, Delhi, 110085, India",https://www.google.co.kr/maps/place/Shapper's+fitness+centre(+only+for+ladies)/data=!4m5!3m4!1s0x390d013f54dc8631:0x6d8429b30c612694!8m2!3d28.718105!4d77.105638?authuser=0&hl=en&rclk=1,28.718105,77.105638
neo fitness studio,Gym,"Road Number 41,Ring Road, West Punjabi Bagh, Punjabi Bagh, New Delhi, Delhi 110026, India",https://www.google.co.kr/maps/place/neo+fitness+studio/data=!4m5!3m4!1s0x390d03a40720015d:0xdae0cd48830e13f9!8m2!3d28.6671276!4d77.1315957?authuser=0&hl=en&rclk=1,28.6671276,77.1315957
Body Fitness Centre,Fitness center,"2 Bhagwan Nagar Near Shiv Mandir New-Delhi -110014, Ashram, Delhi 110014, India",https://www.google.co.kr/maps/place/Body+Fitness+Centre/data=!4m5!3m4!1s0x390ce3aa09faaab1:0x5bbc42209b27d9df!8m2!3d28.5803586!4d77.2454795?authuser=0&hl=en&rclk=1,28.5803586,77.2454795
Cult Pitampura,Fitness center,"Power House, Cult Pitampura, 2nd Floor, A 1/17, Prashant Vihar, Sector 14, Rohini, opp. Pitampura, Delhi 110085, India",https://www.google.co.kr/maps/place/Cult+Pitampura/data=!4m5!3m4!1s0x390d01cfe000902f:0x445a5d3dce5d47fc!8m2!3d28.7096455!4d77.1355363?authuser=0&hl=en&rclk=1,28.7096455,77.1355363
Anytime Fitness Corporate Office,Corporate office,"F-14/1A, 3rd Floor, Agrawal Dharamshala Marg, Model Town Phase 2, New Delhi, Delhi 110009, India",https://www.google.co.kr/maps/place/Anytime+Fitness+Corporate+Office/data=!4m5!3m4!1s0x390d0206b7e641e9:0x85a787e839bb2a35!8m2!3d28.70672!4d77.190366?authuser=0&hl=en&rclk=1,28.70672,77.190366
Unique Fitness Point,Gym,"B-187 Lane, Street No. 17, Phase 2, New Delhi, Delhi 110074, India",https://www.google.co.kr/maps/place/Unique+Fitness+Point/data=!4m5!3m4!1s0x390d1e224ddf7ccf:0xd697768eafdf9701!8m2!3d28.5019697!4d77.188094?authuser=0&hl=en&rclk=1,28.5019697,77.188094
Anytime Fitness,Gym,"Building No, 4, Power House Rd, Block BD, Dakshini Pitampura, Pitam Pura, New Delhi, Delhi 110034, India",https://www.google.co.kr/maps/place/Anytime+Fitness/data=!4m5!3m4!1s0x390d0187074d614b:0x67f2d2e083e8dbb4!8m2!3d28.7071484!4d77.1369423?authuser=0&hl=en&rclk=1,28.7071484,77.1369423
Fitness Freaks,Gym,"C-4F/28,Janak Puri, Near C-4E Market, New Delhi, Delhi 110058, India",https://www.google.co.kr/maps/place/Fitness+Freaks/data=!4m5!3m4!1s0x390d04b23d8f5883:0xefc3fbd9b60b1722!8m2!3d28.617655!4d77.090288?authuser=0&hl=en&rclk=1,28.617655,77.090288
Fit & Fitness Gym,Gym,"1554/16, Near Sant Nirankari Public School, Govindpuri, Kalkaji, New Delhi, Delhi 110019, India",https://www.google.co.kr/maps/place/Fit+%26+Fitness+Gym/data=!4m5!3m4!1s0x390ce160f7073b51:0x582eb4203dac72a2!8m2!3d28.532721!4d77.2615102?authuser=0&hl=en&rclk=1,28.532721,77.2615102
Fitness studio786,Fitness center,"Rz, New Delhi, Delhi 110019, India",https://www.google.co.kr/maps/place/Fitness+studio786/data=!4m5!3m4!1s0x390ce1479cd1c2df:0xa238483f06909165!8m2!3d28.5333347!4d77.2594345?authuser=0&hl=en&rclk=1,28.5333347,77.2594345
Anytime Fitness,Fitness center,"Building No 22, 3rd floor N.W.A, Club Rd, West Punjabi Bagh, New Delhi, Delhi 110026, India",https://www.google.co.kr/maps/place/Anytime+Fitness/data=!4m5!3m4!1s0x390d03eaee0ba98d:0xbdc1f29e631d8ed7!8m2!3d28.666528!4d77.1221337?authuser=0&hl=en&rclk=1,28.666528,77.1221337
Gym,Gym,"F6C5+PF8, CSKM, New Delhi, Delhi 110074, India",https://www.google.co.kr/maps/place/Gym/data=!4m5!3m4!1s0x390ce1d6535525d9:0xef437d6858418e29!8m2!3d28.4717842!4d77.2086966?authuser=0&hl=en&rclk=1,28.4717842,77.2086966
Chaar Kadam,Physical fitness program,"A1/14, Basement indian overseas bank, Prashant Vihar, Sector 14, Rohini, Delhi, 110085, India",https://www.google.co.kr/maps/place/Chaar+Kadam/data=!4m5!3m4!1s0x390d0162e6492e47:0xa0452e8f6403cd89!8m2!3d28.7096894!4d77.1355701?authuser=0&hl=en&rclk=1,28.7096894,77.1355701
Gym India99,Gym,"A3/232, Kadambari Rd, Pocket 3, Sector 7A, Rohini, Delhi, 110085, India",https://www.google.co.kr/maps/place/Gym+India99/data=!4m5!3m4!1s0x390d0344db9316ab:0x15562a46812fd6f6!8m2!3d28.7023188!4d77.1189339?authuser=0&hl=en&rclk=1,28.7023188,77.1189339
Anytime Fitness,Gym,"23/14, first floor, Market, East Patel Nagar, Patel Nagar, New Delhi, Delhi 110008, India",https://www.google.co.kr/maps/place/Anytime+Fitness/data=!4m5!3m4!1s0x390d0294fdccb7f9:0x78d0ca2d187cdd2c!8m2!3d28.6452798!4d77.1740091?authuser=0&hl=en&rclk=1,28.6452798,77.1740091
India Gym,Gym,"108, Auchandi Bawana Rd, Bawana Village, Bawana, Delhi, 110039, India",https://www.google.co.kr/maps/place/India+Gym/data=!4m5!3m4!1s0x390da817db507103:0x1ae29f3c2c67fb99!8m2!3d28.8022288!4d77.0327412?authuser=0&hl=en&rclk=1,28.8022288,77.0327412
Yogaamya fitness centre,Yoga studio,"G-28/165,166, Ground floor, Sector 3, Rohini, New Delhi, Delhi 110085, India",https://www.google.co.kr/maps/place/Yogaamya+fitness+centre/data=!4m5!3m4!1s0x390d01610a4cef85:0xd1703e73e5166e54!8m2!3d28.70473!4d77.1042113?authuser=0&hl=en&rclk=1,28.70473,77.1042113
Lifestyle Fitness,Fitness center,"Street No 10, Tughlakabad Extension, Tughlakabad, New Delhi, Delhi 110019, India",https://www.google.co.kr/maps/place/Lifestyle+Fitness/data=!4m5!3m4!1s0x390ce11479c6e561:0x6cf7be413a72ff6b!8m2!3d28.5236265!4d77.2603645?authuser=0&hl=en&rclk=1,28.5236265,77.2603645
The Gym,Gym,"B-5/1, Sector - 4, Sir Chotu Ram Marg, opp. Mother Divine Public School, Rohini, New Delhi, Delhi 110085, India",https://www.google.co.kr/maps/place/The+Gym/data=!4m5!3m4!1s0x390d0154decf0817:0x1c637f91bdad890d!8m2!3d28.7072582!4d77.1035877?authuser=0&hl=en&rclk=1,28.7072582,77.1035877
The World Gym,Gym,"H-2/2, Vikaspuri Rd, near Red Market, Block F, Keshopur, Vikaspuri, Delhi, 110018, India",https://www.google.co.kr/maps/place/The+World+Gym/data=!4m5!3m4!1s0x390d04f2ac49726d:0x349cbd73f0b63363!8m2!3d28.6450162!4d77.0792145?authuser=0&hl=en&rclk=1,28.6450162,77.0792145
Fitness Future Gym Sonu Mr. INDIA,Fitness center,"2, Shamshan Ghat Rd, Saini Mohalla, Shiv Vihar, Nangloi, Delhi, 110041, India",https://www.google.co.kr/maps/place/Fitness+Future+Gym+Sonu+Mr.+INDIA/data=!4m5!3m4!1s0x390d0447a6aad2d3:0xb35b9e3310233ed7!8m2!3d28.6762578!4d77.0704862?authuser=0&hl=en&rclk=1,28.6762578,77.0704862
Cbt Fitness,Gym,"14/2, Jangpura, Pant Nagar, New Delhi, Delhi 110019, India",https://www.google.co.kr/maps/place/Cbt+Fitness/data=!4m5!3m4!1s0x390ce3d950ef5ccb:0xdd63c43bb70c051d!8m2!3d28.5851908!4d77.243802?authuser=0&hl=en&rclk=1,28.5851908,77.243802
Fitness and health,Physical fitness program,"B-1874, Gali Number 29, Chauhan Banger, Sonia Vihar, New Delhi, Delhi 110094, India",https://www.google.co.kr/maps/place/Fitness+and+health/data=!4m5!3m4!1s0x390cfd621867bf11:0x7bd84dc5d51c9590!8m2!3d28.6800436!4d77.272426?authuser=0&hl=en&rclk=1,28.6800436,77.272426
Anytime Fitness,Gym,"882 2 nd Floor, E Park Rd, New Delhi, Delhi 110005, India",https://www.google.co.kr/maps/place/Anytime+Fitness/data=!4m5!3m4!1s0x390cfd0d864df369:0x827e5d9185cdbac5!8m2!3d28.6512727!4d77.1980175?authuser=0&hl=en&rclk=1,28.6512727,77.1980175
Jorrasic Fitness Centre,Gym,"Shop No.A-37, Sunlight Colony-ll, Arsham, Hari Nagar, Delhi, 110014, India",https://www.google.co.kr/maps/place/Jorrasic+Fitness+Centre/data=!4m5!3m4!1s0x390d03ef50afa73f:0xbd4d3cc50b167d44!8m2!3d28.693801!4d77.119067?authuser=0&hl=en&rclk=1,28.693801,77.119067
Titanium Fitness,Gym,"F-19/8, 4th & 5th Floor, Sector 8, Rohini, Delhi, 110085, India",https://www.google.co.kr/maps/place/Titanium+Fitness/data=!4m5!3m4!1s0x390d03e3f5988faf:0x4d4c6c40564e6bfc!8m2!3d28.7000213!4d77.1185251?authuser=0&hl=en&rclk=1,28.7000213,77.1185251
Anytime Fitness Vikaspuri,Gym,"H-12a, Block H, Vikaspuri, Delhi, 110018, India",https://www.google.co.kr/maps/place/Anytime+Fitness+Vikaspuri/data=!4m5!3m4!1s0x390d04ec02678593:0x4dfc7b775c4135e3!8m2!3d28.6429521!4d77.0761103?authuser=0&hl=en&rclk=1,28.6429521,77.0761103
Fiprex Gym,Gymnasium Cz,"28, Sector 24 Last Rd, Sector-24, Rohini, Delhi, 110085, India",https://www.google.co.kr/maps/place/Fiprex+Gym/data=!4m5!3m4!1s0x390d06c6b91c7e6f:0x8b74051cf0079b86!8m2!3d28.729899!4d77.0861818?authuser=0&hl=en&rclk=1,28.729899,77.0861818
Universal Fitness,Gym,"Backside of Relaxo Showroom, S-51, Rajouri Garden, Janta Market Block S, Rajouri Garden Extension, Rajouri Garden, New Delhi, Delhi 110027, India",https://www.google.co.kr/maps/place/Universal+Fitness/data=!4m5!3m4!1s0x390d036ceaffffff:0xd41c48d19aea0ed4!8m2!3d28.6397779!4d77.1227177?authuser=0&hl=en&rclk=1,28.6397779,77.1227177
Svelte Gym,Gymnastics club,"om plaza, 430/7, Basement, Sant Nagar, East of Kailash, New Delhi, 110065, India",https://www.google.co.kr/maps/place/Svelte+Gym/data=!4m5!3m4!1s0x390ce37c3b1b01a7:0x64888a9790cee82d!8m2!3d28.555565!4d77.251404?authuser=0&hl=en&rclk=1,28.555565,77.251404
World Gym,Gym,"Shop No. 1/27, Ist Floor, Mall Rd, Block 1, Tilak Nagar, New Delhi, Delhi 110018, India",https://www.google.co.kr/maps/place/World+Gym/data=!4m5!3m4!1s0x390d04983b9d3af5:0x4c321223081a0022!8m2!3d28.636113!4d77.092005?authuser=0&hl=en&rclk=1,28.636113,77.092005
Goodways Fitness,Gym,"H8, Vijay Chowk, Block H, Krishna Nagar, Delhi, 110051, India",https://www.google.co.kr/maps/place/Goodways+Fitness/data=!4m5!3m4!1s0x390cfc9e709f9b9f:0xa3264ad01d47c772!8m2!3d28.6576769!4d77.2843511?authuser=0&hl=en&rclk=1,28.6576769,77.2843511
Fitness Planet,Fitness center,"B - 1 / 603 A basement , Janak Puri, Janakpuri, Delhi, 110058, India",https://www.google.co.kr/maps/place/Fitness+Planet/data=!4m5!3m4!1s0x390d04bd1139cc9f:0xb897aaea47783d04!8m2!3d28.630827!4d77.0832043?authuser=0&hl=en&rclk=1,28.630827,77.0832043
Universal fitness GYM,Fitness center,"213A, 3, Gali Number 3, near kotak mahindra bank, Okhla Phase III, Govindpuri, kalkaji, Delhi 110019, India",https://www.google.co.kr/maps/place/Universal+fitness+GYM/data=!4m5!3m4!1s0x390ce1cf38c97c71:0x3f176a8e9c447c62!8m2!3d28.5494149!4d77.2730829?authuser=0&hl=en&rclk=1,28.5494149,77.2730829
"FLUID Gym N Spa, Pushpanjali Enclave",Gym,"B-100, Ground Floor, Pushpanjali Enclave, Pitam Pura, New Delhi, Delhi 110034, India","https://www.google.co.kr/maps/place/FLUID+Gym+N+Spa,+Pushpanjali+Enclave/data=!4m5!3m4!1s0x390d03e52b08abdd:0xb617d2245471d347!8m2!3d28.696028!4d77.112513?authuser=0&hl=en&rclk=1",28.696028,77.112513
DRONACHARYA'S THE GYM,Gym,"1498/1 AUTUMN LANE KINGSWAY CAMP OPP. BGM BUS DEPOT, New Delhi, Delhi 110009, India",https://www.google.co.kr/maps/place/DRONACHARYA'S+THE+GYM/data=!4m5!3m4!1s0x390cfde5ea916e87:0xe9b73e3a40cb212b!8m2!3d28.5386207!4d77.2382925?authuser=0&hl=en&rclk=1,28.5386207,77.2382925
Anytime Fitness,Fitness center,"B-9, West Jyoti Nagar, Jyoti Nagar West, Jyoti Nagar, Shahdara, Delhi, 110094, India",https://www.google.co.kr/maps/place/Anytime+Fitness/data=!4m5!3m4!1s0x390cfb1d7aea77c7:0x49cc32cfca2cb2c6!8m2!3d28.691923!4d77.291543?authuser=0&hl=en&rclk=1,28.691923,77.291543
WORLD GYM & FITNESS CENTRE,Fitness center,"C-86,MAIN ROAD, Kardam Marg, West Jyoti Nagar, Jyoti Nagar, Shahdara, Delhi 110094, India",https://www.google.co.kr/maps/place/WORLD+GYM+%26+FITNESS+CENTRE/data=!4m5!3m4!1s0x390cfb89b08656b3:0x4ac31f68dcc17562!8m2!3d28.6910261!4d77.28846?authuser=0&hl=en&rclk=1,28.6910261,77.28846
Anytime Fitness,Gym,"Crown Plaza, 104-105, 1st Floor, near crowne plaza hotel, Sector 10, Rohini, New Delhi, Delhi 110085, India",https://www.google.co.kr/maps/place/Anytime+Fitness/data=!4m5!3m4!1s0x390d014ef39a4eaf:0xf353693929e0c5a9!8m2!3d28.719516!4d77.109898?authuser=0&hl=en&rclk=1,28.719516,77.109898
Anytime Fitness,Gym,"D - 38, opposite, Pkt 1, Block B, Acharya Niketan, Mayur Vihar, Delhi, 110091, India",https://www.google.co.kr/maps/place/Anytime+Fitness/data=!4m5!3m4!1s0x390ce5ff0e46aa57:0x135f99be51899ae5!8m2!3d28.6081848!4d77.2954052?authuser=0&hl=en&rclk=1,28.6081848,77.2954052
Fitness Planet,Gym,"Bhangar Mohalla, Madanpur Khadar Village, Madanpur Khadar, New Delhi, Delhi 110044, India",https://www.google.co.kr/maps/place/Fitness+Planet/data=!4m5!3m4!1s0x390ce6a89b1deb3d:0x9b03fa9f9e56f44c!8m2!3d28.5355564!4d77.2976743?authuser=0&hl=en&rclk=1,28.5355564,77.2976743
Anytime Fitness,Gym,"B-376, Outer Ring Rd, Block B, Meera Bagh, Paschim Vihar, New Delhi, Delhi 110018, India",https://www.google.co.kr/maps/place/Anytime+Fitness/data=!4m5!3m4!1s0x390d0462b33d57d9:0x91ab168ecdd382d0!8m2!3d28.6595512!4d77.0917745?authuser=0&hl=en&rclk=1,28.6595512,77.0917745
The Pilates and Altitude Training studio,Gym,"Bhishma Pitamah Marg, Arjun Nagar, New Delhi, Delhi, India",https://www.google.co.kr/maps/place/The+Pilates+and+Altitude+Training+studio/data=!4m5!3m4!1s0x390ce250a60c4749:0x7d7321cad3a7c9e8!8m2!3d28.572097!4d77.229349?authuser=0&hl=en&rclk=1,28.572097,77.229349
Ozone,Fitness center,"D-27, Lala Lajpat Rai Rd, Shiniwas Puri, Block D, Defence Colony, New Delhi, Delhi 110024, India",https://www.google.co.kr/maps/place/Ozone/data=!4m5!3m4!1s0x390ce2539aab6363:0x6e06fed7c8205e97!8m2!3d28.5728489!4d77.2369451?authuser=0&hl=en&rclk=1,28.5728489,77.2369451
IRON BAR GYM,Fitness center,"A-21, Pushpanjali Enclave, Pitam Pura Opposite Piller No 30, Delhi, 110085, India",https://www.google.co.kr/maps/place/IRON+BAR+GYM/data=!4m5!3m4!1s0x390d03325bd7a633:0x91be3659c140062e!8m2!3d28.6953116!4d77.1110945?authuser=0&hl=en&rclk=1,28.6953116,77.1110945
BFY Delhi Office,Gym,"City Union Bank Limited, Vinoba Puri, Lajpat Nagar II, Lajpat Nagar, New Delhi, Delhi 110024, India",https://www.google.co.kr/maps/place/BFY+Delhi+Office/data=!4m5!3m4!1s0x390ce25994f642d7:0xde9c45a3a28c3ef6!8m2!3d28.5684549!4d77.2478103?authuser=0&hl=en&rclk=1,28.5684549,77.2478103
Her Fitness,Gym,"2nd Floor, D-13, Prashant Vihar, New Delhi, Delhi 110085, India",https://www.google.co.kr/maps/place/Her+Fitness/data=!4m5!3m4!1s0x390d01d9df125f03:0x7e96da314c23088c!8m2!3d28.7126845!4d77.1378466?authuser=0&hl=en&rclk=1,28.7126845,77.1378466
Hyper The Gym,Gym,"Building No. 4, Block- A, Mahatma Hansraj Marg, above IndusInd Bank, Lok Vihar, Pitam Pura, Delhi, 110034, India",https://www.google.co.kr/maps/place/Hyper+The+Gym/data=!4m5!3m4!1s0x390d03c5a2e1e8c1:0x8058c74814e8b62d!8m2!3d28.6922825!4d77.1353672?authuser=0&hl=en&rclk=1,28.6922825,77.1353672
Physio Flex Gym,Gym,"D-840, Parwana Rd, Block D, Saraswati Vihar, Pitam Pura, Delhi, 110034, India",https://www.google.co.kr/maps/place/Physio+Flex+Gym/data=!4m5!3m4!1s0x390d03e6e982d14d:0x4cdb334b3dafad03!8m2!3d28.6939156!4d77.1255004?authuser=0&hl=en&rclk=1,28.6939156,77.1255004
Fitholic Gym,Gym,"2, RR Block, Rohtak Rd, near Peera garhi, Mianwali Nagar, Paschim Vihar, New Delhi, Delhi 110087, India",https://www.google.co.kr/maps/place/Fitholic+Gym/data=!4m5!3m4!1s0x390d046d3516d08b:0xa5f59aac399ea7d7!8m2!3d28.6797368!4d77.0893352?authuser=0&hl=en&rclk=1,28.6797368,77.0893352
U 7 FITNESS HUB ROHINI,Fitness center,"56-57, Second Floor, Pkt-6, Sector 21, Rohini, New Delhi, Delhi 110085, India",https://www.google.co.kr/maps/place/U+7+FITNESS+HUB+ROHINI/data=!4m5!3m4!1s0x390d07940754afff:0x63474c6199f11cd0!8m2!3d28.7134753!4d77.06652?authuser=0&hl=en&rclk=1,28.7134753,77.06652
Chisel Priyadarshini vihar,Gym,"B 154, Priyadarshini Vihar, Priya Priyadarshini Vihar, Laxmi Nagar, New Delhi, Delhi 110092, India",https://www.google.co.kr/maps/place/Chisel+Priyadarshini+vihar/data=!4m5!3m4!1s0x390cfca58d756aad:0xc30300e0557d42a7!8m2!3d28.6413115!4d77.2790212?authuser=0&hl=en&rclk=1,28.6413115,77.2790212
Aerofit,Gym,"F-24/170, Sector 7, Rohini, Delhi 110085, India",https://www.google.co.kr/maps/place/Aerofit/data=!4m5!3m4!1s0x390d0156ffea5f71:0xdbd4f6708d389df3!8m2!3d28.707832!4d77.111043?authuser=0&hl=en&rclk=1,28.707832,77.111043
THE BODYLINE GYM,Fitness center,"165, Third floor, Kapil Vihar, Pitam Pura, New Delhi, Delhi 110088, India",https://www.google.co.kr/maps/place/THE+BODYLINE+GYM/data=!4m5!3m4!1s0x390d031f7a7ce5d5:0xef5ca4ef02d7cd44!8m2!3d28.7004427!4d77.135828?authuser=0&hl=en&rclk=1,28.7004427,77.135828
FITMENOW FITNESS CENTRE,Fitness center,"A-13, First Floor, Deoli Rd, near Samsung, above Hero Showroom, New Delhi, 110062, India",https://www.google.co.kr/maps/place/FITMENOW+FITNESS+CENTRE/data=!4m5!3m4!1s0x390ce1a0ad784041:0xe799d8e1382a25f6!8m2!3d28.5115487!4d77.2327709?authuser=0&hl=en&rclk=1,28.5115487,77.2327709
Samsaraa Fitness Figure,Fitness center,"A-26 , 3rd floor , pushpanjali enclaves,, outer ring road pitampura , delhi, New Delhi, Delhi 110034, India",https://www.google.co.kr/maps/place/Samsaraa+Fitness+Figure/data=!4m5!3m4!1s0x390d03f9edb6df2d:0x1a1d9f6fa18d779e!8m2!3d28.6942525!4d77.1073785?authuser=0&hl=en&rclk=1,28.6942525,77.1073785
"AM2PM Gym - Gym in Hari Nagar, Trained By Mr.India Arvind Mahala",Fitness center,"GL/19, Jail Rd, near OM Sweets,Jail Road, Hari Nagar, Delhi 110064, India","https://www.google.co.kr/maps/place/AM2PM+Gym+-+Gym+in+Hari+Nagar,+Trained+By+Mr.India+Arvind+Mahala/data=!4m5!3m4!1s0x390d05e386476429:0xe8b2f18c38da38!8m2!3d28.6284589!4d77.1001697?authuser=0&hl=en&rclk=1",28.6284589,77.1001697
Personal trainer at home Or Gym For Weight loss Yoga and Fitness,Gym,"226b/5, Prakash Mohalla, Amritpuri, East of Kailash, New Delhi, Delhi 110048, India",https://www.google.co.kr/maps/place/Personal+trainer+at+home+Or+Gym+For+Weight+loss+Yoga+and+Fitness/data=!4m5!3m4!1s0x390ce3580578ab05:0xdf99382bbe305e13!8m2!3d28.5574373!4d77.2490103?authuser=0&hl=en&rclk=1,28.5574373,77.2490103
AnyTime Gym,Physical fitness program,"3720, 9, Narang Colony, Tri Nagar, Delhi, 110035, India",https://www.google.co.kr/maps/place/AnyTime+Gym/data=!4m5!3m4!1s0x390d037d55a37eed:0x8ecef2d8f0ef3949!8m2!3d28.681255!4d77.161107?authuser=0&hl=en&rclk=1,28.681255,77.161107
Gym and Fitness Certification Training,Fitness center,"Gurmandi Bridge, Block 3, Roop Nagar, Delhi, 110007, India",https://www.google.co.kr/maps/place/Gym+and+Fitness+Certification+Training/data=!4m5!3m4!1s0x390cfdeabfab1d99:0xbf3fd45ee271f06d!8m2!3d28.6855738!4d77.1988778?authuser=0&hl=en&rclk=1,28.6855738,77.1988778
Unique Fitness Forever,Gym,"80-81, Pocket 7, Sector 7, Rohini, Delhi, 110085, India",https://www.google.co.kr/maps/place/Unique+Fitness+Forever/data=!4m5!3m4!1s0x390d0182e23cd211:0x6725ecf0002cacec!8m2!3d28.7071883!4d77.1233453?authuser=0&hl=en&rclk=1,28.7071883,77.1233453
Bharat Exercise House,Gym,"M3RR+VRM, Block C, Mangolpuri S Block, Delhi, 110083, India",https://www.google.co.kr/maps/place/Bharat+Exercise+House/data=!4m5!3m4!1s0x390d04055b58c08d:0xa562f4f3d57992b!8m2!3d28.6922084!4d77.0920514?authuser=0&hl=en&rclk=1,28.6922084,77.0920514
Fitness Centre,Gym,"C-7, Balaji Plaza, Dr KB Hedgewar Marg, Sector 8C, Rohini, Delhi, 110085, India",https://www.google.co.kr/maps/place/Fitness+Centre/data=!4m5!3m4!1s0x390d03dfe9b6bfa7:0x1a9dcfcfadb7586e!8m2!3d28.7050532!4d77.1264438?authuser=0&hl=en&rclk=1,28.7050532,77.1264438
Shree Sai Slimming Centre and Gym,Gym,"Co-operative Group Housing Societies Pitampura, Pitam Pura, Delhi, 110083, India",https://www.google.co.kr/maps/place/Shree+Sai+Slimming+Centre+and+Gym/data=!4m5!3m4!1s0x390d03eee3f4b5bb:0x7bc4e286746b3a45!8m2!3d28.6908747!4d77.1178651?authuser=0&hl=en&rclk=1,28.6908747,77.1178651
The Solanki's Gym,Gym,"h.no 566, Pooth Kalan, Rohini, Delhi, 110086, India",https://www.google.co.kr/maps/place/The+Solanki's+Gym/data=!4m5!3m4!1s0x390d06989098698f:0x21becf0235bf46fd!8m2!3d28.7093579!4d77.078733?authuser=0&hl=en&rclk=1,28.7093579,77.078733
Athletic Gold Gym,Fitness center,"Furnitur market, Kanjhawala Rd, near unione bank and vishal mega mart, Delhi 110083, India",https://www.google.co.kr/maps/place/Athletic+Gold+Gym/data=!4m5!3m4!1s0x390d05dbfd18b68d:0xa5c9987ca208b68f!8m2!3d28.6998328!4d77.0951342?authuser=0&hl=en&rclk=1,28.6998328,77.0951342
FITBLAZE,Gym,"A-139, MADHU VIHAR, I.P. EXT. ,NEAR SAI MANDIR, Delhi, 110092, India",https://www.google.co.kr/maps/place/FITBLAZE/data=!4m5!3m4!1s0x390cfb4bbb45ebe9:0xc2286971e8f3ecc4!8m2!3d28.6357609!4d77.3055599?authuser=0&hl=en&rclk=1,28.6357609,77.3055599
Fitness Fusion - The Pilates Studio,Pilates studio,"A-Block, 1, Church Rd, Shanti Kunj Main, Sector D, Vasant Kunj, New Delhi, Delhi 110070, India",https://www.google.co.kr/maps/place/Fitness+Fusion+-+The+Pilates+Studio/data=!4m5!3m4!1s0x390d1dd455555555:0x69f741cf6b7a2d98!8m2!3d28.5161799!4d77.1549762?authuser=0&hl=en&rclk=1,28.5161799,77.1549762
Kropp Sports Gym,Fitness center,"B2/11, Next to HDFC Bank, Paschim Vihar, New Delhi, Delhi 110063, India",https://www.google.co.kr/maps/place/Kropp+Sports+Gym/data=!4m5!3m4!1s0x390d0465f0baf3f7:0x53452cdf23fed2d9!8m2!3d28.6690779!4d77.1049241?authuser=0&hl=en&rclk=1,28.6690779,77.1049241
Nitin's Gym,Fitness center,"RR-2 mainwali nagar Near Peeragarhi Metro Station, Rohtak Rd, Peeragarhi Village, Paschim Vihar, Delhi 110087, India",https://www.google.co.kr/maps/place/Nitin's+Gym/data=!4m5!3m4!1s0x390d0472b643a081:0x61f7c4068ec31dee!8m2!3d28.6798096!4d77.0894484?authuser=0&hl=en&rclk=1,28.6798096,77.0894484
Monster gym,Gym,"467 Shamshan Ghat Rd Lakshmi Park Laxmi Park Block B Vandana Vihar, Laxmi Park, Block B, Lakshmi Park, Nangloi, Delhi, 110041, India",https://www.google.co.kr/maps/place/Monster+gym/data=!4m5!3m4!1s0x390d044707ec7cd5:0xb679110dc813aad2!8m2!3d28.6758622!4d77.0709016?authuser=0&hl=en&rclk=1,28.6758622,77.0709016
Pro-Fit Health Club,Fitness center,"O14, Veer Savarkar Marg, Block O, Lajpat Nagar II, Lajpat Nagar, New Delhi, Delhi 110024, India",https://www.google.co.kr/maps/place/Pro-Fit+Health+Club/data=!4m5!3m4!1s0x390ce3b18dc34fe9:0x199921bbb9959e06!8m2!3d28.567072!4d77.246872?authuser=0&hl=en&rclk=1,28.567072,77.246872
Wintos Gym,Gym,"A-3, L, S, C MARKET, Mangolpuri, New Delhi, Delhi, India",https://www.google.co.kr/maps/place/Wintos+Gym/data=!4m5!3m4!1s0x390d040505af9edf:0x7085e46ff67b2bb9!8m2!3d28.6940055!4d77.0933536?authuser=0&hl=en&rclk=1,28.6940055,77.0933536
Trans Fitness Gym/Health Club,Gym,"488/6A, GTB Rd, Sagar Market, Block A, Dilshad Garden, Delhi, 110095, India",https://www.google.co.kr/maps/place/Trans+Fitness+Gym%2FHealth+Club/data=!4m5!3m4!1s0x390cfba0aa71da1f:0xc53efe03b1e68108!8m2!3d28.678563!4d77.3149729?authuser=0&hl=en&rclk=1,28.678563,77.3149729
LIFETIME FITNESS,Gym,"A-3/11 First Floor, Paschim Vihar, New Delhi, Delhi 110063, India",https://www.google.co.kr/maps/place/LIFETIME+FITNESS/data=!4m5!3m4!1s0x390d0387d0a8fb25:0xb5c35474164275ac!8m2!3d28.6694918!4d77.1046619?authuser=0&hl=en&rclk=1,28.6694918,77.1046619
D2 Fitness,Gym,"Plot no. 1006 pocket, 5, Sector 2, Rohini, New Delhi, Delhi 110085, India",https://www.google.co.kr/maps/place/D2+Fitness/data=!4m5!3m4!1s0x390d03057f1af811:0x2b49f1cd1264f5f8!8m2!3d28.6984813!4d77.1026714?authuser=0&hl=en&rclk=1,28.6984813,77.1026714
The Bomb Squad & Crossfit,Gym,"A-1/60, Halar Rd, near by Maharaja Aggarsain Bhawan, Pocket 1, Sector 8A, Rohini, Delhi, 110085, India",https://www.google.co.kr/maps/place/The+Bomb+Squad+%26+Crossfit/data=!4m5!3m4!1s0x390d01a29bc3059d:0xf90befb79de7575!8m2!3d28.6996648!4d77.119629?authuser=0&hl=en&rclk=1,28.6996648,77.119629
Kapil Gym,Gym,"Bhagwan Parshuram Marg, Pocket 24, Sector 7F, Rohini, Delhi, 110085, India",https://www.google.co.kr/maps/place/Kapil+Gym/data=!4m5!3m4!1s0x390d01571a0e6e51:0x985757ef0ecb925e!8m2!3d28.7088216!4d77.1118208?authuser=0&hl=en&rclk=1,28.7088216,77.1118208
"Body Grow Gym - Best Gym in Vishnu Garden - Best Crossfit gym In Vishnu Garden, Delhi",Fitness center,"225, Block C, Pocket C, Chand Nagar, Vishnu Garden, Delhi, 110018, India","https://www.google.co.kr/maps/place/Body+Grow+Gym+-+Best+Gym+in+Vishnu+Garden+-+Best+Crossfit+gym+In+Vishnu+Garden,+Delhi/data=!4m5!3m4!1s0x390d0484ebe43101:0x629b33bb576f2bf0!8m2!3d28.6485718!4d77.0989369?authuser=0&hl=en&rclk=1",28.6485718,77.0989369
Fitness Zone Gym,Fitness center,"B-5/1, Vijay Vihar-ll, Rohini, Delhi 110085, India",https://www.google.co.kr/maps/place/Fitness+Zone+Gym/data=!4m5!3m4!1s0x390d06aa4a754453:0x913dd775573ac45a!8m2!3d28.706243!4d77.098178?authuser=0&hl=en&rclk=1,28.706243,77.098178
Planet Fitness Gym,Gym,"G2 Complex, 2 Floor, Peer Baba Rd, Block C, Kamruddin Nagar, New Delhi, Delhi 110041, India",https://www.google.co.kr/maps/place/Planet+Fitness+Gym/data=!4m5!3m4!1s0x390d044dbbe657a7:0xfd79ea965dc2805f!8m2!3d28.667395!4d77.0602079?authuser=0&hl=en&rclk=1,28.667395,77.0602079
Funfit Studios,Fitness center,"B5 / 62+63 First Floor, Sector 7, Rohini, Delhi, 110085, India",https://www.google.co.kr/maps/place/Funfit+Studios/data=!4m5!3m4!1s0x390d01cc3eb46bc1:0xa40d0c5fd0c70191!8m2!3d28.7080569!4d77.1179541?authuser=0&hl=en&rclk=1,28.7080569,77.1179541
Enerrzon Gym,Gym,"218, CV Raman Marg, Navjivan Buddh Vihar, Taimoor Nagar, New Friends Colony, New Delhi, Delhi 110065, India",https://www.google.co.kr/maps/place/Enerrzon+Gym/data=!4m5!3m4!1s0x390ce397635edf01:0xbe2a1a7cf07bbeba!8m2!3d28.5704394!4d77.2672117?authuser=0&hl=en&rclk=1,28.5704394,77.2672117
NEXT LEVEL FITNESS GYM,Gym,"c 93 pkt, 5, Sector 6 Rd, Near Chotu Ram Park, Pocket D-6, Pocket 5, Sector 6, Rohini, Delhi, 110085, India",https://www.google.co.kr/maps/place/NEXT+LEVEL+FITNESS+GYM/data=!4m5!3m4!1s0x390d01f8d362fbff:0x307a09d977f50bda!8m2!3d28.7128707!4d77.1090288?authuser=0&hl=en&rclk=1,28.7128707,77.1090288
Glorious Gym/CROSSFIT,Gym,"Hari Enclave, A-157, Kirari Suleman Nagar Village, New Delhi, Delhi 110086, India",https://www.google.co.kr/maps/place/Glorious+Gym%2FCROSSFIT/data=!4m5!3m4!1s0x390d04267501c8a3:0x62f653ebfd8ec1b8!8m2!3d28.6953236!4d77.0695582?authuser=0&hl=en&rclk=1,28.6953236,77.0695582
Phoenix gym,Gymnastics club,"110086, Begampur, Sector 38, Rohini, New Delhi, Delhi, India",https://www.google.co.kr/maps/place/Phoenix+gym/data=!4m5!3m4!1s0x390d068cc86270ad:0x9ce318c5bdb7678e!8m2!3d28.7226548!4d77.0637207?authuser=0&hl=en&rclk=1,28.7226548,77.0637207
Fitness Trainer Punit,Fitness center,"G6XM+4RP, Block S, Greater Kailash I, Greater Kailash, New Delhi, Delhi 110048, India",https://www.google.co.kr/maps/place/Fitness+Trainer+Punit/data=!4m5!3m4!1s0x390ce3637518cf3d:0x7b6012dde2263c85!8m2!3d28.5478301!4d77.2345653?authuser=0&hl=en&rclk=1,28.5478301,77.2345653
Myo Plus Gym And Spa,Gym,"2nd Floor, Wedding Souk Mall, Saraswati Vihar, Delhi, 122001, India",https://www.google.co.kr/maps/place/Myo+Plus+Gym+And+Spa/data=!4m5!3m4!1s0x390d03e88f329639:0x874db96ce229bddb!8m2!3d28.6936967!4d77.1223659?authuser=0&hl=en&rclk=1,28.6936967,77.1223659
RKM gym,Gym,"H-19/170, 2nd Floor, Near Rohini West Metro Station, Shiva Rd, Sector 7, Rohini, Delhi, 110085, India",https://www.google.co.kr/maps/place/RKM+gym/data=!4m5!3m4!1s0x390d015a08aaf163:0x7273b5acb4bae283!8m2!3d28.711651!4d77.11433?authuser=0&hl=en&rclk=1,28.711651,77.11433
Fitness Secret GYM,Gymnasium Cz,"488/5 1st floor, A- Block, Sagar Market, Dilshad Garden, Delhi, 110095, India",https://www.google.co.kr/maps/place/Fitness+Secret+GYM/data=!4m5!3m4!1s0x390cfba1ac44ff7f:0x432c80e5bbdb5f78!8m2!3d28.6786531!4d77.3144241?authuser=0&hl=en&rclk=1,28.6786531,77.3144241
FitIndian.in,Fitness center,"Near, 54, Sanjay Building, Mantri Wali Gali, New Delhi, Delhi 110030, India",https://www.google.co.kr/maps/place/FitIndian.in/data=!4m5!3m4!1s0x390d1f2b6e22e9e7:0x20e338d5db07c83e!8m2!3d28.4920722!4d77.1399334?authuser=0&hl=en&rclk=1,28.4920722,77.1399334
4 FITNESS GYM,Fitness center,"HOUSE NO 4 POCKET 15-A, below ICICI Bank, Sector-24, Rohini, Delhi, 110085, India",https://www.google.co.kr/maps/place/4+FITNESS+GYM/data=!4m5!3m4!1s0x390d074d5900661d:0x16462e3f9c66248a!8m2!3d28.7247864!4d77.0895153?authuser=0&hl=en&rclk=1,28.7247864,77.0895153
Fitness Point,Fitness center,"207 Kalkaji Main Road Govind Puri, Block DD, Block G, Tughlakabad, New Delhi, Delhi 110019, India",https://www.google.co.kr/maps/place/Fitness+Point/data=!4m5!3m4!1s0x390ce3da33ad4cdd:0x442198772e19dd53!8m2!3d28.5417675!4d77.2546628?authuser=0&hl=en&rclk=1,28.5417675,77.2546628
Ganesh Gym,Gym,"D-41, Kala Mandir Rd, Block E, Mangolpuri S Block, New Delhi, Delhi 110083, India",https://www.google.co.kr/maps/place/Ganesh+Gym/data=!4m5!3m4!1s0x390d0404c4ee4803:0x292bf93b03d1cb7e!8m2!3d28.6952922!4d77.0918513?authuser=0&hl=en&rclk=1,28.6952922,77.0918513
Odin fitness club,Gym,"C-222 Lajpat Nagar 1st (Basment, New Delhi, 110024, India",https://www.google.co.kr/maps/place/Odin+fitness+club/data=!4m5!3m4!1s0x390ce3b08b8e8a8b:0x52d07f04781ec7da!8m2!3d28.5786104!4d77.241271?authuser=0&hl=en&rclk=1,28.5786104,77.241271
Fit Look,Gym,"D-17,Opp. Maxfort School, near Bal Bharati Public School Pitampura, Pushpanjali Enclave, Pitam Pura, Delhi, 110083, India",https://www.google.co.kr/maps/place/Fit+Look/data=!4m5!3m4!1s0x390d03f0951e49e5:0x896b2628b7f49bd8!8m2!3d28.691979!4d77.109857?authuser=0&hl=en&rclk=1,28.691979,77.109857
SYM FITNESS,Gym,"E-20/24-25, Pocket E 20, Pocket 20, Sector 3, Rohini, Delhi, 110085, India",https://www.google.co.kr/maps/place/SYM+FITNESS/data=!4m5!3m4!1s0x390d03b6c2856987:0x997b2b537972fe5d!8m2!3d28.6988937!4d77.1047202?authuser=0&hl=en&rclk=1,28.6988937,77.1047202
Energie Gym & Spa,Gym,"MF-2, 2nd Floor, Sonia PVR, Vikaspuri, Delhi, 110018, India",https://www.google.co.kr/maps/place/Energie+Gym+%26+Spa/data=!4m5!3m4!1s0x390d054b239e42ed:0x842ad8ab587320be!8m2!3d28.6393033!4d77.0741343?authuser=0&hl=en&rclk=1,28.6393033,77.0741343
S3FFitness,Fitness center,"G-21, 238, Ground Floor, Sector 7, Rohini, New Delhi, Delhi 110085, India",https://www.google.co.kr/maps/place/S3FFitness/data=!4m5!3m4!1s0x390d017880d5eb19:0xfe7c86c926c83949!8m2!3d28.7081323!4d77.1180398?authuser=0&hl=en&rclk=1,28.7081323,77.1180398
Fitness war,Gym,"1148/11, 1st floor, govindpuri, Kalkaji, New Delhi, Delhi 110019, India",https://www.google.co.kr/maps/place/Fitness+war/data=!4m5!3m4!1s0x390ce3040c2c32a7:0xdcbc991befd8c0af!8m2!3d28.5430111!4d77.2530091?authuser=0&hl=en&rclk=1,28.5430111,77.2530091
Sun Nice Gym,Gym,"House No.-8, Paschim Enclave, Peera Garhi, Peeragarhi Village, Paschim Vihar, New Delhi, Delhi 110087, India",https://www.google.co.kr/maps/place/Sun+Nice+Gym/data=!4m5!3m4!1s0x390d059999512897:0xd5eaadf8ce7ba201!8m2!3d28.6796108!4d77.0906594?authuser=0&hl=en&rclk=1,28.6796108,77.0906594
Fitness 14,Gym,"2/A, Rani Bagh Rd, Rani Bagh, Pitam Pura, New Delhi, Delhi 110034, India",https://www.google.co.kr/maps/place/Fitness+14/data=!4m5!3m4!1s0x390d03c37bee7891:0xb6509f236aeb3fca!8m2!3d28.6928902!4d77.1308448?authuser=0&hl=en&rclk=1,28.6928902,77.1308448
Grand Slam Fitness Pvt. Ltd.,Gym,"G-15, Vishwadeep Tower, District Centre, Shivaji Marg, Janakpuri District Center, New Delh, Delhi 110058, India",https://www.google.co.kr/maps/place/Grand+Slam+Fitness+Pvt.+Ltd./data=!4m5!3m4!1s0x390d04bf73d82c7b:0x24ab0595db5eed1!8m2!3d28.6217426!4d77.0882696?authuser=0&hl=en&rclk=1,28.6217426,77.0882696
hamr fitness centre,Gym,"Shankar Chowk, Jorbagh, Tri Nagar, Delhi, 110035, India",https://www.google.co.kr/maps/place/hamr+fitness+centre/data=!4m5!3m4!1s0x390d024f24e98f55:0x6d9013b2541ae4c5!8m2!3d28.6797689!4d77.1578408?authuser=0&hl=en&rclk=1,28.6797689,77.1578408
Fitness Axis Gym,Gym,"k-1/60, Budh Vihar Phase I, Budh Vihar, Delhi, 110086, India",https://www.google.co.kr/maps/place/Fitness+Axis+Gym/data=!4m5!3m4!1s0x390d07bddbd35e7d:0x60105f2671b90192!8m2!3d28.7063039!4d77.087087?authuser=0&hl=en&rclk=1,28.7063039,77.087087
Breathe,Gym,"E-22, 3rd Floor, South Extension, Block E, South Extension II, New Delhi, Delhi 110049, India",https://www.google.co.kr/maps/place/Breathe/data=!4m5!3m4!1s0x390ce269e335c9e3:0x5e4dd5daa51dd8e4!8m2!3d28.5679817!4d77.2196378?authuser=0&hl=en&rclk=1,28.5679817,77.2196378
Energie Gym & Spa Mayur Vihar Phase -1,Fitness center,"C-35 & 36, 1st Floor, Block B, Acharya Niketan, Mayur Vihar, New Delhi, Delhi 110091, India",https://www.google.co.kr/maps/place/Energie+Gym+%26+Spa+Mayur+Vihar+Phase+-1/data=!4m5!3m4!1s0x390ce4988c92b1af:0x6f9ad52b081ce7a0!8m2!3d28.6074525!4d77.2952355?authuser=0&hl=en&rclk=1,28.6074525,77.2952355
Old School Gym,Fitness center,"csc 13, shop no 41, DDA Market rohini, Sector 16, Delhi, 110085, India",https://www.google.co.kr/maps/place/Old+School+Gym/data=!4m5!3m4!1s0x390d01268d2317a7:0x9eec2556161d0697!8m2!3d28.7354495!4d77.117477?authuser=0&hl=en&rclk=1,28.7354495,77.117477
Snap Fitness Krishna Nagar,Gym,"C 9 /14, Block C, Krishna Nagar, New Delhi, Delhi 110051, India",https://www.google.co.kr/maps/place/Snap+Fitness+Krishna+Nagar/data=!4m5!3m4!1s0x390cfca1118b4913:0x1c121dcf75d8b5b!8m2!3d28.6560202!4d77.2817471?authuser=0&hl=en&rclk=1,28.6560202,77.2817471
Pumping Brothers Health Club Gym,Gym,"HNo 4, opposite to Pratap International School, Pocket 15A, Sector-24, Rohini, Delhi, 110085, India",https://www.google.co.kr/maps/place/Pumping+Brothers+Health+Club+Gym/data=!4m5!3m4!1s0x390d07ff3551983d:0x9abb2b704d71aabc!8m2!3d28.7243269!4d77.0908778?authuser=0&hl=en&rclk=1,28.7243269,77.0908778
Champions Gym,Gym,"Budh Bazar Road Labour Chok Hari Encalve Kiradi, New Delhi, Delhi 110086, India",https://www.google.co.kr/maps/place/Champions+Gym/data=!4m5!3m4!1s0x390d04262f742755:0x14bcf3326d247002!8m2!3d28.6967982!4d77.0691052?authuser=0&hl=en&rclk=1,28.6967982,77.0691052
Fitness and Dance Studio by Tavleen,Fitness center,"549, 1st Floor, Rishi Nagar, opposite Sanik vihar gate no.1 park, Rani Bagh, Delhi, 110034, India",https://www.google.co.kr/maps/place/Fitness+and+Dance+Studio+by+Tavleen/data=!4m5!3m4!1s0x390d03ecbcb361f3:0xbcd9e994261999c9!8m2!3d28.6892821!4d77.1270786?authuser=0&hl=en&rclk=1,28.6892821,77.1270786
Open Gym,Gym,"DDA Park, B-5/60, Sector 5B, Rohini, Delhi, 110085, India",https://www.google.co.kr/maps/place/Open+Gym/data=!4m5!3m4!1s0x390d01d1abee9347:0x5db8e4ba56cfc117!8m2!3d28.7125447!4d77.1058063?authuser=0&hl=en&rclk=1,28.7125447,77.1058063
IFFSS - International Federation of Fitness & Sports Science,Charter school,"GD -23 , Second Floor, Pitam Pura, Delhi, 110034, India",https://www.google.co.kr/maps/place/IFFSS+-+International+Federation+of+Fitness+%26+Sports+Science/data=!4m5!3m4!1s0x390d03c528e287bd:0xb1070b4580bcbae5!8m2!3d28.7026782!4d77.1337454?authuser=0&hl=en&rclk=1,28.7026782,77.1337454
Cult Paschim Vihar,Fitness center,"A-16, Bhera Enclave Underpass, opp. Radisson Blu Hotel Cult, Shubham Enclave, Reserve Bank Enclave, Paschim Vihar, Delhi, 110063, India",https://www.google.co.kr/maps/place/Cult+Paschim+Vihar/data=!4m5!3m4!1s0x390d0528e0aa6c07:0xd588faeba0a2dff0!8m2!3d28.668197!4d77.0945777?authuser=0&hl=en&rclk=1,28.668197,77.0945777
Mpire Gym,Gym,"Hno.-112, Pocket 16, Sector 20, Rohini, Delhi, 110086, India",https://www.google.co.kr/maps/place/Mpire+Gym/data=!4m5!3m4!1s0x390d077055b8f7f3:0x1f70527653b0970b!8m2!3d28.7082193!4d77.073329?authuser=0&hl=en&rclk=1,28.7082193,77.073329
Babes & Dudes Gym,Gym,"B-59 basement, Anoop Nagar, near Saini Dhaba, Uttam Nagar New, Delhi, 110059, India",https://www.google.co.kr/maps/place/Babes+%26+Dudes+Gym/data=!4m5!3m4!1s0x390d05b3244586b1:0xe44ffd75d6db78d6!8m2!3d28.7009853!4d77.095221?authuser=0&hl=en&rclk=1,28.7009853,77.095221
Amjad Khan Boxing Training Centre,Gym,"B-114 Dayanand colony near sapna cinema 1100224, Lajpat Nagar 4, New Delhi, Delhi, India",https://www.google.co.kr/maps/place/Amjad+Khan+Boxing+Training+Centre/data=!4m5!3m4!1s0x390d015555555555:0xed5942dd5f9896c8!8m2!3d28.7040585!4d77.1024588?authuser=0&hl=en&rclk=1,28.7040585,77.1024588
Unique Gym Health and Fitness,Gym,"Mama Bhanja Rd, Suraksha Vihar, Deepak Vihar, Hastsal, Delhi, 110059, India",https://www.google.co.kr/maps/place/Unique+Gym+Health+and+Fitness/data=!4m5!3m4!1s0x390d05acc9304009:0xacdfee9212920aba!8m2!3d28.6405545!4d77.0434915?authuser=0&hl=en&rclk=1,28.6405545,77.0434915
The Blue Gym & Spa,Gym,"kendriya Vidyalaya, PU Block, Near City Park Hotel, Pitam Pura, Delhi, 110034, India",https://www.google.co.kr/maps/place/The+Blue+Gym+%26+Spa/data=!4m5!3m4!1s0x390d03c5111bf5e1:0x3ba484d4c25683dd!8m2!3d28.6884118!4d77.1254554?authuser=0&hl=en&rclk=1,28.6884118,77.1254554
AYuvi Health n Fitness center - Delhi,Fitness center,"169, Pocket A4, Sector 4, Rohini, Delhi, 110085, India",https://www.google.co.kr/maps/place/AYuvi+Health+n+Fitness+center+-+Delhi/data=!4m5!3m4!1s0x390d012666bd9635:0x39e9f2898640cdaa!8m2!3d28.7062376!4d77.1026788?authuser=0&hl=en&rclk=1,28.7062376,77.1026788
Anytime Fitness,Fitness center,"Plot No. F-601, 603, Ramphal Chowk Rd, Block F, Palam Extension, Palam, Delhi, 110075, India",https://www.google.co.kr/maps/place/Anytime+Fitness/data=!4m5!3m4!1s0x390d1b5e052d1405:0xa6b99e2fd006cc61!8m2!3d28.5857328!4d77.0716033?authuser=0&hl=en&rclk=1,28.5857328,77.0716033
Champion Gym,Gym,"M5H7+RPJ, Kanhiya Nagar, Tri Nagar, New Delhi, Delhi 110034, India",https://www.google.co.kr/maps/place/Champion+Gym/data=!4m5!3m4!1s0x390d024443ccbcc5:0x3025d4f8b7306ecd!8m2!3d28.6795842!4d77.1642536?authuser=0&hl=en&rclk=1,28.6795842,77.1642536
SSFitnessFreak,Gym,"C-37 Basement, East of Kailash, New Delhi, Delhi 110065, India",https://www.google.co.kr/maps/place/SSFitnessFreak/data=!4m5!3m4!1s0x390ce3beee050e6d:0xdd9f3f8285cbdb4e!8m2!3d28.5583464!4d77.2530829?authuser=0&hl=en&rclk=1,28.5583464,77.2530829
Fitness Xpress,Gym,"Balaji Plaza, 105 1st Floor,, Shree Ram Mandir Marg, Pocket 9, Sector 8, Rohini, Delhi, 110085, India",https://www.google.co.kr/maps/place/Fitness+Xpress/data=!4m5!3m4!1s0x390d03dfe82b1b37:0x4d0ac8bade81accc!8m2!3d28.7049435!4d77.1263961?authuser=0&hl=en&rclk=1,28.7049435,77.1263961
LA FITNESS,Gym,"PLOT NO 7, KP COMMERCIAL COMPLEX, PITAMPURA BEHIND KP PETROL PUMP, near BANK OF BARODA, Delhi, 110034, India",https://www.google.co.kr/maps/place/LA+FITNESS/data=!4m5!3m4!1s0x390d03c5ab5d2b03:0x28a13ab4c53ff30d!8m2!3d28.7047368!4d77.1412115?authuser=0&hl=en&rclk=1,28.7047368,77.1412115
Nutrifitzone fitness & breakfast studio,Fitness center,"18, Link Rd, Jangpura, Block J, Jungpura Extension, New Delhi, Delhi 110014, India",https://www.google.co.kr/maps/place/Nutrifitzone+fitness+%26+breakfast+studio/data=!4m5!3m4!1s0x390ce34cd6e5c2c5:0x1af8368367827e56!8m2!3d28.5835617!4d77.2406644?authuser=0&hl=en&rclk=1,28.5835617,77.2406644
The New School Fitness Centre,Fitness center,"KH.No-69/13, Block-B, Pocket-U, Budh Vihar Phase II, Budh Vihar, New Delhi, Delhi 110086, India",https://www.google.co.kr/maps/place/The+New+School+Fitness+Centre/data=!4m5!3m4!1s0x390d073295d1cff5:0x76e4010e65ef48a!8m2!3d28.7149417!4d77.0801632?authuser=0&hl=en&rclk=1,28.7149417,77.0801632
Pro Athletic Gym,Gym,"Kh-350, near vishal mega mart, Mangolpur Khurd Village, Mangolpuri S Block, New Delhi, Delhi 110083, India",https://www.google.co.kr/maps/place/Pro+Athletic+Gym/data=!4m5!3m4!1s0x390d05877558a9eb:0x9eb74b7fb73c9fab!8m2!3d28.6990808!4d77.0949421?authuser=0&hl=en&rclk=1,28.6990808,77.0949421
Dyno Rock Gym,Gym,"B-52 sukhlal market naharpur vill sec -7 rohini, New Delhi, Delhi 110085, India",https://www.google.co.kr/maps/place/Dyno+Rock+Gym/data=!4m5!3m4!1s0x390d03e23fe3d057:0x6ae977a69fa889c!8m2!3d28.704197!4d77.118489?authuser=0&hl=en&rclk=1,28.704197,77.118489
3S Academy - Dance & Fitness Centre In Budh Vihar,Gym,"Q- 20A, behind Shree Vinayak Palace, Budh Vihar Phase I, New Delhi, Delhi 110086, India",https://www.google.co.kr/maps/place/3S+Academy+-+Dance+%26+Fitness+Centre+In+Budh+Vihar/data=!4m5!3m4!1s0x390d06a6d2c00cf9:0x57f830a50cead3cd!8m2!3d28.706863!4d77.088587?authuser=0&hl=en&rclk=1,28.706863,77.088587
XCEPTIION GYM AND YOGA,Gym,"GD-23, Second floor, Lala Jagat Narayan Marg, near metro pillar no 367, Pitam Pura, Delhi, 110034, India",https://www.google.co.kr/maps/place/XCEPTIION+GYM+AND+YOGA/data=!4m5!3m4!1s0x390d03d94f029d41:0xfbe380e957ccd16b!8m2!3d28.7026061!4d77.1335667?authuser=0&hl=en&rclk=1,28.7026061,77.1335667
Unity gym,Gym,"C-17, Vijay vihar Phase I, Vijay Vihar, Sector 4, Rohini, New Delhi, Delhi 110085, India",https://www.google.co.kr/maps/place/Unity+gym/data=!4m5!3m4!1s0x390d0799d59cfd15:0x357a4743991604d2!8m2!3d28.710042!4d77.094996?authuser=0&hl=en&rclk=1,28.710042,77.094996
Sunder Gym,Gym,"C/9/193, Block C9, Sultanpuri, Delhi, 110086, India",https://www.google.co.kr/maps/place/Sunder+Gym/data=!4m5!3m4!1s0x390d05998fc2f4bb:0xc35c6f826c4128a3!8m2!3d28.700518!4d77.0826793?authuser=0&hl=en&rclk=1,28.700518,77.0826793
Old school gym,Fitness center,"40 Feet Rd, Vijay Vihar Phase II, Gopal Vihar, Sector 4, Rohini, Delhi, 110085, India",https://www.google.co.kr/maps/place/Old+school+gym/data=!4m5!3m4!1s0x390d079bc523fce5:0x16489f40be344edb!8m2!3d28.7071123!4d77.0969469?authuser=0&hl=en&rclk=1,28.7071123,77.0969469
Strength and Conditioning Booster India,Fitness center,"A6/270 B, Janta Flats, A 6 Block, Paschim Vihar, New Delhi, Delhi 110063, India",https://www.google.co.kr/maps/place/Strength+and+Conditioning+Booster+India/data=!4m5!3m4!1s0x390d03c2e3f52963:0x7b4a4647b61b9c9a!8m2!3d28.673344!4d77.1046341?authuser=0&hl=en&rclk=1,28.673344,77.1046341
Multi Gym,Gym,"Dr NS Hardikar Rd, Sector 3, Pocket 22, Sector 3, Rohini, New Delhi, Delhi 110085, India",https://www.google.co.kr/maps/place/Multi+Gym/data=!4m5!3m4!1s0x390d04000a119745:0x43e5bb8c8b284eb6!8m2!3d28.702917!4d77.102437?authuser=0&hl=en&rclk=1,28.702917,77.102437
Empire Gym & Fitness Centre,Gym,"E-70, Vijay Vihar Phase II, Avantika, Pocket E, Sector 1, Rohini, Delhi, 110085, India",https://www.google.co.kr/maps/place/Empire+Gym+%26+Fitness+Centre/data=!4m5!3m4!1s0x390d0707a92c82f7:0x7a2d6b516f77a36a!8m2!3d28.7063976!4d77.0941403?authuser=0&hl=en&rclk=1,28.7063976,77.0941403
"ENERGIE FITNESS Head Office(Commercial Gym, Home Gym and Accessories )",Gym,"C-57, 1st Floor, Vikas Marg,, Preet Vihar, New Delhi, Delhi 110092, India","https://www.google.co.kr/maps/place/ENERGIE+FITNESS+Head+Office(Commercial+Gym,+Home+Gym+and+Accessories+)/data=!4m5!3m4!1s0x390cfca9de4de06f:0x777b5c7254128a9a!8m2!3d28.6388489!4d77.2918247?authuser=0&hl=en&rclk=1",28.6388489,77.2918247
AR FITNESS HARDCORE GYM,Gym,"Budh Bazar Rd, Phase 3, Block G, Aman Vihar, Sultanpuri, New Delhi, Delhi 110086, India",https://www.google.co.kr/maps/place/AR+FITNESS+HARDCORE+GYM/data=!4m5!3m4!1s0x390d079bc60764c9:0x270d89269f157ef4!8m2!3d28.7024576!4d77.0673354?authuser=0&hl=en&rclk=1,28.7024576,77.0673354
THE IRON CLUB GYM,Gym,"73, Pocket 9, Sector 21, Rohini, Delhi, 110086, India",https://www.google.co.kr/maps/place/THE+IRON+CLUB+GYM/data=!4m5!3m4!1s0x390d0690399d1cc9:0x1820300233327f3d!8m2!3d28.7142713!4d77.0690915?authuser=0&hl=en&rclk=1,28.7142713,77.0690915
Body Iron Gym,Boxing gym,"Chaukhandi Rd, Mukherji Park, Chaukhandi, Tilak Nagar, Delhi, 110018, India",https://www.google.co.kr/maps/place/Body+Iron+Gym/data=!4m5!3m4!1s0x390d049ab3368b9d:0x812efdafe1619ad2!8m2!3d28.6457079!4d77.0919576?authuser=0&hl=en&rclk=1,28.6457079,77.0919576
Gods Gym and SPA,Gym,"P36R+R73, Gadipura, Block M 1, Budh Vihar Phase I, Budh Vihar, Delhi, 110086, India",https://www.google.co.kr/maps/place/Gods+Gym+and+SPA/data=!4m5!3m4!1s0x390d0799993366b9:0x1de16f5f0b2d9545!8m2!3d28.7120163!4d77.0906591?authuser=0&hl=en&rclk=1,28.7120163,77.0906591
Gym Plus,Gymnastics center,"F-24/32, Sector 3, Rohini, Delhi 110085, India",https://www.google.co.kr/maps/place/Gym+Plus/data=!4m5!3m4!1s0x390d04006dd22205:0x5149120ccb531193!8m2!3d28.7030426!4d77.1002028?authuser=0&hl=en&rclk=1,28.7030426,77.1002028
Sardana Health Club,Gym,"B-2/18, Budh Vihar Phase I, Budh Vihar, Delhi, 110086, India",https://www.google.co.kr/maps/place/Sardana+Health+Club/data=!4m5!3m4!1s0x390d06a514eb6679:0x951c5841f08c1c37!8m2!3d28.712564!4d77.089432?authuser=0&hl=en&rclk=1,28.712564,77.089432
Body plus gym,Gym,"G-2/18, U Block Rd, Block R 1, Budh Vihar Phase I, Budh Vihar, Delhi, 110086, India",https://www.google.co.kr/maps/place/Body+plus+gym/data=!4m5!3m4!1s0x390d06a546ab0a4b:0xf18ed0edb349e240!8m2!3d28.7132381!4d77.089886?authuser=0&hl=en&rclk=1,28.7132381,77.089886
RBM Gym,Gym,"P-3/4, Police Station Rd, Block P, Sultanpuri, Delhi, 110086, India",https://www.google.co.kr/maps/place/RBM+Gym/data=!4m5!3m4!1s0x390d06a006223f91:0x4129988a948c6ff1!8m2!3d28.7022809!4d77.0802461?authuser=0&hl=en&rclk=1,28.7022809,77.0802461
Power House Gym,Gym,"A-11, Main Rithala Road, Block, Budh Vihar Phase I, Budh Vihar, Delhi, 110086, India",https://www.google.co.kr/maps/place/Power+House+Gym/data=!4m5!3m4!1s0x390d06ba9809670f:0xc6eed868abde79b3!8m2!3d28.7153784!4d77.0907037?authuser=0&hl=en&rclk=1,28.7153784,77.0907037
The beast fitness club,Gym,"Plot no.102pkt27 rohini, Sector-24, Delhi, 110086, India",https://www.google.co.kr/maps/place/The+beast+fitness+club/data=!4m5!3m4!1s0x390d07d2c7b27077:0xd4ee613573463b26!8m2!3d28.7284523!4d77.0881034?authuser=0&hl=en&rclk=1,28.7284523,77.0881034
T3 - Train To Transform,Gym,"Basement Floor, Shop No. 4, Chander Lok, Pitam Pura, New Delhi, Delhi 110034, India",https://www.google.co.kr/maps/place/T3+-+Train+To+Transform/data=!4m5!3m4!1s0x390d03b639086407:0xea9a5feea44ec6d4!8m2!3d28.6906426!4d77.1356788?authuser=0&hl=en&rclk=1,28.6906426,77.1356788
THE GYM health planet,Fitness center,"J-13/67, Major Sudesh Kumar Marg, Block J, Rajouri Garden Extension, Rajouri Garden, Delhi, 110027, India",https://www.google.co.kr/maps/place/THE+GYM+health+planet/data=!4m5!3m4!1s0x390d03690a6fd991:0x4c4bcf136d8999d7!8m2!3d28.6395587!4d77.117282?authuser=0&hl=en&rclk=1,28.6395587,77.117282
Delhi Boxing Classes India,Boxing gym,"A-27-28, near INDIAN BANK, Ganesh Nagar, Tilak Nagar, Delhi, 110018, India",https://www.google.co.kr/maps/place/Delhi+Boxing+Classes+India/data=!4m5!3m4!1s0x390d05cffcefa1a1:0xc56ccee85aae7b47!8m2!3d28.6360527!4d77.0891554?authuser=0&hl=en&rclk=1,28.6360527,77.0891554
R.D.S fitness unisex gym,Fitness center,"H-1/17,1st floor phase-1, Delhi 110085, India",https://www.google.co.kr/maps/place/R.D.S+fitness+unisex+gym/data=!4m5!3m4!1s0x390d07c6b76a90e7:0xac9bb3fe7353890c!8m2!3d28.7180714!4d77.1004658?authuser=0&hl=en&rclk=1,28.7180714,77.1004658
GenX Gym,Gym,"H/11, H/11, Buddha Vihar Main Rd, Budh Vihar Phase I, Budh Vihar, Delhi, 110086, India",https://www.google.co.kr/maps/place/GenX+Gym/data=!4m5!3m4!1s0x390d06a7add4a81f:0xe2b81894f5625e6a!8m2!3d28.705252!4d77.0886454?authuser=0&hl=en&rclk=1,28.705252,77.0886454
IRON FITNESS POINT,Gym,"I/2/35, Rithala Rd, behind Govt Desi Wine Shop, Block I 1, Budh Vihar Phase I, Budh Vihar, Delhi, 110086, India",https://www.google.co.kr/maps/place/IRON+FITNESS+POINT/data=!4m5!3m4!1s0x390d07a9a88b38a3:0x2a530b1d6356cc26!8m2!3d28.7108997!4d77.0916649?authuser=0&hl=en&rclk=1,28.7108997,77.0916649
The Rehab GYM & SPA,Gym,"5, Block NS, Mianwali Nagar, Paschim Vihar, Delhi, 110087, India",https://www.google.co.kr/maps/place/The+Rehab+GYM+%26+SPA/data=!4m5!3m4!1s0x390d055c7ab48b81:0x2b45cd638736640d!8m2!3d28.6776137!4d77.0845764?authuser=0&hl=en&rclk=1,28.6776137,77.0845764
Energy Gym and Swimming Pool,Gym,"236, Virjanand Marg Guru Nanak Nagar, Sainik Vihar, Pitam Pura, New Delhi, Delhi 110034, India",https://www.google.co.kr/maps/place/Energy+Gym+and+Swimming+Pool/data=!4m5!3m4!1s0x390d03c1f30bf855:0xb2a91f1bf39d38b7!8m2!3d28.6887412!4d77.1267858?authuser=0&hl=en&rclk=1,28.6887412,77.1267858
Outdoor Gym,Gym,"Unnamed Road, Shankar Vihar, New Delhi, Delhi 110037, India",https://www.google.co.kr/maps/place/Outdoor+Gym/data=!4m5!3m4!1s0x390d1dba987839b5:0xcd0148d53fc8655a!8m2!3d28.5571389!4d77.1367837?authuser=0&hl=en&rclk=1,28.5571389,77.1367837
Balli Fitness,Gym,"B-45, Veer Bazar Rd, Shyam Colony, Block D, Budh Vihar Phase II, Budh Vihar, Delhi, 110086, India",https://www.google.co.kr/maps/place/Balli+Fitness/data=!4m5!3m4!1s0x390d070cbc814af7:0xfb8d713c168bfce6!8m2!3d28.7161809!4d77.0885871?authuser=0&hl=en&rclk=1,28.7161809,77.0885871
Rhinos Gym India Corporate,Corporate office,"B-192, Second Floor, Near 24, Naraina Industrial Area Phase 1, Sevem, New Delhi, Delhi 110028, India",https://www.google.co.kr/maps/place/Rhinos+Gym+India+Corporate/data=!4m5!3m4!1s0x390d0318be7e260f:0xff4350b9e3c71c67!8m2!3d28.6313014!4d77.1355732?authuser=0&hl=en&rclk=1,28.6313014,77.1355732
365 Fitness Studio,Gym,"M4W7+GC8, Tarun Enclave, Pitam Pura, Delhi, 110034, India",https://www.google.co.kr/maps/place/365+Fitness+Studio/data=!4m5!3m4!1s0x390d03fad418a395:0x1639a618b6c13e7f!8m2!3d28.6962795!4d77.1135789?authuser=0&hl=en&rclk=1,28.6962795,77.1135789
FITLINE PRO GYM,Gym,"Holi Chowk, Ghummanhera, Delhi, 110073, India",https://www.google.co.kr/maps/place/FITLINE+PRO+GYM/data=!4m5!3m4!1s0x390d11b4dae385cb:0x952256ee2d0c5408!8m2!3d28.5318105!4d76.9288224?authuser=0&hl=en&rclk=1,28.5318105,76.9288224
Yoga Studio,Yoga studio,"B7/ 157 ; 3rd floor, Pocket B7, Sector 4, Rohini, Delhi, 110085, India",https://www.google.co.kr/maps/place/Yoga+Studio/data=!4m5!3m4!1s0x390d01537cdf279d:0x5e90d8276d09e972!8m2!3d28.710194!4d77.104719?authuser=0&hl=en&rclk=1,28.710194,77.104719
Old School Gym,Gym,"Chunna Bhatti Rd, Hargovind Vihar, Pocket 9, Sector 4C, Rohini, Delhi, 110085, India",https://www.google.co.kr/maps/place/Old+School+Gym/data=!4m5!3m4!1s0x390d06a93fdd9869:0x3a35e431eebb7c25!8m2!3d28.7089719!4d77.10088?authuser=0&hl=en&rclk=1,28.7089719,77.10088
Body Garage Gym,Gym,"C3/10, Basement Karur Vysya Bank, Prashant Vihar, Sector 14, Rohini, Delhi, 110085, India",https://www.google.co.kr/maps/place/Body+Garage+Gym/data=!4m5!3m4!1s0x390d01645bdb6b4d:0xc755a0ea7243af12!8m2!3d28.7147039!4d77.1337441?authuser=0&hl=en&rclk=1,28.7147039,77.1337441
Natraj Gym,Gym,"Q-1/60, Budh Vihar, Phase-i, Near Brahm Shakti Hospital, Budh Vihar, Delhi, 110086, India",https://www.google.co.kr/maps/place/Natraj+Gym/data=!4m5!3m4!1s0x390d06a2c1532bc9:0x3dc14073256db266!8m2!3d28.7123705!4d77.0812466?authuser=0&hl=en&rclk=1,28.7123705,77.0812466
Aerobics And Dance Studio,Gym,"Yog Divya Shakti, D16-253, Pocket 16, Sector 3, Rohini, Delhi, 110085, India",https://www.google.co.kr/maps/place/Aerobics+And+Dance+Studio/data=!4m5!3m4!1s0x390d018865b7972b:0xec0356c3a81f8bcb!8m2!3d28.705571!4d77.108417?authuser=0&hl=en&rclk=1,28.705571,77.108417
DYNAMIC SPORTS,Sports complex,"DDA complex A-6, Paschim Vihar, Delhi, 110063, India",https://www.google.co.kr/maps/place/DYNAMIC+SPORTS/data=!4m5!3m4!1s0x390d038ec3c0fde1:0xb7f06e1eead90245!8m2!3d28.6742196!4d77.1094609?authuser=0&hl=en&rclk=1,28.6742196,77.1094609
Fitness Hub,Gym,"65, Ground Floor, Bhagwan Nagar, New Delhi, Delhi 110014, India",https://www.google.co.kr/maps/place/Fitness+Hub/data=!4m5!3m4!1s0x390ce34d462ca703:0x5c060229f7e4c445!8m2!3d28.5796379!4d77.2594374?authuser=0&hl=en&rclk=1,28.5796379,77.2594374
NexGen Fitness center,Gym,"DDA MARKET SHOP NUMBER 55, near HANDI FISH CHIK SHOP, Sector 11, Rohini, Delhi, 110085, India",https://www.google.co.kr/maps/place/NexGen+Fitness+center/data=!4m5!3m4!1s0x390d01340cc31399:0x3f3abd0b7522d03b!8m2!3d28.7321047!4d77.1110788?authuser=0&hl=en&rclk=1,28.7321047,77.1110788
KANGEN WATER PRESENTATION DELHI,Fitness center,"404, Service Rd, Block RU, Uttari Pitampura, Pitam Pura, Delhi, 110034, India",https://www.google.co.kr/maps/place/KANGEN+WATER+PRESENTATION+DELHI/data=!4m5!3m4!1s0x390d01475046f653:0x21eb387475119c2!8m2!3d28.709385!4d77.1361113?authuser=0&hl=en&rclk=1,28.709385,77.1361113
Mission health care,Fitness center,"25 Feet Rd, Parwati Anchal, Block B, Sant Nagar, Burari, Delhi, 110084, India",https://www.google.co.kr/maps/place/Mission+health+care/data=!4m5!3m4!1s0x390cfe25cdb43373:0x86567e8e085e8bda!8m2!3d28.7453148!4d77.2011544?authuser=0&hl=en&rclk=1,28.7453148,77.2011544
Xceptiion Gym and Yoga,Gym,"Near, F-7 F- 8 , Plot No. 23, Pankaj Arcade DDA Community Centre, Fountain Chowk, opposite Rajdhani Enclave, Delhi, 110034, India",https://www.google.co.kr/maps/place/Xceptiion+Gym+and+Yoga/data=!4m5!3m4!1s0x390d038f94289bd1:0x36bbc8413a10d585!8m2!3d28.68693!4d77.135376?authuser=0&hl=en&rclk=1,28.68693,77.135376
KV Fitness Center,Fitness center,"Prashant Vihar, Sector 3, Rohini, Delhi, 110085, India",https://www.google.co.kr/maps/place/KV+Fitness+Center/data=!4m5!3m4!1s0x390d03fe3e1dfcfd:0x72eab209943087ca!8m2!3d28.7033344!4d77.1068037?authuser=0&hl=en&rclk=1,28.7033344,77.1068037
RKM GYM,Gym,"170, H19, sector7, Shiva Rd, Rohini, Delhi, 110085, India",https://www.google.co.kr/maps/place/RKM+GYM/data=!4m5!3m4!1s0x390d01c26d73916b:0xec7f0d9d047c145d!8m2!3d28.711751!4d77.1144258?authuser=0&hl=en&rclk=1,28.711751,77.1144258
Nursery Prak Open Gym,Gym,"2084, Kanjhawala Rd, Block Y, Mangolpur Khurd, Mangolpuri S Block, Delhi, 110083, India",https://www.google.co.kr/maps/place/Nursery+Prak+Open+Gym/data=!4m5!3m4!1s0x390d058c2d3b8beb:0x383d0e0ebe595b57!8m2!3d28.7005105!4d77.0912059?authuser=0&hl=en&rclk=1,28.7005105,77.0912059
RD FITNESS UNISEX GYM,Gym,"Unnamed Road, Block D 1, Budh Vihar Phase I, Rohini, Delhi, 110086, India",https://www.google.co.kr/maps/place/RD+FITNESS+UNISEX+GYM/data=!4m5!3m4!1s0x390d071aa56b5a07:0xb6153f5d4b377df1!8m2!3d28.7093135!4d77.0910708?authuser=0&hl=en&rclk=1,28.7093135,77.0910708
Mars Fitness,Gym,"H17 / 261, Pocket 14, Sector 7, Rohini, New Delhi, Delhi 110085, India",https://www.google.co.kr/maps/place/Mars+Fitness/data=!4m5!3m4!1s0x390d0145cceabe8d:0x9465220e8fa76c68!8m2!3d28.711444!4d77.12018?authuser=0&hl=en&rclk=1,28.711444,77.12018
do or die gym,Gym,"D-54, Harsh Dev Park, Budh Vihar Phase II, Budh Vihar, Delhi, 110086, India",https://www.google.co.kr/maps/place/do+or+die+gym/data=!4m5!3m4!1s0x390d06bc95f51c29:0xa7f0fa848f7e82e9!8m2!3d28.717572!4d77.084345?authuser=0&hl=en&rclk=1,28.717572,77.084345
the fitness any time gym,Spa and health club,"Unnamed Road, Trans Delhi Signature City, Ghaziabad, Uttar Pradesh 201102, India",https://www.google.co.kr/maps/place/the+fitness+any+time+gym/data=!4m5!3m4!1s0x390cff3b05225d65:0x1643437bd6838142!8m2!3d28.779802!4d77.2715533?authuser=0&hl=en&rclk=1,28.779802,77.2715533
The Health Book,Gym,"A Block Rd, Pocket 19, Sector 8F, Rohini, Delhi, 110085, India",https://www.google.co.kr/maps/place/The+Health+Book/data=!4m5!3m4!1s0x390d03e154460227:0xcc7610c926ab06c2!8m2!3d28.7002624!4d77.1199773?authuser=0&hl=en&rclk=1,28.7002624,77.1199773
The Gym,Gym,"Main Budh Vihar Market, Qutab Garh Rd, Budh Vihar Phase I, Budh Vihar, Delhi, 110086, India",https://www.google.co.kr/maps/place/The+Gym/data=!4m5!3m4!1s0x390d06a7100b8c43:0x231b9665a66ede48!8m2!3d28.704722!4d77.08731?authuser=0&hl=en&rclk=1,28.704722,77.08731
Tyson Gym,Gym,"Kanjhawala Rd, Pocket C, Sector 1, Rohini, Delhi, 110085, India",https://www.google.co.kr/maps/place/Tyson+Gym/data=!4m5!3m4!1s0x390d06a78efce0c7:0xe636fe339b4df64c!8m2!3d28.7033719!4d77.0889914?authuser=0&hl=en&rclk=1,28.7033719,77.0889914
CR7 fitness Gym,Gym,"C2, 9, Pocket 2, Sector 11, Rohini, Delhi, 110085, India",https://www.google.co.kr/maps/place/CR7+fitness+Gym/data=!4m5!3m4!1s0x390d014b98ea0e85:0xcfe7fee7fa858e31!8m2!3d28.7325497!4d77.1175586?authuser=0&hl=en&rclk=1,28.7325497,77.1175586
Dronacharya's- THE GYM,Gym,"Plot No- 81 Ranhola Road Gupta Enclave, Vikas Nagar, Uttam Nagar, New Delhi, Delhi 110059, India",https://www.google.co.kr/maps/place/Dronacharya's-+THE+GYM/data=!4m5!3m4!1s0x390d05099e84e835:0xac229d2d60dc525c!8m2!3d28.6491802!4d77.0418809?authuser=0&hl=en&rclk=1,28.6491802,77.0418809
Gym Khana,Gymnastics center,"M7JX+G77, Dda Market, Bhagwanpur Khera Village, Shahdara, Delhi, 110032, India",https://www.google.co.kr/maps/place/Gym+Khana/data=!4m5!3m4!1s0x390cfb9cb59b9f83:0x4e42e4b642297985!8m2!3d28.6812848!4d77.2981856?authuser=0&hl=en&rclk=1,28.6812848,77.2981856
Tennis O Holic International Ambica Vihar Tennis And Fitness Academy,Tennis court,"Sports O Holic Ground, Ambica Vihar, Paschim Vihar, New Delhi, Delhi 110087, India",https://www.google.co.kr/maps/place/Tennis+O+Holic+International+Ambica+Vihar+Tennis+And+Fitness+Academy/data=!4m5!3m4!1s0x390d0389c5adfb2f:0xe8029e0fb5f8c569!8m2!3d28.6658467!4d77.0818208?authuser=0&hl=en&rclk=1,28.6658467,77.0818208
Dolphin Swimming Coaching Institute- Swimming Classes in Paschim Vihar- Gym Centre in Paschim Vihar,Swim club,"Kendriya Vidyalaya, Opp, Ambica Vihar, Paschim Vihar, Delhi, 110087, India",https://www.google.co.kr/maps/place/Dolphin+Swimming+Coaching+Institute-+Swimming+Classes+in+Paschim+Vihar-+Gym+Centre+in+Paschim+Vihar/data=!4m5!3m4!1s0x390d046648cc05f3:0x58699f0f528140ec!8m2!3d28.6660467!4d77.083054?authuser=0&hl=en&rclk=1,28.6660467,77.083054
Smart Fit Gym (Unisex),Gym,"Q-20, nearby R.D Public School, Block Q, Krishan Vihar, New Delhi, Delhi 110086, India",https://www.google.co.kr/maps/place/Smart+Fit+Gym+(Unisex)/data=!4m5!3m4!1s0x390d0746cbb33c23:0xdba5d0aa1129e3c9!8m2!3d28.704764!4d77.075948?authuser=0&hl=en&rclk=1,28.704764,77.075948
Olympic gym,Gym,"Block O, Krishan Vihar, Delhi, 110086, India",https://www.google.co.kr/maps/place/Olympic+gym/data=!4m5!3m4!1s0x390d0724978906df:0x7d404fa911657961!8m2!3d28.7062502!4d77.082528?authuser=0&hl=en&rclk=1,28.7062502,77.082528
Herbalife Independent Associate,Fitness center,"Gali Number 5, Tonga Patti Chauhan, Ghonda Patti Chauhan, Ghonda, Shahdara, Delhi, 110053, India",https://www.google.co.kr/maps/place/Herbalife+Independent+Associate/data=!4m5!3m4!1s0x390cfc69be5acf2d:0xad671fe5114267e6!8m2!3d28.6894206!4d77.265172?authuser=0&hl=en&rclk=1,28.6894206,77.265172
Herbalife Independent Associate,Fitness center,"Nathupura Rd, A Block, Shankarpura, Burari, Delhi, 110084, India",https://www.google.co.kr/maps/place/Herbalife+Independent+Associate/data=!4m5!3m4!1s0x390d002fe0d2e4c9:0xb61a50b5cf40c3fe!8m2!3d28.7678472!4d77.1833754?authuser=0&hl=en&rclk=1,28.7678472,77.1833754
Rype,Physical fitness program,"H-32/85, Pocket 21, Sector 3, Rohini, Delhi, 110085, India",https://www.google.co.kr/maps/place/Rype/data=!4m5!3m4!1s0x390d04006dd22205:0x6b21f088a21915bd!8m2!3d28.7022229!4d77.101612?authuser=0&hl=en&rclk=1,28.7022229,77.101612
Tekken karate & fitness academy,Martial arts club,"A-38/1, 40ft road, near mahadev chock, Vijay Vihar Phase II, Sector 4, Rohini, Delhi, 110085, India",https://www.google.co.kr/maps/place/Tekken+karate+%26+fitness+academy/data=!4m5!3m4!1s0x390d07324fdc6e4d:0x54fbe6f2165cdd24!8m2!3d28.7063464!4d77.0982533?authuser=0&hl=en&rclk=1,28.7063464,77.0982533
Fitness Studio,Fitness center,"D-48, market, near D-Block, South City II, Sector 49, Gurugram, Haryana 122018, India",https://www.google.co.kr/maps/place/Fitness+Studio/data=!4m5!3m4!1s0x390d2286a5411fc9:0xa119c52735a6c5fb!8m2!3d28.416466!4d77.050833?authuser=0&hl=en&rclk=1,28.416466,77.050833
Anu Kapoor,Physical fitness program,"H-34, 128, Sector 3, Pocket 30, Sector 3G, Rohini, Delhi, 110085, India",https://www.google.co.kr/maps/place/Anu+Kapoor/data=!4m5!3m4!1s0x390d0189cb2a64b3:0x7b74b22eb30054e9!8m2!3d28.705595!4d77.106225?authuser=0&hl=en&rclk=1,28.705595,77.106225
Crush Fitness India,,"14, Club Rd, West Punjabi Bagh, Punjabi Bagh, New Delhi, Delhi 110026, India",https://www.google.co.kr/maps/place/Crush+Fitness+India/data=!4m5!3m4!1s0x390d03992827b27b:0xfc28de0c72baf20b!8m2!3d28.6664738!4d77.1226184?authuser=0&hl=en&rclk=1,28.6664738,77.1226184
Sparnod Fitness,Equipment supplier,"402, Mehrauli-Gurgaon Rd, Ghitorni, New Delhi, Delhi 110030, India",https://www.google.co.kr/maps/place/Sparnod+Fitness/data=!4m5!3m4!1s0x390d1f08b8ad9fc1:0x8065f7a3c7dabe8e!8m2!3d28.4926917!4d77.1456638?authuser=0&hl=en&rclk=1,28.4926917,77.1456638
Rise & Shine Yoga Studio,Yoga studio,"c 12 flat no 81, Sector 3, Rohini, Delhi, 110085, India",https://www.google.co.kr/maps/place/Rise+%26+Shine+Yoga+Studio/data=!4m5!3m4!1s0x390d0724373dbaeb:0x65b4d2d625595195!8m2!3d28.707853!4d77.107541?authuser=0&hl=en&rclk=1,28.707853,77.107541
SIDDHI VINAYAK CREATION,Yoga studio,"PH - 1, R - 1 / 56, Block I 1, Budh Vihar Phase I, Budh Vihar, New Delhi, Delhi 110086, India",https://www.google.co.kr/maps/place/SIDDHI+VINAYAK+CREATION/data=!4m5!3m4!1s0x390d07753e00d6cd:0x9386cc79f78e186c!8m2!3d28.7108997!4d77.0916649?authuser=0&hl=en&rclk=1,28.7108997,77.0916649
Herbalife Independent Associate,Fitness center,"P7W9+94F, Sarad city, Ahmed Nagar Nawada, Ghaziabad, Uttar Pradesh 201102, India",https://www.google.co.kr/maps/place/Herbalife+Independent+Associate/data=!4m5!3m4!1s0x390cfec11f78b189:0x445afc92e8374126!8m2!3d28.7459314!4d77.2677852?authuser=0&hl=en&rclk=1,28.7459314,77.2677852
"SQUATS Diet & Wellness Centre-Gurugram: Nutritionist, Fat Loss, Muscle Gain, Fitness Consultants",Nutritionist,"O-119, 2nd Floor, Arjun Marg, above HDFC Bank, DLF Phase 1, Gurugram, Haryana 122002, India","https://www.google.co.kr/maps/place/SQUATS+Diet+%26+Wellness+Centre-Gurugram:+Nutritionist,+Fat+Loss,+Muscle+Gain,+Fitness+Consultants/data=!4m5!3m4!1s0x390d19609e02a8d7:0xf3de0c11a9ee8ac0!8m2!3d28.4662505!4d77.099708?authuser=0&hl=en&rclk=1",28.4662505,77.099708
Herbalife Products,Fitness center,"Q7CG+MX2, Pavi Sadakpur, Uttar Pradesh 201102, India",https://www.google.co.kr/maps/place/Herbalife+Products/data=!4m5!3m4!1s0x390cff28da7234df:0xaba5c1705e7ce77e!8m2!3d28.7716466!4d77.2774029?authuser=0&hl=en&rclk=1,28.7716466,77.2774029
Mega Fitness International,Corporate office,"28, DDA Market, G-29, Sector-3, Rohini, New Delhi, Delhi 110085, India",https://www.google.co.kr/maps/place/Mega+Fitness+International/data=!4m5!3m4!1s0x390d01550db90e73:0x53c3f013effd47f3!8m2!3d28.7022389!4d77.1016646?authuser=0&hl=en&rclk=1,28.7022389,77.1016646
VIVA FITNESS,Corporate office,"Ghitorni, New Delhi, Delhi 110030, India",https://www.google.co.kr/maps/place/VIVA+FITNESS/data=!4m5!3m4!1s0x390d1f05b16c67c3:0x9a4d2fa53523a202!8m2!3d28.4925135!4d77.1457866?authuser=0&hl=en&rclk=1,28.4925135,77.1457866
B.K. Sports & Fitness,Gift shop,"WZ 39/1,Jwala Heri, Market, Paschim Vihar, Delhi, 110063, India",https://www.google.co.kr/maps/place/B.K.+Sports+%26+Fitness/data=!4m5!3m4!1s0x390d04787c000001:0x8251ebc370c45c90!8m2!3d28.6678874!4d77.1025129?authuser=0&hl=en&rclk=1,28.6678874,77.1025129
Velocity Fitness Clinic (Home Care)Dr. ANKUR,Physical therapist,"House No 116,Pocket, B6, Sector 3, Rohini, Delhi, 110085, India",https://www.google.co.kr/maps/place/Velocity+Fitness+Clinic+(Home+Care)Dr.+ANKUR/data=!4m5!3m4!1s0x390d03e24fb94e99:0xcf80384610016f5e!8m2!3d28.7041257!4d77.106746?authuser=0&hl=en&rclk=1,28.7041257,77.106746
Fitness World,Corporate office,"129, D Block, Sector 63, Noida, Uttar Pradesh 201307, India",https://www.google.co.kr/maps/place/Fitness+World/data=!4m5!3m4!1s0x390cef3bcca2cdf3:0x23da768c9a604163!8m2!3d28.6309127!4d77.3823392?authuser=0&hl=en&rclk=1,28.6309127,77.3823392
INDIA RUNNER www.indiarunner.com,Sports association,"INDIA RUNNER h.no, 38, Pocket 9, Sector 23, Rohini, New Delhi, Delhi 110085, India",https://www.google.co.kr/maps/place/INDIA+RUNNER+www.indiarunner.com/data=!4m5!3m4!1s0x390d075703574149:0xe685adaa0fa735d4!8m2!3d28.7241911!4d77.0832217?authuser=0&hl=en&rclk=1,28.7241911,77.0832217
Clonko,Sports accessories wholesaler,"B-48, Mangolpuri Industrial Area Phase II, Phase 2, Pocket A, Industrial Area, Mangolpuri S Block, Delhi, 110034, India",https://www.google.co.kr/maps/place/Clonko/data=!4m5!3m4!1s0x390ceff90fed0335:0xf7a5db385383acf4!8m2!3d28.688155!4d77.099456?authuser=0&hl=en&rclk=1,28.688155,77.099456
