Company_Name,Category,Address,Url,Latitude,Longitude,Territory
Evergreen Fitness India- Fitness Class |Gym center in South Kolkata,Gym,"Raksha Kali Mandir, 82/C, Karunamoyee Ghat Road(Tollygunge Land Mark, Kolkata, West Bengal 700082, India",https://www.google.co.kr/maps/place/Evergreen+Fitness+India-+Fitness+Class+%7CGym+center+in+South+Kolkata/data=!4m5!3m4!1s0x3a0271939a9022d9:0xcc7b2fd4e0b3f7ec!8m2!3d22.4849269!4d88.336153?authuser=0&hl=en&rclk=1,22.4849269,88.336153,West Bengal
Gym centre,Fitness center,"NH 116B, Panskura, West Bengal 721152, India",https://www.google.co.kr/maps/place/Gym+centre/data=!4m5!3m4!1s0x3a02bb59e9759859:0x12a2341959339d40!8m2!3d22.3873429!4d87.7430683?authuser=0&hl=en&rclk=1,22.3873429,87.7430683,West Bengal
Fitness First,Gym,"90a, Beltala Rd, Bakul Bagan, Bhowanipore, Kolkata, West Bengal 700025, India",https://www.google.co.kr/maps/place/Fitness+First/data=!4m5!3m4!1s0x3a027730e1d7a281:0x71bb8aa252f26ab8!8m2!3d22.5250217!4d88.3496161?authuser=0&hl=en&rclk=1,22.5250217,88.3496161,West Bengal
Pok√©mon gym,Gym,"8, Karl Marx Sarani, Orpan Gang Market, Khidirpur, Kolkata, West Bengal 700023, India",https://www.google.co.kr/maps/place/Pok%C3%A9mon+gym/data=!4m5!3m4!1s0x3a0277cf07a59659:0xc26847da0a01e471!8m2!3d22.5413876!4d88.3263774?authuser=0&hl=en&rclk=1,22.5413876,88.3263774,West Bengal
Fitness first,Yoga studio,"47, Shakespeare Sarani Rd, Mullick Bazar, Elgin, Kolkata, West Bengal 700071, India",https://www.google.co.kr/maps/place/Fitness+first/data=!4m5!3m4!1s0x3a0277174ff15bcf:0x7a2bbdd3f17d1b6f!8m2!3d22.5442538!4d88.3598272?authuser=0&hl=en&rclk=1,22.5442538,88.3598272,West Bengal
DANSCRIPTION FITNESS,Fitness center,"KUTUBPUR, Babupara, Malda, West Bengal 732101, India",https://www.google.co.kr/maps/place/DANSCRIPTION+FITNESS/data=!4m5!3m4!1s0x39fafd047312aca3:0x5b405db0e4fc2b57!8m2!3d25.0070817!4d88.1491474?authuser=0&hl=en&rclk=1,25.0070817,88.1491474,West Bengal
Fitway the way of fitness,Gym,"2nd Floor of United Bank of India, Hatiara Rd, Jyangra, Kalitala, Kolkata, West Bengal 700159, India",https://www.google.co.kr/maps/place/Fitway+the+way+of+fitness/data=!4m5!3m4!1s0x3a0275875c452eb9:0xdffc9fe26e52ace1!8m2!3d22.6129255!4d88.4380692?authuser=0&hl=en&rclk=1,22.6129255,88.4380692,West Bengal
Fitness first,Fitness center,"Shamapally more, Jayasree park, behala, kolkata -700034, Kolkata, West Bengal 700034, India",https://www.google.co.kr/maps/place/Fitness+first/data=!4m5!3m4!1s0x3a02709ff5fff59b:0x31819b01c4733267!8m2!3d22.492011!4d88.324846?authuser=0&hl=en&rclk=1,22.492011,88.324846,West Bengal
Fitness first,Fitness center,"Shakherbazaar, behala, kolkata 8, Kolkata, West Bengal 700008, India",https://www.google.co.kr/maps/place/Fitness+first/data=!4m5!3m4!1s0x3a027a6fafffff91:0x5a4ce144c9937f34!8m2!3d22.4822655!4d88.3123162?authuser=0&hl=en&rclk=1,22.4822655,88.3123162,West Bengal
Fit india gym,Fitness center,"Santoshpur Station Connector, Santoshpur Co-operative Society, Akra, Makalhati Mauza, Kolkata, West Bengal 700066, India",https://www.google.co.kr/maps/place/Fit+india+gym/data=!4m5!3m4!1s0x3a02796fd7e4190d:0xa81ef7748b7a394a!8m2!3d22.524588!4d88.2720271?authuser=0&hl=en&rclk=1,22.524588,88.2720271,West Bengal
Anytime fitness,Gym,"prangan 2nd floor, DD 7, Sector 1, Bidhannagar, Kolkata, West Bengal 700064, India",https://www.google.co.kr/maps/place/Anytime+fitness/data=!4m5!3m4!1s0x3a0275b0afb70ca3:0x50f89efba0e97a02!8m2!3d22.5892553!4d88.4110932?authuser=0&hl=en&rclk=1,22.5892553,88.4110932,West Bengal
Fitness First,Fitness center,"No 18, Diamond Harbour Road, Near Axis Bank, Kolkata, West Bengal 700008, India",https://www.google.co.kr/maps/place/Fitness+First/data=!4m5!3m4!1s0x3a027a8c48b0012d:0x4388418111d8efd1!8m2!3d22.459761!4d88.30787?authuser=0&hl=en&rclk=1,22.459761,88.30787,West Bengal
WTF,Gym,"2, Gauri Shankar Lane, Kolkata, West Bengal 700006, India",https://www.google.co.kr/maps/place/WTF/data=!4m5!3m4!1s0x3a027634c1f18d35:0xd41084712f91dd23!8m2!3d22.5919072!4d88.3639229?authuser=0&hl=en&rclk=1,22.5919072,88.3639229,West Bengal
MAX BURN FITNESS,Gym,"State bank road, Dalkhola, West Bengal 854317, India",https://www.google.co.kr/maps/place/MAX+BURN+FITNESS/data=!4m5!3m4!1s0x39e5477e8a1b71cb:0xe1ebac363d0a35d9!8m2!3d25.8765201!4d87.8438218?authuser=0&hl=en&rclk=1,25.8765201,87.8438218,West Bengal
The Calcutta Fitness Studio Behala,Gym,"1, Motilal Gupta Rd, Sakher Bazar, Behala, Kolkata, West Bengal 700008, India",https://www.google.co.kr/maps/place/The+Calcutta+Fitness+Studio+Behala/data=!4m5!3m4!1s0x3a027b9486b862dd:0x36e400e4b97f0aa9!8m2!3d22.4820358!4d88.3168039?authuser=0&hl=en&rclk=1,22.4820358,88.3168039,West Bengal
Core Fitness gym,Gym,"3+4, Ground Floor, Kashinath Chatterjee Ln, Naora, Shibpur, Howrah, West Bengal 711102, India",https://www.google.co.kr/maps/place/Core+Fitness+gym/data=!4m5!3m4!1s0x3a02782c2af5bc53:0xb33db7c00ea011c2!8m2!3d22.5693634!4d88.3168032?authuser=0&hl=en&rclk=1,22.5693634,88.3168032,West Bengal
Rahul's Fitness Point Unisex Gym,Fitness center,"112, N.S.Bose Road , Kalitala , Rajpur, near Old State Bank of India Building, Kolkata, West Bengal 700149, India",https://www.google.co.kr/maps/place/Rahul's+Fitness+Point+Unisex+Gym/data=!4m5!3m4!1s0x3a02718ddf580eb7:0x8884e1425fe66a84!8m2!3d22.4868168!4d88.3515783?authuser=0&hl=en&rclk=1,22.4868168,88.3515783,West Bengal
G-One Fitness,Gym,"200, Panchanantala Rd, Kadam Tala, Howrah, West Bengal 711101, India",https://www.google.co.kr/maps/place/G-One+Fitness/data=!4m5!3m4!1s0x3a0277d573a3d365:0x949181b0b4a2c0d0!8m2!3d22.5856813!4d88.3276236?authuser=0&hl=en&rclk=1,22.5856813,88.3276236,West Bengal
Pabna Colony Multi Gym,Gym,"Pabna Colony Rd, Chakdaha, West Bengal 741222, India",https://www.google.co.kr/maps/place/Pabna+Colony+Multi+Gym/data=!4m5!3m4!1s0x39f8c161da535b7f:0x9acde9d00f166a7a!8m2!3d23.0893864!4d88.5340869?authuser=0&hl=en&rclk=1,23.0893864,88.5340869,West Bengal
Friction Gym,Fitness center,"88 Shyama Prasad Mukherjee Road Landmark: Above Central Bank of India To The Left of Bhowanipore P. S, next to Ashutosh College, opposite Chittaranjan seva sadan, Kolkata, West Bengal 700026, India",https://www.google.co.kr/maps/place/Friction+Gym/data=!4m5!3m4!1s0x3a0277740a90a87b:0x21577b56ddf10ef!8m2!3d22.5260821!4d88.346096?authuser=0&hl=en&rclk=1,22.5260821,88.346096,West Bengal
Raw Fitness Studio: Best Gym in South Kolkata,Gym,"9/1B, Bijoygarh, Jadavpur, Kolkata, West Bengal 700032, India",https://www.google.co.kr/maps/place/Raw+Fitness+Studio:+Best+Gym+in+South+Kolkata/data=!4m5!3m4!1s0x3a0271ea5e84aefb:0x227852948e928a5!8m2!3d22.491992!4d88.364665?authuser=0&hl=en&rclk=1,22.491992,88.364665,West Bengal
Grit Fitness,Gym,"174, C.R Avenue, Chittaranjan Avenue, Shyam Market 1st Floor , Ram Mandir, beside Mahajati Sadan, Kolkata, West Bengal 700007, India",https://www.google.co.kr/maps/place/Grit+Fitness/data=!4m5!3m4!1s0x3a0277b4a1791659:0xbe24d16746325296!8m2!3d22.5821031!4d88.3617356?authuser=0&hl=en&rclk=1,22.5821031,88.3617356,West Bengal
LIFE THE FITNESS STUDIO,Gym,"36/21, Chandra Nath Roy Rd, Panchanna Pally, Topsia, Kolkata, West Bengal 700039, India",https://www.google.co.kr/maps/place/LIFE+THE+FITNESS+STUDIO/data=!4m5!3m4!1s0x3a0276b9b266f8b1:0x706065e411710a1d!8m2!3d22.5305243!4d88.3848049?authuser=0&hl=en&rclk=1,22.5305243,88.3848049,West Bengal
Supremacy India- Muaythai Gym,Muay Thai boxing gym,"studio 86B, The, 3, Seal Lane, Tangra, Kolkata, West Bengal 700046, India",https://www.google.co.kr/maps/place/Supremacy+India-+Muaythai+Gym/data=!4m5!3m4!1s0x3a02779028ca22c3:0x7a36a4ad7e19c666!8m2!3d22.5427291!4d88.3854533?authuser=0&hl=en&rclk=1,22.5427291,88.3854533,West Bengal
Vivekananda Fitness,Gym,"Shitala Mandir, 43, Dhapa Rd, near Dhapa, Tangra, Kolkata, West Bengal 700105, India",https://www.google.co.kr/maps/place/Vivekananda+Fitness/data=!4m5!3m4!1s0x3a027780458f1cb5:0xf4a895885c8798b4!8m2!3d22.5527689!4d88.3947519?authuser=0&hl=en&rclk=1,22.5527689,88.3947519,West Bengal
Fitness Code,Fitness center,"391, 122, Prince Anwar Shah Rd, Katju Nagar, Lake Gardens, Kolkata, West Bengal 700068, India",https://www.google.co.kr/maps/place/Fitness+Code/data=!4m5!3m4!1s0x3a0270d84435eb1f:0x8c8758cda4f30f40!8m2!3d22.5020646!4d88.3628054?authuser=0&hl=en&rclk=1,22.5020646,88.3628054,West Bengal
FITNESS POINT,Gym,"80A/7, Topsia Rd, Topsia, Kolkata, West Bengal 700039, India",https://www.google.co.kr/maps/place/FITNESS+POINT/data=!4m5!3m4!1s0x3a0277196c828057:0x3cc7b069808add2f!8m2!3d22.5339228!4d88.3845606?authuser=0&hl=en&rclk=1,22.5339228,88.3845606,West Bengal
"The Fitness World, NEWTOWN",Gym,"Shantiniketan Apartment Mahisgot, Krishnapur, Newtown, Kolkata, West Bengal 700102, India","https://www.google.co.kr/maps/place/The+Fitness+World,+NEWTOWN/data=!4m5!3m4!1s0x3a0275096f986a6d:0x45dadc78c13a3a4!8m2!3d22.5814965!4d88.4434545?authuser=0&hl=en&rclk=1",22.5814965,88.4434545,West Bengal
Ignite Fitness,Gym,"BD 25, 2nd Floor, BD Block, Sector 1, Bidhannagar, Kolkata, West Bengal 700064, India",https://www.google.co.kr/maps/place/Ignite+Fitness/data=!4m5!3m4!1s0x3a02755106d86bbf:0x3a23f52de9f4c006!8m2!3d22.5963532!4d88.4083295?authuser=0&hl=en&rclk=1,22.5963532,88.4083295,West Bengal
Dynamic Multigym,Gym,"29, SH 1, Ganguli Para, Shyamnagar, Bhatpara, West Bengal 743127, India",https://www.google.co.kr/maps/place/Dynamic+Multigym/data=!4m5!3m4!1s0x39f890c1cf6e0ec3:0xcf349094042d6994!8m2!3d22.8298734!4d88.3826336?authuser=0&hl=en&rclk=1,22.8298734,88.3826336,West Bengal
Majumder's Workout,Gym,"Pansila, Kolkata, West Bengal 700112, India",https://www.google.co.kr/maps/place/Majumder's+Workout/data=!4m5!3m4!1s0x39f89bf452726b37:0x58d9b877b6ce1f7c!8m2!3d22.7115864!4d88.3856495?authuser=0&hl=en&rclk=1,22.7115864,88.3856495,West Bengal
Aritra health care GYM (FULL AC),Gym,"Bus Stop, 1500 More, Iman Kalyan Sarani, Bidhannagar, Durgapur, West Bengal 713212, India",https://www.google.co.kr/maps/place/Aritra+health+care+GYM+(FULL+AC)/data=!4m5!3m4!1s0x39f7713c4251a529:0xf9194b00095fa98f!8m2!3d23.5177911!4d87.3585381?authuser=0&hl=en&rclk=1,23.5177911,87.3585381,West Bengal
Sturdy Fitness,Fitness center,"1, Nandlal Rupsa Apartment Meherali Mondal Street, Pearabagan, Tegharia, Baguiati, Kolkata, West Bengal 700157, India",https://www.google.co.kr/maps/place/Sturdy+Fitness/data=!4m5!3m4!1s0x39f89f1f34c06d1b:0x48715a0fe6b185e2!8m2!3d22.6210581!4d88.4396455?authuser=0&hl=en&rclk=1,22.6210581,88.4396455,West Bengal
Amplified Fitness Centre,Gym,"63/1/2B, Sarat Bose Rd, opp. Motor Vehicles, Bhowanipore, Kolkata, West Bengal 700025, India",https://www.google.co.kr/maps/place/Amplified+Fitness+Centre/data=!4m5!3m4!1s0x3a02779a7613b1d9:0x533688cc60f18439!8m2!3d22.5293914!4d88.3524161?authuser=0&hl=en&rclk=1,22.5293914,88.3524161,West Bengal
BODY Fitness GYM,Gym,"kali Mandir, Diamond Harbour Rd, opposite Amtala, Enayetnagar, Kolkata, West Bengal 743503, India",https://www.google.co.kr/maps/place/BODY+Fitness+GYM/data=!4m5!3m4!1s0x3a026510bd36d749:0xdc88295538577c6!8m2!3d22.3711038!4d88.2721259?authuser=0&hl=en&rclk=1,22.3711038,88.2721259,West Bengal
Roy's Fitness,Fitness center,"B-208, Hometown building, opposite of Panjab national bank, Kalindi Housing Estate, bazar, Kolkata, West Bengal 700089, India",https://www.google.co.kr/maps/place/Roy's+Fitness/data=!4m5!3m4!1s0x3a027730e2259263:0x82593f400ef6d091!8m2!3d22.6111645!4d88.4016634?authuser=0&hl=en&rclk=1,22.6111645,88.4016634,West Bengal
STARMARK FITNESS STUDIO PRIVATE LIMITED,Gym,"85 PRINCE ANWAR SHAH ROAD, FIRST FLOOR, CITY HIGH BUILDING, near Navina Cinema Hall, Kolkata, West Bengal 700033, India",https://www.google.co.kr/maps/place/STARMARK+FITNESS+STUDIO+PRIVATE+LIMITED/data=!4m5!3m4!1s0x3a02719e82c50493:0xd2dfd4e08a81d1f2!8m2!3d22.5010793!4d88.3482962?authuser=0&hl=en&rclk=1,22.5010793,88.3482962,West Bengal
Glacier Gym,Gym,"274, Indira Gandhi Rd, beside Netaji Statue, Mansa Tala, Place, Konnagar, Kolkata, West Bengal 712245, India",https://www.google.co.kr/maps/place/Glacier+Gym/data=!4m5!3m4!1s0x39f89c9eb6d4b507:0x5d2ece71fcf2ad9!8m2!3d22.7014123!4d88.3472541?authuser=0&hl=en&rclk=1,22.7014123,88.3472541,West Bengal
Rush Fitness Studio,Fitness center,"144, Remount Rd, opp. to Toni and Guy Salon, Majherhat, Alipore, Kolkata, West Bengal 700027, India",https://www.google.co.kr/maps/place/Rush+Fitness+Studio/data=!4m5!3m4!1s0x3a0279fba1af0ee1:0x35daadd95340dc2!8m2!3d22.5244828!4d88.3177319?authuser=0&hl=en&rclk=1,22.5244828,88.3177319,West Bengal
Oxyzone Fitness,Gym,"3rd Floor, Shyam Sundar Complex Baruipur Station Road, Baruipur, near ASMA Hotel & QUALITY Restaurant, Kolkata, West Bengal 700144, India",https://www.google.co.kr/maps/place/Oxyzone+Fitness/data=!4m5!3m4!1s0x3a0275dc9c517b15:0x92f5f515cad3231f!8m2!3d22.3644741!4d88.4302288?authuser=0&hl=en&rclk=1,22.3644741,88.4302288,West Bengal
Rush Fitness Studio,Gym,"kalighat metro station, 163, SP Mukherjee Road, Thaper House - 1st Floor Near, Kolkata, West Bengal 700026, India",https://www.google.co.kr/maps/place/Rush+Fitness+Studio/data=!4m5!3m4!1s0x3a027734da8bfb37:0xfffd9f0519d295e9!8m2!3d22.5105093!4d88.3459659?authuser=0&hl=en&rclk=1,22.5105093,88.3459659,West Bengal
M.S Fitness Gym- Best Gym in Howrah,Gym,"36/22 Harachand Mukherjee lane Howrah near Sir Syed Ahmed High School, Howrah, West Bengal 711101, India",https://www.google.co.kr/maps/place/M.S+Fitness+Gym-+Best+Gym+in+Howrah/data=!4m5!3m4!1s0x3a0277ad30d6d2ef:0x7f4e909bb517532!8m2!3d22.5932856!4d88.3319526?authuser=0&hl=en&rclk=1,22.5932856,88.3319526,West Bengal
Being Strong Fitness Studio,Gym,"34/A, Picnic Garden Rd, Kustia, Kolkata, West Bengal 700039, India",https://www.google.co.kr/maps/place/Being+Strong+Fitness+Studio/data=!4m5!3m4!1s0x3a027767daef658f:0xe6b2bd7930f1f359!8m2!3d22.5289851!4d88.3753987?authuser=0&hl=en&rclk=1,22.5289851,88.3753987,West Bengal
FIT & FINE FITNESS CENTRE,Fitness center,"SARKAR PARA , SABJI MARKET, Purulia, West Bengal 723103, India",https://www.google.co.kr/maps/place/FIT+%26+FINE+FITNESS+CENTRE/data=!4m5!3m4!1s0x39f67d24c3bd7811:0x2014e77403ccca1b!8m2!3d23.3281242!4d86.373813?authuser=0&hl=en&rclk=1,23.3281242,86.373813,West Bengal
Dev Fitness Point.,Gym,"Tola Fatak Rd, Kamarpara More, Taldanga, bazar, Chinsurah, West Bengal 712101, India",https://www.google.co.kr/maps/place/Dev+Fitness+Point./data=!4m5!3m4!1s0x39f8915ac56dccdf:0x7ea46e1b3329ef08!8m2!3d22.8827841!4d88.3887216?authuser=0&hl=en&rclk=1,22.8827841,88.3887216,West Bengal
BODY LIFE GYM,Gym,"CA 198, CA Block, Sector 1, Bidhannagar, Kolkata, West Bengal 700064, India",https://www.google.co.kr/maps/place/BODY+LIFE+GYM/data=!4m5!3m4!1s0x3a02767530f436ff:0xcc25d7306999f6ac!8m2!3d22.587452!4d88.4000196?authuser=0&hl=en&rclk=1,22.587452,88.4000196,West Bengal
Anytime Fitness,Gym,"3rd Floor, Unit B, New Town Square, near City Centre 2, Chinar Park, Atghara, Newtown, Kolkata, West Bengal 700136, India",https://www.google.co.kr/maps/place/Anytime+Fitness/data=!4m5!3m4!1s0x39f89f799029dd1d:0xdaa05f69e7112cde!8m2!3d22.6237081!4d88.4426597?authuser=0&hl=en&rclk=1,22.6237081,88.4426597,West Bengal
Anytime Fitness,Fitness center,"6th Floor,138 Subh Sri, opposite Deshapriya Park East, Kolkata, West Bengal 700029, India",https://www.google.co.kr/maps/place/Anytime+Fitness/data=!4m5!3m4!1s0x3a02774f6b35cfc3:0xfb4b649e04acd57a!8m2!3d22.517303!4d88.3532583?authuser=0&hl=en&rclk=1,22.517303,88.3532583,West Bengal
Phoenix Fitness Studio,Gym,"148, Jessore Road, 3rd floor Royal guest house building, Kolkata, West Bengal 700074, India",https://www.google.co.kr/maps/place/Phoenix+Fitness+Studio/data=!4m5!3m4!1s0x39f89e1b09b7949d:0xfcdf0629673a56bf!8m2!3d22.620032!4d88.413647?authuser=0&hl=en&rclk=1,22.620032,88.413647,West Bengal
Rave Fitness Studio - Rated #1 Gym & Fitness Centre in Kolkata,Gym,"220, Acharya Jagadish Chandra Bose Rd, Elgin, Kolkata, West Bengal 700017, India",https://www.google.co.kr/maps/place/Rave+Fitness+Studio+-+Rated+%231+Gym+%26+Fitness+Centre+in+Kolkata/data=!4m5!3m4!1s0x3a02771866e2a497:0x5954d05cade3c9b3!8m2!3d22.541756!4d88.359678?authuser=0&hl=en&rclk=1,22.541756,88.359678,West Bengal
Fitness Fighter Gym,Gymnasium Cz,"Fuljhore Road, Fuljhore, Kaliganj, Durgapur, West Bengal 713206, India",https://www.google.co.kr/maps/place/Fitness+Fighter+Gym/data=!4m5!3m4!1s0x39f771853a173365:0x2f010005956319ef!8m2!3d23.5373403!4d87.3379326?authuser=0&hl=en&rclk=1,23.5373403,87.3379326,West Bengal
Mettle Fitness Studio,Gym,"15, Lake Place Rd, Lake Market, Kalighat, Kolkata, West Bengal 700029, India",https://www.google.co.kr/maps/place/Mettle+Fitness+Studio/data=!4m5!3m4!1s0x3a0270cc9513a5d7:0x458e07815fe396e7!8m2!3d22.5149509!4d88.3496811?authuser=0&hl=en&rclk=1,22.5149509,88.3496811,West Bengal
Fitness Hub,Gym,"GROUND FLOOR OF SHREEMAA APARTMENT, WARD NO 21, END OF, Rashbehari Sarani, Rabindra Sarani, Siliguri, West Bengal 734006, India",https://www.google.co.kr/maps/place/Fitness+Hub/data=!4m5!3m4!1s0x39e44199979156f7:0x270982bf86f768fe!8m2!3d26.7119324!4d88.4435026?authuser=0&hl=en&rclk=1,26.7119324,88.4435026,West Bengal
Physiomax GYM,Gym,"CL-236, 1st FLOOR, SECTOR-II, SALTLAKE CITY,, Kolkata, West Bengal 700091, India",https://www.google.co.kr/maps/place/Physiomax+GYM/data=!4m5!3m4!1s0x3a0275a38d30ca2b:0xe4e117a2affc290e!8m2!3d22.583157!4d88.428757?authuser=0&hl=en&rclk=1,22.583157,88.428757,West Bengal
COMBAT FITNESS,Gym,"2N, KC Ghosh Rd, Kolkata, West Bengal 700050, India",https://www.google.co.kr/maps/place/COMBAT+FITNESS/data=!4m5!3m4!1s0x39f89db32cb430eb:0x76c6050316fb453f!8m2!3d22.630415!4d88.380208?authuser=0&hl=en&rclk=1,22.630415,88.380208,West Bengal
A1 Fitness World and Multi Gym,Gym,"Barajaguli Water Tank, Kanchrapara - Haringhata Rd, Dighapara, West Bengal 741221, India",https://www.google.co.kr/maps/place/A1+Fitness+World+and+Multi+Gym/data=!4m5!3m4!1s0x39f8bfca409edf8b:0xaaae8e5720b451f7!8m2!3d22.9452774!4d88.544226?authuser=0&hl=en&rclk=1,22.9452774,88.544226,West Bengal
Retone Fitness Studio,Gym,"810, Motilal Gupta Rd, Sodepur Kalitala, Sukanta Pally, Barisha, Kolkata, West Bengal 700082, India",https://www.google.co.kr/maps/place/Retone+Fitness+Studio/data=!4m5!3m4!1s0x3a027173c0786cc3:0xfc898e0ee2391aa9!8m2!3d22.4845112!4d88.3302569?authuser=0&hl=en&rclk=1,22.4845112,88.3302569,West Bengal
Rival Fitness Studio,Gym,"1/280, Jodhpur Park Rd, Jodhpur Park, Kolkata, West Bengal 700068, India",https://www.google.co.kr/maps/place/Rival+Fitness+Studio/data=!4m5!3m4!1s0x3a02714d69ba6213:0x45e131c8ee13bbc7!8m2!3d22.504389!4d88.3629721?authuser=0&hl=en&rclk=1,22.504389,88.3629721,West Bengal
SQUAT - THE FITNESS STUDIO,Fitness center,"Shah Building, Kuikota Road, Sepoybazaar Rd, Midnapore, West Bengal 721101, India",https://www.google.co.kr/maps/place/SQUAT+-+THE+FITNESS+STUDIO/data=!4m5!3m4!1s0x3a1d5b1525c976af:0x2ab39225ed238e95!8m2!3d22.432685!4d87.322344?authuser=0&hl=en&rclk=1,22.432685,87.322344,West Bengal
Gold's Gym,Gym,"Andromeda Building, 8th Floor, DD Block, DD 30, Bidhannagar, Kolkata, West Bengal 700064, India",https://www.google.co.kr/maps/place/Gold's+Gym/data=!4m5!3m4!1s0x3a0275e7a03dc81d:0x2d9fa05dccbb7e8c!8m2!3d22.5897253!4d88.4088409?authuser=0&hl=en&rclk=1,22.5897253,88.4088409,West Bengal
NO LIMITS FITNESS,Gym,"6, Durgadas Singha Lane, Khuthi lane, Howrah, West Bengal 711101, India",https://www.google.co.kr/maps/place/NO+LIMITS+FITNESS/data=!4m5!3m4!1s0x3a0277c273df6755:0x2d7809ecad3a7eb5!8m2!3d22.5797456!4d88.3309048?authuser=0&hl=en&rclk=1,22.5797456,88.3309048,West Bengal
FITFLYERS INDIA,Fitness center,"6, ganesh, Kashinath Chatterjee Ln, Brahman Para, Naora, Shibpur, Howrah, West Bengal 711102, India",https://www.google.co.kr/maps/place/FITFLYERS+INDIA/data=!4m5!3m4!1s0x3a02797fadc8923f:0x9b0588b69cbe5dd9!8m2!3d22.5703195!4d88.3138238?authuser=0&hl=en&rclk=1,22.5703195,88.3138238,West Bengal
StyleFit - Ladies Fitness center cum Multi Gym at Singur,Gym,"Ratanpur 2, Nabapally, Daluigacha, Singur, West Bengal 712409, India",https://www.google.co.kr/maps/place/StyleFit+-+Ladies+Fitness+center+cum+Multi+Gym+at+Singur/data=!4m5!3m4!1s0x39f8896559a3a0c3:0x52906d712a570e60!8m2!3d22.8163546!4d88.2326433?authuser=0&hl=en&rclk=1,22.8163546,88.2326433,West Bengal
Soul Fitness,Gym,"TP Banerjee Rd, Rampurhat, West Bengal 731233, India",https://www.google.co.kr/maps/place/Soul+Fitness/data=!4m5!3m4!1s0x39fa1f07596f4f25:0x737826a1e8b2d4a!8m2!3d24.1690791!4d87.7867575?authuser=0&hl=en&rclk=1,24.1690791,87.7867575,West Bengal
Santipur Exercise Organization GYM,Gym,"1, Sitanath Goswami Ln, Kashyap Para, Santipur, West Bengal 741404, India",https://www.google.co.kr/maps/place/Santipur+Exercise+Organization+GYM/data=!4m5!3m4!1s0x39f8e6e28924c757:0x2bd65f5604f31fa1!8m2!3d23.2463173!4d88.4395967?authuser=0&hl=en&rclk=1,23.2463173,88.4395967,West Bengal
Ushagram Multi-Gym,Gym,"Ushagram Birnagar, Nazirpur Rd, Nazirpur, Birnagar, West Bengal 741127, India",https://www.google.co.kr/maps/place/Ushagram+Multi-Gym/data=!4m5!3m4!1s0x39f8dc6fd17072e5:0x8dddfeca7bacd678!8m2!3d23.2472239!4d88.5464439?authuser=0&hl=en&rclk=1,23.2472239,88.5464439,West Bengal
Muscle factory gym,Gym,"20 Shanti Niketan, Round Tank Ln, Mullick Fatak, Choura Bustee, Shibpur, Howrah, West Bengal 711101, India",https://www.google.co.kr/maps/place/Muscle+factory+gym/data=!4m5!3m4!1s0x3a0277901b26abc1:0xe6fbc0b9da149101!8m2!3d22.5763062!4d88.3346131?authuser=0&hl=en&rclk=1,22.5763062,88.3346131,West Bengal
Ukhra Multi Gym & Fitness Centre,Gym,"Unnamed Road, Natun Hat Tala, Ukhra, West Bengal 713363, India",https://www.google.co.kr/maps/place/Ukhra+Multi+Gym+%26+Fitness+Centre/data=!4m5!3m4!1s0x39f76b4cd49631f3:0xdea8b980341ae5d8!8m2!3d23.6516715!4d87.2442679?authuser=0&hl=en&rclk=1,23.6516715,87.2442679,West Bengal
TIME TO FITNESS GYM,Gym,"Harijan Rd, near bhotay dhara, Kalimpong, West Bengal 734301, India",https://www.google.co.kr/maps/place/TIME+TO+FITNESS+GYM/data=!4m5!3m4!1s0x39e4238b2615b26b:0x3e021592dfad4af1!8m2!3d27.0696015!4d88.4730941?authuser=0&hl=en&rclk=1,27.0696015,88.4730941,West Bengal
Paul fitness GYM,Gym,"GMM9+QF3, Raghunathpur, West Bengal 723133, India",https://www.google.co.kr/maps/place/Paul+fitness+GYM/data=!4m5!3m4!1s0x39f6f184c123f9bd:0xfc4e1b04ed7a6bd2!8m2!3d23.5343795!4d86.6686635?authuser=0&hl=en&rclk=1,23.5343795,86.6686635,West Bengal
SD Fitness Studio,Gym,"B37, 1A, Ramkrishna Upanibesh, Jadavpur, Kolkata, West Bengal 700092, India",https://www.google.co.kr/maps/place/SD+Fitness+Studio/data=!4m5!3m4!1s0x3a0271987f8f0cbf:0x8007374c0038228f!8m2!3d22.4892883!4d88.3736476?authuser=0&hl=en&rclk=1,22.4892883,88.3736476,West Bengal
Rival Fitness Studio,Gym,"Ground Floor, 118, Raipur Rd E, Regent Estate, Kolkata, West Bengal 700092, India",https://www.google.co.kr/maps/place/Rival+Fitness+Studio/data=!4m5!3m4!1s0x3a02711bde9e6655:0xf3b3eeb7e4c0b7bc!8m2!3d22.4861285!4d88.3690734?authuser=0&hl=en&rclk=1,22.4861285,88.3690734,West Bengal
Soumens Workout-Kaikhali-Online Fitness Center|Slimming Center|Yoga Classes|Aerobics Classes|Zumba Classes,Fitness center,"VIP Abasan F/N-C, 1st Floor Kaikhali, (Beside UBI Bank Kaikhali Br, Kolkata, West Bengal 700052, India",https://www.google.co.kr/maps/place/Soumens+Workout-Kaikhali-Online+Fitness+Center%7CSlimming+Center%7CYoga+Classes%7CAerobics+Classes%7CZumba+Classes/data=!4m5!3m4!1s0x39f89e30c6f07f31:0xdc51657402448717!8m2!3d22.6288304!4d88.4311275?authuser=0&hl=en&rclk=1,22.6288304,88.4311275,West Bengal
Fitnestic,Gym,"56, Beharilal Ghosh Rd, SP Paul Pally, Kolkata, West Bengal 700057, India",https://www.google.co.kr/maps/place/Fitnestic/data=!4m5!3m4!1s0x39f89dd5fc0fe5d9:0xb57860238ec424ac!8m2!3d22.6668781!4d88.3762123?authuser=0&hl=en&rclk=1,22.6668781,88.3762123,West Bengal
Road To Fitness,Gym,"70, Beck Bagan Row 1st Floor Opposite Quest Mall (Gate, Num 5, Kolkata, West Bengal 700017, India",https://www.google.co.kr/maps/place/Road+To+Fitness/data=!4m5!3m4!1s0x3a0277ade54ddbaf:0xcb3342d3bb9f9e0d!8m2!3d22.5379895!4d88.3656829?authuser=0&hl=en&rclk=1,22.5379895,88.3656829,West Bengal
GYM Center,Gymnastics center,"XCJV+QRV, University Of Kalyani, Kalyani, West Bengal 741251, India",https://www.google.co.kr/maps/place/GYM+Center/data=!4m5!3m4!1s0x39f89528a66a578b:0x1190c267faa54bfb!8m2!3d22.9819814!4d88.4445427?authuser=0&hl=en&rclk=1,22.9819814,88.4445427,West Bengal
Indian Fitness Gym,Gym,"Raktima Rd, Bapuji Colony, Krishna Pally, Malda, West Bengal 732101, India",https://www.google.co.kr/maps/place/Indian+Fitness+Gym/data=!4m5!3m4!1s0x39fafdb1b79f6f5b:0x81c055912302ab32!8m2!3d24.9974205!4d88.132118?authuser=0&hl=en&rclk=1,24.9974205,88.132118,West Bengal
BNB Fitness,Gym,"Simul Apartment, 12 Simultala, Lane, Uttarpara, West Bengal 712232, India",https://www.google.co.kr/maps/place/BNB+Fitness/data=!4m5!3m4!1s0x39f89cee86aba1a1:0x88d466bc5aa7ed38!8m2!3d22.6766007!4d88.3506828?authuser=0&hl=en&rclk=1,22.6766007,88.3506828,West Bengal
Fitness Galaxy Gym,Fitness center,"Shop No. Beside, 50, Garia Station Rd, Panchasayar, Garia, Kolkata, West Bengal 700084, India",https://www.google.co.kr/maps/place/Fitness+Galaxy+Gym/data=!4m5!3m4!1s0x3a02722a89000001:0x6a4a9b05af99d8e7!8m2!3d22.4668914!4d88.4032404?authuser=0&hl=en&rclk=1,22.4668914,88.4032404,West Bengal
Gen Y Fitness Gym,Gym,"37, Ram Charan Sett Rd, muthood finance Santragachi, Santragachi, Ramrajatala, Howrah, West Bengal 711104, India",https://www.google.co.kr/maps/place/Gen+Y+Fitness+Gym/data=!4m5!3m4!1s0x3a02786a9a15a8ef:0xc2165c92d847fb5a!8m2!3d22.58733!4d88.303199?authuser=0&hl=en&rclk=1,22.58733,88.303199,West Bengal
Fitness factory gym,Gym,"Goodshed Rd, Khal Bill Math, Burdwan, West Bengal 713101, India",https://www.google.co.kr/maps/place/Fitness+factory+gym/data=!4m5!3m4!1s0x39f849c1867e30ab:0xe50540fa2e4fb124!8m2!3d23.2465887!4d87.8700028?authuser=0&hl=en&rclk=1,23.2465887,87.8700028,West Bengal
Gym And Exercise Centre,Gymnastics center,"33, Dharam Talla Ln, Belur, Bally, Howrah, West Bengal 711201, India",https://www.google.co.kr/maps/place/Gym+And+Exercise+Centre/data=!4m5!3m4!1s0x39f89d3fda823749:0x9cb0b3b24218fa76!8m2!3d22.6374397!4d88.3428964?authuser=0&hl=en&rclk=1,22.6374397,88.3428964,West Bengal
Force Gym,Gym,"26/1Z, Prasanna Kumar Tagore St, Kolkata, West Bengal 700006, India",https://www.google.co.kr/maps/place/Force+Gym/data=!4m5!3m4!1s0x3a0277c9af6d5eb1:0x2f8c33854c1fb680!8m2!3d22.5909698!4d88.3569719?authuser=0&hl=en&rclk=1,22.5909698,88.3569719,West Bengal
Buro Da's Gym,Gym,"700120, Talpukur, Math Para, Titagarh, Kolkata, West Bengal 700120, India",https://www.google.co.kr/maps/place/Buro+Da's+Gym/data=!4m5!3m4!1s0x39f89bb2e7272159:0x69c7889b2b67b632!8m2!3d22.7529918!4d88.3745632?authuser=0&hl=en&rclk=1,22.7529918,88.3745632,West Bengal
Rush Fitness Studio,Fitness center,"3A, Rammohan Mullick, Garden Lane,, Raikva Building - 5th Floor, On EM Bypass - Opp. Salt Lake Stadium, Kolkata, West Bengal 700010, India",https://www.google.co.kr/maps/place/Rush+Fitness+Studio/data=!4m5!3m4!1s0x3a0275d4b3877dfb:0x75d4f9c2a999c113!8m2!3d22.5634679!4d88.4070287?authuser=0&hl=en&rclk=1,22.5634679,88.4070287,West Bengal
Chitrak fitness parlour,Gym,"Udaypur, Belghoria, Kolkata, West Bengal 700049, India",https://www.google.co.kr/maps/place/Chitrak+fitness+parlour/data=!4m5!3m4!1s0x39f89de3129a5ad5:0x54c9fa61191c899b!8m2!3d22.6618152!4d88.3985726?authuser=0&hl=en&rclk=1,22.6618152,88.3985726,West Bengal
FitForLife,Fitness center,"IA-130, near Purbachal, Sector III, Bidhannagar, Kolkata, West Bengal 700097, India",https://www.google.co.kr/maps/place/FitForLife/data=!4m5!3m4!1s0x3a0275d053430fd1:0xa23649658b7b1c89!8m2!3d22.5729159!4d88.4093729?authuser=0&hl=en&rclk=1,22.5729159,88.4093729,West Bengal
Flex fitness gym .,Gym,"Dulmi nadiha, tata road, opp. sunil petrol pump, Purulia, West Bengal 723102, India",https://www.google.co.kr/maps/place/Flex+fitness+gym+./data=!4m5!3m4!1s0x39f67dbddf1c0051:0x83e8261e9c783394!8m2!3d23.3106173!4d86.357417?authuser=0&hl=en&rclk=1,23.3106173,86.357417,West Bengal
BODYCRAFT FITNESS STUDIO,Fitness center,"55, Baje Shibpur Road, Naora, Shibpur, Howrah, West Bengal 711102, India",https://www.google.co.kr/maps/place/BODYCRAFT+FITNESS+STUDIO/data=!4m5!3m4!1s0x3a0277876868093f:0x4a5702a273121b31!8m2!3d22.5719357!4d88.3226929?authuser=0&hl=en&rclk=1,22.5719357,88.3226929,West Bengal
Anulia Agrani Sangha Gym Center,Fitness center,"J26P+P9C, Ramchandrapur, West Bengal 711414, India",https://www.google.co.kr/maps/place/Anulia+Agrani+Sangha+Gym+Center/data=!4m5!3m4!1s0x39f87942643439a7:0xc6084fed33fdf42a!8m2!3d22.6118013!4d88.0358763?authuser=0&hl=en&rclk=1,22.6118013,88.0358763,West Bengal
R.B.Fitness 2,Gym,"21, N.S.Avenue, Serampore, West Bengal 712201, India",https://www.google.co.kr/maps/place/R.B.Fitness+2/data=!4m5!3m4!1s0x39f89bd0238f04f3:0xa7eb92073006b82b!8m2!3d22.7522086!4d88.3400593?authuser=0&hl=en&rclk=1,22.7522086,88.3400593,West Bengal
Health Wealth Gym,Gym,"3/18A, near Jagrani Club, Bijoygarh, Jadavpur, Kolkata, West Bengal 700032, India",https://www.google.co.kr/maps/place/Health+Wealth+Gym/data=!4m5!3m4!1s0x3a02711e36bd287b:0x17ce0d7c23549be5!8m2!3d22.4889915!4d88.3633578?authuser=0&hl=en&rclk=1,22.4889915,88.3633578,West Bengal
LIFE FITNESS :GYM/CARDIO/YOGA/ZUMBA(unisex),Gym,"Mirchak battala, Ward Number 19, , Malda, West Bengal 732101, WhatsApp, no,9775911266 / 8617572329, Malda, call, 9775911266, India",https://www.google.co.kr/maps/place/LIFE+FITNESS+:GYM%2FCARDIO%2FYOGA%2FZUMBA(unisex)/data=!4m5!3m4!1s0x39fafdc6eb4f23b9:0x6aa12fbf756bf752!8m2!3d25.0068662!4d88.1423062?authuser=0&hl=en&rclk=1,25.0068662,88.1423062,West Bengal
Muscle Fitness Gym 2,Gym,"67, Basanta Lal Saha Rd, Mahabirtala, Kalabagan, Tollygunge, Kolkata, West Bengal 700053, India",https://www.google.co.kr/maps/place/Muscle+Fitness+Gym+2/data=!4m5!3m4!1s0x3a02710f69460023:0xcb94ae6aa5826b9e!8m2!3d22.4987316!4d88.340088?authuser=0&hl=en&rclk=1,22.4987316,88.340088,West Bengal
Kaushiki Gym | Gym in South Kolkata | Fitness Centre in South Kolkata,Gym,"BL- SPD 2nd-FR, P, 630, Baghajatin Station Rd, Baghajatin Colony, Kolkata, West Bengal 700086, India",https://www.google.co.kr/maps/place/Kaushiki+Gym+%7C+Gym+in+South+Kolkata+%7C+Fitness+Centre+in+South+Kolkata/data=!4m5!3m4!1s0x3a02711175348a07:0x1cbc48e5c9e06ec7!8m2!3d22.4837287!4d88.3761071?authuser=0&hl=en&rclk=1,22.4837287,88.3761071,West Bengal
BODY-TECH,Gym,"Bejikhali Lane, Krishnanagar, West Bengal 741101, India",https://www.google.co.kr/maps/place/BODY-TECH/data=!4m5!3m4!1s0x39f9215aae3118c9:0x24f2414c27ca3f3!8m2!3d23.4027858!4d88.4918566?authuser=0&hl=en&rclk=1,23.4027858,88.4918566,West Bengal
Endorphins - Corrective Exercise Studio,Gym,"23/1, Rustamjee St, Ballygunge Place, Ballygunge, Kolkata, West Bengal 700019, India",https://www.google.co.kr/maps/place/Endorphins+-+Corrective+Exercise+Studio/data=!4m5!3m4!1s0x3a0276d7303aef0f:0xfb8a7163b625b0a3!8m2!3d22.5259161!4d88.3675402?authuser=0&hl=en&rclk=1,22.5259161,88.3675402,West Bengal
Cuts & Curves Fitness Studio,Fitness center,"Malancha, 159/1, Khudirampally, DVC More, Burdwan, West Bengal 713103, India",https://www.google.co.kr/maps/place/Cuts+%26+Curves+Fitness+Studio/data=!4m5!3m4!1s0x39f849ad64220ef1:0x2e9cb88a6f64a768!8m2!3d23.2239027!4d87.8842179?authuser=0&hl=en&rclk=1,23.2239027,87.8842179,West Bengal
R.P.DEY FITNESS (Multi Gym),Gym,"Khidirpur, Bethuadahari, West Bengal 741126, India",https://www.google.co.kr/maps/place/R.P.DEY+FITNESS+(Multi+Gym)/data=!4m5!3m4!1s0x39f910d97aacbae9:0x7487c566c814b22e!8m2!3d23.6069285!4d88.3888809?authuser=0&hl=en&rclk=1,23.6069285,88.3888809,West Bengal
AP fitness studio,Gym,"63, Christopher Road, Brindaban Garden, Seal Lane, Tangra, Kolkata, West Bengal 700046, India",https://www.google.co.kr/maps/place/AP+fitness+studio/data=!4m5!3m4!1s0x3a02771c778f7edf:0x4b85f473b3cfa99b!8m2!3d22.547473!4d88.3856?authuser=0&hl=en&rclk=1,22.547473,88.3856,West Bengal
Titanium Fitness Studio,Gym,"131/5, MB Rd, Ichapur, Howrah, West Bengal 711104, India",https://www.google.co.kr/maps/place/Titanium+Fitness+Studio/data=!4m5!3m4!1s0x3a02795e81f76ff3:0xdd0292e265e47eda!8m2!3d22.586374!4d88.3085816?authuser=0&hl=en&rclk=1,22.586374,88.3085816,West Bengal
o2 workout studio,Gym,"Rabindra Nath Tagore Rd, Sethcolony, Sahid Colony, Sodepur, Kolkata, West Bengal 700110, India",https://www.google.co.kr/maps/place/o2+workout+studio/data=!4m5!3m4!1s0x39f89d7fe1b324b3:0xa31c18587db9f629!8m2!3d22.6978104!4d88.3769907?authuser=0&hl=en&rclk=1,22.6978104,88.3769907,West Bengal
Sarkar Fitness,Gym,"157-Kelsons Complex, Sevoke Rd, Above Sarkar Sports, Siliguri, West Bengal 734003, India",https://www.google.co.kr/maps/place/Sarkar+Fitness/data=!4m5!3m4!1s0x39e44123a19ba72f:0x642b86cf4c82fc1e!8m2!3d26.7323333!4d88.417491?authuser=0&hl=en&rclk=1,26.7323333,88.417491,West Bengal
APEX FITNESS STUDIO,Gym,"2ND FLOOR, YUVOLAXMI MARKET, Jirat Station Rd, Ghosh Para, Jirat, West Bengal 712501, India",https://www.google.co.kr/maps/place/APEX+FITNESS+STUDIO/data=!4m5!3m4!1s0x39f8e99fd325b329:0x6de89b941617fad8!8m2!3d23.0973543!4d88.463231?authuser=0&hl=en&rclk=1,23.0973543,88.463231,West Bengal
Barbell Fitness,Fitness center,"Unnamed Road, Jaigaon, West Bengal 735182, India",https://www.google.co.kr/maps/place/Barbell+Fitness/data=!4m5!3m4!1s0x39e3cbdff052085d:0x6d72d42bd5f4d00f!8m2!3d26.8606435!4d89.3776755?authuser=0&hl=en&rclk=1,26.8606435,89.3776755,West Bengal
Studio De Physique,Gym,"B14/308, B 14, Block B, Kalyani, West Bengal 741235, India",https://www.google.co.kr/maps/place/Studio+De+Physique/data=!4m5!3m4!1s0x39f894e895fed299:0x8c955b46829f9a8!8m2!3d22.965397!4d88.4298529?authuser=0&hl=en&rclk=1,22.965397,88.4298529,West Bengal
Flash Fitness,Fitness center,"6th Floor, 3 A, Camac St, Park Street area, Kolkata, West Bengal 700016, India",https://www.google.co.kr/maps/place/Flash+Fitness/data=!4m5!3m4!1s0x3a02771a871337f3:0xf1095523a5f088c6!8m2!3d22.5490035!4d88.353478?authuser=0&hl=en&rclk=1,22.5490035,88.353478,West Bengal
Oorja Fitness,Physical fitness program,"Sri Vinayak, Umananda Rd, Sreepally, Elgin, Kolkata, West Bengal 700020, India",https://www.google.co.kr/maps/place/Oorja+Fitness/data=!4m5!3m4!1s0x3a02773c4d64d415:0xa58245b2da4b96b!8m2!3d22.5368176!4d88.3500123?authuser=0&hl=en&rclk=1,22.5368176,88.3500123,West Bengal
Fitness Fanatic Gym,Gym,"274, Sonarpur Station Rd, South, Narendrapur, Kolkata, West Bengal 700103, India",https://www.google.co.kr/maps/place/Fitness+Fanatic+Gym/data=!4m5!3m4!1s0x3a02714a33675d47:0x7869850b95687c51!8m2!3d22.4459362!4d88.4003637?authuser=0&hl=en&rclk=1,22.4459362,88.4003637,West Bengal
Hulk Gym,Gym,"752, 1, Shibpur Rd, Chatterjihat, Shibpur, Howrah, West Bengal 711104, India",https://www.google.co.kr/maps/place/Hulk+Gym/data=!4m5!3m4!1s0x3a0279430e499ba3:0x53aaf240b59ec5ef!8m2!3d22.5731909!4d88.3064035?authuser=0&hl=en&rclk=1,22.5731909,88.3064035,West Bengal
Helix Lifestyle Gym,Gym,"CA-1 1st Floor , Baguiati Main Road, opposite :A.C. Market, Kolkata, West Bengal 700059, India",https://www.google.co.kr/maps/place/Helix+Lifestyle+Gym/data=!4m5!3m4!1s0x3a02758a0f671321:0x223bc8d5cb5b64bc!8m2!3d22.6111855!4d88.4259723?authuser=0&hl=en&rclk=1,22.6111855,88.4259723,West Bengal
Fitness Point Gym,Gym,"Unnamed Road, New Barrakpur, Kolkata, West Bengal 700158, India",https://www.google.co.kr/maps/place/Fitness+Point+Gym/data=!4m5!3m4!1s0x39f89fb54d2585fb:0x415740cb916b9b51!8m2!3d22.6917261!4d88.4380379?authuser=0&hl=en&rclk=1,22.6917261,88.4380379,West Bengal
Human Fitness Centre - Gym,Gym,"Udaypur opposite road of Chhinnamasta Kali Mandir Karnajora, Raiganj, West Bengal 733130, India",https://www.google.co.kr/maps/place/Human+Fitness+Centre+-+Gym/data=!4m5!3m4!1s0x39fad52e353b5eab:0xeaa8321afed0f32f!8m2!3d25.6420937!4d88.1378288?authuser=0&hl=en&rclk=1,25.6420937,88.1378288,West Bengal
Living Well Fitness Studio,Gym,"SD/9, Uday Shankar Sarani Rd, Golf Green, Kolkata, West Bengal 700095, India",https://www.google.co.kr/maps/place/Living+Well+Fitness+Studio/data=!4m5!3m4!1s0x3a02718909db9de1:0x9a40c5e8216b2b8e!8m2!3d22.4922039!4d88.3603711?authuser=0&hl=en&rclk=1,22.4922039,88.3603711,West Bengal
Kalyani Fitness Centre,Gym,"Buddha Park, Block B, Kalyani, West Bengal 741235, India",https://www.google.co.kr/maps/place/Kalyani+Fitness+Centre/data=!4m5!3m4!1s0x39f894e92e09e0cd:0xbdcc9b02e8b3b493!8m2!3d22.9640341!4d88.4274812?authuser=0&hl=en&rclk=1,22.9640341,88.4274812,West Bengal
Lata Gym Centre,Gym,"Park Ln, Purulia, West Bengal 723101, India",https://www.google.co.kr/maps/place/Lata+Gym+Centre/data=!4m5!3m4!1s0x39f67d8b5735785d:0x52698efa60a30dd5!8m2!3d23.334614!4d86.3585078?authuser=0&hl=en&rclk=1,23.334614,86.3585078,West Bengal
Soumens Workout-Kasba-Online Fitness Center|Slimming Center|Yoga Classes|Aerobics Classes|Zumba Classes,Yoga studio,"1991 Rajdanga main road, GE 136 Beside Hotel Kollolini, and, opposite GST Bhawan, Kolkata, West Bengal 700107, India",https://www.google.co.kr/maps/place/Soumens+Workout-Kasba-Online+Fitness+Center%7CSlimming+Center%7CYoga+Classes%7CAerobics+Classes%7CZumba+Classes/data=!4m5!3m4!1s0x3a0271c3dc07c549:0x7f9ab3a9458a28db!8m2!3d22.5134057!4d88.3924607?authuser=0&hl=en&rclk=1,22.5134057,88.3924607,West Bengal
PowerHouse Gymnasium,Gym,"Badamtala, Khal Bill Math, Burdwan, West Bengal 713101, India",https://www.google.co.kr/maps/place/PowerHouse+Gymnasium/data=!4m5!3m4!1s0x39f83624fce5c981:0xf70d57cbf1e2103e!8m2!3d23.2402951!4d87.8715888?authuser=0&hl=en&rclk=1,23.2402951,87.8715888,West Bengal
ARCHID Fitness Centre,Fitness center,"desbandhu para, opposite of I.T.S. Club, Islampur, West Bengal 733202, India",https://www.google.co.kr/maps/place/ARCHID+Fitness+Centre/data=!4m5!3m4!1s0x39e4fd6e29e3deed:0xb8d629ca0f1eed24!8m2!3d26.254574!4d88.180574?authuser=0&hl=en&rclk=1,26.254574,88.180574,West Bengal
Fitness Xpress,Gym,"Purbachal Main Rd, Purbachal, Haltu, Kolkata, West Bengal 700078, India",https://www.google.co.kr/maps/place/Fitness+Xpress/data=!4m5!3m4!1s0x3a0271dfed387415:0xcc00a9877edd2f61!8m2!3d22.5051721!4d88.3928201?authuser=0&hl=en&rclk=1,22.5051721,88.3928201,West Bengal
Unique Fitness,Gym,"7WPF+4M6, Town, Uttar Chara Sankarara, West Bengal 721636, India",https://www.google.co.kr/maps/place/Unique+Fitness/data=!4m5!3m4!1s0x3a02957c3091f1f1:0xb3a630ca1890abce!8m2!3d22.2852795!4d87.9241362?authuser=0&hl=en&rclk=1,22.2852795,87.9241362,West Bengal
Asish & Deb profitness,Gym,"189, Grey St, Khanna, Kolkata, West Bengal 700006, India",https://www.google.co.kr/maps/place/Asish+%26+Deb+profitness/data=!4m5!3m4!1s0x3a02776d47aabd51:0x563872c2816efb6!8m2!3d22.5942254!4d88.3743595?authuser=0&hl=en&rclk=1,22.5942254,88.3743595,West Bengal
ROBUST FITNESS,Gym,"164,AJC Bose Road Prasad Square Building, Entally, Kolkata, West Bengal 700014, India",https://www.google.co.kr/maps/place/ROBUST+FITNESS/data=!4m5!3m4!1s0x3a0276f9183f5d4f:0x23459b25b21ac5b!8m2!3d22.5566593!4d88.3658243?authuser=0&hl=en&rclk=1,22.5566593,88.3658243,West Bengal
Endorfins- Salt Lake,Fitness center,"Plot No.2, Bidhan Nagar, EC Block, Sector 1, Bidhannagar, Kolkata, West Bengal 700064, India",https://www.google.co.kr/maps/place/Endorfins-+Salt+Lake/data=!4m5!3m4!1s0x3a0275be4283d12f:0x99c8b2ff2f5161c6!8m2!3d22.5856447!4d88.4077489?authuser=0&hl=en&rclk=1,22.5856447,88.4077489,West Bengal
Evolve Up Fitness,Gym,"RN Tagore Rd, Krishnanagar, West Bengal 741101, India",https://www.google.co.kr/maps/place/Evolve+Up+Fitness/data=!4m5!3m4!1s0x39f92141dbcc6e9d:0x71a86720f4814318!8m2!3d23.414128!4d88.493658?authuser=0&hl=en&rclk=1,23.414128,88.493658,West Bengal
PULSE FITNESS STUDIO,Fitness center,"Gobardanga Station road,Kalitala more Landmark-Near Khantura Boys High School, Gobardanga, West Bengal 743273, India",https://www.google.co.kr/maps/place/PULSE+FITNESS+STUDIO/data=!4m5!3m4!1s0x39f8b3f84843b6cd:0x463ae183a7cd457a!8m2!3d22.8832286!4d88.7638294?authuser=0&hl=en&rclk=1,22.8832286,88.7638294,West Bengal
Fitness Multygym,Gym,"Singur, Purusattampur, West Bengal 712409, India",https://www.google.co.kr/maps/place/Fitness+Multygym/data=!4m5!3m4!1s0x39f888989767016d:0x7038a6d60ffcd711!8m2!3d22.8084508!4d88.2260071?authuser=0&hl=en&rclk=1,22.8084508,88.2260071,West Bengal
EDGE Fitness GYM,Gym,"425/1, Canal Side Road, near 206 Footbridge, Samarpally, Kestopur, Kolkata, West Bengal 700102, India",https://www.google.co.kr/maps/place/EDGE+Fitness+GYM/data=!4m5!3m4!1s0x3a0275975f8b93d1:0x2e7551614425e59e!8m2!3d22.5930888!4d88.4307008?authuser=0&hl=en&rclk=1,22.5930888,88.4307008,West Bengal
PAUL FITNESS GYM,Gym,"GMXH+7H, Raghunathpur North, Raghunathpur, West Bengal 723133, India",https://www.google.co.kr/maps/place/PAUL+FITNESS+GYM/data=!4m5!3m4!1s0x39f6ef81897ac937:0xa97a5a470dc805d2!8m2!3d23.5481875!4d86.6789375?authuser=0&hl=en&rclk=1,23.5481875,86.6789375,West Bengal
Bull Strength,Gym,"36, Dunlop Flyover, Dunlop, U B Colony, Ariadaha, Kolkata, West Bengal 700035, India",https://www.google.co.kr/maps/place/Bull+Strength/data=!4m5!3m4!1s0x39f89db1ee44afff:0xe3c0a4ac70338b0a!8m2!3d22.6520464!4d88.3731279?authuser=0&hl=en&rclk=1,22.6520464,88.3731279,West Bengal
Phonix health and fitness,Fitness center,"40/1, Kankra Para Ln, Chatterjihat, Shibpur, Howrah, West Bengal 711104, India",https://www.google.co.kr/maps/place/Phonix+health+and+fitness/data=!4m5!3m4!1s0x3a0279b35d7e14b1:0xcb32ed0450f93b1f!8m2!3d22.5756409!4d88.3038295?authuser=0&hl=en&rclk=1,22.5756409,88.3038295,West Bengal
The Battleground Fitness Studio,Gym,"Biswas Para, Joka, Kolkata, West Bengal 700063, India",https://www.google.co.kr/maps/place/The+Battleground+Fitness+Studio/data=!4m5!3m4!1s0x3a027a8cf21c428d:0xd121cb0da68fb089!8m2!3d22.4601469!4d88.3064874?authuser=0&hl=en&rclk=1,22.4601469,88.3064874,West Bengal
The Den Fitness Studio,Fitness center,"12A, Park Terrace Rd, Aurobindo Block, Santoshpur, Kolkata, West Bengal 700075, India",https://www.google.co.kr/maps/place/The+Den+Fitness+Studio/data=!4m5!3m4!1s0x3a02711580280b95:0xe7ac1b38a4ec95a4!8m2!3d22.4929114!4d88.3790333?authuser=0&hl=en&rclk=1,22.4929114,88.3790333,West Bengal
Fitness Formula,Weight loss service,"Ripon St, Taltala, Kolkata, West Bengal 700016, India",https://www.google.co.kr/maps/place/Fitness+Formula/data=!4m5!3m4!1s0x3a0277ad3b9685cd:0x862b08d0f36cc366!8m2!3d22.5494256!4d88.3624539?authuser=0&hl=en&rclk=1,22.5494256,88.3624539,West Bengal
R K Fitness Studio (AC Gym),Gym,"3rd Floor, 233/3) G T ROAD, BIRAJ KUTIR RAAJOTOK Marriage Hall , 2ND &, Baidyabati, West Bengal 712222, India",https://www.google.co.kr/maps/place/R+K+Fitness+Studio+(AC+Gym)/data=!4m5!3m4!1s0x39f89b612d4b5bd7:0xf13d32630a225fc4!8m2!3d22.7571409!4d88.3415993?authuser=0&hl=en&rclk=1,22.7571409,88.3415993,West Bengal
Achiever Fitness Centre,Gym,"41, 1, BPMB Sarani, Bhadrakali, Uttarpara, West Bengal 712232, India",https://www.google.co.kr/maps/place/Achiever+Fitness+Centre/data=!4m5!3m4!1s0x39f89d97d115973d:0x5d07b88d47e0cd9f!8m2!3d22.6746247!4d88.3429001?authuser=0&hl=en&rclk=1,22.6746247,88.3429001,West Bengal
Women Gyms,Gym,"1/504 Gariahat Road, Gol Park, Hindustan Park, Jodhpur Park, Kolkata, West Bengal 700068, India",https://www.google.co.kr/maps/place/Women+Gyms/data=!4m5!3m4!1s0x3a027128a88b5221:0xe7ab135c2bf86f03!8m2!3d22.5045662!4d88.3671078?authuser=0&hl=en&rclk=1,22.5045662,88.3671078,West Bengal
Oxygen The Muscle Factory Gym,Gym,"Ward No, 17, Alamgunj Rd, opposite HDFC Bank, Barabalidanga, Bongpur, West Bengal 713101, India",https://www.google.co.kr/maps/place/Oxygen+The+Muscle+Factory+Gym/data=!4m5!3m4!1s0x39f849d57478ef35:0x91e7f2d901a06fd2!8m2!3d23.2275747!4d87.8549563?authuser=0&hl=en&rclk=1,23.2275747,87.8549563,West Bengal
Image Body fitness Multigym,Gym,"Singhi Bagan, Jiaganj, West Bengal 742123, India",https://www.google.co.kr/maps/place/Image+Body+fitness+Multigym/data=!4m5!3m4!1s0x39fbd1a14731f88f:0x4eb8247ff3ec220c!8m2!3d24.2404144!4d88.266118?authuser=0&hl=en&rclk=1,24.2404144,88.266118,West Bengal
Fitness Positive Gym,Gym,"New Gopalpur Rd Number 1, New Gopalpur, Payradanga, West Bengal 741247, India",https://www.google.co.kr/maps/place/Fitness+Positive+Gym/data=!4m5!3m4!1s0x39f8c384accd7f23:0xd3431b3705209bc7!8m2!3d23.1310308!4d88.5468734?authuser=0&hl=en&rclk=1,23.1310308,88.5468734,West Bengal
HEALTH & FITNESS CENTER,Gym,"8F93+P9X, Dignagar, West Bengal 741401, India",https://www.google.co.kr/maps/place/HEALTH+%26+FITNESS+CENTER/data=!4m5!3m4!1s0x39f8e13e1bae4457:0xe1bfb62aa52a9bb1!8m2!3d23.3193531!4d88.4534976?authuser=0&hl=en&rclk=1,23.3193531,88.4534976,West Bengal
ABSolute Fitness Zone (GYM),Gym,"Prantik Palli 205 1A, Bosepukur Purba Para Road, Bosepukur, Kasba, Kolkata, West Bengal 700107, India",https://www.google.co.kr/maps/place/ABSolute+Fitness+Zone+(GYM)/data=!4m5!3m4!1s0x3a0277f98033941f:0xb22239e13c338a5e!8m2!3d22.5179501!4d88.3870543?authuser=0&hl=en&rclk=1,22.5179501,88.3870543,West Bengal
Modern Fitness Point (The Next Level) Unisex Ac Multigym,Gym,"Sonarpur Power House, Mission Pally, Kolkata, West Bengal 700150, India",https://www.google.co.kr/maps/place/Modern+Fitness+Point+(The+Next+Level)+Unisex+Ac+Multigym/data=!4m5!3m4!1s0x3a02721560dbb547:0x1e39f462dd687569!8m2!3d22.4427429!4d88.4211175?authuser=0&hl=en&rclk=1,22.4427429,88.4211175,West Bengal
Pumping Iron Gym,Muay Thai boxing gym,"Gani market, Asansol, West Bengal 713325, India",https://www.google.co.kr/maps/place/Pumping+Iron+Gym/data=!4m5!3m4!1s0x39f71ff4c8778b67:0x26ed03f0fc16bf3c!8m2!3d23.6856508!4d86.9723764?authuser=0&hl=en&rclk=1,23.6856508,86.9723764,West Bengal
Gymmers,Gym,"12, Domestic Area, May Dibas Pally, Dakshineswar, Kolkata, West Bengal 700035, India",https://www.google.co.kr/maps/place/Gymmers/data=!4m5!3m4!1s0x39f89d4cbdcc2559:0xd84fb1f2727b844!8m2!3d22.6547339!4d88.3656438?authuser=0&hl=en&rclk=1,22.6547339,88.3656438,West Bengal
‡¶∏‡ßá‡¶≤‡ßÅ‡¶® ‡¶™‡¶∞‡¶ø‡¶¨‡¶∞‡ßç‡¶§‡¶®,Gym,"Carshed Rd, Ramkrishnapur, Barasat, Kolkata, West Bengal 700124, India",https://www.google.co.kr/maps/place/%E0%A6%B8%E0%A7%87%E0%A6%B2%E0%A7%81%E0%A6%A8+%E0%A6%AA%E0%A6%B0%E0%A6%BF%E0%A6%AC%E0%A6%B0%E0%A7%8D%E0%A6%A4%E0%A6%A8/data=!4m5!3m4!1s0x39f8a36cc3669645:0xcf65fdd72d995c85!8m2!3d22.7277041!4d88.4877079?authuser=0&hl=en&rclk=1,22.7277041,88.4877079,West Bengal
NCORE FITNESS,Gym,"118, Karl Marx Sarani, Babu Bazar, Khidirpur, Kolkata, West Bengal 700023, India",https://www.google.co.kr/maps/place/NCORE+FITNESS/data=!4m5!3m4!1s0x3a0279da44bc4e6b:0x553810e5ae49c545!8m2!3d22.539094!4d88.321538?authuser=0&hl=en&rclk=1,22.539094,88.321538,West Bengal
Raj Gharana Fitness Studio,Gym,"Chowrasta, Dhulagori, Howrah, West Bengal 711302, India",https://www.google.co.kr/maps/place/Raj+Gharana+Fitness+Studio/data=!4m5!3m4!1s0x3a027f5d6148e8ab:0xd6b4f03fc479f896!8m2!3d22.573456!4d88.196336?authuser=0&hl=en&rclk=1,22.573456,88.196336,West Bengal
Star Gym & Fitness,Gym,"B.Y.M.S.A. Club, Bihar More, Bagdogra, West Bengal 734014, India",https://www.google.co.kr/maps/place/Star+Gym+%26+Fitness/data=!4m5!3m4!1s0x39e448b17f0c9ba5:0x8547946a19125d64!8m2!3d26.6986114!4d88.3116995?authuser=0&hl=en&rclk=1,26.6986114,88.3116995,West Bengal
Muscle Factory Gym Ranaghat,Gym,"Unnamed Road, Ranaghat, West Bengal 741201, India",https://www.google.co.kr/maps/place/Muscle+Factory+Gym+Ranaghat/data=!4m5!3m4!1s0x39f8c518eee9db25:0xbb625bae6e408817!8m2!3d23.1780548!4d88.562747?authuser=0&hl=en&rclk=1,23.1780548,88.562747,West Bengal
Fitness,Physical fitness program,"Motilal Nehru Rd, Ballygunge, Kolkata, West Bengal 700029, India",https://www.google.co.kr/maps/place/Fitness/data=!4m5!3m4!1s0x3a027788fca55465:0xceb5fa1aefb7519d!8m2!3d22.5254168!4d88.3555093?authuser=0&hl=en&rclk=1,22.5254168,88.3555093,West Bengal
Body Fit & Multi Gym,Gym,"Dunlop Bridge, 199, Barrackpore Trunk Rd, Dunlop, U B Colony, nr, Ashokgarh, Kolkata, West Bengal 700108, India",https://www.google.co.kr/maps/place/Body+Fit+%26+Multi+Gym/data=!4m5!3m4!1s0x39f89db151600f55:0xc1eb994e8397a2f7!8m2!3d22.6532223!4d88.376999?authuser=0&hl=en&rclk=1,22.6532223,88.376999,West Bengal
Dynamic GYM,Gym,"M82H+6JP, Madhyapara, Bally, Howrah, West Bengal 711201, India",https://www.google.co.kr/maps/place/Dynamic+GYM/data=!4m5!3m4!1s0x39f89d57819876eb:0x507444323fce0fc!8m2!3d22.650589!4d88.3290681?authuser=0&hl=en&rclk=1,22.650589,88.3290681,West Bengal
BARBELL COMPLEX - The Gym,Gym,"SARASWATI APARTMENT, 1ST FLOOR, beside MUSLIM KUTHI, near JUDGES COURT, Midnapore, West Bengal 721101, India",https://www.google.co.kr/maps/place/BARBELL+COMPLEX+-+The+Gym/data=!4m5!3m4!1s0x3a1d5b9772cbab39:0xbc95b799c2ccdcc6!8m2!3d22.4125749!4d87.3142277?authuser=0&hl=en&rclk=1,22.4125749,87.3142277,West Bengal
BYMS Star Gym & Fitness,Fitness center,"B.Y.M.S.A. Club, Bihar More, Bagdogra, West Bengal 734014, India",https://www.google.co.kr/maps/place/BYMS+Star+Gym+%26+Fitness/data=!4m5!3m4!1s0x39e448a969f044b1:0x9ce49ac4aa3641bd!8m2!3d26.6995832!4d88.3203463?authuser=0&hl=en&rclk=1,26.6995832,88.3203463,West Bengal
The Terminator Gym.... House of Health,Gym,"Grand Trunk Rd, beside Hero Showroom, Padri Para, Barabazar, Chandannagar, West Bengal 702136, India",https://www.google.co.kr/maps/place/The+Terminator+Gym....+House+of+Health/data=!4m5!3m4!1s0x39f8910129becc31:0xd62b79a3a44d574!8m2!3d22.8553388!4d88.3653006?authuser=0&hl=en&rclk=1,22.8553388,88.3653006,West Bengal
7 Power Fitness,Gym,"Rani Bhabani Rd, Saktinagar, Krishnanagar, West Bengal 741102, India",https://www.google.co.kr/maps/place/7+Power+Fitness/data=!4m5!3m4!1s0x39f921b48d030423:0x134a66434b78daca!8m2!3d23.3879168!4d88.506692?authuser=0&hl=en&rclk=1,23.3879168,88.506692,West Bengal
Khudiram Byamagar,Gym,"Basantapur, West Bengal 712601, India",https://www.google.co.kr/maps/place/Khudiram+Byamagar/data=!4m5!3m4!1s0x39f8138eef587337:0xe6d9195d68865665!8m2!3d22.8829073!4d87.8027659?authuser=0&hl=en&rclk=1,22.8829073,87.8027659,West Bengal
Jyoti Gym,Gym,"Senraleigh, Asansol, West Bengal, India",https://www.google.co.kr/maps/place/Jyoti+Gym/data=!4m5!3m4!1s0x39f71f7a579d2bd1:0xac4f9dd74a17389f!8m2!3d23.7237275!4d86.9497443?authuser=0&hl=en&rclk=1,23.7237275,86.9497443,West Bengal
Manas maji,Gym,"Pakuria, West Bengal 721139, India",https://www.google.co.kr/maps/place/Manas+maji/data=!4m5!3m4!1s0x3a02a5695ca2a2fd:0xc74e83cf4f082674!8m2!3d22.4490803!4d87.7371889?authuser=0&hl=en&rclk=1,22.4490803,87.7371889,West Bengal
Sprint Gym & Fitness Studio,Gym,"Orisha Trunk Rd, Nona Saradapally, Sarada Palli, Uluberia, Howrah, West Bengal 711315, India",https://www.google.co.kr/maps/place/Sprint+Gym+%26+Fitness+Studio/data=!4m5!3m4!1s0x3a0287761cccddf7:0xe4ad457d472d6613!8m2!3d22.4683006!4d88.1009732?authuser=0&hl=en&rclk=1,22.4683006,88.1009732,West Bengal
THE FITNESS ARENA,Gym,"Barrackpore, West Bengal 700120, India",https://www.google.co.kr/maps/place/THE+FITNESS+ARENA/data=!4m5!3m4!1s0x39f89be94df37d6d:0x90951d47dae92997!8m2!3d22.7629952!4d88.364428?authuser=0&hl=en&rclk=1,22.7629952,88.364428,West Bengal
Guru's Dream GYM,Gym,"GD-338, 1st Cross Rd, GD Block, Sector III, Bidhannagar, Kolkata, West Bengal 700106, India",https://www.google.co.kr/maps/place/Guru's+Dream+GYM/data=!4m5!3m4!1s0x3a0275c5df6d3667:0xdecc8bd7a35267c3!8m2!3d22.5765512!4d88.4151508?authuser=0&hl=en&rclk=1,22.5765512,88.4151508,West Bengal
"Fitnestics,family studio gym",Gym,"Bolpur Gurupally, santiniketan, near Vodafone Tower, Bolpur, West Bengal 731204, India","https://www.google.co.kr/maps/place/Fitnestics,family+studio+gym/data=!4m5!3m4!1s0x39f9dd60e0698d1b:0xd8b5e1c86e32a2f5!8m2!3d23.6729279!4d87.6853388?authuser=0&hl=en&rclk=1",23.6729279,87.6853388,West Bengal
Mahabali Deshmukh Fitness Point,Gym,"Dipali Nagar Rd, Khadimpur, Balurghat, West Bengal 733103, India",https://www.google.co.kr/maps/place/Mahabali+Deshmukh+Fitness+Point/data=!4m5!3m4!1s0x39fb614057fcc349:0xffee270e88cef4b5!8m2!3d25.2165931!4d88.7741912?authuser=0&hl=en&rclk=1,25.2165931,88.7741912,West Bengal
Pulse Fitness,Gym,"101, Rajdanga Main Rd, Rajdanga Nabapalli, Sector A, East Kolkata Twp, Kolkata, West Bengal 700107, India",https://www.google.co.kr/maps/place/Pulse+Fitness/data=!4m5!3m4!1s0x3a02714d6bf54c01:0x33c15c5bb7e1e6b1!8m2!3d22.5147272!4d88.3910421?authuser=0&hl=en&rclk=1,22.5147272,88.3910421,West Bengal
DANKUNI MAHAKAL FITNESS (UNISEX GYM ),Fitness center,"DANKUNI SUPER MARKET 8NO RAILWAY GATE K K LODGE BUILDING, Dankuni, West Bengal 712311, India",https://www.google.co.kr/maps/place/DANKUNI+MAHAKAL+FITNESS+(UNISEX+GYM+)/data=!4m5!3m4!1s0x39f8839a649bfd67:0xc865cd3dd665c55e!8m2!3d22.6813609!4d88.2889824?authuser=0&hl=en&rclk=1,22.6813609,88.2889824,West Bengal
Indian saloon. Rampur Quarter,Gym,"G78J+3GP, Rampur, Santoshpur, Kolkata, West Bengal 700088, India",https://www.google.co.kr/maps/place/Indian+saloon.+Rampur+Quarter/data=!4m5!3m4!1s0x3a027bd5f42c00b9:0x2b5e6b9741f5f0e5!8m2!3d22.5152095!4d88.2813161?authuser=0&hl=en&rclk=1,22.5152095,88.2813161,West Bengal
Muslim Institute Gym,Gym,"21A, Rafi Ahmed Kidwai Rd, Haji Md. Mohsin Square, Janbazar, Taltala, Kolkata, West Bengal 700016, India",https://www.google.co.kr/maps/place/Muslim+Institute+Gym/data=!4m5!3m4!1s0x3a027706aabdfbab:0x6faa593df2ba04c8!8m2!3d22.5579569!4d88.357856?authuser=0&hl=en&rclk=1,22.5579569,88.357856,West Bengal
Physiomax GYM,Gym,"240, Jessore Rd, Clive House, Nagerbazar, Dum Dum, Kolkata, West Bengal 700028, India",https://www.google.co.kr/maps/place/Physiomax+GYM/data=!4m5!3m4!1s0x39f89e17438026c5:0xe47cf5e4777a70fb!8m2!3d22.6255419!4d88.4170746?authuser=0&hl=en&rclk=1,22.6255419,88.4170746,West Bengal
Indian Strengthlifting Federation,Fitness center,"Khamarpara Roy, Main Road, Bansberia, Kolkata, West Bengal 712502, India",https://www.google.co.kr/maps/place/Indian+Strengthlifting+Federation/data=!4m5!3m4!1s0x39f8948011a85e07:0x3791917aa5a14817!8m2!3d22.9464628!4d88.402395?authuser=0&hl=en&rclk=1,22.9464628,88.402395,West Bengal
Hector Fitness,Gym,"Mozammel Haque Rd, Baigachi Para, Santipur, West Bengal 741404, India",https://www.google.co.kr/maps/place/Hector+Fitness/data=!4m5!3m4!1s0x39f8e78115aa9187:0x2d8a44e08073f309!8m2!3d23.2578541!4d88.4313862?authuser=0&hl=en&rclk=1,23.2578541,88.4313862,West Bengal
PTC Gym,Gym,"Q967+3M2, Cantonment, Barrackpore, West Bengal 700120, India",https://www.google.co.kr/maps/place/PTC+Gym/data=!4m5!3m4!1s0x39f89a55ddd57369:0x1d28410f1ff75745!8m2!3d22.7601304!4d88.3641422?authuser=0&hl=en&rclk=1,22.7601304,88.3641422,West Bengal
Kick Fitness Gym Center,Gym,"4723+5R2, Khagra, Berhampore, West Bengal 742101, India",https://www.google.co.kr/maps/place/Kick+Fitness+Gym+Center/data=!4m5!3m4!1s0x39f97d83a39a8081:0x6141907cb244750f!8m2!3d24.100377!4d88.2545066?authuser=0&hl=en&rclk=1,24.100377,88.2545066,West Bengal
Advas Fitness And Gym,Gym,"27R8+75X, Chauk Bazaar, Darjeeling, West Bengal 734101, India",https://www.google.co.kr/maps/place/Advas+Fitness+And+Gym/data=!4m5!3m4!1s0x39e42e94b56c65a7:0x67704f6c8574689a!8m2!3d27.0407448!4d88.2654865?authuser=0&hl=en&rclk=1,27.0407448,88.2654865,West Bengal
Multi gym fitness cente,Gym,"33GH+V49, Astai, West Bengal 713166, India",https://www.google.co.kr/maps/place/Multi+gym+fitness+cente/data=!4m5!3m4!1s0x39f85d15dc3b8847:0xdb2d2583cd292d27!8m2!3d23.0771735!4d88.077867?authuser=0&hl=en&rclk=1,23.0771735,88.077867,West Bengal
AL-Madina Fitness,Fitness center,"Q-106 shim pukur lane, Garden Reach Garden Reach, Metiabruz, Kolkata, West Bengal 700024, India",https://www.google.co.kr/maps/place/AL-Madina+Fitness/data=!4m5!3m4!1s0x3a027920d45105a7:0xce9e6d6f211a91ad!8m2!3d22.5467386!4d88.2797638?authuser=0&hl=en&rclk=1,22.5467386,88.2797638,West Bengal
Ambition Gym,Gym,"Chakdaha Rd, Rabindranagar, Palpara, Chakdaha, West Bengal 741222, India",https://www.google.co.kr/maps/place/Ambition+Gym/data=!4m5!3m4!1s0x39f8c1019523e25f:0x4a03cc1afb97f18c!8m2!3d23.0677545!4d88.5231078?authuser=0&hl=en&rclk=1,23.0677545,88.5231078,West Bengal
XTREME MUSCLES GYM,Gym,"Belgachia, Liluah, Howrah, West Bengal 711108, India",https://www.google.co.kr/maps/place/XTREME+MUSCLES+GYM/data=!4m5!3m4!1s0x3a0279538f9e4b6d:0xe01a38136b2abf34!8m2!3d22.6093098!4d88.3205258?authuser=0&hl=en&rclk=1,22.6093098,88.3205258,West Bengal
Strength & Fitness Personal Training Studio,Fitness center,"99/5/8D, Ballygunge Place, Ballygunge, Kolkata, West Bengal 700019, India",https://www.google.co.kr/maps/place/Strength+%26+Fitness+Personal+Training+Studio/data=!4m5!3m4!1s0x3a0277a283c7192b:0xc0d247cecb37e11a!8m2!3d22.5277832!4d88.3684259?authuser=0&hl=en&rclk=1,22.5277832,88.3684259,West Bengal
Zumba with zin pallabi,Fitness center,"MCV4+QHH, Ghola Bazar, Agarpara, Kolkata, West Bengal 700111, India",https://www.google.co.kr/maps/place/Zumba+with+zin+pallabi/data=!4m5!3m4!1s0x39f89f4608cf44cb:0xb5dbacc339871444!8m2!3d22.6944456!4d88.4064691?authuser=0&hl=en&rclk=1,22.6944456,88.4064691,West Bengal
Bajrang Fitness Gym,Gym,"NH512, Gazole, West Bengal 732124, India",https://www.google.co.kr/maps/place/Bajrang+Fitness+Gym/data=!4m5!3m4!1s0x39fb1f598306e525:0x3bd1d3bb2fb84851!8m2!3d25.2062201!4d88.1883066?authuser=0&hl=en&rclk=1,25.2062201,88.1883066,West Bengal
Mantra Fitness Centre,Fitness center,"6VJC+249, Bara Nilpur, Burdwan, West Bengal 713101, India",https://www.google.co.kr/maps/place/Mantra+Fitness+Centre/data=!4m5!3m4!1s0x39f849bd4dbd5933:0x4b56bb44448f072e!8m2!3d23.2300343!4d87.8703723?authuser=0&hl=en&rclk=1,23.2300343,87.8703723,West Bengal
KALNA YOGA TRAINING CENTRE,Fitness center,"STKK Rd, Dangapara, Kalna, West Bengal 713409, India",https://www.google.co.kr/maps/place/KALNA+YOGA+TRAINING+CENTRE/data=!4m5!3m4!1s0x39f8fdfef2b161b3:0xb5f1e1c26f57027b!8m2!3d23.2252735!4d88.3610675?authuser=0&hl=en&rclk=1,23.2252735,88.3610675,West Bengal
Diamond Fitness,Gym,"OYO 9818 Hotel, Diamond Plaza, Bowbazar, Kolkata, West Bengal 700012, India",https://www.google.co.kr/maps/place/Diamond+Fitness/data=!4m5!3m4!1s0x3a0277b1afad0f2f:0x317e1423133443e5!8m2!3d22.5692132!4d88.3589254?authuser=0&hl=en&rclk=1,22.5692132,88.3589254,West Bengal
Iron Grid Gym,Gym,"3 Tiljala Road, Bondel Rd, near Lalji Tea Shop, Kolkata, West Bengal 700019, India",https://www.google.co.kr/maps/place/Iron+Grid+Gym/data=!4m5!3m4!1s0x3a02775264afc501:0x4bbc4da76402cab0!8m2!3d22.5298047!4d88.3749649?authuser=0&hl=en&rclk=1,22.5298047,88.3749649,West Bengal
Tri Fitness,Gym,"50b, 50B, Bakul Bagan, Bhowanipore, Kolkata, West Bengal 700025, India",https://www.google.co.kr/maps/place/Tri+Fitness/data=!4m5!3m4!1s0x3a027730a3f1dc91:0xcdbf4f8578bd41d!8m2!3d22.5273667!4d88.3496217?authuser=0&hl=en&rclk=1,22.5273667,88.3496217,West Bengal
Gymkhana Fitness Centre,Fitness center,"P-30, Subodh Garden, Subodh Park, Bansdroni, Kolkata, West Bengal 700070, India",https://www.google.co.kr/maps/place/Gymkhana+Fitness+Centre/data=!4m5!3m4!1s0x3a0270fffddef5db:0x32984ac3c9796d20!8m2!3d22.471222!4d88.3626878?authuser=0&hl=en&rclk=1,22.471222,88.3626878,West Bengal
Oxigen,Gym,"F9QR+59G, Survey Park, Santoshpur, Kolkata, West Bengal 700075, India",https://www.google.co.kr/maps/place/Oxigen/data=!4m5!3m4!1s0x3a027168ec1eb50d:0xfa1ac11bb0b722ed!8m2!3d22.4879444!4d88.3909556?authuser=0&hl=en&rclk=1,22.4879444,88.3909556,West Bengal
Asma Fitness Coach for Weight Loss,Weight loss service,"MIG13 Ph-1, Serampore Housing, Ramkrishna Rd, Rishra, West Bengal 712248, India",https://www.google.co.kr/maps/place/Asma+Fitness+Coach+for+Weight+Loss/data=!4m5!3m4!1s0x39f89bbb561071e9:0xec2f7c74c34c7179!8m2!3d22.7313446!4d88.345171?authuser=0&hl=en&rclk=1,22.7313446,88.345171,West Bengal
Guru's Dream Gym,Gym,"AC 9, 1st Ave Rd, near Phanri Bus Stop, AC Block, Sector 1, Bidhannagar, Kolkata, West Bengal 700064, India",https://www.google.co.kr/maps/place/Guru's+Dream+Gym/data=!4m5!3m4!1s0x3a0275e4e7af8859:0x6c191296ac808203!8m2!3d22.5938889!4d88.4034808?authuser=0&hl=en&rclk=1,22.5938889,88.4034808,West Bengal
AB's Roar Gym,Gym,"Rishi Bankim Chandra Rd, Garifa, Naihati, West Bengal 743166, India",https://www.google.co.kr/maps/place/AB's+Roar+Gym/data=!4m5!3m4!1s0x39f897573d342ed7:0x55649118e1e235c0!8m2!3d22.8898668!4d88.4213309?authuser=0&hl=en&rclk=1,22.8898668,88.4213309,West Bengal
Just4Fit Gym,Gym,"AD-40, AD Block, Sector 1, Bidhannagar, Kolkata, West Bengal 700064, India",https://www.google.co.kr/maps/place/Just4Fit+Gym/data=!4m5!3m4!1s0x3a02750e96187177:0x545c3e9022834a9e!8m2!3d22.5981481!4d88.4086268?authuser=0&hl=en&rclk=1,22.5981481,88.4086268,West Bengal
Body power gym,Gym,"MQ32+RF7, Kuspata, Ghatal, West Bengal 721212, India",https://www.google.co.kr/maps/place/Body+power+gym/data=!4m5!3m4!1s0x39f809e6a7050f67:0x1d4f38ef90aa300e!8m2!3d22.6545353!4d87.7511622?authuser=0&hl=en&rclk=1,22.6545353,87.7511622,West Bengal
GYM Mahabir,Gym,"Bus Stop, Aistala, NH12, Ranaghat, West Bengal 741201, India",https://www.google.co.kr/maps/place/GYM+Mahabir/data=!4m5!3m4!1s0x39f8c559a9d2bea5:0x32fda1b3e0954f4c!8m2!3d23.181061!4d88.5586493?authuser=0&hl=en&rclk=1,23.181061,88.5586493,West Bengal
INOX MULTI GYM,Gym,"Bus Stop, Tamluk Srirampur Rd, Maniktala, Tamluk, West Bengal 721636, India",https://www.google.co.kr/maps/place/INOX+MULTI+GYM/data=!4m5!3m4!1s0x3a02955e6490cb93:0xb5ed1a408388e2c7!8m2!3d22.2990245!4d87.9113156?authuser=0&hl=en&rclk=1,22.2990245,87.9113156,West Bengal
Body Line Gym,Gym,"podra, Andul Rd, Howrah, West Bengal 711109, India",https://www.google.co.kr/maps/place/Body+Line+Gym/data=!4m5!3m4!1s0x3a0278e3ea189f3d:0x880299204df5283b!8m2!3d22.567506!4d88.271386?authuser=0&hl=en&rclk=1,22.567506,88.271386,West Bengal
LDS,Gym,"WCH8+786, Nabanagar, Halisahar, Kanchrapara, West Bengal 743136, India",https://www.google.co.kr/maps/place/LDS/data=!4m5!3m4!1s0x39f8950a5bdb55eb:0xfda20b1559e6f39b!8m2!3d22.9281667!4d88.4157586?authuser=0&hl=en&rclk=1,22.9281667,88.4157586,West Bengal
Fitness Fair,Gym,"53, Rabindra Sarani, Shanti Nagar, Liluah, Howrah, West Bengal 711204, India",https://www.google.co.kr/maps/place/Fitness+Fair/data=!4m5!3m4!1s0x3a02772d8d561691:0x8991714ed338241a!8m2!3d22.61954!4d88.3349895?authuser=0&hl=en&rclk=1,22.61954,88.3349895,West Bengal
Raw Fitness Gym,Gym,"51/A, Dr Sudhir Bose Rd, Khidirpur, Kolkata, West Bengal 700023, India",https://www.google.co.kr/maps/place/Raw+Fitness+Gym/data=!4m5!3m4!1s0x3a0277f9d016123f:0xce2aeda8c8aca57a!8m2!3d22.5378447!4d88.3248195?authuser=0&hl=en&rclk=1,22.5378447,88.3248195,West Bengal
Station,Gym,"Dankuni Railway Fly Over, Station Pally, Dankuni, West Bengal 712311, India",https://www.google.co.kr/maps/place/Station/data=!4m5!3m4!1s0x39f8833e8afe6cd9:0xab185341e16bf67!8m2!3d22.6781546!4d88.2905352?authuser=0&hl=en&rclk=1,22.6781546,88.2905352,West Bengal
Rush Fitness,Fitness center,"145, Rash Behari Ave, Rash Behari, Sahanagar, Ballygunge, Kolkata, West Bengal 700029, India",https://www.google.co.kr/maps/place/Rush+Fitness/data=!4m5!3m4!1s0x3a02772af562a4df:0xa16bc5dca808d685!8m2!3d22.5168754!4d88.3452774?authuser=0&hl=en&rclk=1,22.5168754,88.3452774,West Bengal
The Calcutta Fitness Studio Plus Naktala,Gym,"362, Netaji Subhash Chandra Bose Rd, Naktala, Garia, Kolkata, West Bengal 700047, India",https://www.google.co.kr/maps/place/The+Calcutta+Fitness+Studio+Plus+Naktala/data=!4m5!3m4!1s0x3a0271bb1c73e6cb:0x8ad08153c1883d97!8m2!3d22.4704023!4d88.3700343?authuser=0&hl=en&rclk=1,22.4704023,88.3700343,West Bengal
Masagram Pragati Sangha,Gym,"Unnamed Road, Basishtapur, West Bengal 713401, India",https://www.google.co.kr/maps/place/Masagram+Pragati+Sangha/data=!4m5!3m4!1s0x39f85b184eb2dfc3:0x1cca9d0116745bfd!8m2!3d23.1219183!4d88.03351?authuser=0&hl=en&rclk=1,23.1219183,88.03351,West Bengal
‡¶¨‡¶æ‡¶π‡¶æ‡¶¶‡ßÅ‡¶∞‡¶™‡ßÅ‡¶∞ ‡¶¨‡¶æ‡¶∏ ‡¶∏‡ßç‡¶ü‡ßç‡¶Ø‡¶æ‡¶°,Gym,"Uacha Gram Rd, Bahadurpur, West Bengal 713144, India",https://www.google.co.kr/maps/place/%E0%A6%AC%E0%A6%BE%E0%A6%B9%E0%A6%BE%E0%A6%A6%E0%A7%81%E0%A6%B0%E0%A6%AA%E0%A7%81%E0%A6%B0+%E0%A6%AC%E0%A6%BE%E0%A6%B8+%E0%A6%B8%E0%A7%8D%E0%A6%9F%E0%A7%8D%E0%A6%AF%E0%A6%BE%E0%A6%A1/data=!4m5!3m4!1s0x39f9d3beeadf4b1d:0x5014b48840ceac1!8m2!3d23.4316878!4d87.6419304?authuser=0&hl=en&rclk=1,23.4316878,87.6419304,West Bengal
The whole world of India political,Gym,"Iswar Gupta Bridge, Ishwar Gupta Setu, Block B, Bansberia, Kolkata, West Bengal 712502, India",https://www.google.co.kr/maps/place/The+whole+world+of+India+political/data=!4m5!3m4!1s0x39f895d78bf55a73:0x8da1c041908800be!8m2!3d22.966813!4d88.4046537?authuser=0&hl=en&rclk=1,22.966813,88.4046537,West Bengal
MY FITNESS FACTORY,Gym,"PITABALA APARTMENT, Vivekananda Rd, near JHANKAR MORE, Siliguri, India",https://www.google.co.kr/maps/place/MY+FITNESS+FACTORY/data=!4m5!3m4!1s0x39e4415515e513df:0xcbb64955b7a28109!8m2!3d26.7111916!4d88.4209781?authuser=0&hl=en&rclk=1,26.7111916,88.4209781,West Bengal
Yoga Swasthya Mandir,Yoga studio,"38B, 1A, Raja Manindra Rd, Paikpara, Kolkata, West Bengal 700037, India",https://www.google.co.kr/maps/place/Yoga+Swasthya+Mandir/data=!4m5!3m4!1s0x3a02761affffffff:0x9db2388f6744d86e!8m2!3d22.6127812!4d88.3787367?authuser=0&hl=en&rclk=1,22.6127812,88.3787367,West Bengal
‡¶¶‡¶æ‡¶∞‡ßÅ‡¶ö‡ßç‡¶õ‡¶æ‡ßü‡¶æ DARUCHAYA,Fitness center,"MJC4+PR4, Dakshin Harirampur, West Bengal 731236, India",https://www.google.co.kr/maps/place/%E0%A6%A6%E0%A6%BE%E0%A6%B0%E0%A7%81%E0%A6%9A%E0%A7%8D%E0%A6%9B%E0%A6%BE%E0%A7%9F%E0%A6%BE+DARUCHAYA/data=!4m5!3m4!1s0x39f9df3a06596371:0xccffa242242d0c9f!8m2!3d23.6717512!4d87.6070866?authuser=0&hl=en&rclk=1,23.6717512,87.6070866,West Bengal
Sturdy Funplay,Gym,"18, 2, Vidyasagar St, Machuabazar, Kolkata, West Bengal 700009, India",https://www.google.co.kr/maps/place/Sturdy+Funplay/data=!4m5!3m4!1s0x3a0277e6e501b975:0x20d8df01ade78e40!8m2!3d22.5803971!4d88.3735152?authuser=0&hl=en&rclk=1,22.5803971,88.3735152,West Bengal
Ladies Gym,Gym,"VQJM+VV7, Arambag, West Bengal 712601, India",https://www.google.co.kr/maps/place/Ladies+Gym/data=!4m5!3m4!1s0x39f813fa5c864c57:0x1400ceaef62f0317!8m2!3d22.8821641!4d87.784666?authuser=0&hl=en&rclk=1,22.8821641,87.784666,West Bengal
Arya Bayam Samiti,Fitness center,"J4WQ+7PJ, Bagane Para, Katwa, West Bengal 713130, India",https://www.google.co.kr/maps/place/Arya+Bayam+Samiti/data=!4m5!3m4!1s0x39f9a73004a93175:0x7cb7ba06bdeaab72!8m2!3d23.6457186!4d88.1392802?authuser=0&hl=en&rclk=1,23.6457186,88.1392802,West Bengal
HARA FOOTBALL GROUND,Gym,"Hara Bus Rd, Kestor More, Khidirpur, Kolkata, West Bengal 700023, India",https://www.google.co.kr/maps/place/HARA+FOOTBALL+GROUND/data=!4m5!3m4!1s0x39f863069e5a4285:0xfd95a20e8416a369!8m2!3d22.841409!4d88.1228419?authuser=0&hl=en&rclk=1,22.841409,88.1228419,West Bengal
Weight Lose Nutrition,Fitness center,"Sai Nivash, 101, Jessore Rd, Nagerbazar, Kolkata, West Bengal 700028, India",https://www.google.co.kr/maps/place/Weight+Lose+Nutrition/data=!4m5!3m4!1s0x39f89f19c8613861:0xdf40847660f2f29d!8m2!3d22.6226685!4d88.4149711?authuser=0&hl=en&rclk=1,22.6226685,88.4149711,West Bengal
Athletic Coaching Camp,Gym,"P93P+FPG, Amarabati, Sodepur, Kolkata, West Bengal 700110, India",https://www.google.co.kr/maps/place/Athletic+Coaching+Camp/data=!4m5!3m4!1s0x39f89c0bd695f581:0x24199bbc022dae3e!8m2!3d22.7036976!4d88.3868236?authuser=0&hl=en&rclk=1,22.7036976,88.3868236,West Bengal
Arfat Ground,Gym,"PX8H+VRC, Burdwan, West Bengal 713334, India",https://www.google.co.kr/maps/place/Arfat+Ground/data=!4m5!3m4!1s0x39f71f4c64260db5:0xdbe91288b297920!8m2!3d23.7171808!4d86.9795007?authuser=0&hl=en&rclk=1,23.7171808,86.9795007,West Bengal
CrossFit Gym Center,Gym,"8G3H+49C, Badkulla, West Bengal 741121, India",https://www.google.co.kr/maps/place/CrossFit+Gym+Center/data=!4m5!3m4!1s0x39f8df5b79a35be1:0x449ac80bdb933c1d!8m2!3d23.3028089!4d88.5283956?authuser=0&hl=en&rclk=1,23.3028089,88.5283956,West Bengal
Begampur Bayam Samiti,Gym,"P7M2+PXV, Begampur, Humbirpara, West Bengal 712306, India",https://www.google.co.kr/maps/place/Begampur+Bayam+Samiti/data=!4m5!3m4!1s0x39f884239471837b:0xc2b6e328a963fa13!8m2!3d22.7343507!4d88.2524097?authuser=0&hl=en&rclk=1,22.7343507,88.2524097,West Bengal
Yugidaha Football Maidan .,Gym,"yugidaha, Bally, India",https://www.google.co.kr/maps/place/Yugidaha+Football+Maidan+./data=!4m5!3m4!1s0x39f811f6d35f5d5b:0x361e2550afa5a377!8m2!3d22.8103262!4d87.7714759?authuser=0&hl=en&rclk=1,22.8103262,87.7714759,West Bengal
Sreebhumi Studio-de-health trust,Gym,"HCX3+JCR, Sreebhumi, Lake Town, Kolkata, West Bengal 700048, India",https://www.google.co.kr/maps/place/Sreebhumi+Studio-de-health+trust/data=!4m5!3m4!1s0x3a0275e2b0000001:0xba35beb64574f40b!8m2!3d22.5991118!4d88.4035152?authuser=0&hl=en&rclk=1,22.5991118,88.4035152,West Bengal
New Fitness Point,Gym,"89GF+9F3, Purulia, West Bengal 723101, India",https://www.google.co.kr/maps/place/New+Fitness+Point/data=!4m5!3m4!1s0x39f67d9c864dd1d3:0x1fff059be0ffe80f!8m2!3d23.325894!4d86.3736762?authuser=0&hl=en&rclk=1,23.325894,86.3736762,West Bengal
Sarai More,Gym,"Kalna - Pandua Rd, Sarai, West Bengal 712149, India",https://www.google.co.kr/maps/place/Sarai+More/data=!4m5!3m4!1s0x39f8f22935eee2e5:0x97e11a12a72779b7!8m2!3d23.0816657!4d88.2912429?authuser=0&hl=en&rclk=1,23.0816657,88.2912429,West Bengal
Brothers' Multi Gym,Gymnasium Cz,"M9V9+CWP, Kawakhari, West Bengal 734011, India",https://www.google.co.kr/maps/place/Brothers'+Multi+Gym/data=!4m5!3m4!1s0x39e446827c198ff3:0x16420905915b2e8c!8m2!3d26.6935911!4d88.3698218?authuser=0&hl=en&rclk=1,26.6935911,88.3698218,West Bengal
Body Basic instruments,Gym,"4 a arya pally, Kolkata, West Bengal 700034, India",https://www.google.co.kr/maps/place/Body+Basic+instruments/data=!4m5!3m4!1s0x3a0270a255191df7:0xea19d1cf59a383d8!8m2!3d22.4949485!4d88.3311046?authuser=0&hl=en&rclk=1,22.4949485,88.3311046,West Bengal
Pairagacha Bayam Somity,Gym,"P68R+4P9, Pairagacha, Janai, West Bengal 712304, India",https://www.google.co.kr/maps/place/Pairagacha+Bayam+Somity/data=!4m5!3m4!1s0x39f887016d96a7e1:0x913c7926831cdfd8!8m2!3d22.7152843!4d88.2418589?authuser=0&hl=en&rclk=1,22.7152843,88.2418589,West Bengal
Titanium Gym,Gym,"Janata Rd, Hindmotor, Uttarpara, West Bengal 712233, India",https://www.google.co.kr/maps/place/Titanium+Gym/data=!4m5!3m4!1s0x39f89dcfaec73341:0xdf0e2a44a598e701!8m2!3d22.6845792!4d88.3426838?authuser=0&hl=en&rclk=1,22.6845792,88.3426838,West Bengal
Arju Mondal,Gym,"Shitalpur,Ghatal,Paschim Medinipur,West Bengal, Ghatal, West Bengal 721212, India",https://www.google.co.kr/maps/place/Arju+Mondal/data=!4m5!3m4!1s0x39f8091aaaaaaaa3:0xa617e6ee626f7bfb!8m2!3d22.6420341!4d87.7176389?authuser=0&hl=en&rclk=1,22.6420341,87.7176389,West Bengal
Samrat Saha,Gym,"P9QW+9CR, Arabinda Pally, Titagarh, Barrackpore, West Bengal 700118, India",https://www.google.co.kr/maps/place/Samrat+Saha/data=!4m5!3m4!1s0x39f89bdbe82b740b:0x4b0e5b798f736ef1!8m2!3d22.738484!4d88.3960076?authuser=0&hl=en&rclk=1,22.738484,88.3960076,West Bengal
Barasat Cancer Research And Welfare Centre,Gym,"Barasat, Banamalipur, Kolkata, West Bengal 700124, India",https://www.google.co.kr/maps/place/Barasat+Cancer+Research+And+Welfare+Centre/data=!4m5!3m4!1s0x39f8a3e96ab584f5:0xf8df69ea6838e328!8m2!3d22.7239853!4d88.4888877?authuser=0&hl=en&rclk=1,22.7239853,88.4888877,West Bengal
Gujarkharui Play Ground,Gym,"CW2C+8QP, Gujar Kharui, West Bengal 721137, India",https://www.google.co.kr/maps/place/Gujarkharui+Play+Ground/data=!4m5!3m4!1s0x3a029745a7bad0e9:0x24b29d034be4801e!8m2!3d22.4008322!4d87.9219488?authuser=0&hl=en&rclk=1,22.4008322,87.9219488,West Bengal
Chitrak Fitness Parlour New ( AC ),Gymnasium Cz,"14, Madhusudan Banerjee Rd, Udaypur, Belghoria, Kolkata, West Bengal 700083, India",https://www.google.co.kr/maps/place/Chitrak+Fitness+Parlour+New+(+AC+)/data=!4m5!3m4!1s0x39f89dc622f829fd:0x2a9f8717c722dd7c!8m2!3d22.661485!4d88.393005?authuser=0&hl=en&rclk=1,22.661485,88.393005,West Bengal
Aspire Yoga Studio,Yoga studio,"Sarkarhat Bazar,Apollo Pharmacy 3rd Floor, Kolkata, West Bengal 700061, India",https://www.google.co.kr/maps/place/Aspire+Yoga+Studio/data=!4m5!3m4!1s0x3a027bc9223c3087:0x89c5398dff42fd8c!8m2!3d22.4802273!4d88.2990184?authuser=0&hl=en&rclk=1,22.4802273,88.2990184,West Bengal
AGRA GRAM PANCHAYAT,Gym,"V8FH+HR4, Kurchidanga, West Bengal 721121, India",https://www.google.co.kr/maps/place/AGRA+GRAM+PANCHAYAT/data=!4m5!3m4!1s0x39f7ef72f1516a31:0x61527656a5e5e3e5!8m2!3d22.8738948!4d87.3295635?authuser=0&hl=en&rclk=1,22.8738948,87.3295635,West Bengal
Mans engineering,Gym,"H9V9+8QH, Sovabazar, Darjipara, Kolkata, West Bengal 700006, India",https://www.google.co.kr/maps/place/Mans+engineering/data=!4m5!3m4!1s0x3a027636d1e89b0b:0x656a6fbef711e928!8m2!3d22.5933046!4d88.3694989?authuser=0&hl=en&rclk=1,22.5933046,88.3694989,West Bengal
Yogoda Satsanga Society of India - Kolkata Ashram,Ashram,"21, UN Mukherjee Rd, near Sarada Math, Dakshineswar, Kolkata, West Bengal 700076, India",https://www.google.co.kr/maps/place/Yogoda+Satsanga+Society+of+India+-+Kolkata+Ashram/data=!4m5!3m4!1s0x39f89cfc3cb93c73:0x3cbaa808fd933a1!8m2!3d22.6633671!4d88.3573079?authuser=0&hl=en&rclk=1,22.6633671,88.3573079,West Bengal
master megh creation,Yoga studio,"6WC5+QJR, Gangpur, West Bengal 713103, India",https://www.google.co.kr/maps/place/master+megh+creation/data=!4m5!3m4!1s0x39f8495ddf6cdb5d:0x64ac15a019cafb67!8m2!3d23.221978!4d87.9090052?authuser=0&hl=en&rclk=1,23.221978,87.9090052,West Bengal
