Company_Name,Category,Address,Url,latitude,longtitude
Fitness First Mall of India,Gym,"Plot No M, DLF Mall of India, 03, Sector 18, Noida, Uttar Pradesh 201301, India",https://www.google.co.kr/maps/place/Fitness+First+Mall+of+India/data=!4m5!3m4!1s0x390ce448811f4f45:0x41f569f37841521d!8m2!3d28.5668972!4d77.3213901?authuser=0&hl=en&rclk=1,28.5668972,77.3213901
Mission Fit India Gym,Gym,"Avas Vikas Rd, Avas Vikas Colony, PoliceLine, Saharanpur, Uttar Pradesh 247001, India",https://www.google.co.kr/maps/place/Mission+Fit+India+Gym/data=!4m5!3m4!1s0x390eeb678b47647f:0xad5f956f83a2dc5c!8m2!3d29.9427937!4d77.5455487?authuser=0&hl=en&rclk=1,29.9427937,77.5455487
Afton Fitness Lucknow,Gym,"Afton Fitness, Faizabad Rd, near indian overseas bank chinhat branch, Lucknow, Uttar Pradesh 226028, India",https://www.google.co.kr/maps/place/Afton+Fitness+Lucknow/data=!4m5!3m4!1s0x399be3c70ded1171:0xeda94d7087319b7a!8m2!3d26.8797976!4d81.0368174?authuser=0&hl=en&rclk=1,26.8797976,81.0368174
Fit India Gym,Gym,"1st Floor Siddhivinayak Hospital, Allhadadpur Chowk, Uttar Pradesh 273001, India",https://www.google.co.kr/maps/place/Fit+India+Gym/data=!4m5!3m4!1s0x399145d1b0753c11:0x2963eee4405a87a7!8m2!3d26.7426573!4d83.3658655?authuser=0&hl=en&rclk=1,26.7426573,83.3658655
Talwalkars Mahmoorganj,Gym,"Krishna Complex, D-63/8, Mahmoorganj Rd, Above State Bank of India Shivaji Nagar Branch, Mahmoorganj, Varanasi, Uttar Pradesh 221010, India",https://www.google.co.kr/maps/place/Talwalkars+Mahmoorganj/data=!4m5!3m4!1s0x398e32098eeffd81:0xd0cb83f1a2de1247!8m2!3d25.304335!4d82.9775108?authuser=0&hl=en&rclk=1,25.304335,82.9775108
oxygen gym,Gym,"scooter india churaha, Bijnor Rd, Sarojini Nagar, Lucknow, Uttar Pradesh 226008, India",https://www.google.co.kr/maps/place/oxygen+gym/data=!4m5!3m4!1s0x399bf95f789e9ed9:0x2c11172e97f8c403!8m2!3d26.7367541!4d80.8608238?authuser=0&hl=en&rclk=1,26.7367541,80.8608238
Indian Health Gym,Gym,"Prachi Beauty Parlour, Naubasta, Triveni Nagar, Nowbasta, Triveni Nagar, Lucknow, Uttar Pradesh 226020, India",https://www.google.co.kr/maps/place/Indian+Health+Gym/data=!4m5!3m4!1s0x3999564efd94c27d:0x2d3d47b379e99354!8m2!3d26.9136735!4d80.9346748?authuser=0&hl=en&rclk=1,26.9136735,80.9346748
U.P. Body Building & Fitness Association,Association or organization,"A-133,Padav Nagar, Meerut Cantt., Uttar Pradesh 250001, India",https://www.google.co.kr/maps/place/U.P.+Body+Building+%26+Fitness+Association/data=!4m5!3m4!1s0x398e2e72bb942f71:0x7445be2985a72b4b!8m2!3d25.3320518!4d83.0030032?authuser=0&hl=en&rclk=1,25.3320518,83.0030032
Akash Fitness Gym,Gym,"New Colony, City Station Rd, Naiganj, Jaunpur, Uttar Pradesh 222002, India",https://www.google.co.kr/maps/place/Akash+Fitness+Gym/data=!4m5!3m4!1s0x39903ba886b0cc83:0xacb0cfe03dd60e5b!8m2!3d25.7345269!4d82.6668607?authuser=0&hl=en&rclk=1,25.7345269,82.6668607
FITNESS FACTORY,Gym,"Ballia, Uttar Pradesh 277001, India",https://www.google.co.kr/maps/place/FITNESS+FACTORY/data=!4m5!3m4!1s0x3992650466d3f4e5:0xee81eb9e15cbed69!8m2!3d25.7605142!4d84.1415248?authuser=0&hl=en&rclk=1,25.7605142,84.1415248
Fit India Body And Health Care Center,Physical fitness program,"2nd Floor, Napier Plaza, Near Doodh Mandi, Hardoi Road, Napier Plaza Colony, Chowk, Lucknow, Uttar Pradesh 226003, India",https://www.google.co.kr/maps/place/Fit+India+Body+And+Health+Care+Center/data=!4m5!3m4!1s0x399bfe0770481987:0x5bc93909cec7c002!8m2!3d26.871518!4d80.897825?authuser=0&hl=en&rclk=1,26.871518,80.897825
"GOLD FITNESS GYM NAGINA, UP, INDIA",Gym,"Nagina Dhampur Rd, Nagina, Uttar Pradesh 246762, India","https://www.google.co.kr/maps/place/GOLD+FITNESS+GYM+NAGINA,+UP,+INDIA/data=!4m5!3m4!1s0x390bc5a53aaa7557:0x43f3635551027df6!8m2!3d29.4389595!4d78.4345593?authuser=0&hl=en&rclk=1",29.4389595,78.4345593
Fit India gym,Gym,"6M44+738, Domariyaganj, Uttar Pradesh 272189, India",https://www.google.co.kr/maps/place/Fit+India+gym/data=!4m5!3m4!1s0x39973bb4ca8cabbf:0x76fab7d911f112fe!8m2!3d27.2056742!4d82.6552007?authuser=0&hl=en&rclk=1,27.2056742,82.6552007
Core Fitness Gym,Gym,"sangam tower, Rohta Rd, near state bank of india, Meerut, Uttar Pradesh 250001, India",https://www.google.co.kr/maps/place/Core+Fitness+Gym/data=!4m5!3m4!1s0x390c6678a8231171:0x50d47c1becbfaf4f!8m2!3d28.9917025!4d77.6533695?authuser=0&hl=en&rclk=1,28.9917025,77.6533695
OPTIMAL GYM AND FITNESS,Gym,"Floor 2, HIGHLAND PLAZA, 1/11, Kursi Rd, opposite Bazar India, Vikas Nagar, Lucknow, Uttar Pradesh 226022, India",https://www.google.co.kr/maps/place/OPTIMAL+GYM+AND+FITNESS/data=!4m5!3m4!1s0x3999574db9a0cb47:0xd717a3c3c3d1d275!8m2!3d26.901252!4d80.9555756?authuser=0&hl=en&rclk=1,26.901252,80.9555756
Fit India Nutrition Club,Gym,"Hardoi Road (LKO), Thakur Ganj, Petrol Pump, Thakurganj, SH 25, Chaupatiyan, Lucknow, Uttar Pradesh 226007, India",https://www.google.co.kr/maps/place/Fit+India+Nutrition+Club/data=!4m5!3m4!1s0x399bfe076f92c9dd:0x6a9c7f232e37626d!8m2!3d26.8717155!4d80.8978107?authuser=0&hl=en&rclk=1,26.8717155,80.8978107
Mission Fitness India,Gym,"05/191 Halim Compound 05/191 Halim Compound, Chandraka Devi Rd, Chaman Ganj, Colonelganj, Kanpur, Uttar Pradesh 208001, India",https://www.google.co.kr/maps/place/Mission+Fitness+India/data=!4m5!3m4!1s0x399c476353a04345:0x63345c13780ef203!8m2!3d26.4630432!4d80.3326321?authuser=0&hl=en&rclk=1,26.4630432,80.3326321
"Power Gym Men, Raebareli , Uttar Pradesh, India",Gym,"Habibulla Nagar, Pragati Puram, Raebareli, Uttar Pradesh 229316, India","https://www.google.co.kr/maps/place/Power+Gym+Men,+Raebareli+,+Uttar+Pradesh,+India/data=!4m5!3m4!1s0x399ba3fe735f24c1:0xef17ece15043c1c9!8m2!3d26.2462383!4d81.244106?authuser=0&hl=en&rclk=1",26.2462383,81.244106
FUTURE FITNESS HATHRAS U.P.,Gym,"Agra - Hathras Rd, opp. to bhurjian dharmshala, Vijayanagar Colony, Hathras, Uttar Pradesh 204101, India",https://www.google.co.kr/maps/place/FUTURE+FITNESS+HATHRAS+U.P./data=!4m5!3m4!1s0x39748567365323b5:0xd43c6e32e1be7f45!8m2!3d27.5678142!4d78.0537763?authuser=0&hl=en&rclk=1,27.5678142,78.0537763
Anytime Fitness,Gym,"Jaipuria Plaza, D-Block, Sector 26, Noida, Uttar Pradesh 201301, India",https://www.google.co.kr/maps/place/Anytime+Fitness/data=!4m5!3m4!1s0x390ce5b285c09f3b:0x8380a55d196a4784!8m2!3d28.5763171!4d77.3350727?authuser=0&hl=en&rclk=1,28.5763171,77.3350727
"FITNESS ON FIRE GYM ,AMROHA",Gym,"Station Rd, Jai Om Nagar, Amroha, Uttar Pradesh 244221, India","https://www.google.co.kr/maps/place/FITNESS+ON+FIRE+GYM+,AMROHA/data=!4m5!3m4!1s0x390b09dbe6b9e34d:0x4881c37636123414!8m2!3d28.8992685!4d78.4722466?authuser=0&hl=en&rclk=1",28.8992685,78.4722466
Force Fitness Gym,Gym,"Faizabad - Allahabad Rd, Bela Pratapgarh, Uttar Pradesh 230001, India",https://www.google.co.kr/maps/place/Force+Fitness+Gym/data=!4m5!3m4!1s0x399a91c55cca1d1d:0xa74c23322969fb46!8m2!3d25.9239727!4d82.0039601?authuser=0&hl=en&rclk=1,25.9239727,82.0039601
M.S Fitness Academy,Gym,"Sadabad Rd, Mursan, Uttar Pradesh 204213, India",https://www.google.co.kr/maps/place/M.S+Fitness+Academy/data=!4m5!3m4!1s0x39748347c6398527:0xe9253cd3e1323c10!8m2!3d27.5733797!4d77.9415621?authuser=0&hl=en&rclk=1,27.5733797,77.9415621
Power Gym,Gym,"QQX2+CHG, Jaipurwa, Basti, Uttar Pradesh 272002, India",https://www.google.co.kr/maps/place/Power+Gym/data=!4m5!3m4!1s0x3990daa0b7117015:0xe92f58ade05b0f14!8m2!3d26.7985599!4d82.7514685?authuser=0&hl=en&rclk=1,26.7985599,82.7514685
Optimal Gym,Gym,"1/11 Second Floor, Highland Plaza, near Gulachin Mandir, Sector 1, Vikas Nagar, Lucknow, Uttar Pradesh 226022, India",https://www.google.co.kr/maps/place/Optimal+Gym/data=!4m5!3m4!1s0x39995741275adff9:0x5fafc68b3c7d62af!8m2!3d26.9012352!4d80.9554678?authuser=0&hl=en&rclk=1,26.9012352,80.9554678
Gimi's Gym,Gym,"Capper Rd, Lalbagh, Lucknow, Uttar Pradesh 226001, India",https://www.google.co.kr/maps/place/Gimi's+Gym/data=!4m5!3m4!1s0x399bfda630d589ad:0xbfbbd415f7c7a00e!8m2!3d26.8483799!4d80.9396079?authuser=0&hl=en&rclk=1,26.8483799,80.9396079
Sweat and Blood Gym,Gym,"A-725 Ground Floor, near Convention center, Indira Nagar, Lucknow, Uttar Pradesh 226016, India",https://www.google.co.kr/maps/place/Sweat+and+Blood+Gym/data=!4m5!3m4!1s0x399bfddce44130b3:0xeec7ad08057289d7!8m2!3d26.8745901!4d80.9741542?authuser=0&hl=en&rclk=1,26.8745901,80.9741542
Iron Paradise Gym,Gym,"Infront of Islamia College, Lalbagh, Lucknow, Uttar Pradesh 226001, India",https://www.google.co.kr/maps/place/Iron+Paradise+Gym/data=!4m5!3m4!1s0x399bfd7398d6ede5:0xc237207f5677d935!8m2!3d26.8511071!4d80.9487354?authuser=0&hl=en&rclk=1,26.8511071,80.9487354
Anytime Fitness,Gym,"metro station, Gaur Ganga, Hall No 1, GF, near vaishali, Sector 4, Vaishali, Uttar Pradesh 201010, India",https://www.google.co.kr/maps/place/Anytime+Fitness/data=!4m5!3m4!1s0x390cfada74a5a28b:0x9aeabe829864e9cd!8m2!3d28.6487753!4d77.3391876?authuser=0&hl=en&rclk=1,28.6487753,77.3391876
The Fitness Zone,Gym,"1/817, Sahara States Rd, Sector H, Sector I, Sector H, Jankipuram, Lucknow, Uttar Pradesh 226021, India",https://www.google.co.kr/maps/place/The+Fitness+Zone/data=!4m5!3m4!1s0x399957b0e23d8b97:0x80e87551c0d20cb1!8m2!3d26.914157!4d80.951271?authuser=0&hl=en&rclk=1,26.914157,80.951271
Energie Fitness India,Gym,"B-108, Mahanagar, Lucknow, Uttar Pradesh 226006, India",https://www.google.co.kr/maps/place/Energie+Fitness+India/data=!4m5!3m4!1s0x399bfdcc50067cf9:0x73bff950c525b27b!8m2!3d26.875907!4d80.957471?authuser=0&hl=en&rclk=1,26.875907,80.957471
The champion gym,Gym,"Sanskrit Pathshala Gali, Sewarhi, Uttar Pradesh 274406, India",https://www.google.co.kr/maps/place/The+champion+gym/data=!4m5!3m4!1s0x39939faa44099703:0x1636286ad0622601!8m2!3d26.7226709!4d84.2302509?authuser=0&hl=en&rclk=1,26.7226709,84.2302509
Fitness Pro The unisex gym,Gym,"Dipeka palace, 2nd floor, begum bagh, near meera medical store, 250001, India",https://www.google.co.kr/maps/place/Fitness+Pro+The+unisex+gym/data=!4m5!3m4!1s0x390c6561e3e52841:0x3ff17243e2eb9c80!8m2!3d28.9915189!4d77.7068279?authuser=0&hl=en&rclk=1,28.9915189,77.7068279
The Muscle Gym,Gym,"Agarwal Market, Aravali Marg, Sector 18, Indira Nagar, Lucknow, Uttar Pradesh 226016, India",https://www.google.co.kr/maps/place/The+Muscle+Gym/data=!4m5!3m4!1s0x399be2ad00f82cb3:0x405616ae2b4a994!8m2!3d26.876535!4d80.989771?authuser=0&hl=en&rclk=1,26.876535,80.989771
Aesthetic Fitness Center,Gym,"1, 102, near Bank Of India, Vardan Khand, Sector 1, Gomti Nagar, Lucknow, Uttar Pradesh 226010, India",https://www.google.co.kr/maps/place/Aesthetic+Fitness+Center/data=!4m5!3m4!1s0x399bfd3ea2313f9d:0x465216b9c67075fe!8m2!3d26.8376542!4d81.0029238?authuser=0&hl=en&rclk=1,26.8376542,81.0029238
Radhe Fitness,Gym,"274304, Munna Colony, Tulsi Nagar, Khushi Nagar, Padrauna, Uttar Pradesh 274304, India",https://www.google.co.kr/maps/place/Radhe+Fitness/data=!4m5!3m4!1s0x39938da8e175abdf:0x4120b409547e6c4c!8m2!3d26.8951968!4d83.9781353?authuser=0&hl=en&rclk=1,26.8951968,83.9781353
Infinity fitness only for ladies,Fitness center,"Roorkee Rd, Friends Colony, Saharan Pur, Rampuri, Muzaffarnagar, Uttar Pradesh 251001, India",https://www.google.co.kr/maps/place/Infinity+fitness+only+for+ladies/data=!4m5!3m4!1s0x390c1be93387098f:0x7ea851a6abea4be5!8m2!3d29.4859259!4d77.6965936?authuser=0&hl=en&rclk=1,29.4859259,77.6965936
Golds Gym,Gym,"32, 18, Sardar Patel Marg, Gayatripuram Colony, Civil Lines, Prayagraj, Uttar Pradesh 211001, India",https://www.google.co.kr/maps/place/Golds+Gym/data=!4m5!3m4!1s0x399acac2f3071fd3:0x8041416b3310c623!8m2!3d25.4520471!4d81.8340366?authuser=0&hl=en&rclk=1,25.4520471,81.8340366
The Happy Gym,Gym,"Bazar India building kanoongopura, Bahraich, India",https://www.google.co.kr/maps/place/The+Happy+Gym/data=!4m5!3m4!1s0x3999a9929d9a8f8b:0x8f88556e78288e9c!8m2!3d27.5715962!4d81.6023476?authuser=0&hl=en&rclk=1,27.5715962,81.6023476
A+A gym 99,Fitness center,"Nadan Mahal Rd, near Taxi Stand, Moulavi, Hazratganj, Lucknow, Uttar Pradesh 226018, India",https://www.google.co.kr/maps/place/A%2BA+gym+99/data=!4m5!3m4!1s0x399bfdc9a73f193d:0x13d5b7c88d783141!8m2!3d26.8555972!4d80.90999?authuser=0&hl=en&rclk=1,26.8555972,80.90999
Salam Club,Gym,"5/23, Kanpur Road, LDA Colony, Sector F, Kanpur Road, Near SBI ATM, Hind Nagar, Lucknow, Uttar Pradesh 226012, India",https://www.google.co.kr/maps/place/Salam+Club/data=!4m5!3m4!1s0x399bfbfe044c0f53:0xf474d7431735b8cc!8m2!3d26.78094!4d80.89915?authuser=0&hl=en&rclk=1,26.78094,80.89915
Gaurav Shahi fitness,Fitness center,"Gaurav fitness Langda chauraha, Post, Bariyarpur, Uttar Pradesh 274001, India",https://www.google.co.kr/maps/place/Gaurav+Shahi+fitness/data=!4m5!3m4!1s0x3993c56589b877b1:0x379642a14695762c!8m2!3d26.5082682!4d83.8728134?authuser=0&hl=en&rclk=1,26.5082682,83.8728134
The Indian Gym,Gym,"Pandeypur Rd, Opposite Police Chowki, Premchandra Nagar Phase - 2, Naibasti, Varanasi, Uttar Pradesh 221002, India",https://www.google.co.kr/maps/place/The+Indian+Gym/data=!4m5!3m4!1s0x398e2e7f3f01c1e3:0x9e6bdfd2fef5944b!8m2!3d25.349584!4d82.9946679?authuser=0&hl=en&rclk=1,25.349584,82.9946679
"UFC GYM, Bareilly",Gym,"3rd Floor, Galleria Tower, Rampur Garden, Bareilly, Uttar Pradesh 243001, India","https://www.google.co.kr/maps/place/UFC+GYM,+Bareilly/data=!4m5!3m4!1s0x39a0019814a4877b:0x922d7c10d51d5c08!8m2!3d28.3481745!4d79.4235798?authuser=0&hl=en&rclk=1",28.3481745,79.4235798
Gold's Gym,Gym,"Gallantt Landmark, 3rd Floor, Bank Rd, Gorakhpur, Uttar Pradesh 273001, India",https://www.google.co.kr/maps/place/Gold's+Gym/data=!4m5!3m4!1s0x39914468c1662e81:0xf3befcafa3d087c1!8m2!3d26.754901!4d83.366624?authuser=0&hl=en&rclk=1,26.754901,83.366624
Gold's Gym Hazratganj,Gym,"Trident, UGF 213-218, Rohtas k's, Rana Pratap Marg, Opp.NBRI, Lucknow, Uttar Pradesh 226001, India",https://www.google.co.kr/maps/place/Gold's+Gym+Hazratganj/data=!4m5!3m4!1s0x399bfdab9bf6f433:0xc457a0753c57ebc1!8m2!3d26.8539804!4d80.9524712?authuser=0&hl=en&rclk=1,26.8539804,80.9524712
Oliempiya Fitness,Gym,"Kali Ji Temple, Sector A, Phool Bagh, Sector A, Jankipuram, Lucknow, Uttar Pradesh 226021, India",https://www.google.co.kr/maps/place/Oliempiya+Fitness/data=!4m5!3m4!1s0x399957bc1761ae81:0x3717cc912e90d213!8m2!3d26.91361!4d80.96061?authuser=0&hl=en&rclk=1,26.91361,80.96061
Tata Gym,Gym,"QWGC+QC9, Sector N, Ashiyana, Lucknow, Uttar Pradesh 226012, India",https://www.google.co.kr/maps/place/Tata+Gym/data=!4m5!3m4!1s0x399bfb8d4dd6f1f9:0xb41f383da9deb735!8m2!3d26.7769144!4d80.921106?authuser=0&hl=en&rclk=1,26.7769144,80.921106
Kamya Body Care,Gym,"Raebareli Road, Raebareily Road, near Corporation Bank, Gandhi Nagar, Telibagh, Lucknow, Uttar Pradesh 226002, India",https://www.google.co.kr/maps/place/Kamya+Body+Care/data=!4m5!3m4!1s0x399bfb8051ffbcbb:0xc3c9e3de3c9a9227!8m2!3d26.78643!4d80.94081?authuser=0&hl=en&rclk=1,26.78643,80.94081
Sunny’s Fitness Factory,Gym,"439/7 Kha, Hardoi Rd, near City Montessori School, Lucknow, Uttar Pradesh 226003, India",https://www.google.co.kr/maps/place/Sunny%E2%80%99s+Fitness+Factory/data=!4m5!3m4!1s0x399bfdfb641ef6a5:0xa5a802524a9504f9!8m2!3d26.8702517!4d80.9046091?authuser=0&hl=en&rclk=1,26.8702517,80.9046091
The Gold's Gym,Fitness center,"Somvanshi tower, Ratasiya, Mod, near SBI bank, Bhatpar Rani, Uttar Pradesh 274702, India",https://www.google.co.kr/maps/place/The+Gold's+Gym/data=!4m5!3m4!1s0x39915bdf19a64271:0xb1c1774d51a5cdd0!8m2!3d26.7419854!4d83.4312?authuser=0&hl=en&rclk=1,26.7419854,83.4312
Muscle Town (Gym),Gym,"2nd floor Dr. Tripathi complex ,Inderlok Market Krishna Nagar Opp. Saisovir Mandir, near brijwasi Bakery, Lucknow, Uttar Pradesh 226023, India",https://www.google.co.kr/maps/place/Muscle+Town+(Gym)/data=!4m5!3m4!1s0x399bfea6ab4ff933:0x68b61c52087002b3!8m2!3d26.79735!4d80.885564?authuser=0&hl=en&rclk=1,26.79735,80.885564
Anytime Fitness Swaroop Nagar Kanpur,Fitness center,"113 / 138 & 139 ,2nd & 3rd floor, Swaroop Nagar, Kanpur, Uttar Pradesh 208002, India",https://www.google.co.kr/maps/place/Anytime+Fitness+Swaroop+Nagar+Kanpur/data=!4m5!3m4!1s0x399c3984576d827f:0x76728eb097f8f2ea!8m2!3d26.4808821!4d80.3166062?authuser=0&hl=en&rclk=1,26.4808821,80.3166062
FITNESS FACTORY UNISEX GYM,Gym,"Garwar - Budhaun Nehar Road near mehboob manzil, umarganj, Ballia, Uttar Pradesh 277001, India",https://www.google.co.kr/maps/place/FITNESS+FACTORY+UNISEX+GYM/data=!4m5!3m4!1s0x399269fa2eb2c339:0xbeedf0f6e381f5fe!8m2!3d25.7605485!4d84.1414868?authuser=0&hl=en&rclk=1,25.7605485,84.1414868
Gold's Gym,Fitness center,"NH-24, Civil Lines, opp. Prabha Talkies, Rampur Garden, Bareilly, Uttar Pradesh 243001, India",https://www.google.co.kr/maps/place/Gold's+Gym/data=!4m5!3m4!1s0x39a000d67386dbe9:0x57532f7b0017e1fa!8m2!3d28.3481551!4d79.4237348?authuser=0&hl=en&rclk=1,28.3481551,79.4237348
365 fitness (gym),Gym,"Pandit triveni sahai and sons station road, Budaun, India",https://www.google.co.kr/maps/place/365+fitness+(gym)/data=!4m5!3m4!1s0x397545ed22174637:0xd86548784f0e6835!8m2!3d28.0316989!4d79.1323006?authuser=0&hl=en&rclk=1,28.0316989,79.1323006
Vivanation Fitness Studio,Gym,"First Floor,Eldeco Express Plaza, Amar Shaheed Path, Eldeco Udyan II, Rlb.Road, Lucknow, Uttar Pradesh 226025, India",https://www.google.co.kr/maps/place/Vivanation+Fitness+Studio/data=!4m5!3m4!1s0x399bfb9f70c0e3a5:0xb057f3b26092865f!8m2!3d26.7663418!4d80.939793?authuser=0&hl=en&rclk=1,26.7663418,80.939793
Health Zone,Gym,"B-1/66, 1st Floor, Sector B, Opp BIBA Showroom, Lucknow, Uttar Pradesh 226024, India",https://www.google.co.kr/maps/place/Health+Zone/data=!4m5!3m4!1s0x3999562b00000001:0x6ce069287d155735!8m2!3d26.8861006!4d80.9413233?authuser=0&hl=en&rclk=1,26.8861006,80.9413233
Altitude Fitness Gym & steam bath,Fitness center,"60 Feet Rd, Sultanpur Village, Jankipuram Extension, Lucknow, Uttar Pradesh 226021, India",https://www.google.co.kr/maps/place/Altitude+Fitness+Gym+%26+steam+bath/data=!4m5!3m4!1s0x39995654a6a72fc5:0x41c2ae1e5f990d0e!8m2!3d26.9237!4d80.941917?authuser=0&hl=en&rclk=1,26.9237,80.941917
A Square Fitness Zone,Gym,"51, Sitapur Rd, Bargadi, Bakshi Ka Talab, Bargadi Magath, Uttar Pradesh 227202, India",https://www.google.co.kr/maps/place/A+Square+Fitness+Zone/data=!4m5!3m4!1s0x39995137c36fb9a3:0xf34b59eface50aeb!8m2!3d26.9844606!4d80.9215882?authuser=0&hl=en&rclk=1,26.9844606,80.9215882
Iron Paradise Gym,Gym,"in front of Islamia College, Lalbagh, Lucknow, Uttar Pradesh 226001, India",https://www.google.co.kr/maps/place/Iron+Paradise+Gym/data=!4m5!3m4!1s0x399bfd8b0a10be71:0x2e65fa52f32fbae7!8m2!3d26.8443173!4d80.9402882?authuser=0&hl=en&rclk=1,26.8443173,80.9402882
Making India fittest And healthier,Fitness center,"SBI ATM ki bagal, Seth ram jas road, Chor Wali Gali, near zoo, Narhi, Lucknow, Uttar Pradesh 226001, India",https://www.google.co.kr/maps/place/Making+India+fittest+And+healthier/data=!4m5!3m4!1s0x399bfd768d538193:0x68de8a949642f5af!8m2!3d26.8459085!4d80.9498375?authuser=0&hl=en&rclk=1,26.8459085,80.9498375
Shouhan Health Care,Gym,"85, Badshah Nagar Chauraha, Badshah nagar Chauraha, near Badshah Nagar Station, Mahanagar, Lucknow, Uttar Pradesh 226006, India",https://www.google.co.kr/maps/place/Shouhan+Health+Care/data=!4m5!3m4!1s0x399bfd660d6118b3:0x66ca4abd705049d!8m2!3d26.8732911!4d80.9600659?authuser=0&hl=en&rclk=1,26.8732911,80.9600659
IRITM Gym,Gym,"Indian Railway Institute of Transport Management, Mess Complex, Kanausi, Lucknow, Uttar Pradesh 226011, India",https://www.google.co.kr/maps/place/IRITM+Gym/data=!4m5!3m4!1s0x399bfe933de3d615:0x6e3468719728ddb3!8m2!3d26.8160096!4d80.8777747?authuser=0&hl=en&rclk=1,26.8160096,80.8777747
Karnwal Fitness Academy,Gym,"Punjabi Colony, Nai Basti, Meerapur Raza, Uttar Pradesh 246701, India",https://www.google.co.kr/maps/place/Karnwal+Fitness+Academy/data=!4m5!3m4!1s0x390bee4459183bfb:0xfd5691fa783dbc9e!8m2!3d29.3810353!4d78.1419718?authuser=0&hl=en&rclk=1,29.3810353,78.1419718
Fitness First Gym,Gym,"GFV4+862, Ecotech III, Khera Choganpur, Uttar Pradesh 201306, India",https://www.google.co.kr/maps/place/Fitness+First+Gym/data=!4m5!3m4!1s0x390ce94f77675503:0x38af65e01457b72c!8m2!3d28.5432741!4d77.4555237?authuser=0&hl=en&rclk=1,28.5432741,77.4555237
New Indian gym and fitness Centre,Gym,"WHJ7+PCV, Munshi Pura, Mau, Uttar Pradesh 275101, India",https://www.google.co.kr/maps/place/New+Indian+gym+and+fitness+Centre/data=!4m5!3m4!1s0x39918aee5021b549:0x4652e6cf037f6141!8m2!3d25.9318667!4d83.5635517?authuser=0&hl=en&rclk=1,25.9318667,83.5635517
Ultimate Fitness Center,Gym,"606/49 Barawan Khurd, Dubagga, Lucknow, Uttar Pradesh 226003, India",https://www.google.co.kr/maps/place/Ultimate+Fitness+Center/data=!4m5!3m4!1s0x399955d1bc351143:0x736f26aedab07af3!8m2!3d26.8912776!4d80.8625343?authuser=0&hl=en&rclk=1,26.8912776,80.8625343
GOLDS GYM MORADABAD,Gym,"07, High Street, MDA, Moradabad, Uttar Pradesh 244001, India",https://www.google.co.kr/maps/place/GOLDS+GYM+MORADABAD/data=!4m5!3m4!1s0x390af9b68c1b4da7:0xb8a68431335279da!8m2!3d28.8772248!4d78.7577067?authuser=0&hl=en&rclk=1,28.8772248,78.7577067
Health india gym,Gym,"bus stand, F block sec - 11 rajajipuram Mohaan, Lucknow, Uttar Pradesh 226017, India",https://www.google.co.kr/maps/place/Health+india+gym/data=!4m5!3m4!1s0x399bffa5d0c50857:0xa90db11d4d227c5!8m2!3d26.8466976!4d80.8769835?authuser=0&hl=en&rclk=1,26.8466976,80.8769835
Anytime Fitness,Gym,"3/296 Vishal Khand Opp SRS City Mall, Gomti Nagar, Lucknow, Uttar Pradesh 226010, India",https://www.google.co.kr/maps/place/Anytime+Fitness/data=!4m5!3m4!1s0x399be2d3b021f34d:0xa6f0452fb493b9f9!8m2!3d26.8460605!4d80.9886297?authuser=0&hl=en&rclk=1,26.8460605,80.9886297
Fitness Revolution A Complete Family Health Club,Gym,"2nd Floor Tiranga Market, Eidgah, Road, Gonda, Uttar Pradesh 271001, India",https://www.google.co.kr/maps/place/Fitness+Revolution+A+Complete+Family+Health+Club/data=!4m5!3m4!1s0x3999ef8bc4a72567:0xe3675537637ee305!8m2!3d27.1360211!4d81.9648932?authuser=0&hl=en&rclk=1,27.1360211,81.9648932
"Lucknow Gym(a Gym by Mr. Wasi Khan ),Lucknow",Gymnastics center,"Maulviganj, Wazirganj, Lucknow, Uttar Pradesh 226018, India","https://www.google.co.kr/maps/place/Lucknow+Gym(a+Gym+by+Mr.+Wasi+Khan+),Lucknow/data=!4m5!3m4!1s0x399bfdb855555581:0x11e7ebc354fa9011!8m2!3d26.849186!4d80.923538?authuser=0&hl=en&rclk=1",26.849186,80.923538
Lifetime Fitness,Fitness center,"Atal Chauraha, 4/369, Sector 4, Sector 5, Jankipuram Vistar, Lucknow, Uttar Pradesh 226021, India",https://www.google.co.kr/maps/place/Lifetime+Fitness/data=!4m5!3m4!1s0x399957016d397c5f:0x12460718e94ce5c!8m2!3d26.9339082!4d80.9464527?authuser=0&hl=en&rclk=1,26.9339082,80.9464527
GOLD’S GYM,Fitness center,"UGF 213-218,Rohtas k’s Trident, Rana Pratap Marg, opposite NBRI, Hazratganj, Lucknow, Uttar Pradesh 226001, India",https://www.google.co.kr/maps/place/GOLD%E2%80%99S+GYM/data=!4m5!3m4!1s0x399bfd0f120edbe5:0x4fdea5f283f067a2!8m2!3d26.8511679!4d80.9532007?authuser=0&hl=en&rclk=1,26.8511679,80.9532007
The Fitness Gym,Gym,"Near, 2/107, Gurudwara Rd, Nishat Ganj, Lucknow, Uttar Pradesh 226007, India",https://www.google.co.kr/maps/place/The+Fitness+Gym/data=!4m5!3m4!1s0x399bfd6f74c0aa59:0x99165c7c420e0925!8m2!3d26.87038!4d80.95697?authuser=0&hl=en&rclk=1,26.87038,80.95697
Fitness Gym,Gym,"RD Complex 261505 U-3, Unnamed Rd, Sector 3, Avas Vikas Colony, Sikandra, Agra, Uttar Pradesh 282004, India",https://www.google.co.kr/maps/place/Fitness+Gym/data=!4m5!3m4!1s0x399f11e95c61d221:0x7ace84100eeae708!8m2!3d27.7794077!4d80.3435238?authuser=0&hl=en&rclk=1,27.7794077,80.3435238
Fitness Revolution - best gym in agra | zumba classes in agra | yoga classes in agra,Fitness center,"3rd Floor Ashok Plaza Bypass Road, NH2, near Omaxe SRK Mall, Agra, Uttar Pradesh 282003, India",https://www.google.co.kr/maps/place/Fitness+Revolution+-+best+gym+in+agra+%7C+zumba+classes+in+agra+%7C+yoga+classes+in+agra/data=!4m5!3m4!1s0x397477503d7cb94d:0x14681cd6c5e049b4!8m2!3d27.2108691!4d78.0001254?authuser=0&hl=en&rclk=1,27.2108691,78.0001254
TABATA FITNESS,Gym,"1st floor, 5/583, Vikaskhand 5, Gwari Village, Vikas Khand, Gomti Nagar, Lucknow, Uttar Pradesh 226010, India",https://www.google.co.kr/maps/place/TABATA+FITNESS/data=!4m5!3m4!1s0x399be313e47a91eb:0x30d8ba6de248e94!8m2!3d26.8429129!4d80.9953816?authuser=0&hl=en&rclk=1,26.8429129,80.9953816
PREDATOR GYM,Gymnastics center,"7 A railbarirely, Raibareli Rd, Rajni Khand, Amrapali Vihar, Lucknow, Uttar Pradesh 226025, India",https://www.google.co.kr/maps/place/PREDATOR+GYM/data=!4m5!3m4!1s0x399bfb9d0ac0a149:0xf41fffb1e27fb13f!8m2!3d26.774509!4d80.94144?authuser=0&hl=en&rclk=1,26.774509,80.94144
Gold's Gym,Gym,"4/47 A, Bagh Farzana Rd, Lajpat Kunj, Civil Lines, Agra, Uttar Pradesh 282002, India",https://www.google.co.kr/maps/place/Gold's+Gym/data=!4m5!3m4!1s0x397477418d2cdbd7:0x887872fd3c95e449!8m2!3d27.2012147!4d77.9981456?authuser=0&hl=en&rclk=1,27.2012147,77.9981456
Oxygen Fitness GYM,Gym,"Platinum Mall, Flyover, Baghpat Rd, Malyana, Meerut, Uttar Pradesh 250002, India",https://www.google.co.kr/maps/place/Oxygen+Fitness+GYM/data=!4m5!3m4!1s0x390c6591b25e7f21:0xddae7ddaa9e06d63!8m2!3d28.971526!4d77.6692372?authuser=0&hl=en&rclk=1,28.971526,77.6692372
Powermax Fitness,Gym,"Near, Kaisarbagh Anand Cinema 57, Nazirabad, Aminabad, Lucknow, Uttar Pradesh 226018, India",https://www.google.co.kr/maps/place/Powermax+Fitness/data=!4m5!3m4!1s0x399bfdb62d267373:0xabed3fa99082eb64!8m2!3d26.8496066!4d80.9304361?authuser=0&hl=en&rclk=1,26.8496066,80.9304361
Fusion Fitness,Fitness center,"B-975, near Tulsi Ganga Mandap, Sector A, Mahanagar, Lucknow, Uttar Pradesh 226006, India",https://www.google.co.kr/maps/place/Fusion+Fitness/data=!4m5!3m4!1s0x399957c954c4d00d:0x831ff8125f7819c4!8m2!3d26.8760204!4d80.947268?authuser=0&hl=en&rclk=1,26.8760204,80.947268
Gold's Gym,Fitness center,"113, 4 G, Moti Jheel Ave, Khalasi Line, Swaroop Nagar, Kanpur, Uttar Pradesh 208003, India",https://www.google.co.kr/maps/place/Gold's+Gym/data=!4m5!3m4!1s0x399c386575bd25bf:0x91d6c87fa0810857!8m2!3d26.4806355!4d80.3111433?authuser=0&hl=en&rclk=1,26.4806355,80.3111433
Ankit Gym,Gym,"Sitapur Rd, Khadra, Lucknow, Uttar Pradesh 226020, India",https://www.google.co.kr/maps/place/Ankit+Gym/data=!4m5!3m4!1s0x399bfdf57624c583:0xae5fdba1a50cdd7a!8m2!3d26.879971!4d80.918049?authuser=0&hl=en&rclk=1,26.879971,80.918049
Athletic Studio (Gym and Fitness Centre),Gym,"109/X-1Block, Krishnapuram, GT road, near Bajaj RNG, Kanpur, Uttar Pradesh 208007, India",https://www.google.co.kr/maps/place/Athletic+Studio+(Gym+and+Fitness+Centre)/data=!4m5!3m4!1s0x399c4137f4733115:0x3b1c05f14c597f4d!8m2!3d26.4215475!4d80.3749344?authuser=0&hl=en&rclk=1,26.4215475,80.3749344
Oasis Fitness,Gym,"747 C,Meera Complex, Jaycees Road, Wazidpur, Jaunpur, Uttar Pradesh 222002, India",https://www.google.co.kr/maps/place/Oasis+Fitness/data=!4m5!3m4!1s0x39903bb64c600f33:0xb9bd9b38907609e0!8m2!3d25.73755!4d82.6836155?authuser=0&hl=en&rclk=1,25.73755,82.6836155
World Power Zone GYM,Gym,"Lucknow - Colonelganj - Gonda Rd, Shivaji Puram, Siddarth Nagar, Indira Nagar, Barabanki, Uttar Pradesh 225001, India",https://www.google.co.kr/maps/place/World+Power+Zone+GYM/data=!4m5!3m4!1s0x3999580e6c7182a9:0x9fe0e1fa134ea053!8m2!3d26.8963435!4d81.0026787?authuser=0&hl=en&rclk=1,26.8963435,81.0026787
Aesthetic Fitness Centre,Fitness center,"1, 102, near Bank Of India, Vikaskhand 5, Gwari Village, Vikas Khand, Gomti Nagar, Lucknow, Uttar Pradesh 226010, India",https://www.google.co.kr/maps/place/Aesthetic+Fitness+Centre/data=!4m5!3m4!1s0x399be3273a62721d:0xdfa98a2008c31514!8m2!3d26.8431412!4d80.9934101?authuser=0&hl=en&rclk=1,26.8431412,80.9934101
AV FITNESS,Gym,"07, Paradise colony, Shyam Nagar Rd, Meerut, Uttar Pradesh 250002, India",https://www.google.co.kr/maps/place/AV+FITNESS/data=!4m5!3m4!1s0x390c65f9faa15259:0x1cb9a6ec94647b6!8m2!3d28.9570767!4d77.70573?authuser=0&hl=en&rclk=1,28.9570767,77.70573
Salim Fitness Jone,Gym,"Shivani Medicals, Ring Road Sitapur, Aliganj, Lucknow, Uttar Pradesh 226024, India",https://www.google.co.kr/maps/place/Salim+Fitness+Jone/data=!4m5!3m4!1s0x399957cb2e07702d:0x90686378267f0cba!8m2!3d26.9023!4d80.94324?authuser=0&hl=en&rclk=1,26.9023,80.94324
Gym Gyani Fitness Blog,Fitness center,"Babu Purwa, Kidwai Nagar, Kanpur, Uttar Pradesh 208011, India",https://www.google.co.kr/maps/place/Gym+Gyani+Fitness+Blog/data=!4m5!3m4!1s0x399c47ae45b199bd:0x3121e5a45bc7f2ee!8m2!3d26.4377157!4d80.3428946?authuser=0&hl=en&rclk=1,26.4377157,80.3428946
CULT,Fitness center,"Stellar IT Park, Tower II, Cult Sector 62 Noida, First Floor, C Block, Noida, Uttar Pradesh 201309, India",https://www.google.co.kr/maps/place/CULT/data=!4m5!3m4!1s0x390ce51c5b2ea0b7:0x4367db76ceb7c463!8m2!3d28.6128023!4d77.3623937?authuser=0&hl=en&rclk=1,28.6128023,77.3623937
Talwalkars Prime Fitness,Gym,"B-61, Acharya Narendradev Marg, Bans Mandi, Nirala Nagar, Lucknow, Uttar Pradesh 226020, India",https://www.google.co.kr/maps/place/Talwalkars+Prime+Fitness/data=!4m5!3m4!1s0x399bfd8410b63993:0xcbcc02b516dc00eb!8m2!3d26.8756469!4d80.936375?authuser=0&hl=en&rclk=1,26.8756469,80.936375
H2O GYM & FITNESS,Gym,"Renuka complex, Raghav Nagar, Deoria, Uttar Pradesh 274001, India",https://www.google.co.kr/maps/place/H2O+GYM+%26+FITNESS/data=!4m5!3m4!1s0x3993c566a57d0f81:0x3bd73ede562b1ef1!8m2!3d26.4976907!4d83.7787569?authuser=0&hl=en&rclk=1,26.4976907,83.7787569
Anytime Fitness Ashiyana Lucknow,Fitness center,"1st FLOOR Crystal City Centre, C.P-4/2 RATANKHAND,Ruchi khand (Ashiana, Sharda Nagar, YOJNA, Uttar Pradesh 226012, India",https://www.google.co.kr/maps/place/Anytime+Fitness+Ashiyana+Lucknow/data=!4m5!3m4!1s0x399bfb9188b9a029:0xf37407620217bae0!8m2!3d26.7807158!4d80.9255183?authuser=0&hl=en&rclk=1,26.7807158,80.9255183
Muscle lab,Gym,"1/218, Sector 1, Vikas Nagar, Lucknow, Uttar Pradesh 226022, India",https://www.google.co.kr/maps/place/Muscle+lab/data=!4m5!3m4!1s0x3999572c526e49ad:0x81099becc29e591d!8m2!3d26.8985119!4d80.9568592?authuser=0&hl=en&rclk=1,26.8985119,80.9568592
Narendra Fitness Center And Gym,Gym,"Front Of Purvanchal Inter College, Kanhaipur, Van Vihar Rd, Wazidpur, Jaunpur, Uttar Pradesh 222002, India",https://www.google.co.kr/maps/place/Narendra+Fitness+Center+And+Gym/data=!4m5!3m4!1s0x39903bd92ded65a3:0xc45d33e72880928c!8m2!3d25.7277976!4d82.6829411?authuser=0&hl=en&rclk=1,25.7277976,82.6829411
My Fitness,Fitness center,"CC-22, GTB Nagar, Kareli, Prayagraj, Uttar Pradesh 211016, India",https://www.google.co.kr/maps/place/My+Fitness/data=!4m5!3m4!1s0x39853560a529e35d:0x4f189b1c01c03735!8m2!3d25.4308227!4d81.8192652?authuser=0&hl=en&rclk=1,25.4308227,81.8192652
Wave Fitness,Gym,"Traffic crossroad, Bhauri, Chitrakoot Dham, Uttar Pradesh 210205, India",https://www.google.co.kr/maps/place/Wave+Fitness/data=!4m5!3m4!1s0x3984af4126525e6f:0xee5c378cf430338e!8m2!3d25.2140539!4d80.918165?authuser=0&hl=en&rclk=1,25.2140539,80.918165
The Body Architects Gym,Gym,"CP-3, first floor Shivam Plaza, above Easyday Club, Viram Khand 5, Gomti Nagar, Lucknow, Uttar Pradesh 226010, India",https://www.google.co.kr/maps/place/The+Body+Architects+Gym/data=!4m5!3m4!1s0x399be3e520cae0a1:0x2c3488c79c9a36f6!8m2!3d26.848649!4d81.0070052?authuser=0&hl=en&rclk=1,26.848649,81.0070052
Fitness Addiction,Gym,"86 gautam buddh marg shukla sweet house building muthud finens ke upar 2nd floor purana R.T.O officelatuh, rod, Lucknow, Uttar Pradesh 226018, India",https://www.google.co.kr/maps/place/Fitness+Addiction/data=!4m5!3m4!1s0x399bfdb6664eed21:0x6d77b177e7d373e2!8m2!3d26.8403733!4d80.9257657?authuser=0&hl=en&rclk=1,26.8403733,80.9257657
Cult Indirapuram,Fitness center,"1st Floor, Aditya Mall, Aditya Mega City, Vaibhav Khand, Indirapuram, Ghaziabad, Uttar Pradesh 201014, India",https://www.google.co.kr/maps/place/Cult+Indirapuram/data=!4m5!3m4!1s0x390cfb9423aa965d:0xfe1bec42b14de375!8m2!3d28.638285!4d77.3605367?authuser=0&hl=en&rclk=1,28.638285,77.3605367
Baba Fitness Center,Gym,"Ratanpur Vistar Part-2 B-94 Ratanpur Dooda Colony, Ratanpur Colony, Panki, Kanpur, Uttar Pradesh 208020, India",https://www.google.co.kr/maps/place/Baba+Fitness+Center/data=!4m5!3m4!1s0x399c37fb87f140f7:0x5e0891f158cdf58!8m2!3d26.4866987!4d80.2205839?authuser=0&hl=en&rclk=1,26.4866987,80.2205839
Z7 Fitness Club GYM,Gym,"2/516, Vijay Khand, Ujariyaon, Vijay Khand 2, Gomti Nagar, Lucknow, Uttar Pradesh 226010, India",https://www.google.co.kr/maps/place/Z7+Fitness+Club+GYM/data=!4m5!3m4!1s0x399be326c5155e65:0xafa9c2a2d95311e3!8m2!3d26.855292!4d80.990287?authuser=0&hl=en&rclk=1,26.855292,80.990287
Om Sai Health Club,Fitness center,"Royal Group, Rai Bihari Lal Rd, New Hyderabad, Hasanganj, Lucknow, Uttar Pradesh 226007, India",https://www.google.co.kr/maps/place/Om+Sai+Health+Club/data=!4m5!3m4!1s0x399bfd70e9c34203:0x38fe01e0d4dd5e90!8m2!3d26.8693272!4d80.9498325?authuser=0&hl=en&rclk=1,26.8693272,80.9498325
"SNAP FITNESS , Ashiyana , Lucknow",Gym,"CP 4, Gyanvati Plaza, Sector I, Ashiyana, Lucknow, Uttar Pradesh 226005, India","https://www.google.co.kr/maps/place/SNAP+FITNESS+,+Ashiyana+,+Lucknow/data=!4m5!3m4!1s0x399bfc08b3550397:0x730f9bb7b9986a84!8m2!3d26.7950241!4d80.9156709?authuser=0&hl=en&rclk=1",26.7950241,80.9156709
Olympia Fitness Zone- Gym in Indira nagar Lucknow,Gym,"1st Floor, D-2000 Sector, Indira Nagar, Lucknow, Uttar Pradesh 226016, India",https://www.google.co.kr/maps/place/Olympia+Fitness+Zone-+Gym+in+Indira+nagar+Lucknow/data=!4m5!3m4!1s0x39995809ed2de08b:0x156ba5b1090d0dc!8m2!3d26.8812055!4d80.9961692?authuser=0&hl=en&rclk=1,26.8812055,80.9961692
FITNESS POINT HEALTH CLUB,Gym,"GVGV+VJ5, Sikandarpur, Uttar Pradesh 251308, India",https://www.google.co.kr/maps/place/FITNESS+POINT+HEALTH+CLUB/data=!4m5!3m4!1s0x390c01b4efc077af:0x2b029ce29ca9603c!8m2!3d29.5271259!4d77.8941041?authuser=0&hl=en&rclk=1,29.5271259,77.8941041
Fire Fitness Gym,Gymnastics center,"GFQQ+Q47, Ab Nagar, Unnao, Uttar Pradesh 209801, India",https://www.google.co.kr/maps/place/Fire+Fitness+Gym/data=!4m5!3m4!1s0x399c1576e030aaf3:0x38b966e617808cd1!8m2!3d26.5394011!4d80.4877842?authuser=0&hl=en&rclk=1,26.5394011,80.4877842
New Body Line Gym,Fitness center,"645B/547, Ground Floor, Abhishekpuram, 60 Feet Road, Jankipuram, near Pioneer Montessori School, Lucknow, Uttar Pradesh 226021, India",https://www.google.co.kr/maps/place/New+Body+Line+Gym/data=!4m5!3m4!1s0x399956534dc12a99:0xdfe6be140b2dec6c!8m2!3d26.9253767!4d80.941687?authuser=0&hl=en&rclk=1,26.9253767,80.941687
Cult Sector 18 Noida,Gym,"3rd floor, Cult, N-16, above Haldiram’s, N Block, Pocket K, Sector 18, Noida, Uttar Pradesh 201301, India",https://www.google.co.kr/maps/place/Cult+Sector+18+Noida/data=!4m5!3m4!1s0x390ce5c9953139a1:0x2b030c4e4b582b7c!8m2!3d28.571996!4d77.323505?authuser=0&hl=en&rclk=1,28.571996,77.323505
Fitness Track,Gym,"Niswa School Gali, Paharpur, Azamgarh, Uttar Pradesh 276001, India",https://www.google.co.kr/maps/place/Fitness+Track/data=!4m5!3m4!1s0x3991a31631305959:0x732cad756ecf75b1!8m2!3d26.0727074!4d83.1826615?authuser=0&hl=en&rclk=1,26.0727074,83.1826615
Fitness Rockers GYM,Fitness center,"133, near sea news, Manas Nagar, Pandav Nagar, Shahganj, Agra, Uttar Pradesh 282010, India",https://www.google.co.kr/maps/place/Fitness+Rockers+GYM/data=!4m5!3m4!1s0x397477080125eb8d:0xef82328bf59fdf11!8m2!3d27.1840552!4d77.97492?authuser=0&hl=en&rclk=1,27.1840552,77.97492
Creedfit Wellness,Fitness center,"9, Pushpanjali Enclave, Keshav Nagar, Lucknow, Uttar Pradesh 226020, India",https://www.google.co.kr/maps/place/Creedfit+Wellness/data=!4m5!3m4!1s0x399957ff5176a447:0xb2d535d0ac6acae5!8m2!3d26.9051035!4d80.9264402?authuser=0&hl=en&rclk=1,26.9051035,80.9264402
Gold's Gym,Gym,"QWV8+X54, Sector I, Ashiyana, Lucknow, Uttar Pradesh 226012, India",https://www.google.co.kr/maps/place/Gold's+Gym/data=!4m5!3m4!1s0x399bfc0c27254dc5:0xc0578e8039edb3f8!8m2!3d26.7948855!4d80.9154392?authuser=0&hl=en&rclk=1,26.7948855,80.9154392
The Dad's Gym,Gym,"Sneh Nagar Road, Near, VIP Rd, Alambagh, Lucknow, Uttar Pradesh 226005, India",https://www.google.co.kr/maps/place/The+Dad's+Gym/data=!4m5!3m4!1s0x399bfc1adb0ebcfb:0xeef7b4fc8e824dab!8m2!3d26.799855!4d80.907896?authuser=0&hl=en&rclk=1,26.799855,80.907896
Gravity fitness gym,Gym,"Galla Mandi Rd, Sandila, Uttar Pradesh 241204, India",https://www.google.co.kr/maps/place/Gravity+fitness+gym/data=!4m5!3m4!1s0x399ebd3c951bf955:0xf42f571d7991ef76!8m2!3d27.0665483!4d80.5153836?authuser=0&hl=en&rclk=1,27.0665483,80.5153836
FITNESS INDUSTRY,Fitness center,"OPP POLICE CHOWKI NAKATIYA THANA CANTT, Uttar Pradesh 243123, India",https://www.google.co.kr/maps/place/FITNESS+INDUSTRY/data=!4m5!3m4!1s0x399bfdfcfdc35905:0x45e24a88a06bf28c!8m2!3d26.8467088!4d80.9461592?authuser=0&hl=en&rclk=1,26.8467088,80.9461592
Anytime Fitness,Gym,"2nd Floor Tulip Mall, Sector 48, Noida, Uttar Pradesh 201301, India",https://www.google.co.kr/maps/place/Anytime+Fitness/data=!4m5!3m4!1s0x390ce5f003125a89:0x660f5367e5e73eab!8m2!3d28.557833!4d77.367152?authuser=0&hl=en&rclk=1,28.557833,77.367152
Fitness Catalyst Gym & Spa,Physical fitness program,"D-24, RDC, Rajnagar, Ghaziabad, Uttar Pradesh 201001, India",https://www.google.co.kr/maps/place/Fitness+Catalyst+Gym+%26+Spa/data=!4m5!3m4!1s0x390cf1bbe8c2c9d7:0xa45c0e893a0a883f!8m2!3d28.673984!4d77.440352?authuser=0&hl=en&rclk=1,28.673984,77.440352
Body Fit Gym,Gym,"24, Sitapur Rd, Sector-A, Sector K, Aliganj, Lucknow, Uttar Pradesh 226024, India",https://www.google.co.kr/maps/place/Body+Fit+Gym/data=!4m5!3m4!1s0x39995633f16fc9cf:0xe1ff4a6631b70756!8m2!3d26.8993877!4d80.938511?authuser=0&hl=en&rclk=1,26.8993877,80.938511
Vega Fitness Factory Gym,Gym,"Vega Fitness factory, Chander Nagar Market, Chander Nagar, Alambagh, Lucknow, Uttar Pradesh 226005, India",https://www.google.co.kr/maps/place/Vega+Fitness+Factory+Gym/data=!4m5!3m4!1s0x399bfc205a75f2e7:0xe2d2452e55f24297!8m2!3d26.8123843!4d80.9023558?authuser=0&hl=en&rclk=1,26.8123843,80.9023558
Impala Fitness Hub,Gym,"Jawahar Nagar, Brahmpuri, Meerut, Uttar Pradesh 250002, India",https://www.google.co.kr/maps/place/Impala+Fitness+Hub/data=!4m5!3m4!1s0x390c645b773f6473:0x21b7853736e3c454!8m2!3d28.9724132!4d77.6905638?authuser=0&hl=en&rclk=1,28.9724132,77.6905638
Matrix Health Club,Gym,"Yahiyaganj, Lucknow, Uttar Pradesh 226003, India",https://www.google.co.kr/maps/place/Matrix+Health+Club/data=!4m5!3m4!1s0x399bfdf426f3399f:0xe9da5f2440a4ff59!8m2!3d26.8585871!4d80.9067475?authuser=0&hl=en&rclk=1,26.8585871,80.9067475
Satya Fit Gym & Wellness Center,Gym,"Pal tiraha near sbi bank , cms school, Sari Pura, Shivaji Puram, Alamnagar, Rajajipuram, Lucknow, Uttar Pradesh 226017, India",https://www.google.co.kr/maps/place/Satya+Fit+Gym+%26+Wellness+Center/data=!4m5!3m4!1s0x399bffcbf53c61bd:0xdbdd16e2c5b3a737!8m2!3d26.8477038!4d80.8713125?authuser=0&hl=en&rclk=1,26.8477038,80.8713125
TITAN FITNESS- The Unisex Fitness Arena,Gym,"128/24, B Block, Kidwainagar Ave, Kidwai Nagar, Kanpur, Uttar Pradesh 208011, India",https://www.google.co.kr/maps/place/TITAN+FITNESS-+The+Unisex+Fitness+Arena/data=!4m5!3m4!1s0x399c471b7214ab1f:0x3c8b317206fbb719!8m2!3d26.430631!4d80.334508?authuser=0&hl=en&rclk=1,26.430631,80.334508
Spartan Gym,Gym,"Eidgah, Near, Faizabad Rd, Lucknow, Uttar Pradesh 226028, India",https://www.google.co.kr/maps/place/Spartan+Gym/data=!4m5!3m4!1s0x399be29bfffffffd:0xbfca8b03fe1a6209!8m2!3d26.881304!4d81.01473?authuser=0&hl=en&rclk=1,26.881304,81.01473
Anytime Fitness,Gym,"D - 10, 2nd & 3rd floor, RDC, Raj Nagar, Ghaziabad, Uttar Pradesh 201001, India",https://www.google.co.kr/maps/place/Anytime+Fitness/data=!4m5!3m4!1s0x390cf1ae15ae7d21:0x1b3ec22b2697c940!8m2!3d28.6747535!4d77.4408376?authuser=0&hl=en&rclk=1,28.6747535,77.4408376
Iron-Core Fit,Gym,"2/86, Baldev Singh Arya Marg, near Mithaiwala chowraha, Vijay Khand, Ujariyaon, Vijay Khand 2, Gomti Nagar, Lucknow, Uttar Pradesh 226010, India",https://www.google.co.kr/maps/place/Iron-Core+Fit/data=!4m5!3m4!1s0x399be2ced08d9f85:0xa675b36d2a60e90!8m2!3d26.856252!4d80.994835?authuser=0&hl=en&rclk=1,26.856252,80.994835
Aditya Royal Health Club( Fitness World),Gym,"V -Mart, Malipur Rd, Shahzad Pur, Akbarpur, Uttar Pradesh 224122, India",https://www.google.co.kr/maps/place/Aditya+Royal+Health+Club(+Fitness+World)/data=!4m5!3m4!1s0x3990937cade806a1:0xe6a15183a2b43b3f!8m2!3d26.4173945!4d82.5372339?authuser=0&hl=en&rclk=1,26.4173945,82.5372339
Gold's Gym,Gym,"CP1/5, 2nd Floor, R Square Building, near CMS School, Vipul Khand, Gomti Nagar, Lucknow, Uttar Pradesh 226010, India",https://www.google.co.kr/maps/place/Gold's+Gym/data=!4m5!3m4!1s0x399be2d343e36371:0x6470a5bee9abfd57!8m2!3d26.8457048!4d80.9881298?authuser=0&hl=en&rclk=1,26.8457048,80.9881298
Fitness Station,Gym,"Above axis bank station road, near khilona cinema, Jhansi, Uttar Pradesh 284002, India",https://www.google.co.kr/maps/place/Fitness+Station/data=!4m5!3m4!1s0x397770daab40fdff:0x4042539d3feaffc3!8m2!3d25.438498!4d78.554451?authuser=0&hl=en&rclk=1,25.438498,78.554451
Shashwat Fitness (Only for ladies),Gym,"Gol Market, F4&5, Sai complex, Hapur, Uttar Pradesh 245101, India",https://www.google.co.kr/maps/place/Shashwat+Fitness+(Only+for+ladies)/data=!4m5!3m4!1s0x390c8567c9d04cff:0x1266d6c4967939a9!8m2!3d28.7285425!4d77.7823723?authuser=0&hl=en&rclk=1,28.7285425,77.7823723
Physc Gym,Fitness center,"Shalimar Chauraha, A Block, Block A, Indira Nagar, Lucknow, Uttar Pradesh 226016, India",https://www.google.co.kr/maps/place/Physc+Gym/data=!4m5!3m4!1s0x399bfd4fe09212d7:0x514d65d90486a9a0!8m2!3d26.8769465!4d80.9783161?authuser=0&hl=en&rclk=1,26.8769465,80.9783161
VKS FITNESS CLUB,Gym,"Patel Nagar, Gyanpur, Uttar Pradesh 221304, India",https://www.google.co.kr/maps/place/VKS+FITNESS+CLUB/data=!4m5!3m4!1s0x398fe78a73371aed:0xf6b61218f9d5cf8f!8m2!3d25.3437003!4d82.4776572?authuser=0&hl=en&rclk=1,25.3437003,82.4776572
Gymfreek,Fitness center,"11/2, Tikait Rai Talab Colony, Rajajipuram, Lucknow, Uttar Pradesh 226017, India",https://www.google.co.kr/maps/place/Gymfreek/data=!4m5!3m4!1s0x399bffc1c1789f03:0xf1d38f25380ee3b4!8m2!3d26.844748!4d80.8914422?authuser=0&hl=en&rclk=1,26.844748,80.8914422
I FITNESS CLUB,Gym,"basement, lakme saloon, near Raj mahal hotel, Civil Lines, Moradabad, Uttar Pradesh 244001, India",https://www.google.co.kr/maps/place/I+FITNESS+CLUB/data=!4m5!3m4!1s0x390afb5899d5a61f:0x93550b0da947f209!8m2!3d28.8456263!4d78.7682914?authuser=0&hl=en&rclk=1,28.8456263,78.7682914
K4 Fitness,Gymnasium school,"Sector 6A, K.K. Complex, In front of Akash Enclave, Vrindavan Colony, Telibagh, Lucknow, Uttar Pradesh 226002, India",https://www.google.co.kr/maps/place/K4+Fitness/data=!4m5!3m4!1s0x399bfb24d8e1441b:0x2a842cfc539b0720!8m2!3d26.7760144!4d80.9503585?authuser=0&hl=en&rclk=1,26.7760144,80.9503585
InShape GYM,Gym,"Rohta Rd, Tej Vihar, Fazalpur, Meerut, Uttar Pradesh 250001, India",https://www.google.co.kr/maps/place/InShape+GYM/data=!4m5!3m4!1s0x390c65cd61dcc643:0x65a3a5887162cd22!8m2!3d28.988127!4d77.6651075?authuser=0&hl=en&rclk=1,28.988127,77.6651075
Gymnasia The Fitness Club,Gymnasium Cz,"Sector 6 Rd, Sector 6, Vikas Nagar, Lucknow, Uttar Pradesh 226022, India",https://www.google.co.kr/maps/place/Gymnasia+The+Fitness+Club/data=!4m5!3m4!1s0x3999576ebe004483:0x78da4f83f34fbfe7!8m2!3d26.8928578!4d80.9646914?authuser=0&hl=en&rclk=1,26.8928578,80.9646914
Simran Sahni's Health Zone Aliganj,Fitness center,"1st Floor,C-25, Sector-C, Alkapuri, Aliganj, Lucknow, Uttar Pradesh 226024, India",https://www.google.co.kr/maps/place/Simran+Sahni's+Health+Zone+Aliganj/data=!4m5!3m4!1s0x399957cf478bada9:0x494ee4b68903d81a!8m2!3d26.888023!4d80.938988?authuser=0&hl=en&rclk=1,26.888023,80.938988
UFC GYM Noida,Gym,"4th Floor, Starling Edge, Hazipur, Sector 104, Noida, Uttar Pradesh 201301, India",https://www.google.co.kr/maps/place/UFC+GYM+Noida/data=!4m5!3m4!1s0x390ce7ffc8dfe907:0x69578bf5cb4425a1!8m2!3d28.5417841!4d77.3698623?authuser=0&hl=en&rclk=1,28.5417841,77.3698623
New Bon Sante,Gym,"Sadaf Center, Kapoorthala, C-4 Sector -f, Kapoorthala Road, Aliganj, Lucknow, Uttar Pradesh 226017, India",https://www.google.co.kr/maps/place/New+Bon+Sante/data=!4m5!3m4!1s0x399957d59ccea5ef:0x7f59036b1e4753f8!8m2!3d26.88349!4d80.94589?authuser=0&hl=en&rclk=1,26.88349,80.94589
Som Multi Gym,Gym,"M.D.1/319, Kanpur Rd, LDA Colony, Lucknow, Uttar Pradesh 226012, India",https://www.google.co.kr/maps/place/Som+Multi+Gym/data=!4m5!3m4!1s0x399bfbfc2c24d671:0x44bc70f6e61beccf!8m2!3d26.780135!4d80.90172?authuser=0&hl=en&rclk=1,26.780135,80.90172
Fitness Factory Gym,Gym,"Pachenda Rd, Gandhi Colony, Muzaffarnagar, Uttar Pradesh 251001, India",https://www.google.co.kr/maps/place/Fitness+Factory+Gym/data=!4m5!3m4!1s0x390c1bef3cb621c5:0x47cc40063ac66dd5!8m2!3d29.4783364!4d77.7182709?authuser=0&hl=en&rclk=1,29.4783364,77.7182709
Fit & fine Gym,Gym,"Jal Nigam Rd, near Blue Moti Mahal, Balaganj, Lucknow, Uttar Pradesh 226003, India",https://www.google.co.kr/maps/place/Fit+%26+fine+Gym/data=!4m5!3m4!1s0x399955b8f2c04e5d:0x7303bdda67bfb00d!8m2!3d26.8796877!4d80.8858747?authuser=0&hl=en&rclk=1,26.8796877,80.8858747
Tauheed's Gym And Snooker Academy,Gym,"A-2/4, Chauraha, LDA Colony, Kanpur Rd, Sector M1, Ashiyana, Lucknow, Uttar Pradesh 226012, India",https://www.google.co.kr/maps/place/Tauheed's+Gym+And+Snooker+Academy/data=!4m5!3m4!1s0x399bfbfbf32b989f:0x19c97c0c7b8b674d!8m2!3d26.779369!4d80.904684?authuser=0&hl=en&rclk=1,26.779369,80.904684
Flex Gym fitness,Fitness center,"near amaya hotel, Rampur Garden, Bareilly, Uttar Pradesh 243001, India",https://www.google.co.kr/maps/place/Flex+Gym+fitness/data=!4m5!3m4!1s0x39a0013231b35ea9:0xb2f9982396e0c0e9!8m2!3d28.3486554!4d79.4213415?authuser=0&hl=en&rclk=1,28.3486554,79.4213415
Neelima Fitness Center,Fitness center,"shop no 9 bayal residency fbd road near bbd college, Chinhat, Gomti Nagar, Lucknow, Uttar Pradesh 226028, India",https://www.google.co.kr/maps/place/Neelima+Fitness+Center/data=!4m5!3m4!1s0x399be2652cad2ae9:0x371a9c938d6148e!8m2!3d26.877071!4d81.03996?authuser=0&hl=en&rclk=1,26.877071,81.03996
Excer's Chandrapal,Gym,"Alambagh Market, beside Of --Gadha Bandar, Alambagh, Lucknow, Uttar Pradesh 226005, India",https://www.google.co.kr/maps/place/Excer's+Chandrapal/data=!4m5!3m4!1s0x399bfc203efc5b21:0xa7464d2e428c4aa0!8m2!3d26.810992!4d80.900236?authuser=0&hl=en&rclk=1,26.810992,80.900236
Gold's Gym Shahjahanpur,Gym,"Town Hall Rd, above ICICI Bank, Sadar Bazar, Shahjahanpur, Uttar Pradesh 242001, India",https://www.google.co.kr/maps/place/Gold's+Gym+Shahjahanpur/data=!4m5!3m4!1s0x399fbdbef798594b:0xd6db05d16bee8c56!8m2!3d27.8868015!4d79.9144479?authuser=0&hl=en&rclk=1,27.8868015,79.9144479
Powerhouse Fitness || Best Gym In Bhadohi | Best Fitness Center In Bhadohi | Top Gym in Bhadohi,Gym,"Powerhouse Road, near Blue Bells School, Bhadohi Nagar Palika, Uttar Pradesh 221401, India",https://www.google.co.kr/maps/place/Powerhouse+Fitness+%7C%7C+Best+Gym+In+Bhadohi+%7C+Best+Fitness+Center+In+Bhadohi+%7C+Top+Gym+in+Bhadohi/data=!4m5!3m4!1s0x398fe0a4e8e08c93:0x6c50a2a811b89289!8m2!3d25.3952707!4d82.5525532?authuser=0&hl=en&rclk=1,25.3952707,82.5525532
The Ultimate Fitness Gym,Gym,"Nagla Miyan, Opp. MG Polytechnic College, Agra Rd, Hathras, Uttar Pradesh 204101, India",https://www.google.co.kr/maps/place/The+Ultimate+Fitness+Gym/data=!4m5!3m4!1s0x397484c4ca8f5f3f:0x89428c21d5d38edf!8m2!3d27.5775454!4d78.0524728?authuser=0&hl=en&rclk=1,27.5775454,78.0524728
Solidcore Gym,Gymnastics center,"Range colney, Bhartaul, Bareilly, Uttar Pradesh 243006, India",https://www.google.co.kr/maps/place/Solidcore+Gym/data=!4m5!3m4!1s0x39a0015bc0000001:0xb6a2b561c80cf33f!8m2!3d28.3445147!4d79.4612861?authuser=0&hl=en&rclk=1,28.3445147,79.4612861
Anytime Fitness (Summit Lucknow),Gym,"2nd Floor, Rohtas Summit TCG, 3, 3, Vibhuti Khand, Gomti Nagar, Lucknow, Uttar Pradesh 226010, India",https://www.google.co.kr/maps/place/Anytime+Fitness+(Summit+Lucknow)/data=!4m5!3m4!1s0x399be3edb64cba83:0x8bef49e6bba317dc!8m2!3d26.864779!4d81.0119441?authuser=0&hl=en&rclk=1,26.864779,81.0119441
National Health Centre & Fitness Zone,Gym,"442/8,Ground Floor,Manohar Nagar Colony,Janrailganj, Hardoi Rd, Thakurganj, Lucknow, Uttar Pradesh 226003, India",https://www.google.co.kr/maps/place/National+Health+Centre+%26+Fitness+Zone/data=!4m5!3m4!1s0x399bfe0345c3b1fb:0xddb0c4b557a9628f!8m2!3d26.8743939!4d80.8881035?authuser=0&hl=en&rclk=1,26.8743939,80.8881035
Hammer gym,Gym,"Station Road, behind hotel aakash, Civil Lines, Lalitpur, Uttar Pradesh 284403, India",https://www.google.co.kr/maps/place/Hammer+gym/data=!4m5!3m4!1s0x3979bbca14602b97:0xf8981812263d5040!8m2!3d24.6868732!4d78.3974626?authuser=0&hl=en&rclk=1,24.6868732,78.3974626
Slim Fit Zone,Beauty salon,"RW95+RC7, Tedhi Pulia, Adarsh Nagar, Alambagh, Lucknow, Uttar Pradesh 226005, India",https://www.google.co.kr/maps/place/Slim+Fit+Zone/data=!4m5!3m4!1s0x399bfc2523bbbfcb:0x5dc336778ee415d2!8m2!3d26.81953!4d80.9085391?authuser=0&hl=en&rclk=1,26.81953,80.9085391
Venus Fitness Meerut,Gym,"115 Gali No.4, Lisari Rd, near chuna Bhatti, Tarapuri, Meerut, Uttar Pradesh 250002, India",https://www.google.co.kr/maps/place/Venus+Fitness+Meerut/data=!4m5!3m4!1s0x390c64f52ca65c17:0x5f3c5332951bdde9!8m2!3d28.9669925!4d77.7018908?authuser=0&hl=en&rclk=1,28.9669925,77.7018908
The Rock Fitness Zone,Gym,"Arif Complex, Tedhi Pulia Ring Rd, Khurram Nagar, Lucknow, Uttar Pradesh 226022, India",https://www.google.co.kr/maps/place/The+Rock+Fitness+Zone/data=!4m5!3m4!1s0x399957e4a45ea5d5:0x1251e04d43345c72!8m2!3d26.890976!4d80.975124?authuser=0&hl=en&rclk=1,26.890976,80.975124
Wellness Hub,Fitness center,"204, 2nd Floor, Ganj Plaza, Nawal Kishore Rd, Hazratganj, Lucknow, Uttar Pradesh 226001, India",https://www.google.co.kr/maps/place/Wellness+Hub/data=!4m5!3m4!1s0x399bfd083c721ac5:0x4cf420e8f8b870e4!8m2!3d26.849353!4d80.943822?authuser=0&hl=en&rclk=1,26.849353,80.943822
Gym senter,Gym,"C428+VPW, Berwai, Uttar Pradesh 284204, India",https://www.google.co.kr/maps/place/Gym+senter/data=!4m5!3m4!1s0x3977f1e59b6d79a5:0x180a1d0651c608bf!8m2!3d25.4022475!4d79.1168253?authuser=0&hl=en&rclk=1,25.4022475,79.1168253
Being Fitness Addicted Unisex Fitness Studio,Fitness center,"A-31 Gandhi Nagar, in front of Naughty Guys Dance Studio, Moradabad, Uttar Pradesh 244001, India",https://www.google.co.kr/maps/place/Being+Fitness+Addicted+Unisex+Fitness+Studio/data=!4m5!3m4!1s0x390afbbe87adf9c3:0xca18bb6b9b9d0a0b!8m2!3d28.8265347!4d78.7733091?authuser=0&hl=en&rclk=1,28.8265347,78.7733091
Vigen India,Fitness center,"4, 42, near Manoj Pandey Chauraha, Vivek Khand 2, Gomti Nagar, Lucknow, Uttar Pradesh 226010, India",https://www.google.co.kr/maps/place/Vigen+India/data=!4m5!3m4!1s0x399be2c50f13a311:0xb90a1aa5961c9839!8m2!3d26.8536204!4d81.0001265?authuser=0&hl=en&rclk=1,26.8536204,81.0001265
Olympia Fitness zone,Gym,"C-4, Kapoorthala Road, Ram Sanehi Ghat, Chandralok, Lucknow, Uttar Pradesh 226024, India",https://www.google.co.kr/maps/place/Olympia+Fitness+zone/data=!4m5!3m4!1s0x399957d59cdb7297:0x95d9f28c85b796b6!8m2!3d26.883527!4d80.945863?authuser=0&hl=en&rclk=1,26.883527,80.945863
O2 Fitness Studio,Gym,"Hira Tower 2, 5/332 2nd floor, Jankipuram Extension, Lucknow, Uttar Pradesh 226021, India",https://www.google.co.kr/maps/place/O2+Fitness+Studio/data=!4m5!3m4!1s0x39995706577bb07d:0x4ee2536a4e4c635!8m2!3d26.9356989!4d80.9426283?authuser=0&hl=en&rclk=1,26.9356989,80.9426283
Charismaa Fitness,Fitness center,"SP-20,Sector C,Chetan Vihar Colony,,, opposite Aanchalik Vigyan Kendra, Aliganj, Lucknow, Uttar Pradesh 226024, India",https://www.google.co.kr/maps/place/Charismaa+Fitness/data=!4m5!3m4!1s0x399957ca390d1b05:0xfb7f0d1eeedc70a4!8m2!3d26.8900845!4d80.9374132?authuser=0&hl=en&rclk=1,26.8900845,80.9374132
Krishna Gym,Gym,"near copretiv, Baitalpur, Uttar Pradesh 274201, India",https://www.google.co.kr/maps/place/Krishna+Gym/data=!4m5!3m4!1s0x3993c53f39a527d7:0x6990892ba5404b8b!8m2!3d26.4981018!4d83.779122?authuser=0&hl=en&rclk=1,26.4981018,83.779122
The Body Care,Gym,"near Gurukul Academy, Bhoothnath Market, Sector 5, Indira Nagar, Lucknow, Uttar Pradesh 226016, India",https://www.google.co.kr/maps/place/The+Body+Care/data=!4m5!3m4!1s0x399bfd5222414acd:0x5dd543b50dd6841a!8m2!3d26.87495!4d80.98203?authuser=0&hl=en&rclk=1,26.87495,80.98203
TRANSFORMATION ZONE,Gym,"VIP Rd, Geetapalli, Ramprasad Bismil Nagar, Alambagh, Lucknow, Uttar Pradesh 226005, India",https://www.google.co.kr/maps/place/TRANSFORMATION+ZONE/data=!4m5!3m4!1s0x399bfdfb25206b81:0x9c718055f59a9363!8m2!3d26.8085326!4d80.9116316?authuser=0&hl=en&rclk=1,26.8085326,80.9116316
Agile CrossFit - Powered by Reebok,Fitness center,"2nd Floor, A Surajdeep Complex, 25/1, Jopling Rd, Block I, Gokhale Vihar, Butler Colony, Lucknow, Uttar Pradesh 226001, India",https://www.google.co.kr/maps/place/Agile+CrossFit+-+Powered+by+Reebok/data=!4m5!3m4!1s0x399bfd11bfce14d1:0xbde38f3cf4ede75f!8m2!3d26.852647!4d80.955476?authuser=0&hl=en&rclk=1,26.852647,80.955476
Choyang Health India Pvt Ltd,Fitness center,"1/130, near Malik timber, Viram Khand, Viram Khand 1, Gomti Nagar, Lucknow, Uttar Pradesh 226010, India",https://www.google.co.kr/maps/place/Choyang+Health+India+Pvt+Ltd/data=!4m5!3m4!1s0x399be2c351b8c1b9:0xbc9c59b27f100be9!8m2!3d26.851925!4d81.00428?authuser=0&hl=en&rclk=1,26.851925,81.00428
Body Rebuild Gym & Cardio,Rock climbing gym,"133/320, Opp. Gulati Pipel Wale, New ganesh Ganj, Aminabad Rd, Naka Hindola, Lucknow, Uttar Pradesh 226018, India",https://www.google.co.kr/maps/place/Body+Rebuild+Gym+%26+Cardio/data=!4m5!3m4!1s0x399bfd6ed4633eb3:0xa8062d9f92031559!8m2!3d26.8686848!4d80.9592873?authuser=0&hl=en&rclk=1,26.8686848,80.9592873
DB Sports Academy,Physical fitness program,"148/2, near State Bank, Chander Nagar, Alambagh, Lucknow, Uttar Pradesh 226005, India",https://www.google.co.kr/maps/place/DB+Sports+Academy/data=!4m5!3m4!1s0x399bfc167e7046a1:0xe4d16180e7b0b1ee!8m2!3d26.8129014!4d80.9026253?authuser=0&hl=en&rclk=1,26.8129014,80.9026253
Fusion Fitness Center -Jeevan Shopping Complex,Gym,"2nd Floor, Virat Khand Rd, Viraj Khand-4, Viraj Khand, Gomti Nagar, Lucknow, Uttar Pradesh 226005, India",https://www.google.co.kr/maps/place/Fusion+Fitness+Center+-Jeevan+Shopping+Complex/data=!4m5!3m4!1s0x399be2f06cf08ea3:0x5bb5edef56afd542!8m2!3d26.8535234!4d81.0217397?authuser=0&hl=en&rclk=1,26.8535234,81.0217397
FIGURE & FITNESS KB X 7 GYM,Fitness center,"kk Complex khazana Chuaraha, Ashiyana, Lucknow, Uttar Pradesh 226012, India",https://www.google.co.kr/maps/place/FIGURE+%26+FITNESS+KB+X+7+GYM/data=!4m5!3m4!1s0x399bfd6df02a3941:0xbf2be78f2265fd09!8m2!3d26.8467088!4d80.9461592?authuser=0&hl=en&rclk=1,26.8467088,80.9461592
Olympia Gym Madion,Gym,"Super Market Maha Laxmi Tiraha, Mohibullapur, Madiyanva, Lucknow, Uttar Pradesh 226020, India",https://www.google.co.kr/maps/place/Olympia+Gym+Madion/data=!4m5!3m4!1s0x3999564fa3adcd3b:0x530d9019740701fb!8m2!3d26.9145531!4d80.9334067?authuser=0&hl=en&rclk=1,26.9145531,80.9334067
JR Fitness 24x7,Gym,"3M, 08, Sector 3, Vrindavan Colony, Lucknow, Uttar Pradesh 226014, India",https://www.google.co.kr/maps/place/JR+Fitness+24x7/data=!4m5!3m4!1s0x399bfb65d86ca50b:0x47688d23df5463df!8m2!3d26.7609308!4d80.9502299?authuser=0&hl=en&rclk=1,26.7609308,80.9502299
Metro Fitness,Gym,"57, Aminabad Rd, Nazirabad, Khayali Ganj, Aminabad, Lucknow, Uttar Pradesh 226018, India",https://www.google.co.kr/maps/place/Metro+Fitness/data=!4m5!3m4!1s0x399bfdb5f26e8139:0x79b6e189277ac7f0!8m2!3d26.8499282!4d80.9280633?authuser=0&hl=en&rclk=1,26.8499282,80.9280633
Crucial Dance Academy,Gym,"Crucial Dance Academy,Opp Stella maris Inter College,Lucknow,226012, India",https://www.google.co.kr/maps/place/Crucial+Dance+Academy/data=!4m5!3m4!1s0x399bfc04ff2e0cf3:0xccb332a6771239f2!8m2!3d26.7956836!4d80.9066249?authuser=0&hl=en&rclk=1,26.7956836,80.9066249
FITNESS MANTRA,Gym,"783/109, W-1, Juhi Kalan, Saket Nagar, Kanpur, Uttar Pradesh 208011, India",https://www.google.co.kr/maps/place/FITNESS+MANTRA/data=!4m5!3m4!1s0x399c47af5ca39817:0x24bd4242af49f4a!8m2!3d26.4312317!4d80.3210624?authuser=0&hl=en&rclk=1,26.4312317,80.3210624
Atlas Gym,Gymnasium school,"C-1040/12, Mahanagar, Lucknow, Uttar Pradesh 226006, India",https://www.google.co.kr/maps/place/Atlas+Gym/data=!4m5!3m4!1s0x399bfde56c5b1f91:0xead570be1a47e9f9!8m2!3d26.8729416!4d80.9617506?authuser=0&hl=en&rclk=1,26.8729416,80.9617506
YOGA HUB,Gym,"B 20A, Colony, Malviyapalli, Aishbagh, Lucknow, Uttar Pradesh 226004, India",https://www.google.co.kr/maps/place/YOGA+HUB/data=!4m5!3m4!1s0x399bfd73e6fd3695:0x430e69d8f1e11734!8m2!3d26.839317!4d80.905937?authuser=0&hl=en&rclk=1,26.839317,80.905937
OSIM,Fitness center,"Lohia Path, Eldeco Greens, Gomti Nagar, Lucknow, Uttar Pradesh 226016, India",https://www.google.co.kr/maps/place/OSIM/data=!4m5!3m4!1s0x399bfd39dabc9633:0xf9c9fe5abc6c9b92!8m2!3d26.857575!4d80.975433?authuser=0&hl=en&rclk=1,26.857575,80.975433
Taekwondo Federation of India.,Gym,"1, 33/74, Capper Rd, Kaiserbagh Officer's Colony, Lalbagh, Lucknow, Uttar Pradesh 226001, India",https://www.google.co.kr/maps/place/Taekwondo+Federation+of+India./data=!4m5!3m4!1s0x399bfda6399440a7:0x569bc77d9ec1d5a8!8m2!3d26.8484526!4d80.9393331?authuser=0&hl=en&rclk=1,26.8484526,80.9393331
Folk Tales@golden Future,Gym,"manik moti complex, Cantonment Rd, Udaiganj, Lucknow, Uttar Pradesh, India",https://www.google.co.kr/maps/place/Folk+Tales@golden+Future/data=!4m5!3m4!1s0x399bfd6edcbf9277:0x2eb8497a82895cd0!8m2!3d26.8368337!4d80.9391031?authuser=0&hl=en&rclk=1,26.8368337,80.9391031
Ceragem India Pvt Ltd.,Gym,"P8VW+9QX, Unnao, Uttar Pradesh 209871, India",https://www.google.co.kr/maps/place/Ceragem+India+Pvt+Ltd./data=!4m5!3m4!1s0x399c25aa0e6551cf:0xce243d8999a2f69b!8m2!3d26.7434771!4d80.3469822?authuser=0&hl=en&rclk=1,26.7434771,80.3469822
SENGAR VILLA,Gym,"V2R6+XWW, Takrohi, Kamta, Lucknow, Uttar Pradesh 226016, India",https://www.google.co.kr/maps/place/SENGAR+VILLA/data=!4m5!3m4!1s0x39995978689b37e7:0x340808746366faf4!8m2!3d26.8924994!4d81.0123214?authuser=0&hl=en&rclk=1,26.8924994,81.0123214
C28 Salon n Fitness Aliganj,Beauty salon,"C-28 Near AG, SBI Colony, Sector N, Aliganj, Lucknow, Uttar Pradesh 226024, India",https://www.google.co.kr/maps/place/C28+Salon+n+Fitness+Aliganj/data=!4m5!3m4!1s0x399957cf4a89f04b:0x7ea32a322fb6d37a!8m2!3d26.900504!4d80.952628?authuser=0&hl=en&rclk=1,26.900504,80.952628
"Simran Sahni's Health Zone, Weightloss & Slimming,Gomtinagar",Weight loss service,"1st Floor, 4/46, opp. Kendriya Vidyalay, Vivek Khand 2, Gomti Nagar, Lucknow, Uttar Pradesh 226010, India","https://www.google.co.kr/maps/place/Simran+Sahni's+Health+Zone,+Weightloss+%26+Slimming,Gomtinagar/data=!4m5!3m4!1s0x399be2cf9eebe479:0xf7e13acf510551e0!8m2!3d26.8537533!4d80.9970542?authuser=0&hl=en&rclk=1",26.8537533,80.9970542
Touch & Glow Beauty Saloon,Gym,"RWRP+9QQ, Naya Gaon East, Ghasyari Mandi, Qaisar Bagh, Lucknow, Uttar Pradesh 226018, India",https://www.google.co.kr/maps/place/Touch+%26+Glow+Beauty+Saloon/data=!4m5!3m4!1s0x399bfd446fb6d3a5:0x6a8f7ce4f30f6c14!8m2!3d26.8409724!4d80.9369823?authuser=0&hl=en&rclk=1,26.8409724,80.9369823
Ceragem,Gym,"Unnamed Road, Sector I, Janki Vihar Colony, Jankipuram, Lucknow, Uttar Pradesh 226021, India",https://www.google.co.kr/maps/place/Ceragem/data=!4m5!3m4!1s0x3999574e3d5a48eb:0x31c2e0547e425ad5!8m2!3d26.9210422!4d80.9436021?authuser=0&hl=en&rclk=1,26.9210422,80.9436021
Fitness Planet,Gym,"INFRONT OF RAJ KAMAL HOTEL, VINDHYA NAGAR, MAIN ROAD, Waidhan, Madhya Pradesh 486886, India",https://www.google.co.kr/maps/place/Fitness+Planet/data=!4m5!3m4!1s0x398f36a683aa5549:0x46cab39e663700a7!8m2!3d24.0675963!4d82.6343872?authuser=0&hl=en&rclk=1,24.0675963,82.6343872
Sahara Sports,Gym,"89, Tedhi Pulia Ring Rd, Adarsh Nagar, Sector 11, Vikas Nagar, Lucknow, Uttar Pradesh 226022, India",https://www.google.co.kr/maps/place/Sahara+Sports/data=!4m5!3m4!1s0x399957e8a3047db1:0xc609e44a998cc1af!8m2!3d26.8964987!4d80.9693436?authuser=0&hl=en&rclk=1,26.8964987,80.9693436
Beauty Point Parlour,Gym,"Gokhle Marg, Gokhale Marg, Block I, Gokhale Vihar, Butler Colony, Lucknow, Uttar Pradesh 226001, India",https://www.google.co.kr/maps/place/Beauty+Point+Parlour/data=!4m5!3m4!1s0x399bfd5d67d1ab81:0x52d1d1fefdf0d39e!8m2!3d26.8573502!4d80.9602385?authuser=0&hl=en&rclk=1,26.8573502,80.9602385
Treadmill Repair,Gym,"286, Shyam Vihar Colony, Fajjulaganj, Ghaila, Uttar Pradesh 226020, India",https://www.google.co.kr/maps/place/Treadmill+Repair/data=!4m5!3m4!1s0x39995639bfffffff:0x3718769f1d92bf43!8m2!3d26.9082411!4d80.8852179?authuser=0&hl=en&rclk=1,26.9082411,80.8852179
Health Center,Fitness center,"Jopling Rd, Vipul Khand 1, Block I, Gokhale Vihar, Butler Colony, Lucknow, Uttar Pradesh 226001, India",https://www.google.co.kr/maps/place/Health+Center/data=!4m5!3m4!1s0x399bfd14e461dd83:0x76e84644be8d5de7!8m2!3d26.8488762!4d80.9811751?authuser=0&hl=en&rclk=1,26.8488762,80.9811751
Health & Hygiene Initiatives,Fitness center,"96, Vikaskhand 5, Gwari Village, Vikas Khand, Gomti Nagar, Lucknow, Uttar Pradesh 226010, India",https://www.google.co.kr/maps/place/Health+%26+Hygiene+Initiatives/data=!4m5!3m4!1s0x399be2d6a3cae25b:0x71180d7e0ad9465f!8m2!3d26.8436146!4d80.993054?authuser=0&hl=en&rclk=1,26.8436146,80.993054
IIML BADMINTON COURT,Gym,"WVMX+4XR, Prabandh Nagar, Mubarakpur, Lucknow, Uttar Pradesh 226201, India",https://www.google.co.kr/maps/place/IIML+BADMINTON+COURT/data=!4m5!3m4!1s0x3999579158a1cc1d:0x5ff3b88385a7aeb6!8m2!3d26.9328661!4d80.8998806?authuser=0&hl=en&rclk=1,26.9328661,80.8998806
Triple X Body Club,Gym,"Gall Mandi, Malhaur Road, near Yadav Medicals, Chinhat, Lucknow, Uttar Pradesh 226028, India",https://www.google.co.kr/maps/place/Triple+X+Body+Club/data=!4m5!3m4!1s0x399be2882321d32f:0x1a77713c9a0fbb89!8m2!3d26.874828!4d81.030693?authuser=0&hl=en&rclk=1,26.874828,81.030693
Thakur Gajendra Pratap Singh,Gym,"252/198, Kundari Rakabganj, Lucknow, Uttar Pradesh 229306, India",https://www.google.co.kr/maps/place/Thakur+Gajendra+Pratap+Singh/data=!4m5!3m4!1s0x399bfda888325e7f:0xaa145a7b5262a9ed!8m2!3d26.8514482!4d80.9143315?authuser=0&hl=en&rclk=1,26.8514482,80.9143315
Makeup Artist,Gym,"WW9X+RXP, Alisha Nagar, Sector I, Janki Vihar Colony, Jankipuram, Lucknow, Uttar Pradesh 226021, India",https://www.google.co.kr/maps/place/Makeup+Artist/data=!4m5!3m4!1s0x399957b7dd69f505:0xfb8050d8ced233dc!8m2!3d26.919594!4d80.949947?authuser=0&hl=en&rclk=1,26.919594,80.949947
Fitness First Health Club,Gym,"Block D, Shashi Garden, Mayur Vihar, New Delhi, Delhi 110091, India",https://www.google.co.kr/maps/place/Fitness+First+Health+Club/data=!4m5!3m4!1s0x390ce54c9b659505:0x499f77e14d4cc718!8m2!3d28.610041!4d77.2927369?authuser=0&hl=en&rclk=1,28.610041,77.2927369
Krishna lok badminton court,Gym,"WW6P+XC9, Mohibullapur, Madiyanva, Lucknow, Uttar Pradesh 226020, India",https://www.google.co.kr/maps/place/Krishna+lok+badminton+court/data=!4m5!3m4!1s0x3999575c3db7b6d1:0xaf6053f931c438eb!8m2!3d26.9124111!4d80.9361043?authuser=0&hl=en&rclk=1,26.9124111,80.9361043
NNS FITNESS,Gymnasium school,"sector -h, lda colony, near ashiyana chauraha, Lucknow, Uttar Pradesh 226012, India",https://www.google.co.kr/maps/place/NNS+FITNESS/data=!4m5!3m4!1s0x399bfc0f727fb98f:0xd957f0e2ac6ac878!8m2!3d26.793257!4d80.911045?authuser=0&hl=en&rclk=1,26.793257,80.911045
Ceregam Therapy Centre,Yoga studio,"Munshipulia Chauraha, Munshi Pulia Chauraha, near Post Office, Indira Nagar, Lucknow, Uttar Pradesh 226016, India",https://www.google.co.kr/maps/place/Ceregam+Therapy+Centre/data=!4m5!3m4!1s0x399be2a9dfbc5d2d:0xd0c93f3fd7e67e9e!8m2!3d26.88572!4d80.99413?authuser=0&hl=en&rclk=1,26.88572,80.99413
Yoga Health Clinic,Yoga studio,"SH 25, Lajpat Nagar Colony, Lajpat Nagar, Chowk, Lucknow, Uttar Pradesh 226003, India",https://www.google.co.kr/maps/place/Yoga+Health+Clinic/data=!4m5!3m4!1s0x399bfdfaf4510da5:0x66020dfb23a5eda4!8m2!3d26.871335!4d80.908127?authuser=0&hl=en&rclk=1,26.871335,80.908127
Rahul prasad,Gymnastics center,"R2R5+R3X, Vardan Khand, Sector 1, Gomti Nagar, Lucknow, Uttar Pradesh 226010, India",https://www.google.co.kr/maps/place/Rahul+prasad/data=!4m5!3m4!1s0x399be34ddb076cdb:0x89c14d8ea5d1b42b!8m2!3d26.8421024!4d81.0077401?authuser=0&hl=en&rclk=1,26.8421024,81.0077401
Yogya Fight Club,Martial arts club,"A-13 Brahampuri colony, at Badi Jugauli Rail Crossing near, Ravindra Palli, Lucknow, Uttar Pradesh 226016, India",https://www.google.co.kr/maps/place/Yogya+Fight+Club/data=!4m5!3m4!1s0x399bfd497cbc2fbd:0x8da534a3e0e605b3!8m2!3d26.865244!4d80.98133?authuser=0&hl=en&rclk=1,26.865244,80.98133
KAMLESH SHUKLA PROFESSIONAL TENNIS ACADEMY,Tennis club,"Avadh School, 5-6, Vipul Khand, Gomti Nagar, Lucknow, Uttar Pradesh 226010, India",https://www.google.co.kr/maps/place/KAMLESH+SHUKLA+PROFESSIONAL+TENNIS+ACADEMY/data=!4m5!3m4!1s0x399bfd2b87443ca1:0x19285d0593192e74!8m2!3d26.8442368!4d80.9839412?authuser=0&hl=en&rclk=1,26.8442368,80.9839412
MDVTI (Maharishi Dayanand Vocational Training Institute India)- No.1 Yoga Teacher Training Institute in India | Yoga Franchise,Yoga studio,"5/896, Sector-5, Near Punjab National Bank Chauraha, Vikas Nagar, Lucknow, Uttar Pradesh 226022, India",https://www.google.co.kr/maps/place/MDVTI+(Maharishi+Dayanand+Vocational+Training+Institute+India)-+No.1+Yoga+Teacher+Training+Institute+in+India+%7C+Yoga+Franchise/data=!4m5!3m4!1s0x399957f012fd14b9:0x1ea43e404047e89e!8m2!3d26.8937371!4d80.9647152?authuser=0&hl=en&rclk=1,26.8937371,80.9647152
Boxing Academy,Boxing club,"Azar collage, Lalbagh, Lucknow, Uttar Pradesh 226001, India",https://www.google.co.kr/maps/place/Boxing+Academy/data=!4m5!3m4!1s0x399bfd063121bb37:0xf1060e82f4669e9c!8m2!3d26.8467088!4d80.9461592?authuser=0&hl=en&rclk=1,26.8467088,80.9461592
Divine Physiotherapy yoga & Naturopathy Centre,Yoga studio,"RWWW+MFF, Narpatkhera, Lalbagh, Kamora, Uttar Pradesh 226001, India",https://www.google.co.kr/maps/place/Divine+Physiotherapy+yoga+%26+Naturopathy+Centre/data=!4m5!3m4!1s0x399bfdddaf75025f:0x999406ed9e612865!8m2!3d26.8466937!4d80.946166?authuser=0&hl=en&rclk=1,26.8466937,80.946166
International Martial Arts School India,Self defense school,"636/31 Adarsh Colony, Takrohi Rd, behind Petrol Pump, Sector 11, Indira Nagar, Lucknow, Uttar Pradesh 226016, India",https://www.google.co.kr/maps/place/International+Martial+Arts+School+India/data=!4m5!3m4!1s0x399958732eb7ac77:0x2b70dde16dfcc4ef!8m2!3d26.8993632!4d81.0133164?authuser=0&hl=en&rclk=1,26.8993632,81.0133164
Classic Fitness academy Lucknow,Education center,"15/93 1st floor, Indira Nagar Rd, above bank of baroda, Lucknow, Uttar Pradesh 226016, India",https://www.google.co.kr/maps/place/Classic+Fitness+academy+Lucknow/data=!4m5!3m4!1s0x399bfd31dd91ef01:0x8a9dfb0d52a01025!8m2!3d26.8851974!4d80.9926054?authuser=0&hl=en&rclk=1,26.8851974,80.9926054
Fitness World,Corporate office,"129, D Block, Sector 63, Noida, Uttar Pradesh 201307, India",https://www.google.co.kr/maps/place/Fitness+World/data=!4m5!3m4!1s0x390cef3bcca2cdf3:0x23da768c9a604163!8m2!3d28.6309127!4d77.3823392?authuser=0&hl=en&rclk=1,28.6309127,77.3823392
Namastey studio,Yoga studio,"Ashiyana Colony, Sector N, Ashiyana, Lucknow, Uttar Pradesh 226012, India",https://www.google.co.kr/maps/place/Namastey+studio/data=!4m5!3m4!1s0x399bfbc6ca03ad53:0x41dcd57bc00d9114!8m2!3d26.7796164!4d80.9200825?authuser=0&hl=en&rclk=1,26.7796164,80.9200825
K P Jungle Arena,Gymnastics center,"VVCM+G24, Lakshman Vihar Colony, Karim Ganj, Lucknow, Uttar Pradesh 226003, India",https://www.google.co.kr/maps/place/K+P+Jungle+Arena/data=!4m5!3m4!1s0x399bff64fc66688b:0x43799f10b134848e!8m2!3d26.871255!4d80.882577?authuser=0&hl=en&rclk=1,26.871255,80.882577
Fitness First Health Club,Gymnastics club,"878 /37B, Ward NUMBER 6, MEHRAULI, New Delhi, Delhi 110030, India",https://www.google.co.kr/maps/place/Fitness+First+Health+Club/data=!4m5!3m4!1s0x390d1e0e6de60051:0x1f289ec94ad44fd1!8m2!3d28.5181131!4d77.1780605?authuser=0&hl=en&rclk=1,28.5181131,77.1780605
Singh Sports & Fitness Co,E-commerce service,"A-100, near Surya Palace, Major Dhyanchand Nagar, Surya Palace Colony, Meerut, Uttar Pradesh 250002, India",https://www.google.co.kr/maps/place/Singh+Sports+%26+Fitness+Co/data=!4m5!3m4!1s0x390c650026895ac7:0xefbeebec4fe51cbe!8m2!3d28.9504705!4d77.6780831?authuser=0&hl=en&rclk=1,28.9504705,77.6780831
Pradhan Ji Service Centre,Gym,"opp H.A.L, Faizabad Rd, India",https://www.google.co.kr/maps/place/Pradhan+Ji+Service+Centre/data=!4m5!3m4!1s0x399bfd4d45d5cd95:0x5b7084e6c737cd0c!8m2!3d26.8725627!4d80.9862626?authuser=0&hl=en&rclk=1,26.8725627,80.9862626
SomYogis Yoga Studio,Yoga studio,"530/59, Kapoorthla, Bara Chandganj, Sector A, Chandralok, Lucknow, Uttar Pradesh 226024, India",https://www.google.co.kr/maps/place/SomYogis+Yoga+Studio/data=!4m5!3m4!1s0x399957642e517873:0x338e98edbebf3d4e!8m2!3d26.881189!4d80.946674?authuser=0&hl=en&rclk=1,26.881189,80.946674
Choyang India Health Beauty & Fitness,Occupational therapist,"Plot No--Basement--568/1/5 GA/4, Kailashpuri,Alambagh, Lucknow, Uttar Pradesh 226005, India",https://www.google.co.kr/maps/place/Choyang+India+Health+Beauty+%26+Fitness/data=!4m5!3m4!1s0x399bfc3e1070a5fd:0xaed4e2d919b31d0!8m2!3d26.8115049!4d80.916063?authuser=0&hl=en&rclk=1,26.8115049,80.916063
Sports Line,Sports accessories wholesaler,"Nazirabad Rd, Nazirabad, Aminabad, Lucknow, Uttar Pradesh 226018, India",https://www.google.co.kr/maps/place/Sports+Line/data=!4m5!3m4!1s0x399bfdba59bada95:0xab5bd1f428076f18!8m2!3d26.8486159!4d80.9291906?authuser=0&hl=en&rclk=1,26.8486159,80.9291906
Hotel Levana,·4-star hotel,"72, Mahatma Gandhi Marg adjacent to Tej Kr Plaza, Hazratganj, Lucknow, Uttar Pradesh 226001, India",https://www.google.co.kr/maps/place/Hotel+Levana/data=!4m5!3m4!1s0x399bfd0affffffff:0xd9c2a7ff2ff5dfe8!8m2!3d26.8471666!4d80.9444584?authuser=0&hl=en&rclk=1,26.8471666,80.9444584
"Brahmavarchas International Yoga Academy, Best Yoga Classes and Training in Lucknow",Yoga studio,"House 17, Jama Masjid Rd, opp Honda service centre, Sector 9, Indira Nagar, Lucknow, Uttar Pradesh 226016, India","https://www.google.co.kr/maps/place/Brahmavarchas+International+Yoga+Academy,+Best+Yoga+Classes+and+Training+in+Lucknow/data=!4m5!3m4!1s0x399be3b0fab23f03:0x72aa77e4ff521ace!8m2!3d26.8851311!4d81.001774?authuser=0&hl=en&rclk=1",26.8851311,81.001774
Yog Sadhana Kendra,Yoga studio,"B-2245/1, Sector 20, B Block, Indira Nagar, Lucknow, Uttar Pradesh 226016, India",https://www.google.co.kr/maps/place/Yog+Sadhana+Kendra/data=!4m5!3m4!1s0x399bfd5451ae6203:0x83ec0e8057e391f!8m2!3d26.8816705!4d80.9838858?authuser=0&hl=en&rclk=1,26.8816705,80.9838858
Kundalini Yoga Research Institute,Yoga studio,"No. 15, 9, Chowk, Lucknow, Uttar Pradesh 226003, India",https://www.google.co.kr/maps/place/Kundalini+Yoga+Research+Institute/data=!4m5!3m4!1s0x399bfdfaf447654f:0x3028eaa63dd4be16!8m2!3d26.8686565!4d80.9069522?authuser=0&hl=en&rclk=1,26.8686565,80.9069522
Grand Slam Fitness Pvt Ltd.,Sports accessories wholesaler,"E-540, Ground Floor, Greater kailash-II, New Delhi, Delhi 110048, India",https://www.google.co.kr/maps/place/Grand+Slam+Fitness+Pvt+Ltd./data=!4m5!3m4!1s0x390d1897d1afa193:0x7dce019efdb459b9!8m2!3d28.5376588!4d77.2397441?authuser=0&hl=en&rclk=1,28.5376588,77.2397441
Taekwondo Federation Of India,Taekwondo school,"26, BN Road, Lalbagh, Lucknow, Uttar Pradesh 226001, India",https://www.google.co.kr/maps/place/Taekwondo+Federation+Of+India/data=!4m5!3m4!1s0x399bfda8c5a59539:0x968a807de1d508e5!8m2!3d26.8451683!4d80.9384305?authuser=0&hl=en&rclk=1,26.8451683,80.9384305
India Hospital Nd Fitness,Hospital,"Aliganj Main Rd, Bans Mandi, Nirala Nagar, Lucknow, Uttar Pradesh 226020, India",https://www.google.co.kr/maps/place/India+Hospital+Nd+Fitness/data=!4m5!3m4!1s0x399bfd831563730b:0x2dec64af57369f69!8m2!3d26.878846!4d80.935769?authuser=0&hl=en&rclk=1,26.878846,80.935769
