Company_Name,Category,Address,Url,Latitude,Longitude,Territory
Apunba Fitness Center,Gym,"Ayangpalli Rd, Khurai Thangjam Leikai, Imphal, Manipur 795001, India",https://www.google.co.kr/maps/place/Apunba+Fitness+Center/data=!4m5!3m4!1s0x374927f71f3bd931:0x6e3438039ab17bf6!8m2!3d24.8150538!4d93.9597351?authuser=0&hl=en&rclk=1,24.8150538,93.9597351,Manipur
World Gym and Fitness Centre,Fitness center,"Yaiskul Police Lane Krishna Premi Building, next to Krishnadas Oil Pump, Imphal, Manipur 795001, India",https://www.google.co.kr/maps/place/World+Gym+and+Fitness+Centre/data=!4m5!3m4!1s0x37492650e8cfb601:0x6ba4f5525dca216!8m2!3d24.7955863!4d93.9402837?authuser=0&hl=en&rclk=1,24.7955863,93.9402837,Manipur
"Mountain Gym Fitness Center,",Gym,"Thangmeiband Hijam Dewan Leikai Rd, Thangmeiband, Imphal, Manipur 795004, India","https://www.google.co.kr/maps/place/Mountain+Gym+Fitness+Center,/data=!4m5!3m4!1s0x374927ba67a150ab:0xe6b53bd721bf1875!8m2!3d24.8184146!4d93.9340133?authuser=0&hl=en&rclk=1",24.8184146,93.9340133,Manipur
PS Nutrition Point & Gym,Gym,"Imphal-Jessami Rd, New Checkon Mamang Leikai, Soibam Leikai, Imphal, Manipur 795001, India",https://www.google.co.kr/maps/place/PS+Nutrition+Point+%26+Gym/data=!4m5!3m4!1s0x37492701307e0c61:0xcd7d18e726016ea1!8m2!3d24.8100111!4d93.9503812?authuser=0&hl=en&rclk=1,24.8100111,93.9503812,Manipur
"Kangleipak Fitness Centre (KFC), Manipur",Gym,"Indo-Myanmar Rd, Canchipur, Imphal, Manipur 795003, India","https://www.google.co.kr/maps/place/Kangleipak+Fitness+Centre+(KFC),+Manipur/data=!4m5!3m4!1s0x374925d8516e24af:0x783883bc911db632!8m2!3d24.755384!4d93.934754?authuser=0&hl=en&rclk=1",24.755384,93.934754,Manipur
APUNBA FITNESS CENTER,Fitness center,"RIMS Rd, Nagamapal, Thangmeiband, Imphal, Manipur 795001, India",https://www.google.co.kr/maps/place/APUNBA+FITNESS+CENTER/data=!4m5!3m4!1s0x374927b3d0afd203:0x4f4a83583dbb3617!8m2!3d24.8105881!4d93.9338676?authuser=0&hl=en&rclk=1,24.8105881,93.9338676,Manipur
Shiva Nutrition and Fitness Centre,Gym,"Local Crossway, Paona Bazar, Imphal, Manipur 795001, India",https://www.google.co.kr/maps/place/Shiva+Nutrition+and+Fitness+Centre/data=!4m5!3m4!1s0x37492717b7edc917:0xcd0e0317eda359b4!8m2!3d24.8029614!4d93.9347795?authuser=0&hl=en&rclk=1,24.8029614,93.9347795,Manipur
Sangai Gym ranjit,Gym,"Thangjam Leirak, Keishamthong, Imphal, Manipur 795004, India",https://www.google.co.kr/maps/place/Sangai+Gym+ranjit/data=!4m5!3m4!1s0x3749264420e3274b:0xa098757df33456cb!8m2!3d24.7892305!4d93.9318958?authuser=0&hl=en&rclk=1,24.7892305,93.9318958,Manipur
NEFSA Fitness Point,Gym,"RX2F+4JM, Kshetrigao, Imphal, Manipur 795005, India",https://www.google.co.kr/maps/place/NEFSA+Fitness+Point/data=!4m5!3m4!1s0x374926d9173d37f5:0x4dc08c9372686d7f!8m2!3d24.8003412!4d93.9740574?authuser=0&hl=en&rclk=1,24.8003412,93.9740574,Manipur
Emoinu Gym,Gym,"Mayai Lambi Rd, Imphal, Manipur 795003, India",https://www.google.co.kr/maps/place/Emoinu+Gym/data=!4m5!3m4!1s0x374927b725ff7069:0x2b810204eca830eb!8m2!3d24.7677118!4d93.924212?authuser=0&hl=en&rclk=1,24.7677118,93.924212,Manipur
GOLDâ€™S GYM,Gym,"Indo-Myanmar Road, Singjamei Chingamathak, Near SBI Bank, Imphal, Manipur 795001, India",https://www.google.co.kr/maps/place/GOLD%E2%80%99S+GYM/data=!4m5!3m4!1s0x3749265d21ed6aeb:0xff07cddcd81527c9!8m2!3d24.7840708!4d93.9380439?authuser=0&hl=en&rclk=1,24.7840708,93.9380439,Manipur
Sangaifit7clan fitness centre,Fitness center,"89, Thangal Bazar, Imphal, Manipur 795001, India",https://www.google.co.kr/maps/place/Sangaifit7clan+fitness+centre/data=!4m5!3m4!1s0x374927eabb89467b:0x214f98c04fe0dc6c!8m2!3d24.8096218!4d93.9345589?authuser=0&hl=en&rclk=1,24.8096218,93.9345589,Manipur
Star Gym,Gym,"Kwakeithel, leimakhejam Leikai, Imphal West, Imphal, Manipur 795001, India",https://www.google.co.kr/maps/place/Star+Gym/data=!4m5!3m4!1s0x374926385d71af17:0x1fc7f5df3f7244a1!8m2!3d24.79124!4d93.9253243?authuser=0&hl=en&rclk=1,24.79124,93.9253243,Manipur
YPISM Gym,Gym,"RW5C+QPP, Phurailatpam Colony, Uripok, Imphal, Manipur 795004, India",https://www.google.co.kr/maps/place/YPISM+Gym/data=!4m5!3m4!1s0x374927cb88d47603:0xe26654cfe260bb89!8m2!3d24.8094502!4d93.9218344?authuser=0&hl=en&rclk=1,24.8094502,93.9218344,Manipur
Valentina Fitness,Fitness center,"795001, Thiyam Leikai, Keishampat, Sagolband, Imphal, Manipur 795004, India",https://www.google.co.kr/maps/place/Valentina+Fitness/data=!4m5!3m4!1s0x3749279437065ac9:0x49195270ae346222!8m2!3d24.7986751!4d93.9337294?authuser=0&hl=en&rclk=1,24.7986751,93.9337294,Manipur
The Gym Fitness Studio,Gym,"RW7M+2WQ, Nagamapal, Thangmeiband, Imphal, Manipur 795001, India",https://www.google.co.kr/maps/place/The+Gym+Fitness+Studio/data=!4m5!3m4!1s0x374927b1981fbc11:0xd2a035472373657b!8m2!3d24.8125759!4d93.9348636?authuser=0&hl=en&rclk=1,24.8125759,93.9348636,Manipur
"Gymkhana, RIMS",Gym,"RW89+4RR, Lamphelpat, Imphal, Manipur 795004, India","https://www.google.co.kr/maps/place/Gymkhana,+RIMS/data=!4m5!3m4!1s0x374927cf0f814629:0x21d6225d74e26ea8!8m2!3d24.8153519!4d93.9195143?authuser=0&hl=en&rclk=1",24.8153519,93.9195143,Manipur
Ladies Fitness World,Gym,"795001, Thiyam Leikai, Keishampat, Sagolband, Imphal, Manipur 795004, India",https://www.google.co.kr/maps/place/Ladies+Fitness+World/data=!4m5!3m4!1s0x3749264e853fa3b7:0xe9f0b8225e493368!8m2!3d24.7986751!4d93.9337294?authuser=0&hl=en&rclk=1,24.7986751,93.9337294,Manipur
Chanura Fitness Centre (Only For Ladies),Fitness center,"Keishampat Sega Road, Konjeng Hazari, Thangjam Leikai, Manipur 795001, India",https://www.google.co.kr/maps/place/Chanura+Fitness+Centre+(Only+For+Ladies)/data=!4m5!3m4!1s0x37492761894c8761:0xcb883d34fdb1edc4!8m2!3d24.795462!4d93.9300669?authuser=0&hl=en&rclk=1,24.795462,93.9300669,Manipur
U-FITNESS CENTRE,Gym,"Akampat, Singjamei - Kongba Rd, Imphal, Manipur 795008, India",https://www.google.co.kr/maps/place/U-FITNESS+CENTRE/data=!4m5!3m4!1s0x3749265fa29458b3:0xa54176fd2bf2d0fc!8m2!3d24.7839284!4d93.9463526?authuser=0&hl=en&rclk=1,24.7839284,93.9463526,Manipur
T Fit Manipur Gym,Fitness center,"Khurai kongpal chingangbam leikai, Lamlong-Tinsid Rd, Imphal, Manipur 795010, India",https://www.google.co.kr/maps/place/T+Fit+Manipur+Gym/data=!4m5!3m4!1s0x374927cc0133664b:0xcd33b3785200ed53!8m2!3d24.822815!4d93.970963?authuser=0&hl=en&rclk=1,24.822815,93.970963,Manipur
Apunba Fitness Clan,Gym,"Singjamei Rd, Chingamakha, Imphal, Manipur 795001, India",https://www.google.co.kr/maps/place/Apunba+Fitness+Clan/data=!4m5!3m4!1s0x3749278510918bb5:0x50db56371035b9f7!8m2!3d24.7798412!4d93.9343423?authuser=0&hl=en&rclk=1,24.7798412,93.9343423,Manipur
United Gym,Gym,"MM Menson, Uripok, Imphal, Manipur 795004, India",https://www.google.co.kr/maps/place/United+Gym/data=!4m5!3m4!1s0x374927fdfe226b0d:0xc6233304093d7a3c!8m2!3d24.8109167!4d93.9109083?authuser=0&hl=en&rclk=1,24.8109167,93.9109083,Manipur
Sangai Gym,Gym,"QWJJ+M2G, Paonam Kollup, Imphal, Manipur 795003, India",https://www.google.co.kr/maps/place/Sangai+Gym/data=!4m5!3m4!1s0x374927f32140e3b1:0xd1e98b943e7a9f73!8m2!3d24.7816779!4d93.9300712?authuser=0&hl=en&rclk=1,24.7816779,93.9300712,Manipur
Majid's Gym House,Gym,"Santhel Awang Leikai, Uchiwa Makha Thokchom Leirak - Khongnang Makhong Rd, near Santhel Awang Salam, Maibam Konjil, Manipur 795132, India",https://www.google.co.kr/maps/place/Majid's+Gym+House/data=!4m5!3m4!1s0x37493a05f43b7179:0xf6558a1ed08d5763!8m2!3d24.5803097!4d93.9123666?authuser=0&hl=en&rclk=1,24.5803097,93.9123666,Manipur
Patriots Gym,Gym,"QWVG+422, Sagolband, Imphal, Manipur 795001, India",https://www.google.co.kr/maps/place/Patriots+Gym/data=!4m5!3m4!1s0x374926383b8ca7eb:0xb67210aa6ae10c51!8m2!3d24.7927631!4d93.9250186?authuser=0&hl=en&rclk=1,24.7927631,93.9250186,Manipur
khagemba gym,Gym,"Unnamed Road, Imphal, Manipur 795003, India",https://www.google.co.kr/maps/place/khagemba+gym/data=!4m5!3m4!1s0x374925ce8308f507:0x840d03418dc7ed72!8m2!3d24.7422423!4d93.9417368?authuser=0&hl=en&rclk=1,24.7422423,93.9417368,Manipur
"ASK Gym, Kakching",Gym,"Kha Manipur College, Kakching, Manipur 795103, India","https://www.google.co.kr/maps/place/ASK+Gym,+Kakching/data=!4m5!3m4!1s0x37493f35800b9363:0xaf5a6f5354d4f594!8m2!3d24.5097827!4d93.9677137?authuser=0&hl=en&rclk=1",24.5097827,93.9677137,Manipur
Fitness centre,Gym,"QXJ8+7X7, Imphal, Manipur 795008, India",https://www.google.co.kr/maps/place/Fitness+centre/data=!4m5!3m4!1s0x374927cb1994b581:0xf4cdae67c32cb2fe!8m2!3d24.7806536!4d93.9674371?authuser=0&hl=en&rclk=1,24.7806536,93.9674371,Manipur
Lungmon gym,Gym,"Manipur Road, Sagolband, Imphal, Manipur 795146, India",https://www.google.co.kr/maps/place/Lungmon+gym/data=!4m5!3m4!1s0x374929923980632f:0x536a78a007f3c178!8m2!3d24.8353675!4d93.9026761?authuser=0&hl=en&rclk=1,24.8353675,93.9026761,Manipur
Perfect Fitness Centre,Gym,"Ahongei Leikai, Soibam Leikai, Imphal, Manipur 795010, India",https://www.google.co.kr/maps/place/Perfect+Fitness+Centre/data=!4m5!3m4!1s0x374927618c8f1ea9:0xc1d38487d3951a6c!8m2!3d24.8129591!4d93.9575391?authuser=0&hl=en&rclk=1,24.8129591,93.9575391,Manipur
Royal Gym,Gym,"QW7W+785, Ningombam Colony, Kitna Panung, Manipur 795003, India",https://www.google.co.kr/maps/place/Royal+Gym/data=!4m5!3m4!1s0x3749267e0b6bd767:0xa57b985914e14c79!8m2!3d24.763144!4d93.945857?authuser=0&hl=en&rclk=1,24.763144,93.945857,Manipur
"NAMBOL FITNESS CENTRE, NFC",Gym,"PR9Q+F78, Nambol, Manipur 795134, India","https://www.google.co.kr/maps/place/NAMBOL+FITNESS+CENTRE,+NFC/data=!4m5!3m4!1s0x37492e8932f057f5:0x52d6b27d85607f8c!8m2!3d24.718653!4d93.8382136?authuser=0&hl=en&rclk=1",24.718653,93.8382136,Manipur
Force Gym Imphal,Gym,"NH2, Lamjaotongba, Manipur 795140, India",https://www.google.co.kr/maps/place/Force+Gym+Imphal/data=!4m5!3m4!1s0x374928a8abefb2e1:0x7a54f9633e677e35!8m2!3d24.7701308!4d93.9014007?authuser=0&hl=en&rclk=1,24.7701308,93.9014007,Manipur
YBB Gym,Gym,"Pishumthong Oinam Leika, Imphal, Manipur 795004, India",https://www.google.co.kr/maps/place/YBB+Gym/data=!4m5!3m4!1s0x37492641731d907b:0x7eda87a6ce121966!8m2!3d24.7851246!4d93.9306227?authuser=0&hl=en&rclk=1,24.7851246,93.9306227,Manipur
Panthoibi fitness centre,Gym,"Khongman Moirang Pandit Leikai, Top Naoria, Manipur 795001, India",https://www.google.co.kr/maps/place/Panthoibi+fitness+centre/data=!4m5!3m4!1s0x37492795edab1ad1:0xb3d27b3c145c27d6!8m2!3d24.7672707!4d93.9502815?authuser=0&hl=en&rclk=1,24.7672707,93.9502815,Manipur
"Cleopatra fitness Centre,Nambol,Manipur",Gym,"Nambol, Manipur 795134, India","https://www.google.co.kr/maps/place/Cleopatra+fitness+Centre,Nambol,Manipur/data=!4m5!3m4!1s0x37492e8932f057f5:0x3b9d095552e5e6b6!8m2!3d24.718643!4d93.8382427?authuser=0&hl=en&rclk=1",24.718643,93.8382427,Manipur
Pulse Fitness Center,Gym,"Pulse Fitness Center, Palace Compound, Opposite Govindaji Temple Main Gate, Thumbu Thong Bamon Leikai Rd, Angom Colony, Imphal, Manipur 795005, India",https://www.google.co.kr/maps/place/Pulse+Fitness+Center/data=!4m5!3m4!1s0x374926f8d2043fa1:0x9cd7eca7f9f29061!8m2!3d24.798669!4d93.9489707?authuser=0&hl=en&rclk=1,24.798669,93.9489707,Manipur
Shivfit 7 Clan,Gym,"Nagamapal Rd, Nagamapal Phougeishangbam Leikai, Thangmeiband, Imphal, Manipur 795001, India",https://www.google.co.kr/maps/place/Shivfit+7+Clan/data=!4m5!3m4!1s0x3749277bc965d9e7:0xa26d71718deb73ce!8m2!3d24.8144646!4d93.936571?authuser=0&hl=en&rclk=1,24.8144646,93.936571,Manipur
PY GYM,Gym,"Singjamei, Imphal, Manipur 795001, India",https://www.google.co.kr/maps/place/PY+GYM/data=!4m5!3m4!1s0x3749278c9cb8af91:0x9719a162245853f2!8m2!3d24.7806092!4d93.9434947?authuser=0&hl=en&rclk=1,24.7806092,93.9434947,Manipur
Humanity Plus Fitness Center,Fitness center,"Uripok Achom Leikai Rd, Shijagurumayum Colony, Uripok, Imphal, Manipur 795001, India",https://www.google.co.kr/maps/place/Humanity+Plus+Fitness+Center/data=!4m5!3m4!1s0x374927e6a3ac1fc1:0x25bfddf1e02d87ae!8m2!3d24.8074436!4d93.9208233?authuser=0&hl=en&rclk=1,24.8074436,93.9208233,Manipur
Ultimate Fitness Centre,Gym,"Imphal, Manipur 795140, India",https://www.google.co.kr/maps/place/Ultimate+Fitness+Centre/data=!4m5!3m4!1s0x3749289bfb2d9bbf:0x574159f303168573!8m2!3d24.7888372!4d93.9005404?authuser=0&hl=en&rclk=1,24.7888372,93.9005404,Manipur
The Figure gym,Gym,"Kwakeithel - Khagempalli Rd, Malom Tulihal, Haobam Marak Lourembam Leikai, Imphal, Manipur 795004, India",https://www.google.co.kr/maps/place/The+Figure+gym/data=!4m5!3m4!1s0x37492788f6ae000f:0x2bf19e189136065b!8m2!3d24.7894472!4d93.923133?authuser=0&hl=en&rclk=1,24.7894472,93.923133,Manipur
Animal Gym,Gym,"RW8M+9JG, Thangmeiband, Imphal, Manipur 795001, India",https://www.google.co.kr/maps/place/Animal+Gym/data=!4m5!3m4!1s0x374927b08bc2e07f:0x31cf0e6d3dd5b772!8m2!3d24.8159421!4d93.9340683?authuser=0&hl=en&rclk=1,24.8159421,93.9340683,Manipur
Kangleipak Independent Gym,Gym,"kwakeithel laishram Leikai, Imphal, Manipur, India",https://www.google.co.kr/maps/place/Kangleipak+Independent+Gym/data=!4m5!3m4!1s0x3749279ef146ffe3:0x9646c1a1efffc029!8m2!3d24.7829826!4d93.923652?authuser=0&hl=en&rclk=1,24.7829826,93.923652,Manipur
G.T fitness,Fitness center,"near, uripok, laikhurembi leikai, flyover, near flyover, Uripok, Manipur 795001, India",https://www.google.co.kr/maps/place/G.T+fitness/data=!4m5!3m4!1s0x374927ff813669c7:0x6f087168fcef848d!8m2!3d24.8073947!4d93.9293772?authuser=0&hl=en&rclk=1,24.8073947,93.9293772,Manipur
South Eastern Bar Union Gym,Gym,"Pallel Thongwangma Forest Gate,, Indo-Myanmar Rd, Manipur 795135, India",https://www.google.co.kr/maps/place/South+Eastern+Bar+Union+Gym/data=!4m5!3m4!1s0x3749408ead1ee093:0x5939212946fb3939!8m2!3d24.4537199!4d94.023497?authuser=0&hl=en&rclk=1,24.4537199,94.023497,Manipur
The FIT (Zumba and Fitness Centre),Gym,"Athokpam, Sorok, India",https://www.google.co.kr/maps/place/The+FIT+(Zumba+and+Fitness+Centre)/data=!4m5!3m4!1s0x37493d673351408d:0x8a067604437e931d!8m2!3d24.6349736!4d94.0057722?authuser=0&hl=en&rclk=1,24.6349736,94.0057722,Manipur
Friends Fitness Centre,Gym,"Nagamapal RIMS Road, Imphal-West, Imphal, Manipur 795001, India",https://www.google.co.kr/maps/place/Friends+Fitness+Centre/data=!4m5!3m4!1s0x374927b6ab153cab:0xcff6e22f415824c9!8m2!3d24.811495!4d93.9316597?authuser=0&hl=en&rclk=1,24.811495,93.9316597,Manipur
SANAKEITHEL VOLLEYBALL GROUND,Gym,"RWFJ+CQM, Thangmeiband, Imphal, Manipur 795001, India",https://www.google.co.kr/maps/place/SANAKEITHEL+VOLLEYBALL+GROUND/data=!4m5!3m4!1s0x374927bc03ac8869:0xa1cd9be9104b09db!8m2!3d24.8235945!4d93.9319156?authuser=0&hl=en&rclk=1,24.8235945,93.9319156,Manipur
Aero Zumba Fitness,Fitness center,"JNIMS Rd, Ahongei Leikai, Soibam Leikai, Imphal, Manipur 795001, India",https://www.google.co.kr/maps/place/Aero+Zumba+Fitness/data=!4m5!3m4!1s0x3749272495d63dbf:0x64c0cd11b7d6fa8f!8m2!3d24.8124477!4d93.9583321?authuser=0&hl=en&rclk=1,24.8124477,93.9583321,Manipur
Aerofit Fitness Corner,Gym,"Kwakeithel near Beta Pharmacy, Kwakeithel road, Kwakeithel Rd, Sagolband, Imphal, Manipur 795004, India",https://www.google.co.kr/maps/place/Aerofit+Fitness+Corner/data=!4m5!3m4!1s0x37492638fd4310b1:0x5d41e0ce5ede61b5!8m2!3d24.7904754!4d93.9245153?authuser=0&hl=en&rclk=1,24.7904754,93.9245153,Manipur
Xtreme Fitness,Gym,"NH2, Mantripukhri, Achanbigei, Imphal, Manipur 795002, India",https://www.google.co.kr/maps/place/Xtreme+Fitness/data=!4m5!3m4!1s0x37492732ee38439f:0xd428bcb86664e67b!8m2!3d24.8455261!4d93.9389225?authuser=0&hl=en&rclk=1,24.8455261,93.9389225,Manipur
Gym24,Fitness center,"New Checkon Rd, New Lambulane, Soibam Leikai, Imphal, Manipur 795001, India",https://www.google.co.kr/maps/place/Gym24/data=!4m5!3m4!1s0x374927d92985a7c1:0xa4b94476146eead1!8m2!3d24.8074589!4d93.9504101?authuser=0&hl=en&rclk=1,24.8074589,93.9504101,Manipur
"Fitness Centre, Pravabati College, Mayang Imphal",Fitness center,"Mayai Lambi Rd, Mayang Imphal, Manipur 795132, India","https://www.google.co.kr/maps/place/Fitness+Centre,+Pravabati+College,+Mayang+Imphal/data=!4m5!3m4!1s0x37493184df722117:0x3ed859fe66364ec!8m2!3d24.6239652!4d93.892186?authuser=0&hl=en&rclk=1",24.6239652,93.892186,Manipur
BISHNU GYM,Gym,"JQF7+485, Ward No. 7, Bishnupur, Manipur 795126, India",https://www.google.co.kr/maps/place/BISHNU+GYM/data=!4m5!3m4!1s0x374932dc33bf1d87:0x1837e54a01a0a649!8m2!3d24.6227734!4d93.7633707?authuser=0&hl=en&rclk=1,24.6227734,93.7633707,Manipur
B FIT GYM KANGLEIPAK,Gym,"Chingamakha MU Rd, Kakwa, Imphal, Manipur 795158, India",https://www.google.co.kr/maps/place/B+FIT+GYM+KANGLEIPAK/data=!4m5!3m4!1s0x3749279911062b1d:0xff0a2846d2b71650!8m2!3d24.770742!4d93.928608?authuser=0&hl=en&rclk=1,24.770742,93.928608,Manipur
BodyBuilding Centre,Gym,"Yonglan Leirak Rd, Wangkhei, Imphal, Manipur 795005, India",https://www.google.co.kr/maps/place/BodyBuilding+Centre/data=!4m5!3m4!1s0x3749270318516f9b:0x375706593a0e28f6!8m2!3d24.797223!4d93.9581425?authuser=0&hl=en&rclk=1,24.797223,93.9581425,Manipur
Imoinu Gym,Gym,"Wabagai - Terapishak Rd, Samurou, Manipur 795009, India",https://www.google.co.kr/maps/place/Imoinu+Gym/data=!4m5!3m4!1s0x37492f015c912fdf:0x68a91b50bca4ebdc!8m2!3d24.6757173!4d93.9009119?authuser=0&hl=en&rclk=1,24.6757173,93.9009119,Manipur
LY Gym,Gym,"UYAC ground, Kongba uchekon, Imphal, Manipur 795008, India",https://www.google.co.kr/maps/place/LY+Gym/data=!4m5!3m4!1s0x37492792eda466f3:0x65d75fffda8da559!8m2!3d24.7755715!4d93.9587953?authuser=0&hl=en&rclk=1,24.7755715,93.9587953,Manipur
JBC Gym,Gym,"Singjamei Mayengbam Leikai, Lairembi Lampak, Singjamei, Imphal, Manipur 795008, India",https://www.google.co.kr/maps/place/JBC+Gym/data=!4m5!3m4!1s0x374927e803c70acd:0x23254e2dd048366e!8m2!3d24.7760334!4d93.9389147?authuser=0&hl=en&rclk=1,24.7760334,93.9389147,Manipur
EASTERN NUTRITION AND FITNESS CENTER,Gym,"Imphal, Manipur 795008, India",https://www.google.co.kr/maps/place/EASTERN+NUTRITION+AND+FITNESS+CENTER/data=!4m5!3m4!1s0x374926f25ec0c06d:0xf9f8ed948e16e202!8m2!3d24.7841792!4d93.9556836?authuser=0&hl=en&rclk=1,24.7841792,93.9556836,Manipur
O2 GYM,Gym,"Luwangsangbam, NH2, near Liberal College, Achanbigei, Imphal, Manipur 795002, India",https://www.google.co.kr/maps/place/O2+GYM/data=!4m5!3m4!1s0x3748d913c8a4c409:0xfa14b22dc73d027c!8m2!3d24.8625875!4d93.9297175?authuser=0&hl=en&rclk=1,24.8625875,93.9297175,Manipur
Huidrom Tomthil,Gym,"sapam Leikai, Okram Colony, Lairembi Lampak, Singjamei, Imphal, Manipur 795008, India",https://www.google.co.kr/maps/place/Huidrom+Tomthil/data=!4m5!3m4!1s0x374926616acdfe2f:0xd941ae3769d332da!8m2!3d24.7799745!4d93.9407675?authuser=0&hl=en&rclk=1,24.7799745,93.9407675,Manipur
Meitram Gym,Gym,"Chingphu Rd, Meitram Makha, Changangei, Manipur 795009, India",https://www.google.co.kr/maps/place/Meitram+Gym/data=!4m5!3m4!1s0x37492feff9a95cb7:0x58b13cfad9ca07d6!8m2!3d24.7400475!4d93.8757608?authuser=0&hl=en&rclk=1,24.7400475,93.8757608,Manipur
LION'S GYM,Gym,"QWJC+J5P, Lourembam Leikai, Imphal, Manipur 795140, India",https://www.google.co.kr/maps/place/LION'S+GYM/data=!4m5!3m4!1s0x3749275d805ab4eb:0xfc45695bb1459c8f!8m2!3d24.7815975!4d93.9204484?authuser=0&hl=en&rclk=1,24.7815975,93.9204484,Manipur
Laishram Nutrition Centre,Fitness center,"Wangkhem, Manipur 795149, India",https://www.google.co.kr/maps/place/Laishram+Nutrition+Centre/data=!4m5!3m4!1s0x37492374bab855b3:0xc545cf129c3af6cd!8m2!3d24.6703068!4d94.0427558?authuser=0&hl=en&rclk=1,24.6703068,94.0427558,Manipur
Radiant Fitness,Gym,"Nongpok Inkhol, Imphal, Manipur 795005, India",https://www.google.co.kr/maps/place/Radiant+Fitness/data=!4m5!3m4!1s0x3749276c83ee9adb:0x30e54188dbf466cf!8m2!3d24.8029498!4d93.9488718?authuser=0&hl=en&rclk=1,24.8029498,93.9488718,Manipur
"The FIT, Zumba And Fitness",Gym,"Athokpam Sorok Patchou, Manipur 795138, India","https://www.google.co.kr/maps/place/The+FIT,+Zumba+And+Fitness/data=!4m5!3m4!1s0x37493d75a31ba487:0x6bd8dc3d104e6b80!8m2!3d24.6353424!4d94.0056971?authuser=0&hl=en&rclk=1",24.6353424,94.0056971,Manipur
JBC Gym,Gym,"Indo-Myanmar Rd, Imphal, Manipur 795003, India",https://www.google.co.kr/maps/place/JBC+Gym/data=!4m5!3m4!1s0x3749266594548a37:0x70576895e05dd662!8m2!3d24.773818!4d93.9379495?authuser=0&hl=en&rclk=1,24.773818,93.9379495,Manipur
Sky Fitness,Gym,"JXWW+39J, Ward Number 1, Wangmataba, Thoubal, Manipur 795138, India",https://www.google.co.kr/maps/place/Sky+Fitness/data=!4m5!3m4!1s0x37493d3c18a874dd:0x3e6b273d00507eaa!8m2!3d24.6452046!4d93.9958903?authuser=0&hl=en&rclk=1,24.6452046,93.9958903,Manipur
Fitness World,Gym,"chingamathak, India",https://www.google.co.kr/maps/place/Fitness+World/data=!4m5!3m4!1s0x37492642c71dc8f1:0xa1896e1744875dbf!8m2!3d24.7826532!4d93.9377973?authuser=0&hl=en&rclk=1,24.7826532,93.9377973,Manipur
Azad Fitness,Gym,"Lilong Tairen Makhong, Lilong Chajing, Manipur 795130, India",https://www.google.co.kr/maps/place/Azad+Fitness/data=!4m5!3m4!1s0x3749255233db289b:0xee4edca0cccfbb5c!8m2!3d24.7018976!4d93.9468076?authuser=0&hl=en&rclk=1,24.7018976,93.9468076,Manipur
Utlou Makha Gym,Gym,"Phadibi Road, Thiyam, Manipur 795134, India",https://www.google.co.kr/maps/place/Utlou+Makha+Gym/data=!4m5!3m4!1s0x37492fec74795565:0x4cfdb819c4efe3e1!8m2!3d24.7173374!4d93.8616846?authuser=0&hl=en&rclk=1,24.7173374,93.8616846,Manipur
Gym 24,Gym,"New Checkon Mamang Leikai, Soibam Leikai, Laipham Siphai, Manipur 795001, India",https://www.google.co.kr/maps/place/Gym+24/data=!4m5!3m4!1s0x3749279573707905:0x26a014b6ece76b8e!8m2!3d24.8075256!4d93.9505707?authuser=0&hl=en&rclk=1,24.8075256,93.9505707,Manipur
Gym 24,Gym,"RWXQ+66G, Mantripukhri, Achanbigei, Imphal, Manipur 795002, India",https://www.google.co.kr/maps/place/Gym+24/data=!4m5!3m4!1s0x37492781bc61a795:0xff9960ef42525c2a!8m2!3d24.8480537!4d93.9380729?authuser=0&hl=en&rclk=1,24.8480537,93.9380729,Manipur
Leimapok Fitness,Gym,"J2FV+8XG, Thoubal, Manipur 795138, India",https://www.google.co.kr/maps/place/Leimapok+Fitness/data=!4m5!3m4!1s0x37493db598180c1f:0x4c93b3263b7cf98b!8m2!3d24.6233075!4d94.0449549?authuser=0&hl=en&rclk=1,24.6233075,94.0449549,Manipur
Asthetic Fitness Pro GYM,Gym,"Khoiru Leikai, Moirang, Manipur 795133, India",https://www.google.co.kr/maps/place/Asthetic+Fitness+Pro+GYM/data=!4m5!3m4!1s0x3749356a153a4b7f:0x5d5e316326a0fc83!8m2!3d24.4967692!4d93.7649903?authuser=0&hl=en&rclk=1,24.4967692,93.7649903,Manipur
KANGLEI BODY GYM,Gym,"Sagolband Tera Sapam Leirak, Sagolband, Imphal, Manipur 795004, India",https://www.google.co.kr/maps/place/KANGLEI+BODY+GYM/data=!4m5!3m4!1s0x374927bcbaecdb23:0xc6413c1e0f77b047!8m2!3d24.7971268!4d93.9190369?authuser=0&hl=en&rclk=1,24.7971268,93.9190369,Manipur
IDEAL NUTRITION CENTRE,Gym,"Lilong Bazar, Imphal West 1st Floor, Post Office Complex, Imphal, Manipur 795130, India",https://www.google.co.kr/maps/place/IDEAL+NUTRITION+CENTRE/data=!4m5!3m4!1s0x374925e7a3a022b9:0xc165f8d1f75c7cfb!8m2!3d24.6945853!4d93.9910249?authuser=0&hl=en&rclk=1,24.6945853,93.9910249,Manipur
SMART FITNESS NAMBOL,Gym,"PRFV+4JP, Phoijing Makha Leikai, Manipur 795134, India",https://www.google.co.kr/maps/place/SMART+FITNESS+NAMBOL/data=!4m5!3m4!1s0x37492fff50f51023:0x44b5acc7919178ea!8m2!3d24.7228397!4d93.844083?authuser=0&hl=en&rclk=1,24.7228397,93.844083,Manipur
KMMAC,Gym,"Ningthem Pukhri Mapal Rd, Wangkhei, Imphal, Manipur 795005, India",https://www.google.co.kr/maps/place/KMMAC/data=!4m5!3m4!1s0x374926fb6a3b4351:0xa1c05bf638fc5146!8m2!3d24.7975459!4d93.9558392?authuser=0&hl=en&rclk=1,24.7975459,93.9558392,Manipur
Salaai Fitness & Gym,Gym,"pukri achauba, Wangjing, Manipur 795148, India",https://www.google.co.kr/maps/place/Salaai+Fitness+%26+Gym/data=!4m5!3m4!1s0x37493d89f84b5fdb:0x2a49653c8a66487!8m2!3d24.5963336!4d94.0370059?authuser=0&hl=en&rclk=1,24.5963336,94.0370059,Manipur
AMKYC,Gym,"PX47+8VH, Keirao Makting, Manipur 795130, India",https://www.google.co.kr/maps/place/AMKYC/data=!4m5!3m4!1s0x3749250727d16635:0x15904ca2fa2fa7cc!8m2!3d24.7058172!4d93.9647415?authuser=0&hl=en&rclk=1,24.7058172,93.9647415,Manipur
MM Fitness Centre,Gym,"FXQQ+QC8, Kakching, Manipur 795103, India",https://www.google.co.kr/maps/place/MM+Fitness+Centre/data=!4m5!3m4!1s0x37493fc4f143e829:0x5fa24d91871123b2!8m2!3d24.4894046!4d93.9885937?authuser=0&hl=en&rclk=1,24.4894046,93.9885937,Manipur
The churachanpur united gym,Gym,"Red Cross Rd, Salemveng, D.Phailien, Churachandpur, Manipur 795128, India",https://www.google.co.kr/maps/place/The+churachanpur+united+gym/data=!4m5!3m4!1s0x374eb3d10ce9b121:0xe8d4fc4d14d2ac04!8m2!3d24.3409766!4d93.6938176?authuser=0&hl=en&rclk=1,24.3409766,93.6938176,Manipur
Anytk Gym - Fitness and Health,Gym,"RW8J+64V, Thangmeiband, Imphal, Manipur 795001, India",https://www.google.co.kr/maps/place/Anytk+Gym+-+Fitness+and+Health/data=!4m5!3m4!1s0x37492785e33633f3:0xd139d640b2ed628!8m2!3d24.8156195!4d93.9302908?authuser=0&hl=en&rclk=1,24.8156195,93.9302908,Manipur
Apollo Gym,Gym,"AH2, Wangmataba, Thoubal, Manipur 795138, India",https://www.google.co.kr/maps/place/Apollo+Gym/data=!4m5!3m4!1s0x37493cbb285bd19d:0x18440ee9a1295e7a!8m2!3d24.6464518!4d93.9985691?authuser=0&hl=en&rclk=1,24.6464518,93.9985691,Manipur
NH2 Fitness Center,Gym,"Ningthoukhong 4, Ningthoukhong, Manipur 795011, India",https://www.google.co.kr/maps/place/NH2+Fitness+Center/data=!4m5!3m4!1s0x3749358679dbe959:0x79658fc7d613305b!8m2!3d24.5690986!4d93.7632666?authuser=0&hl=en&rclk=1,24.5690986,93.7632666,Manipur
The F3 Gym,Gym,"8MMV+GRR, Gouchinkhup Veng, Churachandpur, Manipur 795128, India",https://www.google.co.kr/maps/place/The+F3+Gym/data=!4m5!3m4!1s0x374eb3abcf6416b9:0x4d02862091e858c4!8m2!3d24.3338727!4d93.6945287?authuser=0&hl=en&rclk=1,24.3338727,93.6945287,Manipur
DD FITNESS CENTRE,Gym,"XVCP+XW6, Kanglatongbi Bazar Board, Kanglatongbi, Manipur 795107, India",https://www.google.co.kr/maps/place/DD+FITNESS+CENTRE/data=!4m5!3m4!1s0x3748d09560386593:0x2d101c7b6efec4!8m2!3d24.9724186!4d93.8872803?authuser=0&hl=en&rclk=1,24.9724186,93.8872803,Manipur
AZTECS FIGHT STUDIO,Fitness center,"3rd FLOOR, AZTECS BUILDING, IRABOT ROAD, Imphal, Manipur 795001, India",https://www.google.co.kr/maps/place/AZTECS+FIGHT+STUDIO/data=!4m5!3m4!1s0x3749276a013ab1a1:0x1fa8d59da949090a!8m2!3d24.8076795!4d93.9360277?authuser=0&hl=en&rclk=1,24.8076795,93.9360277,Manipur
Yk gym,Gym,"MQMV+MMR, Yumnam Khunou, Manipur 795134, India",https://www.google.co.kr/maps/place/Yk+gym/data=!4m5!3m4!1s0x37492d9a01b3238d:0x7d546ae37de29a3!8m2!3d24.684238!4d93.794153?authuser=0&hl=en&rclk=1,24.684238,93.794153,Manipur
perfect nutrition and fitness centre,Gym,"RX54+V3G, Soibam Leikai, Imphal, Manipur 795001, India",https://www.google.co.kr/maps/place/perfect+nutrition+and+fitness+centre/data=!4m5!3m4!1s0x3749270370523d79:0x839d010359194d1d!8m2!3d24.8096973!4d93.9552005?authuser=0&hl=en&rclk=1,24.8096973,93.9552005,Manipur
Oh My God,Gym,"Sangakpham, Imphal, Manipur 795001, India",https://www.google.co.kr/maps/place/Oh+My+God/data=!4m5!3m4!1s0x37492775ca3b8bbf:0xe4a1a9ca5af00eb3!8m2!3d24.833094!4d93.9493241?authuser=0&hl=en&rclk=1,24.833094,93.9493241,Manipur
Sciencenter,Gym,"RW8P+RP5, Khoyathong, Thangmeiband, Imphal, Manipur 795001, India",https://www.google.co.kr/maps/place/Sciencenter/data=!4m5!3m4!1s0x374927a555555555:0xc62395e9d9d5ea3d!8m2!3d24.8170111!4d93.9368439?authuser=0&hl=en&rclk=1,24.8170111,93.9368439,Manipur
Rnold's apartment,Fitness center,"thongju part 2, Imphal, Manipur 795003, India",https://www.google.co.kr/maps/place/Rnold's+apartment/data=!4m5!3m4!1s0x374925d841c822d7:0x9aabb237ce6b6973!8m2!3d24.756221!4d93.935376?authuser=0&hl=en&rclk=1,24.756221,93.935376,Manipur
Major Khul,Gym,"RW7P+8X9, Majorkhul, Thangal Bazar, Imphal, Manipur 795001, India",https://www.google.co.kr/maps/place/Major+Khul/data=!4m5!3m4!1s0x374927ccc6e231d9:0x1e9d5504f931981e!8m2!3d24.8132911!4d93.9374811?authuser=0&hl=en&rclk=1,24.8132911,93.9374811,Manipur
Real Fitness Center,Gym,"QWMQ+F5W, Makha Leirak, Imphal, Manipur 795004, India",https://www.google.co.kr/maps/place/Real+Fitness+Center/data=!4m5!3m4!1s0x374927d790790745:0x8c2923e727fe3479!8m2!3d24.7837448!4d93.9379566?authuser=0&hl=en&rclk=1,24.7837448,93.9379566,Manipur
YVO Gym,Gym,"SH 10, Hiyanglam, Manipur 795103, India",https://www.google.co.kr/maps/place/YVO+Gym/data=!4m5!3m4!1s0x374939324cf57869:0x9adc4c592491c692!8m2!3d24.5247047!4d93.9326773?authuser=0&hl=en&rclk=1,24.5247047,93.9326773,Manipur
LEISHANGTHEM,Gym,"Unnamed Road, Thoudam, Manipur 795138, India",https://www.google.co.kr/maps/place/LEISHANGTHEM/data=!4m5!3m4!1s0x37493af3dde51f07:0x445b218a1b900923!8m2!3d24.6231027!4d93.9313977?authuser=0&hl=en&rclk=1,24.6231027,93.9313977,Manipur
Sangaifit 7 clan,Gym,"Mani Tower, 1st Floor, above presto, opposite Little kingdom, Thangal Bazar, Imphal, Manipur 795001, India",https://www.google.co.kr/maps/place/Sangaifit+7+clan/data=!4m5!3m4!1s0x374927f8f648980b:0xb6ba1b44abef63d8!8m2!3d24.809648!4d93.9345743?authuser=0&hl=en&rclk=1,24.809648,93.9345743,Manipur
SS NUTRITIONS,Fitness center,"RW3F+538, Sagolband, Imphal, Manipur 795004, India",https://www.google.co.kr/maps/place/SS+NUTRITIONS/data=!4m5!3m4!1s0x374927700cc1803b:0xef326dffeefadd96!8m2!3d24.8029038!4d93.9227065?authuser=0&hl=en&rclk=1,24.8029038,93.9227065,Manipur
RDSBA,Gym,"RX32+843, Angom Colony, Imphal, Manipur 795005, India",https://www.google.co.kr/maps/place/RDSBA/data=!4m5!3m4!1s0x374926fe47ed3899:0x44fc2793849abd30!8m2!3d24.8032736!4d93.9503025?authuser=0&hl=en&rclk=1,24.8032736,93.9503025,Manipur
Broken Barriers Fitness Studio,Gym,"Moirangkhom Chingakham, Nongthomba, India",https://www.google.co.kr/maps/place/Broken+Barriers+Fitness+Studio/data=!4m5!3m4!1s0x374927935c874263:0xdde8e553653cf700!8m2!3d24.7923358!4d93.9412064?authuser=0&hl=en&rclk=1,24.7923358,93.9412064,Manipur
L Sanjeet's Residential,Gym,"Chingamakha, Imphal, Manipur 795158, India",https://www.google.co.kr/maps/place/L+Sanjeet's+Residential/data=!4m5!3m4!1s0x3749274e69f6a1c7:0xc36db4f6d7faa7c0!8m2!3d24.7732421!4d93.9315575?authuser=0&hl=en&rclk=1,24.7732421,93.9315575,Manipur
state trianing centre,Gym,"F3XG+94F, Chandel, Manipur 795135, India",https://www.google.co.kr/maps/place/state+trianing+centre/data=!4m5!3m4!1s0x37491566b0000001:0xa719e063fe0d7fae!8m2!3d24.4984397!4d94.0752949?authuser=0&hl=en&rclk=1,24.4984397,94.0752949,Manipur
THE FIT,Fitness center,"NH-102, AH2, Meira Paibi, Thoubal, Manipur 795138, India",https://www.google.co.kr/maps/place/THE+FIT/data=!4m5!3m4!1s0x37493d52f785f35b:0x82b40329a39561b1!8m2!3d24.6386115!4d94.0012463?authuser=0&hl=en&rclk=1,24.6386115,94.0012463,Manipur
Fitness centre,Gym,"Uyal, Awang Leikai, Manipur 795138, India",https://www.google.co.kr/maps/place/Fitness+centre/data=!4m5!3m4!1s0x37493d5f263f198f:0xf585d5313e3813cc!8m2!3d24.6233314!4d94.0450202?authuser=0&hl=en&rclk=1,24.6233314,94.0450202,Manipur
Chingoi Fitness,Fitness center,"Napet Palli - Andro Rd, Huikap, Manipur 795149, India",https://www.google.co.kr/maps/place/Chingoi+Fitness/data=!4m5!3m4!1s0x374923c68680ef97:0xf2fb9de19edbfaf1!8m2!3d24.7007098!4d94.0242751?authuser=0&hl=en&rclk=1,24.7007098,94.0242751,Manipur
PINK WISH ZUMBA,Fitness center,"RW3M+G9Q, Wahengbam Leikai, Sagolband, Imphal, Manipur 795004, India",https://www.google.co.kr/maps/place/PINK+WISH+ZUMBA/data=!4m5!3m4!1s0x37492787399588cd:0x224de4fdd380757b!8m2!3d24.8038376!4d93.9334977?authuser=0&hl=en&rclk=1,24.8038376,93.9334977,Manipur
Shivfit 7 Clan,Fitness center,"Nagamapal Phougeishangbam Leikai, Thangmeiband, Imphal, Manipur 795001, India",https://www.google.co.kr/maps/place/Shivfit+7+Clan/data=!4m5!3m4!1s0x374927320073bb37:0x78650225c9771e31!8m2!3d24.814243!4d93.9367728?authuser=0&hl=en&rclk=1,24.814243,93.9367728,Manipur
CLEOPATRA FC,Gym,"Nambol, Manipur 795134, India",https://www.google.co.kr/maps/place/CLEOPATRA+FC/data=!4m5!3m4!1s0x37492fb736e20899:0x90347b0507a09e5d!8m2!3d24.7016298!4d93.8146526?authuser=0&hl=en&rclk=1,24.7016298,93.8146526,Manipur
Takwa Field,Gym,"HXJH+6XG, Tentha, Manipur 795148, India",https://www.google.co.kr/maps/place/Takwa+Field/data=!4m5!3m4!1s0x37493bf05ec0246b:0x83133343be4430ac!8m2!3d24.5805585!4d93.979957?authuser=0&hl=en&rclk=1,24.5805585,93.979957,Manipur
Gunilal,Gym,"RX22+WFP, Angom Colony, Imphal, Manipur 795005, India",https://www.google.co.kr/maps/place/Gunilal/data=!4m5!3m4!1s0x374926fe642e6bf5:0x609fd4e0e330a652!8m2!3d24.8023499!4d93.951213?authuser=0&hl=en&rclk=1,24.8023499,93.951213,Manipur
STAY FIT GYM,Gym,"Part I, Mamang Leikai, Khangabok, Manipur 795138, India",https://www.google.co.kr/maps/place/STAY+FIT+GYM/data=!4m5!3m4!1s0x37493db0204889f5:0x1da5dfcf8cd33799!8m2!3d24.6178815!4d94.0172152?authuser=0&hl=en&rclk=1,24.6178815,94.0172152,Manipur
Laitonjam Gym Hall,Gym,"PR7W+MRF, Nambol Laitonjam, Manipur 795134, India",https://www.google.co.kr/maps/place/Laitonjam+Gym+Hall/data=!4m5!3m4!1s0x37492ef512a5c399:0xa44647896611e0d8!8m2!3d24.7141961!4d93.8470582?authuser=0&hl=en&rclk=1,24.7141961,93.8470582,Manipur
Super Gym Khurai,Gym,"Khurai Thongam Leikai, Imphal, Manipur 795005, India",https://www.google.co.kr/maps/place/Super+Gym+Khurai/data=!4m5!3m4!1s0x37492783b0167b97:0x8c3898c8cc1876f1!8m2!3d24.8262708!4d93.9789143?authuser=0&hl=en&rclk=1,24.8262708,93.9789143,Manipur
Nongmaithem Nandini Devi,Gym,"KMC road, Sugnu-Imphal Rd, Kakching, Manipur 795103, India",https://www.google.co.kr/maps/place/Nongmaithem+Nandini+Devi/data=!4m5!3m4!1s0x374938c48483db77:0xffd2038eec0bf109!8m2!3d24.5054463!4d93.9728701?authuser=0&hl=en&rclk=1,24.5054463,93.9728701,Manipur
Ikop Gym,Gym,"Khongmanung Rd, Thoudam, Manipur 795138, India",https://www.google.co.kr/maps/place/Ikop+Gym/data=!4m5!3m4!1s0x37493bdac6bdf155:0xee0bcce1c68a95da!8m2!3d24.6243453!4d93.9320463?authuser=0&hl=en&rclk=1,24.6243453,93.9320463,Manipur
"Weight Lifting Gymnasium,Nachou",Gym,"Mayai Leikai Rd, Nachou, Khoijuman Khullen, Manipur 795126, India","https://www.google.co.kr/maps/place/Weight+Lifting+Gymnasium,Nachou/data=!4m5!3m4!1s0x37493372cce52b0f:0xb13c77ab657ec118!8m2!3d24.595755!4d93.775703?authuser=0&hl=en&rclk=1",24.595755,93.775703,Manipur
AD Fitness Center,Gym,"WRRR+JMQ, Leimakhong, Manipur 795107, India",https://www.google.co.kr/maps/place/AD+Fitness+Center/data=!4m5!3m4!1s0x3748d7c89948ba0f:0x17ab9d7d4b6c2f42!8m2!3d24.94159!4d93.8417223?authuser=0&hl=en&rclk=1,24.94159,93.8417223,Manipur
Hiyanglam Eda Gym,Gym,"Hiyanglam, Manipur 795103, India",https://www.google.co.kr/maps/place/Hiyanglam+Eda+Gym/data=!4m5!3m4!1s0x374938359cfa91d3:0x5a05bb324ec8f6ab!8m2!3d24.5177215!4d93.9258863?authuser=0&hl=en&rclk=1,24.5177215,93.9258863,Manipur
Monster Gym,Gym,"Takhellambam Konjil, Manipur 795009, India",https://www.google.co.kr/maps/place/Monster+Gym/data=!4m5!3m4!1s0x37492fa3f82d13a1:0x28b7bb1904e99eab!8m2!3d24.6997713!4d93.9037856?authuser=0&hl=en&rclk=1,24.6997713,93.9037856,Manipur
PERFECT NUTRITION AND FITNESS CENTRE,Gym,"near citizens club, Konjeng Poila Leikai, Soibam Leikai, Imphal, Manipur 795001, India",https://www.google.co.kr/maps/place/PERFECT+NUTRITION+AND+FITNESS+CENTRE/data=!4m5!3m4!1s0x37492717d16ab5a7:0x76469b7482398dd2!8m2!3d24.8121318!4d93.953413?authuser=0&hl=en&rclk=1,24.8121318,93.953413,Manipur
Village fitness & gym hub,Gym,"Molnom, Churachandpur, Manipur 795128, India",https://www.google.co.kr/maps/place/Village+fitness+%26+gym+hub/data=!4m5!3m4!1s0x374eb3c1cd38bbe5:0x23075180cf84221!8m2!3d24.3736216!4d93.7092432?authuser=0&hl=en&rclk=1,24.3736216,93.7092432,Manipur
Sudhir Gym,Gym,"795138, Thoudam Leikai Rd, Yanglem Leikai, Manipur 795134, India",https://www.google.co.kr/maps/place/Sudhir+Gym/data=!4m5!3m4!1s0x37493a94cc0cc3b3:0x2bb576343b915f56!8m2!3d24.6354378!4d93.926407?authuser=0&hl=en&rclk=1,24.6354378,93.926407,Manipur
Good-Life Nutrition & Fitness Centre,Gym,"Wangkhei Angom Leikai, Imphal, Manipur 795001, India",https://www.google.co.kr/maps/place/Good-Life+Nutrition+%26+Fitness+Centre/data=!4m5!3m4!1s0x374926fee47415bb:0x2fbe2f13e4be4fea!8m2!3d24.8008543!4d93.9499229?authuser=0&hl=en&rclk=1,24.8008543,93.9499229,Manipur
KFC Kangleipak Fitness Centre,Gym,"Naidu Complex, 795008, Singjamei, Imphal, Manipur 795008, India",https://www.google.co.kr/maps/place/KFC+Kangleipak+Fitness+Centre/data=!4m5!3m4!1s0x3749265d6344883d:0xaee6803a18392203!8m2!3d24.7817221!4d93.9386985?authuser=0&hl=en&rclk=1,24.7817221,93.9386985,Manipur
YVA Fitness Center,Gym,"M227+VM5, Kshetrileikai, Thoubal, Manipur 795138, India",https://www.google.co.kr/maps/place/YVA+Fitness+Center/data=!4m5!3m4!1s0x37493cced92f586b:0x94a5f862ccf3664d!8m2!3d24.6521429!4d94.0142443?authuser=0&hl=en&rclk=1,24.6521429,94.0142443,Manipur
NGL(Nongpok Gym Lourembam) Football ground and Fitness Center,Gym,"Market Shed, Lourembam, Manipur 795149, India",https://www.google.co.kr/maps/place/NGL(Nongpok+Gym+Lourembam)+Football+ground+and+Fitness+Center/data=!4m5!3m4!1s0x374917e0b6d3382f:0xe6963c68d4e14781!8m2!3d24.6366806!4d94.0742024?authuser=0&hl=en&rclk=1,24.6366806,94.0742024,Manipur
Lamlong Turf Ground,Gym,"RX52+M66, Soibam Leikai, Imphal, Manipur 795001, India",https://www.google.co.kr/maps/place/Lamlong+Turf+Ground/data=!4m5!3m4!1s0x3749275d56a0f157:0xc14a0dfe44a61b6f!8m2!3d24.8091587!4d93.9505001?authuser=0&hl=en&rclk=1,24.8091587,93.9505001,Manipur
Noor Msjid,Gym,"Khelakhong Rd, Irong Chesaba, Manipur 795132, India",https://www.google.co.kr/maps/place/Noor+Msjid/data=!4m5!3m4!1s0x37493a5e715a3cb1:0x4ee339a5ef38d60f!8m2!3d24.6102162!4d93.9282653?authuser=0&hl=en&rclk=1,24.6102162,93.9282653,Manipur
Genesis Fitness Hub,Gym,"Council Rd, B.Aizalon, Churachandpur, Manipur 795128, India",https://www.google.co.kr/maps/place/Genesis+Fitness+Hub/data=!4m5!3m4!1s0x374eb384dfac5285:0x22859bb0e99a157!8m2!3d24.3545872!4d93.698953?authuser=0&hl=en&rclk=1,24.3545872,93.698953,Manipur
Jannatwale Masjid,Gym,"bazaar, Lilong Haoreibi Leihaokhong, Lilong Chajing, Manipur 795130, India",https://www.google.co.kr/maps/place/Jannatwale+Masjid/data=!4m5!3m4!1s0x3749250873946c9d:0x53b590139f897bb1!8m2!3d24.7086085!4d93.9364619?authuser=0&hl=en&rclk=1,24.7086085,93.9364619,Manipur
Meerenkhomba House,Gym,"khurai konsam leikai, Imphal, Manipur 795010, India",https://www.google.co.kr/maps/place/Meerenkhomba+House/data=!4m5!3m4!1s0x3749271d2dc2a3ab:0xe8437ca53c8587e0!8m2!3d24.8354831!4d93.9745489?authuser=0&hl=en&rclk=1,24.8354831,93.9745489,Manipur
D' hang-out Gym /The hang-out Gym,Gym,"Tedim Road Nehru Marg- Tiddim road Junction, New bazar, above ubi atm Above ubi atm, near saulim restaurant, Manipur 795128, India",https://www.google.co.kr/maps/place/D'+hang-out+Gym+%2FThe+hang-out+Gym/data=!4m5!3m4!1s0x374eb251f09dfa75:0x8cdc3126cc152247!8m2!3d24.3419391!4d93.6981091?authuser=0&hl=en&rclk=1,24.3419391,93.6981091,Manipur
Bearded Brothers Gym (BB Gym),Gym,"Khergao Rd, Imphal, Manipur 795005, India",https://www.google.co.kr/maps/place/Bearded+Brothers+Gym+(BB+Gym)/data=!4m5!3m4!1s0x374927460eeb81e9:0xd4756d9c2c559a49!8m2!3d24.7920611!4d93.9684645?authuser=0&hl=en&rclk=1,24.7920611,93.9684645,Manipur
GYC FOOTBALL GROUND,Gym,"G2QR+FH4, Khongjom, Manipur 795148, India",https://www.google.co.kr/maps/place/GYC+FOOTBALL+GROUND/data=!4m5!3m4!1s0x37493e43aaaaaaab:0x7932d0f0c367de0f!8m2!3d24.5386284!4d94.0414456?authuser=0&hl=en&rclk=1,24.5386284,94.0414456,Manipur
SAI Comp. Phubala,Gym,"GQQ5+3GV, Phubala, Manipur 795126, India",https://www.google.co.kr/maps/place/SAI+Comp.+Phubala/data=!4m5!3m4!1s0x374935e5d0ffb4a5:0xe815ebab1787b570!8m2!3d24.53774!4d93.7587847?authuser=0&hl=en&rclk=1,24.53774,93.7587847,Manipur
DD Fitness Centre,Gym,"XVGQ+7PW, Kanglatongbi, Manipur 795107, India",https://www.google.co.kr/maps/place/DD+Fitness+Centre/data=!4m5!3m4!1s0x3748d19eaad2f769:0x7dd60bfe517ad655!8m2!3d24.9757451!4d93.8893231?authuser=0&hl=en&rclk=1,24.9757451,93.8893231,Manipur
Aslam singamayum residents,Gym,"Lilong Chingkham Makha Idiga Rd, Chingkham Kabui, Haoreibi, Manipur 795009, India",https://www.google.co.kr/maps/place/Aslam+singamayum+residents/data=!4m5!3m4!1s0x37492549b6738d39:0x82fff816ae45adb1!8m2!3d24.6800391!4d93.9403295?authuser=0&hl=en&rclk=1,24.6800391,93.9403295,Manipur
Seva fitness and Gym Centre,Gym,"Moirang Palli Rd, Part II, Khangabok, Manipur 795138, India",https://www.google.co.kr/maps/place/Seva+fitness+and+Gym+Centre/data=!4m5!3m4!1s0x37493d6ec66f40fd:0x40a2ee0f27450fa7!8m2!3d24.6082732!4d94.0077654?authuser=0&hl=en&rclk=1,24.6082732,94.0077654,Manipur
Dr. Aslam Plot,Gym,"Lilong Usoipokpi, Manipur 795130, India",https://www.google.co.kr/maps/place/Dr.+Aslam+Plot/data=!4m5!3m4!1s0x374925dd796c53d7:0xa8a91a6a780ac7a6!8m2!3d24.6820763!4d93.9452364?authuser=0&hl=en&rclk=1,24.6820763,93.9452364,Manipur
K K,Muay Thai boxing gym,"Thanga Samukol, Thanga, Manipur 795133, India",https://www.google.co.kr/maps/place/K+K/data=!4m5!3m4!1s0x3749357665cc11cf:0x3a0392a481da4afc!8m2!3d24.535061!4d93.822772?authuser=0&hl=en&rclk=1,24.535061,93.822772,Manipur
ISA Lampak,Gym,"Lourembam Leikai, Laishram Leikai, Manipur 795140, India",https://www.google.co.kr/maps/place/ISA+Lampak/data=!4m5!3m4!1s0x3749263fbc47a811:0xd5bd0d7bd0e839ff!8m2!3d24.7837167!4d93.9251673?authuser=0&hl=en&rclk=1,24.7837167,93.9251673,Manipur
SALAI BODY SCULPTURE,Gym,"QWX9+CF8, Sagolband, Imphal, Manipur 795004, India",https://www.google.co.kr/maps/place/SALAI+BODY+SCULPTURE/data=!4m5!3m4!1s0x37492764eef0044b:0x73c492a927919619!8m2!3d24.7985409!4d93.9187044?authuser=0&hl=en&rclk=1,24.7985409,93.9187044,Manipur
RESHAPE NUTRITION CENTER,Gym,"HQG7+6WJ, Ningthoukhong, Manipur 795126, India",https://www.google.co.kr/maps/place/RESHAPE+NUTRITION+CENTER/data=!4m5!3m4!1s0x3749336089819185:0xce30567cc45e3251!8m2!3d24.5755899!4d93.7647613?authuser=0&hl=en&rclk=1,24.5755899,93.7647613,Manipur
Ts Angkham Residence,Gym,"82G2+F6Q, Chandel, Manipur 795127, India",https://www.google.co.kr/maps/place/Ts+Angkham+Residence/data=!4m5!3m4!1s0x37494397999f229b:0xdb61a8f98b33f1b1!8m2!3d24.3262003!4d94.0006003?authuser=0&hl=en&rclk=1,24.3262003,94.0006003,Manipur
Vahneiting,Gym,"MW74+FGJ, Yumnam Huidrom, Manipur 795001, India",https://www.google.co.kr/maps/place/Vahneiting/data=!4m5!3m4!1s0x3749255555555555:0x2e9caa860d3b8a81!8m2!3d24.6637173!4d93.9062688?authuser=0&hl=en&rclk=1,24.6637173,93.9062688,Manipur
Geljang Brazil Ground,Gym,"VR95+R25, Kangchup Geljang, Manipur 795146, India",https://www.google.co.kr/maps/place/Geljang+Brazil+Ground/data=!4m5!3m4!1s0x3748d5cdc65b5069:0xf81837b870e63bf9!8m2!3d24.8695243!4d93.8076247?authuser=0&hl=en&rclk=1,24.8695243,93.8076247,Manipur
Yoga Centre,Yoga studio,"Kongpal, Imphal, Manipur 795001, India",https://www.google.co.kr/maps/place/Yoga+Centre/data=!4m5!3m4!1s0x374926e16025a9c9:0x89c6ad0f6072846e!8m2!3d24.8001747!4d93.9623666?authuser=0&hl=en&rclk=1,24.8001747,93.9623666,Manipur
Pradyumna das,Yoga studio,"Kalibari road, Majorkhul, Thangal Bazar, Imphal, Manipur 795001, India",https://www.google.co.kr/maps/place/Pradyumna+das/data=!4m5!3m4!1s0x374927f54641121f:0x3b327e795cf3e2fa!8m2!3d24.8121937!4d93.9361963?authuser=0&hl=en&rclk=1,24.8121937,93.9361963,Manipur
CHEIRAOCHING KAPHAM,Physical fitness program,"Thangmeiband - Cheiraoching Rd, Thangmeiband Sinam Leikai, Thangmeiband, Imphal, Manipur 795004, India",https://www.google.co.kr/maps/place/CHEIRAOCHING+KAPHAM/data=!4m5!3m4!1s0x374927f5bdb5085d:0xc67aa300ddb4d059!8m2!3d24.8288172!4d93.9357714?authuser=0&hl=en&rclk=1,24.8288172,93.9357714,Manipur
Pk diagnostics,Gym,"MWG2+4VM, Wangoi, Manipur 795009, India",https://www.google.co.kr/maps/place/Pk+diagnostics/data=!4m5!3m4!1s0x37492ffebad16e1b:0x1559156bf28082a4!8m2!3d24.6753332!4d93.9021679?authuser=0&hl=en&rclk=1,24.6753332,93.9021679,Manipur
Kb Gym Nongangkhong TBL,Gym,"JXQR+87G, Maning Lairak, Nongangkhong, Thoubal, Manipur 795138, India",https://www.google.co.kr/maps/place/Kb+Gym+Nongangkhong+TBL/data=!4m5!3m4!1s0x37493d43583cd6e3:0xb79068f4d50caa55!8m2!3d24.6383189!4d93.9906891?authuser=0&hl=en&rclk=1,24.6383189,93.9906891,Manipur
Haokip Veng Play Ground,Gym,"RW2V+7X7, Angom Colony, Haokip Veng, Manipur 795005, India",https://www.google.co.kr/maps/place/Haokip+Veng+Play+Ground/data=!4m5!3m4!1s0x3749274a6d13184d:0xc634d8b1a394a0c1!8m2!3d24.8006644!4d93.9449139?authuser=0&hl=en&rclk=1,24.8006644,93.9449139,Manipur
DAYANANDA ENTERPRISES (DE10),Gym,"MVVX+468, Makha Leikai, Samurou, Manipur 795009, India",https://www.google.co.kr/maps/place/DAYANANDA+ENTERPRISES+(DE10)/data=!4m5!3m4!1s0x37492f7147e878a9:0x62db56e6c5854751!8m2!3d24.6927957!4d93.8980792?authuser=0&hl=en&rclk=1,24.6927957,93.8980792,Manipur
DODO CHICKEN CENTRE,Gym,"QVVQ+RX7, Imphal, Manipur 795113, India",https://www.google.co.kr/maps/place/DODO+CHICKEN+CENTRE/data=!4m5!3m4!1s0x374929206677a935:0x69e1646c19c78141!8m2!3d24.7945361!4d93.8899085?authuser=0&hl=en&rclk=1,24.7945361,93.8899085,Manipur
