Company_Name,Category,Address,Url,Latitude,Longitude,State
Gold's Gym Shillong,Gym,"Hopkinson Road Ashiana ‘E’ Azam Block 3, Lower, Lachumiere, Shillong, Meghalaya 793001, India",https://www.google.co.kr/maps/place/Gold's+Gym+Shillong/data=!4m5!3m4!1s0x37507e97058431ef:0xca5d90baf28d8feb!8m2!3d25.5700878!4d91.8875164?authuser=0&hl=en&rclk=1,25.5700878,91.8875164,Meghalaya
Synergy Fitness Gym,Gym,"Laitumkhrah, Laitumkhrah Main Rd, Shillong, Meghalaya 793003, India",https://www.google.co.kr/maps/place/Synergy+Fitness+Gym/data=!4m5!3m4!1s0x37507ea5503770ff:0xefc6fd6c8eaa61cd!8m2!3d25.5671426!4d91.8997781?authuser=0&hl=en&rclk=1,25.5671426,91.8997781,Meghalaya
Iron House Gym and Fitness Centre,Gym,"Rynjah, Shillong, Meghalaya 793006, India",https://www.google.co.kr/maps/place/Iron+House+Gym+and+Fitness+Centre/data=!4m5!3m4!1s0x3750794dcfc544ad:0xbfa6bb1d62bbeaf7!8m2!3d25.5699133!4d91.9139224?authuser=0&hl=en&rclk=1,25.5699133,91.9139224,Meghalaya
MuscleXcess and Fitness Gym,Fitness center,"Jail Road, Police Bazar, Shillong, Meghalaya 793001, India",https://www.google.co.kr/maps/place/MuscleXcess+and+Fitness+Gym/data=!4m5!3m4!1s0x37507e933e669d83:0xe7e2ff3ac67a5e3f!8m2!3d25.5791969!4d91.8840155?authuser=0&hl=en&rclk=1,25.5791969,91.8840155,Meghalaya
Mo's Gym & fitness centre,Gym,"Rngi, Rynjah, Shillong, Meghalaya 793006, India",https://www.google.co.kr/maps/place/Mo's+Gym+%26+fitness+centre/data=!4m5!3m4!1s0x375079afd03e72e9:0x9dbd1c285116924a!8m2!3d25.5676526!4d91.913842?authuser=0&hl=en&rclk=1,25.5676526,91.913842,Meghalaya
Strength Camp Fitness Gym,Gym,"Georgina Plaza, 3rd Floor, Laitumkhrah Main Rd, Nongkynrih, Laitumkhrah, Shillong, Meghalaya 793003, India",https://www.google.co.kr/maps/place/Strength+Camp+Fitness+Gym/data=!4m5!3m4!1s0x37507ebba7919211:0x342ab0167655ccb6!8m2!3d25.5706644!4d91.8970693?authuser=0&hl=en&rclk=1,25.5706644,91.8970693,Meghalaya
Dedication Gym,Gym,"HVMX+6XV, 3 Mile, Upper Shillong, Golf Links, Shillong, Meghalaya 793001, India",https://www.google.co.kr/maps/place/Dedication+Gym/data=!4m5!3m4!1s0x37507f2a167ea071:0x6f6f80ab8b6d4e50!8m2!3d25.5831011!4d91.8999188?authuser=0&hl=en&rclk=1,25.583101100000004,91.8999188,Meghalaya
Dedication Gym,Fitness center,"HWH3+3RF, Demseiñ-Ïong, Shillong, Meghalaya 793011, India",https://www.google.co.kr/maps/place/Dedication+Gym/data=!4m5!3m4!1s0x37507f87b1267fdb:0x5229cbba5002f88f!8m2!3d25.5776818!4d91.9045461?authuser=0&hl=en&rclk=1,25.5776818,91.9045461,Meghalaya
Body Zoo Gym(branch),Gym,"Nongshiliang Nongthymmai, Nongrimbah, East Khasi Hills, Shillong, Meghalaya 793014, India",https://www.google.co.kr/maps/place/Body+Zoo+Gym(branch)/data=!4m5!3m4!1s0x37507ead761d951b:0x1499061ebe6fd626!8m2!3d25.5665377!4d91.9074857?authuser=0&hl=en&rclk=1,25.5665377,91.9074857,Meghalaya
Flex Appeal Gym And Aerobics Studio,Gym,"Lachumiere, Shillong, Meghalaya 793001, India",https://www.google.co.kr/maps/place/Flex+Appeal+Gym+And+Aerobics+Studio/data=!4m5!3m4!1s0x37507e9a1dceb4b5:0x4075bfee24559d8f!8m2!3d25.566829!4d91.885376?authuser=0&hl=en&rclk=1,25.566829,91.885376,Meghalaya
Build Up Gym,Gym,"HV9X+9PV, Laitumkhrah, Shillong, Meghalaya 793003, India",https://www.google.co.kr/maps/place/Build+Up+Gym/data=!4m5!3m4!1s0x37507ebaba109e3b:0x34f0f4f66aee1454!8m2!3d25.5684798!4d91.8992843?authuser=0&hl=en&rclk=1,25.5684798,91.8992843,Meghalaya
Excel Muscle Gym,Physical fitness program,"Laitumkhrah, Shillong, Meghalaya 793003, India",https://www.google.co.kr/maps/place/Excel+Muscle+Gym/data=!4m5!3m4!1s0x37507ebd0e56cc3b:0x9231824ef0be147e!8m2!3d25.5701619!4d91.8920378?authuser=0&hl=en&rclk=1,25.5701619,91.8920378,Meghalaya
FITNESS FIRST GYM,Gym,"7 Rishot Building, Mawroh, Shillong, Meghalaya 793003, India",https://www.google.co.kr/maps/place/FITNESS+FIRST+GYM/data=!4m5!3m4!1s0x37507f69ad2e4c97:0x6163fbf331ec2bf!8m2!3d25.5956007!4d91.8993343?authuser=0&hl=en&rclk=1,25.5956007,91.8993343,Meghalaya
Nehu Gym,Gym,"JW72+QGV, North Eastern Hill University, Shillong, Meghalaya 793022, India",https://www.google.co.kr/maps/place/Nehu+Gym/data=!4m5!3m4!1s0x37507f2fe75f86f5:0x302dbb26cc90378a!8m2!3d25.614492!4d91.9012972?authuser=0&hl=en&rclk=1,25.614492,91.9012972,Meghalaya
Elite Gym,Gym,"Pohkseh, west - 3, Rynjah, Shillong, Meghalaya 793014, India",https://www.google.co.kr/maps/place/Elite+Gym/data=!4m5!3m4!1s0x37507ead6ea3c507:0xcee7f960dbcf5b32!8m2!3d25.5683237!4d91.910535?authuser=0&hl=en&rclk=1,25.5683237,91.910535,Meghalaya
Iron Grid Gym,Gym,"Demseiñ-Ïong, East Khasi Hills, Shillong, Meghalaya 793011, India",https://www.google.co.kr/maps/place/Iron+Grid+Gym/data=!4m5!3m4!1s0x37507ec79256a19b:0x5da2192051767983!8m2!3d25.580435!4d91.8987666?authuser=0&hl=en&rclk=1,25.580435,91.8987666,Meghalaya
Powerflex Gym,Fitness center,"Howell Rd, Laban, Shillong, Meghalaya 793004, India",https://www.google.co.kr/maps/place/Powerflex+Gym/data=!4m5!3m4!1s0x37507e84662efa19:0x25c1b88872c506f1!8m2!3d25.5632811!4d91.8773941?authuser=0&hl=en&rclk=1,25.5632811,91.8773941,Meghalaya
Claudia's Fitness Hub Gym,Gym,"Malki, Shillong, Meghalaya 793001, India",https://www.google.co.kr/maps/place/Claudia's+Fitness+Hub+Gym/data=!4m5!3m4!1s0x37507fe137a280d1:0xf2e75e15288c7d56!8m2!3d25.5652014!4d91.8868894?authuser=0&hl=en&rclk=1,25.5652014,91.88688940000002,Meghalaya
S.M Fitness Centre,Gym,"Amjad Ali Road, Laban, Shillong, Meghalaya 793004, India",https://www.google.co.kr/maps/place/S.M+Fitness+Centre/data=!4m5!3m4!1s0x37507e86b26936cf:0x1c9c64b0810d62de!8m2!3d25.5623294!4d91.8750733?authuser=0&hl=en&rclk=1,25.5623294,91.8750733,Meghalaya
Galaxy Gym,Gym,"Upland Rd, Nongkynrih, Laitumkhrah, Shillong, Meghalaya 793003, India",https://www.google.co.kr/maps/place/Galaxy+Gym/data=!4m5!3m4!1s0x37507ebb9171c575:0x9cab88686be64ba8!8m2!3d25.5717401!4d91.8960696?authuser=0&hl=en&rclk=1,25.5717401,91.8960696,Meghalaya
UCC Fitness Centre,Gym,"Meghalaya 793122, India",https://www.google.co.kr/maps/place/UCC+Fitness+Centre/data=!4m5!3m4!1s0x375a802ed7e0c8c9:0x8273c0a0309fcbb!8m2!3d25.657571!4d91.8635579?authuser=0&hl=en&rclk=1,25.657571,91.8635579,Meghalaya
Elite gym,Gym,"Nongrim Hills, Rynjah, Shillong, Meghalaya 793003, India",https://www.google.co.kr/maps/place/Elite+gym/data=!4m5!3m4!1s0x37507fd283cfc86f:0x3e458c1a07281918!8m2!3d25.5715102!4d91.9042759?authuser=0&hl=en&rclk=1,25.5715102,91.9042759,Meghalaya
Shillong Muscle and Fitness Gym,Gym,"HVJR+V2F, Golf Links, Shillong, Meghalaya 793001, India",https://www.google.co.kr/maps/place/Shillong+Muscle+and+Fitness+Gym/data=!4m5!3m4!1s0x37507f017dd8056f:0x67e06601bb90f65!8m2!3d25.5821796!4d91.8900471?authuser=0&hl=en&rclk=1,25.5821796,91.8900471,Meghalaya
Muscle Master Gym,Gym,"Thana Road, Police Bazar, Shillong, Meghalaya 793001, India",https://www.google.co.kr/maps/place/Muscle+Master+Gym/data=!4m5!3m4!1s0x37507fc494fa4c83:0xdf48cdbb4817226b!8m2!3d25.5775569!4d91.8813101?authuser=0&hl=en&rclk=1,25.5775569,91.8813101,Meghalaya
Vitalstatistix Gym For Ladies,Gym,"Lummaurie Hill, Laitumkhrah, Shillong, Meghalaya 793003, India",https://www.google.co.kr/maps/place/Vitalstatistix+Gym+For+Ladies/data=!4m5!3m4!1s0x37507ea54cc89acb:0xbbdca306045de4b8!8m2!3d25.5676462!4d91.8993275?authuser=0&hl=en&rclk=1,25.5676462,91.8993275,Meghalaya
"Body Zoo Gym , Rilbong",Gym,"HV9C+H95, Kench's Trace, Rilbong, Shillong, Meghalaya 793004, India","https://www.google.co.kr/maps/place/Body+Zoo+Gym+,+Rilbong/data=!4m5!3m4!1s0x37507e881cd9326f:0x9e284e0e03fdd408!8m2!3d25.5688762!4d91.8709959?authuser=0&hl=en&rclk=1",25.5688762,91.8709959,Meghalaya
Williamnagar Indoor,Gym,"GJ72+49J, Williamnagar, Meghalaya 794111, India",https://www.google.co.kr/maps/place/Williamnagar+Indoor/data=!4m5!3m4!1s0x375782821001d42b:0x48da721e6c55b6e3!8m2!3d25.5128356!4d90.6008792?authuser=0&hl=en&rclk=1,25.512835600000006,90.6008792,Meghalaya
Kryptofit Gym,Gym,"adjacent to New Dunn Hill Bakery, Nongmynsong, Shillong, Meghalaya 793019, India",https://www.google.co.kr/maps/place/Kryptofit+Gym/data=!4m5!3m4!1s0x37507feeee051059:0x14bd81422128e1a1!8m2!3d25.5836964!4d91.9095738?authuser=0&hl=en&rclk=1,25.5836964,91.9095738,Meghalaya
JS GYM FITNESS CENTRE KHLIEHRIAT,Gym,"NH6, Khliehriāt, Meghalaya 793200, India",https://www.google.co.kr/maps/place/JS+GYM+FITNESS+CENTRE+KHLIEHRIAT/data=!4m5!3m4!1s0x375019d6edeecddf:0x38ed3dc433842901!8m2!3d25.3580941!4d92.3668614?authuser=0&hl=en&rclk=1,25.3580941,92.3668614,Meghalaya
Tura Gym,Gym,"G5FJ+3MR, Tura, Meghalaya 794101, India",https://www.google.co.kr/maps/place/Tura+Gym/data=!4m5!3m4!1s0x3757f0f8c56b01fd:0xbb773ef6e70eb36f!8m2!3d25.5227405!4d90.1816285?authuser=0&hl=en&rclk=1,25.5227405,90.1816285,Meghalaya
"Shillong, Laitkor Reserve Forest",Gym,"Near Laitkor peak, Shillong view point Meghalya, Shillong, Meghalaya, India","https://www.google.co.kr/maps/place/Shillong,+Laitkor+Reserve+Forest/data=!4m5!3m4!1s0x37507ebf70f2b453:0x27211571aa956692!8m2!3d25.5787725!4d91.8932535?authuser=0&hl=en&rclk=1",25.5787725,91.8932535,Meghalaya
"Elite Gym, Pohkseh,Shillong 793006",Gym,"Unnamed Road, Pohkseh, Shillong, Meghalaya 793014, India","https://www.google.co.kr/maps/place/Elite+Gym,+Pohkseh,Shillong+793006/data=!4m5!3m4!1s0x37507eb2ac275d13:0xc3e7a16df9d5d860!8m2!3d25.5680476!4d91.9096205?authuser=0&hl=en&rclk=1",25.568047600000003,91.9096205,Meghalaya
Rumen Fitness Gym,Gym,"Sajer Main Road, Traffic, Nongkhrah, Meghalaya 793102, India",https://www.google.co.kr/maps/place/Rumen+Fitness+Gym/data=!4m5!3m4!1s0x375a89656ba9b9c1:0xbe8bbf24700ab900!8m2!3d25.9085244!4d91.8779806?authuser=0&hl=en&rclk=1,25.9085244,91.8779806,Meghalaya
Body Terrific Gym,Gym,"C5RW+HVF, Jowai, Meghalaya 793150, India",https://www.google.co.kr/maps/place/Body+Terrific+Gym/data=!4m5!3m4!1s0x3750126ee54c47ff:0xdd99a630b1566c64!8m2!3d25.441439!4d92.1971821?authuser=0&hl=en&rclk=1,25.441439000000006,92.1971821,Meghalaya
Body Matrix Gym,Fitness center,"Lumbhalang Lawjynriew, Nongthymmai, Shillong, Meghalaya 793014, India",https://www.google.co.kr/maps/place/Body+Matrix+Gym/data=!4m5!3m4!1s0x37507f6208ed48cb:0xf3e0a8aebbde1037!8m2!3d25.5600688!4d91.9017473?authuser=0&hl=en&rclk=1,25.5600688,91.9017473,Meghalaya
Physique Fitness Gym,Gym,"c/o Gopal, near Presbyterian Church, Upper Mawprem, Garikhana, Shillong, Meghalaya 793002, India",https://www.google.co.kr/maps/place/Physique+Fitness+Gym/data=!4m5!3m4!1s0x37507f858134ee9b:0xc522afafbab3114b!8m2!3d25.5793321!4d91.8693304?authuser=0&hl=en&rclk=1,25.5793321,91.8693304,Meghalaya
Fitnesstrom Gym,Gym,"NH6, Meghalaya 793010, India",https://www.google.co.kr/maps/place/Fitnesstrom+Gym/data=!4m5!3m4!1s0x37507da021c0afbb:0xd76ae7ce5539cb00!8m2!3d25.5373486!4d91.8895837?authuser=0&hl=en&rclk=1,25.5373486,91.8895837,Meghalaya
Rumen Fitness Gym,Gym,"Traffic point, Nongpoh, Meghalaya 793102, India",https://www.google.co.kr/maps/place/Rumen+Fitness+Gym/data=!4m5!3m4!1s0x375a63c41f44698b:0xe6dd387f0b60ea5f!8m2!3d25.8506902!4d91.8294514?authuser=0&hl=en&rclk=1,25.8506902,91.8294514,Meghalaya
Pumping Iron Gym,Gym,"Manroi, 201, PWD Road, Motinagar, Ward-4, Laitumkhrah, Shillong, Meghalaya 793003, India",https://www.google.co.kr/maps/place/Pumping+Iron+Gym/data=!4m5!3m4!1s0x37507f315a70b807:0xdd20ccc92c31a740!8m2!3d25.5664718!4d91.9000249?authuser=0&hl=en&rclk=1,25.5664718,91.9000249,Meghalaya
Excel Muscle Gym,Fitness center,"BSF road, Nongmynsong, Shillong, Meghalaya 793019, India",https://www.google.co.kr/maps/place/Excel+Muscle+Gym/data=!4m5!3m4!1s0x37507f8806eb818f:0xaf22be888cff951f!8m2!3d25.58377!4d91.9094281?authuser=0&hl=en&rclk=1,25.58377,91.9094281,Meghalaya
IIT IIM Fitness,Fitness center,"Nongthymmai point, Mayurbhanj Complex, Nongthymmai, Shillong, Meghalaya 793014, India",https://www.google.co.kr/maps/place/IIT+IIM+Fitness/data=!4m5!3m4!1s0x37507f2ab424cae5:0xe4f2d0865e33f280!8m2!3d25.5602333!4d91.903818?authuser=0&hl=en&rclk=1,25.5602333,91.903818,Meghalaya
He-Man Body Building Institute,Gym,"HVJP+746, Police Reserve, Shillong, Meghalaya 793001, India",https://www.google.co.kr/maps/place/He-Man+Body+Building+Institute/data=!4m5!3m4!1s0x37507eeca68e0a09:0x53e18ebe98b3565f!8m2!3d25.5806715!4d91.8852574?authuser=0&hl=en&rclk=1,25.5806715,91.8852574,Meghalaya
Synergy gym,Gym,"MDR32, Golf Links, Shillong, Meghalaya 793001, India",https://www.google.co.kr/maps/place/Synergy+gym/data=!4m5!3m4!1s0x37507ebf70f2b455:0x6a6b437e59851e9d!8m2!3d25.5787726!4d91.8932535?authuser=0&hl=en&rclk=1,25.578772600000004,91.8932535,Meghalaya
"VNC Nutrition and Fitness Centre, Laban",Fitness center,"Last Stop, taxi stand, Pala Complex, 1st floor,Laban Last Stop, opposite to Laban, Shillong, Meghalaya 793004, India","https://www.google.co.kr/maps/place/VNC+Nutrition+and+Fitness+Centre,+Laban/data=!4m5!3m4!1s0x37507f6a22b6762f:0xfd321b07a073229!8m2!3d25.5641066!4d91.8740889?authuser=0&hl=en&rclk=1",25.5641066,91.8740889,Meghalaya
Iron Muscle Gym,Gym,"HWFM+RW5, Nongrah, Shillong, Meghalaya 793007, India",https://www.google.co.kr/maps/place/Iron+Muscle+Gym/data=!4m5!3m4!1s0x3750795e22762e41:0xbea057f24e393ce1!8m2!3d25.5745185!4d91.9348457?authuser=0&hl=en&rclk=1,25.5745185,91.9348457,Meghalaya
LAWSOHTUN Ground,Gym,"Laban, Shillong, Meghalaya 793004, India",https://www.google.co.kr/maps/place/LAWSOHTUN+Ground/data=!4m5!3m4!1s0x37507d75e246c405:0xc03c710474ca806b!8m2!3d25.553563!4d91.8571039?authuser=0&hl=en&rclk=1,25.553563,91.8571039,Meghalaya
Weiloi Sports Point,Gym,"9J78+Q98, Weiloi, Meghalaya 793121, India",https://www.google.co.kr/maps/place/Weiloi+Sports+Point/data=!4m5!3m4!1s0x375093e0d02c0369:0x68411b78ab25911f!8m2!3d25.3644012!4d91.6159605?authuser=0&hl=en&rclk=1,25.3644012,91.6159605,Meghalaya
MJ MUSCLE WORLD GYM,Gym,"GS Rd, Byrnihat, Meghalaya 781026, India",https://www.google.co.kr/maps/place/MJ+MUSCLE+WORLD+GYM/data=!4m5!3m4!1s0x375af520b18677df:0xd26ec3acb04b415b!8m2!3d26.0468066!4d91.8695629?authuser=0&hl=en&rclk=1,26.046806600000004,91.8695629,Meghalaya
Mawkhar Dorbar Hall,Gym,"Mawkhar, Shillong, Meghalaya 793002, India",https://www.google.co.kr/maps/place/Mawkhar+Dorbar+Hall/data=!4m5!3m4!1s0x37507ef31c252ac3:0x24a5ebd4a3ae3177!8m2!3d25.5827442!4d91.8777109?authuser=0&hl=en&rclk=1,25.5827442,91.8777109,Meghalaya
Saloon Dhankheti,Gym,"st peter rd, Shillong, Meghalaya, India",https://www.google.co.kr/maps/place/Saloon+Dhankheti/data=!4m5!3m4!1s0x37507ea2e987f6e5:0x6ab068160738e50f!8m2!3d25.5661633!4d91.8919149?authuser=0&hl=en&rclk=1,25.5661633,91.8919149,Meghalaya
"Public Gym, Dadenggre",Gym,"P56M+PMQ, Dadenggre, Meghalaya 794109, India","https://www.google.co.kr/maps/place/Public+Gym,+Dadenggre/data=!4m5!3m4!1s0x37581d00e851c751:0x39c80bfd86469192!8m2!3d25.7118474!4d90.1842366?authuser=0&hl=en&rclk=1",25.7118474,90.1842366,Meghalaya
Flex Appeal Gym,Gym,"Stadium Rd, Jowai, Meghalaya 793150, India",https://www.google.co.kr/maps/place/Flex+Appeal+Gym/data=!4m5!3m4!1s0x3750138a45abc8e5:0x77dc206000641c7d!8m2!3d25.4508312!4d92.2007331?authuser=0&hl=en&rclk=1,25.4508312,92.2007331,Meghalaya
Loompyrdi Iongpiah Gym,Gym,"C6P2+RFF, Jowai, Meghalaya 793150, India",https://www.google.co.kr/maps/place/Loompyrdi+Iongpiah+Gym/data=!4m5!3m4!1s0x3750126ba5cc13fb:0x1b9782ea00ecfcf2!8m2!3d25.4370734!4d92.2011629?authuser=0&hl=en&rclk=1,25.4370734,92.2011629,Meghalaya
Sun Rising Gym,Gymnastics center,"GV8G+9MJ, Meghalaya 793010, India",https://www.google.co.kr/maps/place/Sun+Rising+Gym/data=!4m5!3m4!1s0x37507c5143d69461:0x7aea421f251841a2!8m2!3d25.5159733!4d91.8766441?authuser=0&hl=en&rclk=1,25.5159733,91.8766441,Meghalaya
Gayatri Yog And Meditaion Centre,Gym,"793002, Upper Mawprem, Garikhana, Shillong, Meghalaya 793002, India",https://www.google.co.kr/maps/place/Gayatri+Yog+And+Meditaion+Centre/data=!4m5!3m4!1s0x37507e60bccc7573:0x547200d3b97c4d9a!8m2!3d25.5791848!4d91.8669915?authuser=0&hl=en&rclk=1,25.5791848,91.8669915,Meghalaya
Rhododendron Trek,Gym,"Cherapunjee Road, next to Army canteen, Shillong, Meghalaya, India",https://www.google.co.kr/maps/place/Rhododendron+Trek/data=!4m5!3m4!1s0x37507fdb724cc247:0x1aaeb302276c7f52!8m2!3d25.5787725!4d91.8932535?authuser=0&hl=en&rclk=1,25.5787725,91.8932535,Meghalaya
Umshangiar Community Hall,Gym,"C5MW+QH4, Jowai, Meghalaya 793150, India",https://www.google.co.kr/maps/place/Umshangiar+Community+Hall/data=!4m5!3m4!1s0x3750132d025d62e5:0xcd46ee696786c4df!8m2!3d25.4343902!4d92.1964549?authuser=0&hl=en&rclk=1,25.4343902,92.1964549,Meghalaya
True North Leisure Heated Swimming Pool,Gym,"HVHG+JFC, Mawkhar, Shillong, Meghalaya 793002, India",https://www.google.co.kr/maps/place/True+North+Leisure+Heated+Swimming+Pool/data=!4m5!3m4!1s0x37507e8ca58ef7d9:0x5837b9203c4fc3a6!8m2!3d25.5790504!4d91.8761494?authuser=0&hl=en&rclk=1,25.5790504,91.8761494,Meghalaya
Maharasthra Hair Dresser,Gym,"HV7H+F29, Laban, Shillong, Meghalaya 793004, India",https://www.google.co.kr/maps/place/Maharasthra+Hair+Dresser/data=!4m5!3m4!1s0x37507e845d309dd5:0x87ba7478a771b971!8m2!3d25.5636524!4d91.8776103?authuser=0&hl=en&rclk=1,25.5636524,91.8776103,Meghalaya
TAAL ACADEMY,Fitness center,"Nongrim Hills, Shillong, Meghalaya 793014, India",https://www.google.co.kr/maps/place/TAAL+ACADEMY/data=!4m5!3m4!1s0x37507f1611f77901:0xbfe6264fb3859141!8m2!3d25.5675205!4d91.9030085?authuser=0&hl=en&rclk=1,25.5675205,91.9030085,Meghalaya
Rhododendron Trek,Gym,"Cherapunjee Road, Near Army Canteen, Shillong, Meghalaya, India",https://www.google.co.kr/maps/place/Rhododendron+Trek/data=!4m5!3m4!1s0x37507fe341b5f859:0x39b6b950931dee40!8m2!3d25.5650261!4d91.8594947?authuser=0&hl=en&rclk=1,25.565026100000004,91.8594947,Meghalaya
Three Headed View Point,Gym,"SH 5, Cherrapunji, Meghalaya 793108, India",https://www.google.co.kr/maps/place/Three+Headed+View+Point/data=!4m5!3m4!1s0x37508cda7dc19c8f:0xcb0bd840019729ba!8m2!3d25.2860562!4d91.722169?authuser=0&hl=en&rclk=1,25.2860562,91.722169,Meghalaya
BaljringPa Pokri,Gym,"VQVP+68J, Arai Apal, Meghalaya 794110, India",https://www.google.co.kr/maps/place/BaljringPa+Pokri/data=!4m5!3m4!1s0x3759c57b284e7315:0xa4866f6f7c3b126b!8m2!3d25.8930935!4d90.7857659?authuser=0&hl=en&rclk=1,25.8930935,90.78576590000002,Meghalaya
Penny Valley Play Ground,Gym,"G59X+J38, Araimile, Tura, Meghalaya 794101, India",https://www.google.co.kr/maps/place/Penny+Valley+Play+Ground/data=!4m5!3m4!1s0x3757f1a7be391535:0xadd6969287da4300!8m2!3d25.5190474!4d90.1977046?authuser=0&hl=en&rclk=1,25.5190474,90.1977046,Meghalaya
Body Zoo,Gym,"Oxford, Laban, Shillong, Meghalaya 793004, India",https://www.google.co.kr/maps/place/Body+Zoo/data=!4m5!3m4!1s0x37507f53a6f0a483:0xc26281e63ceb88ad!8m2!3d25.5661249!4d91.8752477?authuser=0&hl=en&rclk=1,25.5661249,91.8752477,Meghalaya
Yoga and meditation centre,Yoga studio,"HVHJ+33R, Umsohsun, Police Bazar, Shillong, Meghalaya 793001, India",https://www.google.co.kr/maps/place/Yoga+and+meditation+centre/data=!4m5!3m4!1s0x37507f35bbdec10f:0xa410dc0ba6cc117c!8m2!3d25.577729!4d91.8801393?authuser=0&hl=en&rclk=1,25.577729,91.8801393,Meghalaya
"Power House Gym, Mukhim Brothers",Gymnasium Cz,"Nongthymmai, Shillong, Meghalaya 793014, India","https://www.google.co.kr/maps/place/Power+House+Gym,+Mukhim+Brothers/data=!4m5!3m4!1s0x37507eaba1bab18f:0xc3693741c1ae3269!8m2!3d25.5600513!4d91.9072878?authuser=0&hl=en&rclk=1",25.5600513,91.9072878,Meghalaya
TM Fitness Studio,Fitness center,"Vrindabvan Complex, Near Karnataka Bank, Housefed bus stop 2nd floor, Beltola Rd, opposite CCD, Guwahati, 781005, India",https://www.google.co.kr/maps/place/TM+Fitness+Studio/data=!4m5!3m4!1s0x375a5f2ceb842b09:0xb3aab71400933512!8m2!3d26.1364499!4d91.791783?authuser=0&hl=en&rclk=1,26.1364499,91.791783,Meghalaya
মিজানা টেলিকম,Gym,"4FJM+JQH, Bangladesh",https://www.google.co.kr/maps/place/%E0%A6%AE%E0%A6%BF%E0%A6%9C%E0%A6%BE%E0%A6%A8%E0%A6%BE+%E0%A6%9F%E0%A7%87%E0%A6%B2%E0%A6%BF%E0%A6%95%E0%A6%AE/data=!4m5!3m4!1s0x3750c3f1d9b41fc5:0xafc37df3a39944eb!8m2!3d25.1315603!4d91.4844827?authuser=0&hl=en&rclk=1,25.1315603,91.4844827,Meghalaya
Body Zoo Gym,Gym,"qualapaty, Bangaru Naicker St, Border Thottam, Padupakkam, Triplicane, Chennai, Tamil Nadu 600002, India",https://www.google.co.kr/maps/place/Body+Zoo+Gym/data=!4m5!3m4!1s0x37507e8b35f90a2f:0x47c32db02169adf4!8m2!3d25.5795099!4d91.8745087?authuser=0&hl=en&rclk=1,25.5795099,91.8745087,Meghalaya
Fit Or Fight Gym,Gym,"D S Mansion R G B. Road. Opposite - Indian petrol pump, ghy - 05, India",https://www.google.co.kr/maps/place/Fit+Or+Fight+Gym/data=!4m5!3m4!1s0x375a59d186098cc3:0xa3308af0ec49911f!8m2!3d26.1626926!4d91.7810687?authuser=0&hl=en&rclk=1,26.1626926,91.7810687,Meghalaya
Chhatak Fitness and Gym,Gym,"Thana Rd, Chhatak, Bangladesh",https://www.google.co.kr/maps/place/Chhatak+Fitness+and+Gym/data=!4m5!3m4!1s0x3750e51a25782d41:0xc4c46f70a76b5650!8m2!3d25.0389616!4d91.6710098?authuser=0&hl=en&rclk=1,25.0389616,91.6710098,Meghalaya
Titanium Gym,Gymnasium Cz,"Mihmyntdu, Jowai, Meghalaya 793150, India",https://www.google.co.kr/maps/place/Titanium+Gym/data=!4m5!3m4!1s0x37500d5401193009:0xec9118ca90448855!8m2!3d25.47009!4d92.2275624?authuser=0&hl=en&rclk=1,25.47009,92.2275624,Meghalaya
