Company_Name,Category,Address,Url,Latitude,Longitude,Territory
Ultimate fitness Gym,Gym,"Tadong College Gate, below Sbi Atm, Tadong, Gangtok, Sikkim 737102, India",https://www.google.co.kr/maps/place/Ultimate+fitness+Gym/data=!4m5!3m4!1s0x39e6a5c1bf4f7e2f:0xd15b58fff5a0aef3!8m2!3d27.314213!4d88.600151?authuser=0&hl=en&rclk=1,27.314213,88.600151,Sikkim
SIKKIM HARDCORE GYM,Fitness center,"Mahatma Gandhi Marg, behind RELIANCE TREANDS SHOWROOM, Arithang, Gangtok, Sikkim 737101, India",https://www.google.co.kr/maps/place/SIKKIM+HARDCORE+GYM/data=!4m5!3m4!1s0x39e6a5b61b40e7e1:0xce183a3c09c41d85!8m2!3d27.3282291!4d88.6122878?authuser=0&hl=en&rclk=1,27.3282291,88.6122878,Sikkim
HARDCORE HIMALAYAN GYM RANIPOOL,Fitness center,"Ranipool, Highway, Gangtok, Sikkim 737135, India",https://www.google.co.kr/maps/place/HARDCORE+HIMALAYAN+GYM+RANIPOOL/data=!4m5!3m4!1s0x39e6a54f497bb483:0xb8f391f7b74adfbf!8m2!3d27.2934027!4d88.5905626?authuser=0&hl=en&rclk=1,27.2934027,88.5905626,Sikkim
IRON PUMP SWEAT SHOP ( gym & fitness studio),Fitness center,"Krishi bhawan, Tadong, Gangtok, Sikkim 737102, India",https://www.google.co.kr/maps/place/IRON+PUMP+SWEAT+SHOP+(+gym+%26+fitness+studio)/data=!4m5!3m4!1s0x39e6a5ca5987b4f9:0xf25ae6b0c44264d0!8m2!3d27.3105755!4d88.5975892?authuser=0&hl=en&rclk=1,27.3105755,88.5975892,Sikkim
Hardcore Himalayan Gym 6th Mile Tadong,Fitness center,"NH10, near Harkamaya BaEd College, Tadong, Gangtok, Sikkim 737102, India",https://www.google.co.kr/maps/place/Hardcore+Himalayan+Gym+6th+Mile+Tadong/data=!4m5!3m4!1s0x39e6a5a6e9eb518b:0x95e9ee26866a58a1!8m2!3d27.3108386!4d88.588928?authuser=0&hl=en&rclk=1,27.3108386,88.588928,Sikkim
Rumtek Gym,Gym,"7HQ7+R3J, Namin, Sikkim 737135, India",https://www.google.co.kr/maps/place/Rumtek+Gym/data=!4m5!3m4!1s0x39e6a473dfb41c0b:0xc8c20300b98ec3d7!8m2!3d27.2895755!4d88.5626312?authuser=0&hl=en&rclk=1,27.2895755,88.5626312,Sikkim
Ragefitness Gym Singtam,Gym,"NH10 MAHESHWAR MANJIL, Singtam, Sikkim 737134, India",https://www.google.co.kr/maps/place/Ragefitness+Gym+Singtam/data=!4m5!3m4!1s0x39e6a14ed78c2f35:0x6bbd90db503cf12e!8m2!3d27.2307912!4d88.4977555?authuser=0&hl=en&rclk=1,27.2307912,88.4977555,Sikkim
Rawfit Gym And Fitness Center,Gym,"Ranipool Opposite doctor shanti complex Ranipool gangtok, Ranipool, Sikkim 737135, India",https://www.google.co.kr/maps/place/Rawfit+Gym+And+Fitness+Center/data=!4m5!3m4!1s0x39e6a50dac1cad8f:0x351c50cef424c5ed!8m2!3d27.2945405!4d88.5895235?authuser=0&hl=en&rclk=1,27.2945405,88.5895235,Sikkim
Ultimate fitness gym ranipool,Gym,"NH10, Ranipool, Sikkim 737102, India",https://www.google.co.kr/maps/place/Ultimate+fitness+gym+ranipool/data=!4m5!3m4!1s0x39e6a5301edbf391:0x1e508c710f5650fb!8m2!3d27.2944049!4d88.5897709?authuser=0&hl=en&rclk=1,27.2944049,88.5897709,Sikkim
Body Vibe Gym,Gym,"Rangpo-Rorathang Rd, Rorathang, Sikkim 737132, India",https://www.google.co.kr/maps/place/Body+Vibe+Gym/data=!4m5!3m4!1s0x39e6a7196b7ab287:0x6a9cb40b18dd88ff!8m2!3d27.1965097!4d88.6111974?authuser=0&hl=en&rclk=1,27.1965097,88.6111974,Sikkim
fit factory gym,Gym,"Majitar, Sikkim 737136, India",https://www.google.co.kr/maps/place/fit+factory+gym/data=!4m5!3m4!1s0x39e6a06bd015e881:0x524f188f7ac8d84a!8m2!3d27.1855154!4d88.5027923?authuser=0&hl=en&rclk=1,27.1855154,88.5027923,Sikkim
Gold gym,Gym,"8JQ4+HJ7, Sungava, Gangtok, Sikkim 737101, India",https://www.google.co.kr/maps/place/Gold+gym/data=!4m5!3m4!1s0x39e6a5bafb3d7977:0xd48cd65f65c02d99!8m2!3d27.3389172!4d88.6065357?authuser=0&hl=en&rclk=1,27.3389172,88.6065357,Sikkim
Harcules Gym,Boxing gym,"Lower Burtuk Rd, Gangtok, Sikkim 737101, India",https://www.google.co.kr/maps/place/Harcules+Gym/data=!4m5!3m4!1s0x39e6a5366627c3a5:0x50c3e120f3012211!8m2!3d27.3476779!4d88.612679?authuser=0&hl=en&rclk=1,27.3476779,88.612679,Sikkim
Guardians Combat Fitness,Fitness center,"Hungry Jack Plaza, NH10, Arithang, Gangtok, Sikkim 737101, India",https://www.google.co.kr/maps/place/Guardians+Combat+Fitness/data=!4m5!3m4!1s0x39e6a50738fe84a5:0x25dfa4458b0d9030!8m2!3d27.329098!4d88.6115684?authuser=0&hl=en&rclk=1,27.329098,88.6115684,Sikkim
White Hall Gym.,Boxing gym,"vanupath, Arithang, Gangtok, Sikkim 737101, India",https://www.google.co.kr/maps/place/White+Hall+Gym./data=!4m5!3m4!1s0x39e6a5c925e91923:0x15cdbd0c2d4e5eee!8m2!3d27.3321192!4d88.616072?authuser=0&hl=en&rclk=1,27.3321192,88.616072,Sikkim
GOUBIP fitness centre,Gym,"7HVQ+JV3, Ranipool, Sikkim 737102, India",https://www.google.co.kr/maps/place/GOUBIP+fitness+centre/data=!4m5!3m4!1s0x39e6a5f2f7092e7d:0x2042a545481cf913!8m2!3d27.2940211!4d88.5896838?authuser=0&hl=en&rclk=1,27.2940211,88.5896838,Sikkim
Bodyzone,Gym,"Golitar, Singtam, Sikkim 737134, India",https://www.google.co.kr/maps/place/Bodyzone/data=!4m5!3m4!1s0x39e6a1db0ba6c957:0xbda40b4215afc549!8m2!3d27.2289219!4d88.4935326?authuser=0&hl=en&rclk=1,27.2289219,88.4935326,Sikkim
Shiva Fitness Hub,Gym,"PHE Road, Lower Sichey Link Rd, Gangtok, Sikkim 737101, India",https://www.google.co.kr/maps/place/Shiva+Fitness+Hub/data=!4m5!3m4!1s0x39e6a586f3ebbec7:0xe2318b8b4f884131!8m2!3d27.3435036!4d88.5971543?authuser=0&hl=en&rclk=1,27.3435036,88.5971543,Sikkim
Bodycraft Fitness Gym,Gym,"5GQ2+7QW, Majitar, Sikkim 737136, India",https://www.google.co.kr/maps/place/Bodycraft+Fitness+Gym/data=!4m5!3m4!1s0x39e6a06c9ce4d0c3:0x579ac243b3ec88f!8m2!3d27.1882424!4d88.5019655?authuser=0&hl=en&rclk=1,27.1882424,88.5019655,Sikkim
Sangam Sailun,Gym,"Singtam, Sikkim 737128, India",https://www.google.co.kr/maps/place/Sangam+Sailun/data=!4m5!3m4!1s0x39e4273715555555:0x869b1621471bca02!8m2!3d27.1364448!4d88.3931154?authuser=0&hl=en&rclk=1,27.1364448,88.3931154,Sikkim
Boy's Gym,Gym,"Unnamed Road, Sikkim 737139, India",https://www.google.co.kr/maps/place/Boy's+Gym/data=!4m5!3m4!1s0x39e69bc1562629c9:0xe1cde835b00f1924!8m2!3d27.2973675!4d88.3571985?authuser=0&hl=en&rclk=1,27.2973675,88.3571985,Sikkim
SMIT GYM,Gym,"Food court, Majitar, Sikkim 737136, India",https://www.google.co.kr/maps/place/SMIT+GYM/data=!4m5!3m4!1s0x39e6a06c3d3fdac7:0xf1771496ec22721!8m2!3d27.1816656!4d88.5027817?authuser=0&hl=en&rclk=1,27.1816656,88.5027817,Sikkim
LIVE FIT THE GYM,Gym,"CHAMLING KHIM, Lingding Rd, near ADHAAR OFFICE, BUSTY, Gangtok, Sikkim 737102, India",https://www.google.co.kr/maps/place/LIVE+FIT+THE+GYM/data=!4m5!3m4!1s0x39e6a5643c58c675:0x16943d109bbffb5b!8m2!3d27.3246932!4d88.6038645?authuser=0&hl=en&rclk=1,27.3246932,88.6038645,Sikkim
Creative fitness gym,Gym,"5988+Q3W, Namchi, Sikkim 737126, India",https://www.google.co.kr/maps/place/Creative+fitness+gym/data=!4m5!3m4!1s0x39e69d01342fa873:0x32e0795339733e31!8m2!3d27.166996!4d88.3652122?authuser=0&hl=en&rclk=1,27.166996,88.3652122,Sikkim
DYNAMIC ZUMBA WITH HENA SHARMA,Fitness center,"NH 10, near SRM UNIVERSITY, Gangtok, Sikkim 737102, India",https://www.google.co.kr/maps/place/DYNAMIC+ZUMBA+WITH+HENA+SHARMA/data=!4m5!3m4!1s0x39e6a55c2bc4071f:0x292f10a3b4dd9a5a!8m2!3d27.3167516!4d88.5959067?authuser=0&hl=en&rclk=1,27.3167516,88.5959067,Sikkim
Weight management,Gym,"Legship-Gyalshing Rd, Geyzing, Sikkim 737111, India",https://www.google.co.kr/maps/place/Weight+management/data=!4m5!3m4!1s0x39e685dff7a11625:0x31e97a810c452f58!8m2!3d27.2831427!4d88.2584234?authuser=0&hl=en&rclk=1,27.2831427,88.2584234,Sikkim
Revamp Gym,Gym,"Upper Sichey Link Rd, Sungava, Gangtok, Sikkim 737101, India",https://www.google.co.kr/maps/place/Revamp+Gym/data=!4m5!3m4!1s0x39e6a56bfaff951b:0x3c83a6f6e9094e93!8m2!3d27.3390919!4d88.6070575?authuser=0&hl=en&rclk=1,27.3390919,88.6070575,Sikkim
Extreme pride gym,Gym,"8JH3+336, Vishal Gaon, Gangtok, Sikkim 737101, India",https://www.google.co.kr/maps/place/Extreme+pride+gym/data=!4m5!3m4!1s0x39e6a540b5374c99:0x692b7107e337b208!8m2!3d27.3276562!4d88.6026284?authuser=0&hl=en&rclk=1,27.3276562,88.6026284,Sikkim
Muscle Hut Gym,Gym,"44RX+447, Sombaria, Sikkim 737121, India",https://www.google.co.kr/maps/place/Muscle+Hut+Gym/data=!4m5!3m4!1s0x39e5d58fda77e195:0xd28a575a2a33091a!8m2!3d27.1402792!4d88.1477878?authuser=0&hl=en&rclk=1,27.1402792,88.1477878,Sikkim
Cross Fit Zone GYM,Gym,"8JQF+6JP, Chandmari, Gangtok, Sikkim 737103, India",https://www.google.co.kr/maps/place/Cross+Fit+Zone+GYM/data=!4m5!3m4!1s0x39e6a59720febdcd:0x49cdf93f573b411b!8m2!3d27.3380844!4d88.6240795?authuser=0&hl=en&rclk=1,27.3380844,88.6240795,Sikkim
Titan Gym,Gym,"Sen building, Pani House Rd, Gangtok, India",https://www.google.co.kr/maps/place/Titan+Gym/data=!4m5!3m4!1s0x39e6a5c9ed6eeded:0xced0e27fbae4d6c6!8m2!3d27.3242147!4d88.6101138?authuser=0&hl=en&rclk=1,27.3242147,88.6101138,Sikkim
Student Recreation Centre,Gym,"5GJ2+MX5, Majitar, Sikkim 737136, India",https://www.google.co.kr/maps/place/Student+Recreation+Centre/data=!4m5!3m4!1s0x39e6a06c3dc44029:0x6c5993d74b5387d9!8m2!3d27.1816298!4d88.5024823?authuser=0&hl=en&rclk=1,27.1816298,88.5024823,Sikkim
TIME TO FITNESS GYM,Gym,"Harijan Rd, near bhotay dhara, Kalimpong, West Bengal 734301, India",https://www.google.co.kr/maps/place/TIME+TO+FITNESS+GYM/data=!4m5!3m4!1s0x39e4238b2615b26b:0x3e021592dfad4af1!8m2!3d27.0696015!4d88.4730941?authuser=0&hl=en&rclk=1,27.0696015,88.4730941,Sikkim
Sempemyoga,Yoga studio,"Bodhi Marg, Sungava, Gangtok, Sikkim 737101, India",https://www.google.co.kr/maps/place/Sempemyoga/data=!4m5!3m4!1s0x39e6a538c217cfcf:0xe65dd2969a6e7fed!8m2!3d27.3384786!4d88.6130203?authuser=0&hl=en&rclk=1,27.3384786,88.6130203,Sikkim
Ironmine Fitness,Fitness center,"Relli Rd, Deolo, Kalimpong, West Bengal 734301, India",https://www.google.co.kr/maps/place/Ironmine+Fitness/data=!4m5!3m4!1s0x39e422021d530cf3:0xc580a33f759d2226!8m2!3d27.0699325!4d88.4737644?authuser=0&hl=en&rclk=1,27.0699325,88.4737644,Sikkim
Iron Asylum,Gym,"Pakyong, Sikkim 737106, India",https://www.google.co.kr/maps/place/Iron+Asylum/data=!4m5!3m4!1s0x39e6a68ac9bfade9:0xe1317ba885ee05b!8m2!3d27.2375414!4d88.5938841?authuser=0&hl=en&rclk=1,27.2375414,88.5938841,Sikkim
Tashiding Fitness House,Gym,"87HP+3RP, Upper laso, Tashiding, Sikkim 737111, India",https://www.google.co.kr/maps/place/Tashiding+Fitness+House/data=!4m5!3m4!1s0x39e6858ca0bc3dc5:0x9b512e7537aae50f!8m2!3d27.3277196!4d88.2870679?authuser=0&hl=en&rclk=1,27.3277196,88.2870679,Sikkim
Legship Bazar,Gym,"NH510, Legship, Sikkim 737111, India",https://www.google.co.kr/maps/place/Legship+Bazar/data=!4m5!3m4!1s0x39e68564b9620365:0x1aa7ae3361e8675!8m2!3d27.279764!4d88.2751525?authuser=0&hl=en&rclk=1,27.279764,88.2751525,Sikkim
Cutting Edge Hair Salon,Gym,"Singtam - Chungthang Rd, Ranipool, Sikkim 737135, India",https://www.google.co.kr/maps/place/Cutting+Edge+Hair+Salon/data=!4m5!3m4!1s0x39e6a44b9298d719:0x1805ea3297cdd2ef!8m2!3d27.2891886!4d88.5916377?authuser=0&hl=en&rclk=1,27.2891886,88.5916377,Sikkim
vetenary ground,Gym,"5965+99J, Namchi, Sikkim 737126, India",https://www.google.co.kr/maps/place/vetenary+ground/data=!4m5!3m4!1s0x39e4278128353ded:0x24a079c6bf886ef2!8m2!3d27.1609524!4d88.3583898?authuser=0&hl=en&rclk=1,27.1609524,88.3583898,Sikkim
Total fitness,Gymnasium Cz,"parking, Development area, beside GMC, Gangtok, Sikkim 737101, India",https://www.google.co.kr/maps/place/Total+fitness/data=!4m5!3m4!1s0x39e6a5e4c157ffb7:0x9f40dee95196172e!8m2!3d27.3361432!4d88.6131053?authuser=0&hl=en&rclk=1,27.3361432,88.6131053,Sikkim
"Pepthang Dawadi Gaon, Lingmoo Pepthang South Sikkim",Gym,"737134, Lingmoo - Kolthang Road, Pepthang, Sikkim 737139, India","https://www.google.co.kr/maps/place/Pepthang+Dawadi+Gaon,+Lingmoo+Pepthang+South+Sikkim/data=!4m5!3m4!1s0x39e6980310f7c4e1:0x4b7f36155b558653!8m2!3d27.3495195!4d88.4711154?authuser=0&hl=en&rclk=1",27.3495195,88.4711154,Sikkim
NHPC FOOTBALL GROUND,Gym,"6FX5+QX3, Sikkim 737134, India",https://www.google.co.kr/maps/place/NHPC+FOOTBALL+GROUND/data=!4m5!3m4!1s0x39e69f48271e87b9:0x2cf25b92832b0a34!8m2!3d27.2493763!4d88.4599088?authuser=0&hl=en&rclk=1,27.2493763,88.4599088,Sikkim
Mad Over Fitness Gym Kalimpong,Gym,"Shahid Dal Bahadur Giri Rd, Chotta Bhalukhop, Kalimpong, West Bengal 734301, India",https://www.google.co.kr/maps/place/Mad+Over+Fitness+Gym+Kalimpong/data=!4m5!3m4!1s0x39e423a74ce85d37:0x9828ea99da71866c!8m2!3d27.0704272!4d88.472027?authuser=0&hl=en&rclk=1,27.0704272,88.472027,Sikkim
"Community Hall, Mela Ground",Gym,"Rhenock - Rongli Hwy, Rongli, Sikkim 737133, India","https://www.google.co.kr/maps/place/Community+Hall,+Mela+Ground/data=!4m5!3m4!1s0x39e6a99a11b5bfdb:0xda670579837032f8!8m2!3d27.2036265!4d88.6972149?authuser=0&hl=en&rclk=1",27.2036265,88.6972149,Sikkim
Khedi Trekkers Huts,Gym,"8P52+HXP, Latuk, Sikkim 737135, India",https://www.google.co.kr/maps/place/Khedi+Trekkers+Huts/data=!4m5!3m4!1s0x39e6ae7d5e1adee9:0x6d15454d74186cb6!8m2!3d27.3089613!4d88.7024401?authuser=0&hl=en&rclk=1,27.3089613,88.7024401,Sikkim
Yumesodong Hot Spring,Gym,"WM9V+3M3, Yumesodong, Sikkim 737120, India",https://www.google.co.kr/maps/place/Yumesodong+Hot+Spring/data=!4m5!3m4!1s0x39e6d75fad6d6fb3:0x23315d46d10915f2!8m2!3d27.9176347!4d88.6941692?authuser=0&hl=en&rclk=1,27.9176347,88.6941692,Sikkim
"Indoor Gymnasium Hall (Badminton, Table Tennis & Basketball)",Gym,"8JM6+7VR, Arithang, Gangtok, Sikkim 737101, India","https://www.google.co.kr/maps/place/Indoor+Gymnasium+Hall+(Badminton,+Table+Tennis+%26+Basketball)/data=!4m5!3m4!1s0x39e6a5a0e71fe24f:0xc4fc5b23bf6a0bed!8m2!3d27.3332352!4d88.6121422?authuser=0&hl=en&rclk=1",27.3332352,88.6121422,Sikkim
Hamsa Yoga Shala,Yoga studio,"NH10, Deorali Bazar, Gangtok, Sikkim 737102, India",https://www.google.co.kr/maps/place/Hamsa+Yoga+Shala/data=!4m5!3m4!1s0x39e6a5a0937f16cd:0x8b2ae87c380490ac!8m2!3d27.3209738!4d88.6061079?authuser=0&hl=en&rclk=1,27.3209738,88.6061079,Sikkim
TTL Creative Studio and Pro-Fitness,Gym,"Bhalu Marg, Paiyong Khasmahal, West Bengal 734316, India",https://www.google.co.kr/maps/place/TTL+Creative+Studio+and+Pro-Fitness/data=!4m5!3m4!1s0x39e41f40abf35b99:0x97636ddf96e8073b!8m2!3d27.104807!4d88.552381?authuser=0&hl=en&rclk=1,27.104807,88.552381,Sikkim
Parakha Advantur Hub,Gym,"Machong Rd, Sikkim 737106, India",https://www.google.co.kr/maps/place/Parakha+Advantur+Hub/data=!4m5!3m4!1s0x39e6a89836ac2351:0xe24efa28de3ded2f!8m2!3d27.2350088!4d88.6425099?authuser=0&hl=en&rclk=1,27.2350088,88.6425099,Sikkim
Suraj Bike Repaire Shop,Gym,"8th mile, Geyzing, Sikkim 737111, India",https://www.google.co.kr/maps/place/Suraj+Bike+Repaire+Shop/data=!4m5!3m4!1s0x39e685a583ca72ed:0x792ab2aba42500d9!8m2!3d27.2853171!4d88.2585657?authuser=0&hl=en&rclk=1,27.2853171,88.2585657,Sikkim
Fit and fine gym,Gym,"3FHP+2F5, Rajadhara, Kalimpong, West Bengal 734316, India",https://www.google.co.kr/maps/place/Fit+and+fine+gym/data=!4m5!3m4!1s0x39e41f555b011eb9:0x3534357183f66f38!8m2!3d27.0775183!4d88.4862474?authuser=0&hl=en&rclk=1,27.0775183,88.4862474,Sikkim
Bijanbari Gym,Gym,"359R+GW3, Bijanbari, West Bengal 734201, India",https://www.google.co.kr/maps/place/Bijanbari+Gym/data=!4m5!3m4!1s0x39e42b61f721a277:0x2c264a1e6b135f2a!8m2!3d27.0687512!4d88.1923068?authuser=0&hl=en&rclk=1,27.0687512,88.1923068,Sikkim
Hymalayan Fitness and Gym,Gym,"Rinkinpong Rd, Kalimpong Khasmahal, Kalimpong, West Bengal 734301, India",https://www.google.co.kr/maps/place/Hymalayan+Fitness+and+Gym/data=!4m5!3m4!1s0x39e423316ffc8d0b:0xfc34eff5788ef885!8m2!3d27.056516!4d88.465178?authuser=0&hl=en&rclk=1,27.056516,88.465178,Sikkim
Curls and Crunches Fitness Gym,Gym,"Lebong Cart Rd, near Tenzing Rock, Singamari, Darjeeling, West Bengal 734104, India",https://www.google.co.kr/maps/place/Curls+and+Crunches+Fitness+Gym/data=!4m5!3m4!1s0x39e42f7d69b7b8db:0x745482bc3078c151!8m2!3d27.0592755!4d88.2555295?authuser=0&hl=en&rclk=1,27.0592755,88.2555295,Sikkim
Yoga for healthy lifestyle,Yoga studio,"Patuk makha, Gangtok, Sikkim 737138, India",https://www.google.co.kr/maps/place/Yoga+for+healthy+lifestyle/data=!4m5!3m4!1s0x39e6a3de5fbafd65:0x338fe241a2674911!8m2!3d27.317394!4d88.47963?authuser=0&hl=en&rclk=1,27.317394,88.47963,Sikkim
TENZIN'S GYM,Fitness center,"Laden la Rd, Limbugaon, Darjeeling, West Bengal 734101, India",https://www.google.co.kr/maps/place/TENZIN'S+GYM/data=!4m5!3m4!1s0x39e42eeb53025d1d:0x523e444c62189daf!8m2!3d27.0404737!4d88.2656454?authuser=0&hl=en&rclk=1,27.0404737,88.2656454,Sikkim
Pro Active Fitness Studio,Fitness center,"3F88+2R6, Mongbol Busty, Kalimpong, West Bengal 734301, India",https://www.google.co.kr/maps/place/Pro+Active+Fitness+Studio/data=!4m5!3m4!1s0x39e423da3a52e1e3:0x6fac96162c33c204!8m2!3d27.0650374!4d88.4670267?authuser=0&hl=en&rclk=1,27.0650374,88.4670267,Sikkim
SahiL limvo,Gym,"Khyoungtay Road, Yuksom, Sikkim 737113, India",https://www.google.co.kr/maps/place/SahiL+limvo/data=!4m5!3m4!1s0x39e6894d8408b6c5:0x58c140cd50f4bd04!8m2!3d27.373503!4d88.225099?authuser=0&hl=en&rclk=1,27.373503,88.225099,Sikkim
CFS STUDIO,Physical fitness program,"5, Laden la Rd, Chauk Bazaar, Darjeeling, West Bengal 734101, India",https://www.google.co.kr/maps/place/CFS+STUDIO/data=!4m5!3m4!1s0x39e42f6a2be193cd:0x3274f2065ba6d39c!8m2!3d27.0415504!4d88.2651717?authuser=0&hl=en&rclk=1,27.0415504,88.2651717,Sikkim
Zumba fitness and pilates studio,Fitness center,"Gymkhana club, Chauk Bazaar, Darjeeling, West Bengal 734101, India",https://www.google.co.kr/maps/place/Zumba+fitness+and+pilates+studio/data=!4m5!3m4!1s0x39e42f54176ea785:0xed5947923009222f!8m2!3d27.0482437!4d88.2664575?authuser=0&hl=en&rclk=1,27.0482437,88.2664575,Sikkim
Advas Fitness And Gym,Gym,"27R8+75X, Chauk Bazaar, Darjeeling, West Bengal 734101, India",https://www.google.co.kr/maps/place/Advas+Fitness+And+Gym/data=!4m5!3m4!1s0x39e42e94b56c65a7:0x67704f6c8574689a!8m2!3d27.0407448!4d88.2654865?authuser=0&hl=en&rclk=1,27.0407448,88.2654865,Sikkim
Sumo's Gym,Gymnasium Cz,"Bhutia Busty Rd, Agam Gram, Namchi, Sikkim 737126, India",https://www.google.co.kr/maps/place/Sumo's+Gym/data=!4m5!3m4!1s0x39e69d7fdd2bb2d3:0x78a16417408ec54c!8m2!3d27.1647322!4d88.3614291?authuser=0&hl=en&rclk=1,27.1647322,88.3614291,Sikkim
Uprety Yoga Centre,Yoga studio,"10th Mile, near Seva Sadan Hospital, Kalimpong, West Bengal 734301, India",https://www.google.co.kr/maps/place/Uprety+Yoga+Centre/data=!4m5!3m4!1s0x39e421abcb312e59:0x5c1a77c5685f706a!8m2!3d27.0733801!4d88.4767156?authuser=0&hl=en&rclk=1,27.0733801,88.4767156,Sikkim
Bannock Burn T E Football Ground,Gym,"Bannock Burn T E, Lebong, Darjeeling, West Bengal 734105, India",https://www.google.co.kr/maps/place/Bannock+Burn+T+E+Football+Ground/data=!4m5!3m4!1s0x39e42ed5e343a23d:0xab67b52be4243a7!8m2!3d27.059146!4d88.2848009?authuser=0&hl=en&rclk=1,27.059146,88.2848009,Sikkim
CFS Studio (Gym),Gymnasium Cz,"5th, Laden la Rd, Chauk Bazaar, Darjeeling, West Bengal 734101, India",https://www.google.co.kr/maps/place/CFS+Studio+(Gym)/data=!4m5!3m4!1s0x39e42f239768bdd9:0x3302b2c3cff6dabf!8m2!3d27.0400265!4d88.2638993?authuser=0&hl=en&rclk=1,27.0400265,88.2638993,Sikkim
Nim dorjee house,Gym,"Maney dara Maney dara, Rimbick, West Bengal 734201, India",https://www.google.co.kr/maps/place/Nim+dorjee+house/data=!4m5!3m4!1s0x39e5d51776dbc973:0xea0787699c490486!8m2!3d27.1170033!4d88.105465?authuser=0&hl=en&rclk=1,27.1170033,88.105465,Sikkim
King's Gym,Fitness center,"Reshep Dhura, Mangpoo, West Bengal 734313, India",https://www.google.co.kr/maps/place/King's+Gym/data=!4m5!3m4!1s0x39e43b6d5b2ee837:0x2e6e3f16232b630c!8m2!3d26.972265!4d88.3671973?authuser=0&hl=en&rclk=1,26.972265,88.3671973,Sikkim
Fitness First,Gym,"Rishi Rd, Mirik, West Bengal 734214, India",https://www.google.co.kr/maps/place/Fitness+First/data=!4m5!3m4!1s0x39e4334447794c03:0xff3ba8f17acc6af3!8m2!3d26.8955538!4d88.181133?authuser=0&hl=en&rclk=1,26.8955538,88.181133,Sikkim
Himalayan Gym Panchanadi,Fitness center,"2nd INDIA RESERVE BATTALION HEAD QUARTER, Pintail Village, road, near gyan jyoti more, Dagapur, Siliguri, West Bengal 734010, India",https://www.google.co.kr/maps/place/Himalayan+Gym+Panchanadi/data=!4m5!3m4!1s0x39e4473216cb44a1:0xa34409a5c6b30534!8m2!3d26.746696!4d88.3936642?authuser=0&hl=en&rclk=1,26.746696,88.3936642,Sikkim
Himalayan Gym,Gym,"BYEPASS MORE Ward No 1, Mirik, West Bengal 734214, India",https://www.google.co.kr/maps/place/Himalayan+Gym/data=!4m5!3m4!1s0x39e43355420f20a7:0x24a0590596b1c5c3!8m2!3d26.8949947!4d88.1785819?authuser=0&hl=en&rclk=1,26.8949947,88.1785819,Sikkim
Fitmosphere Gym and Fitness,Gym,"Mirik Bazar, near Zinlab Electronics, Mirik, West Bengal 734214, India",https://www.google.co.kr/maps/place/Fitmosphere+Gym+and+Fitness/data=!4m5!3m4!1s0x39e433f0c67a758f:0xa11d0d88a34131d2!8m2!3d26.8948536!4d88.1811915?authuser=0&hl=en&rclk=1,26.8948536,88.1811915,Sikkim
Sumitra Yogashala,Yoga studio,"Penang Building Rooftop Near Rink Mall, 38, Laden la Rd, Darjeeling, West Bengal 734101, India",https://www.google.co.kr/maps/place/Sumitra+Yogashala/data=!4m5!3m4!1s0x39e42f3e2ff583d1:0x887be78a36ca7284!8m2!3d27.0396459!4d88.265393?authuser=0&hl=en&rclk=1,27.0396459,88.265393,Sikkim
"CROSSFIT GYM FITNESS CENTRE (Panitanki More, Sevoke Road)",Fitness center,"Panitanki More, Sevoke Road Near State Bank Of India, Siliguri, West Bengal 734001, India","https://www.google.co.kr/maps/place/CROSSFIT+GYM+FITNESS+CENTRE+(Panitanki+More,+Sevoke+Road)/data=!4m5!3m4!1s0x39e44113b8b273b3:0x6bf3d2507834d88f!8m2!3d26.7219718!4d88.427147?authuser=0&hl=en&rclk=1",26.7219718,88.427147,Sikkim
Gold's Gym Siliguri,Fitness center,"Infinity Square, 3rd, Sevoke Rd, Near Cosmos Mall, 2nd Mile, Siliguri, West Bengal 734001, India",https://www.google.co.kr/maps/place/Gold's+Gym+Siliguri/data=!4m5!3m4!1s0x39e440fdff6ad829:0x9e7704eecd326974!8m2!3d26.741147!4d88.435324?authuser=0&hl=en&rclk=1,26.741147,88.435324,Sikkim
Kingfisher River Rafting,Adventure sports,"National Highway 10, Kalimpong Dansong Forest, 737128, India",https://www.google.co.kr/maps/place/Kingfisher+River+Rafting/data=!4m5!3m4!1s0x39e421eaf593c329:0xbf31df0cafe16755!8m2!3d27.0924733!4d88.46179?authuser=0&hl=en&rclk=1,27.0924733,88.46179,Sikkim
Gold's gym,Gym,"4th Mahananda Bridge, Ward 4, Mahananda Para, Siliguri, West Bengal 734001, India",https://www.google.co.kr/maps/place/Gold's+gym/data=!4m5!3m4!1s0x39e4412d1c931b03:0x8acd6847362b2984!8m2!3d26.7122538!4d88.411455?authuser=0&hl=en&rclk=1,26.7122538,88.411455,Sikkim
Anand's fitness paradise gym,Gym,"Dry fish, market Rd, Matigara, West Bengal 734010, India",https://www.google.co.kr/maps/place/Anand's+fitness+paradise+gym/data=!4m5!3m4!1s0x39e446c01140b2cf:0xb344c05f0daf0462!8m2!3d26.7175026!4d88.3872983?authuser=0&hl=en&rclk=1,26.7175026,88.3872983,Sikkim
Star Gym & Fitness - Mirik,Gym,"Near, Rishi Rd, Mirik, West Bengal 734214, India",https://www.google.co.kr/maps/place/Star+Gym+%26+Fitness+-+Mirik/data=!4m5!3m4!1s0x39e43314d6a2c0bd:0x2a76492853e62d88!8m2!3d26.8899825!4d88.186309?authuser=0&hl=en&rclk=1,26.8899825,88.186309,Sikkim
कुमाई जनता मैदान,Gym,"कुमाई आदिबासी लाइन, कुमाई चया बगान, गोरुबथान, जिल्ला, Kumai, कालेबुङ, India",https://www.google.co.kr/maps/place/%E0%A4%95%E0%A5%81%E0%A4%AE%E0%A4%BE%E0%A4%88+%E0%A4%9C%E0%A4%A8%E0%A4%A4%E0%A4%BE+%E0%A4%AE%E0%A5%88%E0%A4%A6%E0%A4%BE%E0%A4%A8/data=!4m5!3m4!1s0x39e3f9eb1d6791bd:0x31b02c72f5991c74!8m2!3d27.0024623!4d88.827501?authuser=0&hl=en&rclk=1,27.0024623,88.827501,Sikkim
HIMALAYAN GYM METHIBARI,Gym,"METHIBARI, West Bengal, India",https://www.google.co.kr/maps/place/HIMALAYAN+GYM+METHIBARI/data=!4m5!3m4!1s0x39e44741cc1dc707:0x1c51132c560501f7!8m2!3d26.7673399!4d88.3830322?authuser=0&hl=en&rclk=1,26.7673399,88.3830322,Sikkim
Health Care Gym,Gym,"P.O. W.B.,, South Colony, Mal Bazar, 735221, India",https://www.google.co.kr/maps/place/Health+Care+Gym/data=!4m5!3m4!1s0x39e40bc9e7002631:0x3766be1e948c5dab!8m2!3d26.8624653!4d88.7435356?authuser=0&hl=en&rclk=1,26.8624653,88.7435356,Sikkim
I FITNESS GYM,Gym,"Mirik road, garidura bazzar, near garidura police station, Kurseong, West Bengal 734217, India",https://www.google.co.kr/maps/place/I+FITNESS+GYM/data=!4m5!3m4!1s0x39e437883db1e0e5:0x1af84a2849cc05d3!8m2!3d26.8065174!4d88.2819117?authuser=0&hl=en&rclk=1,26.8065174,88.2819117,Sikkim
Health World Fitness,Gym,"Ward 2, Pradhan Nagar, Siliguri, West Bengal 734003, India",https://www.google.co.kr/maps/place/Health+World+Fitness/data=!4m5!3m4!1s0x39e44124f80f7a09:0x450f006950a9db39!8m2!3d26.7319548!4d88.4142938?authuser=0&hl=en&rclk=1,26.7319548,88.4142938,Sikkim
Indian Yog Peeth,Yoga studio,"31 DB Giri Road, Darjeeling, West Bengal 734101, India",https://www.google.co.kr/maps/place/Indian+Yog+Peeth/data=!4m5!3m4!1s0x39e42e9323252e83:0xf137c5f54885f5f6!8m2!3d27.0371003!4d88.2645867?authuser=0&hl=en&rclk=1,27.0371003,88.2645867,Sikkim
Star Gym & Fitness - Shivmandir,Gym,"Shivmandir, Bairatisal, West Bengal 734013, India",https://www.google.co.kr/maps/place/Star+Gym+%26+Fitness+-+Shivmandir/data=!4m5!3m4!1s0x39e4478268a3070d:0x2c2c407dcffb3ed3!8m2!3d26.7077969!4d88.3606568?authuser=0&hl=en&rclk=1,26.7077969,88.3606568,Sikkim
Fitness Factory Gym & Boxing Corner,Gym,"NH110, Kurseong, West Bengal 734203, India",https://www.google.co.kr/maps/place/Fitness+Factory+Gym+%26+Boxing+Corner/data=!4m5!3m4!1s0x39e431c1eec9cf6d:0xf2a990c4a383460b!8m2!3d26.8808611!4d88.2769224?authuser=0&hl=en&rclk=1,26.8808611,88.2769224,Sikkim
Anandaloke Fitness Studio,Gym,"Anandaloke Complex, beside Maya Roy F. L. Off shop, Siliguri, West Bengal 734005, India",https://www.google.co.kr/maps/place/Anandaloke+Fitness+Studio/data=!4m5!3m4!1s0x39e4410ca28e5b1b:0x954f60f3a9a183aa!8m2!3d26.7040956!4d88.4239523?authuser=0&hl=en&rclk=1,26.7040956,88.4239523,Sikkim
Roy Gym Center,Gym,"Road, opposite side of Manglabri Post Office, near Ashram, Mangalbari, West Bengal 736182, India",https://www.google.co.kr/maps/place/Roy+Gym+Center/data=!4m5!3m4!1s0x39e3f51fe637080f:0x398a18ff336899bf!8m2!3d26.8653937!4d88.8046865?authuser=0&hl=en&rclk=1,26.8653937,88.8046865,Sikkim
My Fitness Studio,Gym,"PC62+P59, Shyam Nagar, Patiram Jote, Siliguri, West Bengal 734010, India",https://www.google.co.kr/maps/place/My+Fitness+Studio/data=!4m5!3m4!1s0x39e447e774310405:0x8c3b8c5bd7b4e079!8m2!3d26.7117755!4d88.400475?authuser=0&hl=en&rclk=1,26.7117755,88.400475,Sikkim
Himalayan Gym Sukna,Gym,"Sukna, Hill Cart Rd, Sukna Pratham Khanda, West Bengal 734009, India",https://www.google.co.kr/maps/place/Himalayan+Gym+Sukna/data=!4m5!3m4!1s0x39e43966131c24db:0x599fc7bac1e1287e!8m2!3d26.7896848!4d88.3626468?authuser=0&hl=en&rclk=1,26.7896848,88.3626468,Sikkim
Fitness Freak,Gym,"Unnamed Road, Ward 46, Champasari, Siliguri, West Bengal 734003, India",https://www.google.co.kr/maps/place/Fitness+Freak/data=!4m5!3m4!1s0x39e441e80f9347db:0x9b4dd426591c76ed!8m2!3d26.7505495!4d88.4161407?authuser=0&hl=en&rclk=1,26.7505495,88.4161407,Sikkim
Euro gym centre,Gym,"Unnamed Road, Oodlabari, West Bengal 735222, India",https://www.google.co.kr/maps/place/Euro+gym+centre/data=!4m5!3m4!1s0x39e413fdd571ebf9:0xa90eb58aab01ac52!8m2!3d26.8523898!4d88.6218766?authuser=0&hl=en&rclk=1,26.8523898,88.6218766,Sikkim
Health World Fitness,Gym,"Ramkrishna Club Hall, Sevoke Rd, Ward 14, Near Pani Tanki More (Clock Tower), Siliguri, West Bengal 734001, India",https://www.google.co.kr/maps/place/Health+World+Fitness/data=!4m5!3m4!1s0x39e441092a977581:0xda702a07f44eae9b!8m2!3d26.7203425!4d88.4272158?authuser=0&hl=en&rclk=1,26.7203425,88.4272158,Sikkim
Sculptnation Fitness Gym,Gym,"Montiviot Rd, Kurseong, West Bengal 734203, India",https://www.google.co.kr/maps/place/Sculptnation+Fitness+Gym/data=!4m5!3m4!1s0x39e4313d26eb46b5:0xd5d5b74f06b21800!8m2!3d26.8807635!4d88.2766854?authuser=0&hl=en&rclk=1,26.8807635,88.2766854,Sikkim
Zenith Gym & Fitness Center,Gym,"Q97P+RW4, Panchanai, West Bengal 734009, India",https://www.google.co.kr/maps/place/Zenith+Gym+%26+Fitness+Center/data=!4m5!3m4!1s0x39e44735ae2a6817:0xf28093b8310be782!8m2!3d26.7645167!4d88.387343?authuser=0&hl=en&rclk=1,26.7645167,88.387343,Sikkim
SHIV PARVATI FITNESS SERVICE CENTER,Fitness center,"Darjeeling more, Shiv Nagar, Sabji bazaar, Siliguri, West Bengal 734003, India",https://www.google.co.kr/maps/place/SHIV+PARVATI+FITNESS+SERVICE+CENTER/data=!4m5!3m4!1s0x39e441e0275c7c83:0x21aa9acbc7f53b74!8m2!3d26.7342633!4d88.4081706?authuser=0&hl=en&rclk=1,26.7342633,88.4081706,Sikkim
"Crossfit Gym Fitness Centre, Pranami Mandir Road",Fitness center,"Pranami Mandir Rd, Ward 40, Punjabi Para, Siliguri, West Bengal 734001, India","https://www.google.co.kr/maps/place/Crossfit+Gym+Fitness+Centre,+Pranami+Mandir+Road/data=!4m5!3m4!1s0x39e441e468a7b581:0x9f6da6d53ba19c70!8m2!3d26.726535!4d88.4360959?authuser=0&hl=en&rclk=1",26.726535,88.4360959,Sikkim
Power House Gym,Gym,"Q88R+VJF, Khopalasi, West Bengal 734009, India",https://www.google.co.kr/maps/place/Power+House+Gym/data=!4m5!3m4!1s0x39e447eae699ab95:0x9d17bde88606bd2e!8m2!3d26.7671854!4d88.3415346?authuser=0&hl=en&rclk=1,26.7671854,88.3415346,Sikkim
Sarkar Fitness,Gym,"157-Kelsons Complex, Sevoke Rd, Above Sarkar Sports, Siliguri, West Bengal 734003, India",https://www.google.co.kr/maps/place/Sarkar+Fitness/data=!4m5!3m4!1s0x39e44123a19ba72f:0x642b86cf4c82fc1e!8m2!3d26.7323333!4d88.417491?authuser=0&hl=en&rclk=1,26.7323333,88.417491,Sikkim
Royal Fitness Centre,Fitness center,"Radhika Bhawan, Champasari, Siliguri, West Bengal 734003, India",https://www.google.co.kr/maps/place/Royal+Fitness+Centre/data=!4m5!3m4!1s0x39e440d8afdc26ef:0xe9059ac2e121866!8m2!3d26.7406288!4d88.4156695?authuser=0&hl=en&rclk=1,26.7406288,88.4156695,Sikkim
Himalayan Yoga Bliss,Yoga studio,"Adhyaananta farm, Sherpa Goean, Kalimpong Khasmahal, Kalimpong, West Bengal 734301, India",https://www.google.co.kr/maps/place/Himalayan+Yoga+Bliss/data=!4m5!3m4!1s0x39e4221000000001:0x40330172ea7953b!8m2!3d27.0593562!4d88.4694535?authuser=0&hl=en&rclk=1,27.0593562,88.4694535,Sikkim
HIMALAYAN GYM KHAPRAIL,Gym,"Khaprail,Fulbari more ,Central busty, near Suresh bar and restaurant, Siliguri, West Bengal 734009, India",https://www.google.co.kr/maps/place/HIMALAYAN+GYM+KHAPRAIL/data=!4m5!3m4!1s0x39e4494d27a59d3f:0xbef80c28f3820bed!8m2!3d26.769098!4d88.3298579?authuser=0&hl=en&rclk=1,26.769098,88.3298579,Sikkim
Turbo Fitness 360,Gym,"Ward 46, Champasari, Siliguri, West Bengal 734003, India",https://www.google.co.kr/maps/place/Turbo+Fitness+360/data=!4m5!3m4!1s0x39e440dc068e6b6d:0xfac6266c89e076d1!8m2!3d26.7425058!4d88.417149?authuser=0&hl=en&rclk=1,26.7425058,88.417149,Sikkim
Jiwan fitness world,Gym,"Zila Parishad Rd, near bottle company, Ward 41, Bankim Nagar, Siliguri, West Bengal 734001, India",https://www.google.co.kr/maps/place/Jiwan+fitness+world/data=!4m5!3m4!1s0x39e441b9ca5ba859:0x73155b4bdc0f1b96!8m2!3d26.736833!4d88.4510234?authuser=0&hl=en&rclk=1,26.736833,88.4510234,Sikkim
Sandy's Fitness (Unisex Gym),Gym,"Ward 3, Gurung Basti, Siliguri, West Bengal 734003, India",https://www.google.co.kr/maps/place/Sandy's+Fitness+(Unisex+Gym)/data=!4m5!3m4!1s0x39e4413de461175b:0xc76ee656c246b1e2!8m2!3d26.7236612!4d88.4202299?authuser=0&hl=en&rclk=1,26.7236612,88.4202299,Sikkim
Nagrakata Uddyan,Gym,"VWP7+4RP, Kurti, Nagrakata, West Bengal 735225, India",https://www.google.co.kr/maps/place/Nagrakata+Uddyan/data=!4m5!3m4!1s0x39e3f227a291aaaf:0x13c79a0abec99350!8m2!3d26.8853461!4d88.9145762?authuser=0&hl=en&rclk=1,26.8853461,88.9145762,Sikkim
Fitness World,Gym,"Unnamed Road, Ward 8, Khalpara, Siliguri, West Bengal 734001, India",https://www.google.co.kr/maps/place/Fitness+World/data=!4m5!3m4!1s0x39e441690c2c39cd:0xe505a36a83b3221f!8m2!3d26.7096607!4d88.4238642?authuser=0&hl=en&rclk=1,26.7096607,88.4238642,Sikkim
Xtreme Fitness,Gym,"Jamuna Lal Bajaj St, Ward 9, Khalpara, Siliguri, West Bengal 734005, India",https://www.google.co.kr/maps/place/Xtreme+Fitness/data=!4m5!3m4!1s0x39e44110a5b6eef3:0x9ee700e3e3fbb6d2!8m2!3d26.7045426!4d88.4221681?authuser=0&hl=en&rclk=1,26.7045426,88.4221681,Sikkim
The Hammer Gym,Gym,"Ward 3 Nivedita Road, Near, Veer Jawan, Pradhan Nagar, Siliguri, West Bengal 734001, India",https://www.google.co.kr/maps/place/The+Hammer+Gym/data=!4m5!3m4!1s0x39e4413d0104826d:0xa2a684413e3cb46c!8m2!3d26.7282136!4d88.418419?authuser=0&hl=en&rclk=1,26.7282136,88.418419,Sikkim
JTS Gym,Gym,"37, Nazrul Sarani, Ward 14, Hakim Para, Siliguri, West Bengal 734001, India",https://www.google.co.kr/maps/place/JTS+Gym/data=!4m5!3m4!1s0x39e4410d45ef9799:0x2d84007f4e16db24!8m2!3d26.7182824!4d88.4317784?authuser=0&hl=en&rclk=1,26.7182824,88.4317784,Sikkim
Oxygen Fitness Ilam,Gym,"Nikunja Path, Ilam 57300, Nepal",https://www.google.co.kr/maps/place/Oxygen+Fitness+Ilam/data=!4m5!3m4!1s0x39e5c3221a79d263:0x62ceead51b44171!8m2!3d26.9099469!4d87.9276579?authuser=0&hl=en&rclk=1,26.9099469,87.9276579,Sikkim
Women's Fitness Zone,Gym,"Ward 27, Babupara, Siliguri, West Bengal 734001, India",https://www.google.co.kr/maps/place/Women's+Fitness+Zone/data=!4m5!3m4!1s0x39e4412bf9db83af:0x92305a1435d887e3!8m2!3d26.7040213!4d88.4274799?authuser=0&hl=en&rclk=1,26.7040213,88.4274799,Sikkim
Himalayan Yoga Bliss,Yoga studio,"Dr. Zakir Hussian Road, Rockville Rd, Darjeeling, West Bengal 734101, India",https://www.google.co.kr/maps/place/Himalayan+Yoga+Bliss/data=!4m5!3m4!1s0x39e42eeb64164941:0xf8a697ced43249fe!8m2!3d27.0398253!4d88.2671539?authuser=0&hl=en&rclk=1,27.0398253,88.2671539,Sikkim
Siliguri,Gym,"Anchal Bazar, Iskcon Rd, Siliguri, West Bengal, India",https://www.google.co.kr/maps/place/Siliguri/data=!4m5!3m4!1s0x39e441a7fe7cd427:0xa9a3987cad38fc64!8m2!3d26.7291607!4d88.4406545?authuser=0&hl=en&rclk=1,26.7291607,88.4406545,Sikkim
Royal Gym,Gym,"9, Station Feeder Road, Ward 9, Hakim Para, Siliguri, West Bengal 734001, India",https://www.google.co.kr/maps/place/Royal+Gym/data=!4m5!3m4!1s0x39e4415d6d853387:0xac4aacbba3973761!8m2!3d26.7033704!4d88.419972?authuser=0&hl=en&rclk=1,26.7033704,88.419972,Sikkim
Bini's Yoga Nexus,Fitness center,"SAINATH ROAD,B.ED COLLEGE PARA,KADAMTALA, Shiv Mandir Rd, Siliguri, West Bengal 734011, India",https://www.google.co.kr/maps/place/Bini's+Yoga+Nexus/data=!4m5!3m4!1s0x39e441cb42581a6f:0x94ad7b0fbc2f3e47!8m2!3d26.725344!4d88.4333403?authuser=0&hl=en&rclk=1,26.725344,88.4333403,Sikkim
Power House Gym,Gymnasium Cz,"Uco Bank Building, Lebong Cart Rd, North Point, Darjeeling, West Bengal 734104, India",https://www.google.co.kr/maps/place/Power+House+Gym/data=!4m5!3m4!1s0x39e42eaed976fa93:0xa974b6a14eaa8e98!8m2!3d27.0600812!4d88.2517576?authuser=0&hl=en&rclk=1,27.0600812,88.2517576,Sikkim
"MFC-Pandam, Play Ground",Gym,"Phikkal-Pashupatinagar Road, Suryodaya 57303, Nepal","https://www.google.co.kr/maps/place/MFC-Pandam,+Play+Ground/data=!4m5!3m4!1s0x39e5ce86ef5d30cb:0xb0cf93191f6ca624!8m2!3d26.9214768!4d88.0835938?authuser=0&hl=en&rclk=1",26.9214768,88.0835938,Sikkim
