Company_Name,Category,Address,Url,latitude,longtitude
Himachal Pradesh Village First Gym,Gym,"CJX6+CMP, Poshana, Himachal Pradesh 172001, India",https://www.google.co.kr/maps/place/Himachal+Pradesh+Village+First+Gym/data=!4m5!3m4!1s0x3905c1db92194835:0xab5547e047126ded!8m2!3d31.4485751!4d77.6116908?authuser=0&hl=en&rclk=1,31.4485751,77.6116908
Rudra's Gym | Best Unisex (ladies & Gents) Gym in kangra |,Fitness center,"Jaswal Complex, 4th Floor, opposite Rajput Sabha, Kangra, Himachal Pradesh 176001, India",https://www.google.co.kr/maps/place/Rudra's+Gym+%7C+Best+Unisex+(ladies+%26+Gents)+Gym+in+kangra+%7C/data=!4m5!3m4!1s0x391b4f80ff724b73:0xbe77b5e23e9b39e8!8m2!3d32.1044617!4d76.273651?authuser=0&hl=en&rclk=1,32.1044617,76.273651
Palampur Fitness Club,Fitness center,"1st Floor, Vrinda complex, VPO Ghuggar Palampur, above Sandeep sanjeev bros h/w stores, Palampur, Himachal Pradesh 176061, India",https://www.google.co.kr/maps/place/Palampur+Fitness+Club/data=!4m5!3m4!1s0x3904b3c32484a1d7:0x8ef7b982064d4ba1!8m2!3d32.1134979!4d76.5284071?authuser=0&hl=en&rclk=1,32.1134979,76.5284071
Shiva Fitness Gym,Gym,"NH103, Ghumarwin, Himachal Pradesh 174034, India",https://www.google.co.kr/maps/place/Shiva+Fitness+Gym/data=!4m5!3m4!1s0x39053b1b0902bd6f:0x4abbbdf3b6cd8012!8m2!3d31.4327172!4d76.7135161?authuser=0&hl=en&rclk=1,31.4327172,76.7135161
P2i Gym Fitness,Gym,"NIT, Anu, Hamirpur, Himachal Pradesh 177005, India",https://www.google.co.kr/maps/place/P2i+Gym+Fitness/data=!4m5!3m4!1s0x3904d4410e34ad17:0xfdb3bff6bb190a0f!8m2!3d31.7008861!4d76.5217751?authuser=0&hl=en&rclk=1,31.7008861,76.5217751
Katoch Gym & Spa,Gym,"plot 3/3, near Oriental Bank of Commerce, Palace Colony, Mandi, Himachal Pradesh 175001, India",https://www.google.co.kr/maps/place/Katoch+Gym+%26+Spa/data=!4m5!3m4!1s0x3904e36e89b89c17:0xa332933ded7e87de!8m2!3d31.7074065!4d76.9279701?authuser=0&hl=en&rclk=1,31.7074065,76.9279701
NORTH FITNESS GYM & SPA,Gym,"Baddi, Himachal Pradesh 173205, India",https://www.google.co.kr/maps/place/NORTH+FITNESS+GYM+%26+SPA/data=!4m5!3m4!1s0x390ff59e7936e359:0xac72ff7d868bbd18!8m2!3d30.943941!4d76.802562?authuser=0&hl=en&rclk=1,30.943941,76.802562
City Fitness Gym,Gym,"Gandhi Chowk Street, Chakarwarti, Ghumarwin, Himachal Pradesh 174021, India",https://www.google.co.kr/maps/place/City+Fitness+Gym/data=!4m5!3m4!1s0x39053b72c1dd7307:0x9babece1bb554847!8m2!3d31.4420077!4d76.7109326?authuser=0&hl=en&rclk=1,31.4420077,76.7109326
Gym in Shimla,Fitness center,"Gymnazio health club, Ajay brar Nanta Niwas, near Andhra bank, Sector 1, New Shimla, Shimla, Himachal Pradesh 171009, India",https://www.google.co.kr/maps/place/Gym+in+Shimla/data=!4m5!3m4!1s0x3905794070767e41:0x987c754746964c55!8m2!3d31.0845796!4d77.1699412?authuser=0&hl=en&rclk=1,31.0845796,77.1699412
Ignite (The Fitness Era),Gym,"Mohal Rd, Mohal, Himachal Pradesh 175126, India",https://www.google.co.kr/maps/place/Ignite+(The+Fitness+Era)/data=!4m5!3m4!1s0x3904f722a25618b3:0x5a06471342ab2ec8!8m2!3d31.914842!4d77.1271?authuser=0&hl=en&rclk=1,31.914842,77.1271
Iron Fist Gym,Gym,"2nd Floor ,Near Cinema Chowk, Sen Shopping Complex , Bhojpur, Sundar Nagar, Himachal Pradesh 175002, India",https://www.google.co.kr/maps/place/Iron+Fist+Gym/data=!4m5!3m4!1s0x390519bb53a1386b:0x60c9198f4407ad81!8m2!3d31.529765!4d76.888974?authuser=0&hl=en&rclk=1,31.529765,76.888974
Raaj Fitness Center(Gym),Gym,"tihra, mod, near bus stand, Sarkaghat, Himachal Pradesh 175024, India",https://www.google.co.kr/maps/place/Raaj+Fitness+Center(Gym)/data=!4m5!3m4!1s0x3904df2cbf98342f:0x98c62a3c9b3f6c0a!8m2!3d31.6989558!4d76.7324084?authuser=0&hl=en&rclk=1,31.6989558,76.7324084
Gym,Gym,"HV49+2J9, Mairajitpur, Himachal Pradesh 175036, India",https://www.google.co.kr/maps/place/Gym/data=!4m5!3m4!1s0x3905195b60bbaa39:0x7c1d6f2ad022c4f1!8m2!3d31.5550386!4d76.8691046?authuser=0&hl=en&rclk=1,31.5550386,76.8691046
DA FITNESS CLUB,Gym,"Shimla Bypass, Vikasnagar, Shimla, Himachal Pradesh 171009, India",https://www.google.co.kr/maps/place/DA+FITNESS+CLUB/data=!4m5!3m4!1s0x390578b2e1577921:0xf8ab79cbfd2a89!8m2!3d31.0781711!4d77.1804652?authuser=0&hl=en&rclk=1,31.0781711,77.1804652
Vibes Gym,Fitness center,"Opp. Central Bank Of India, Bhojpur, Sunder Nagar, Mandi, Himachal Pradesh 175002, India",https://www.google.co.kr/maps/place/Vibes+Gym/data=!4m5!3m4!1s0x3904e23c9f120ed3:0x3f37ca9fd94aeeed!8m2!3d31.708009!4d76.931285?authuser=0&hl=en&rclk=1,31.708009,76.931285
BB fitness & gym,Gymnastics club,"Vpo Rehan Kangra Bank 1st floor, Tehsil Fatehpur, district Kangra, Himachal Pradesh, 176022, India",https://www.google.co.kr/maps/place/BB+fitness+%26+gym/data=!4m5!3m4!1s0x391b64cf3eac781b:0x9fd776e62f1777e!8m2!3d32.1611815!4d75.9076524?authuser=0&hl=en&rclk=1,32.1611815,75.9076524
Bajrangi Fitness Hub,Gym,"1 floor, above HP Cooperative Bank, Kumarsain, Himachal Pradesh 172029, India",https://www.google.co.kr/maps/place/Bajrangi+Fitness+Hub/data=!4m5!3m4!1s0x390596f2a27f7b1b:0xca5e16e10128b5d8!8m2!3d31.3173413!4d77.4458476?authuser=0&hl=en&rclk=1,31.3173413,77.4458476
The infinity gym,Gym,"ward no. 2 main bazar, near sabji Mandi top floor deep and company complex, Himachal Pradesh 177001, India",https://www.google.co.kr/maps/place/The+infinity+gym/data=!4m5!3m4!1s0x3904d512537a41ef:0x9ab86ec8b0f743e2!8m2!3d31.6862736!4d76.5227007?authuser=0&hl=en&rclk=1,31.6862736,76.5227007
The RED GYM,Gym,"Sai Rd, Baddi, Himachal Pradesh 173205, India",https://www.google.co.kr/maps/place/The+RED+GYM/data=!4m5!3m4!1s0x390ff58558431d97:0xbef880676b4f0aca!8m2!3d30.944419!4d76.8034522?authuser=0&hl=en&rclk=1,30.944419,76.8034522
GUJJAR GYM & FITNESS CLUB,Gym,"Ner Chowk, Himachal Pradesh 175008, India",https://www.google.co.kr/maps/place/GUJJAR+GYM+%26+FITNESS+CLUB/data=!4m5!3m4!1s0x39051f1446d703fb:0x2f8cc85dd753154a!8m2!3d31.6066533!4d76.9126794?authuser=0&hl=en&rclk=1,31.6066533,76.9126794
Gym In Hamirpur-Vipul's HiTech GYM(Best Unisex Gym In Hamirpur),Gym,"Pratap Nagar, Hamirpur, Himachal Pradesh 177001, India",https://www.google.co.kr/maps/place/Gym+In+Hamirpur-Vipul's+HiTech+GYM(Best+Unisex+Gym+In+Hamirpur)/data=!4m5!3m4!1s0x3904d44f2795051d:0x7badfb9e2d692d1f!8m2!3d31.6900224!4d76.5190975?authuser=0&hl=en&rclk=1,31.6900224,76.5190975
Fit Connect Gym,Gym,"Naduan, Chowk, Shimla-Kangra Rd, Himachal Pradesh 177001, India",https://www.google.co.kr/maps/place/Fit+Connect+Gym/data=!4m5!3m4!1s0x3904d5e0f6c2db8f:0x197983c7af17f5f6!8m2!3d31.6891177!4d76.5177385?authuser=0&hl=en&rclk=1,31.6891177,76.5177385
Rv Fitness Gym,Fitness center,"P.O and Tehsil, VILLAGE Naldera, Anni, Himachal Pradesh 172026, India",https://www.google.co.kr/maps/place/Rv+Fitness+Gym/data=!4m5!3m4!1s0x3905bd6d889e3259:0x2460cd11ae7f81f2!8m2!3d31.433536!4d77.4171237?authuser=0&hl=en&rclk=1,31.433536,77.4171237
Body Station The Fitness Gym,Gymnastics club,"Amar complex, jayanti vihar, Talpura, Kangra, Himachal Pradesh 176001, India",https://www.google.co.kr/maps/place/Body+Station+The+Fitness+Gym/data=!4m5!3m4!1s0x391b4ff9ff30b8a7:0xab7c1d61a87d222a!8m2!3d32.1074065!4d76.2711697?authuser=0&hl=en&rclk=1,32.1074065,76.2711697
My Fitness Gym,Gym,"Vill.ghumani. p/o kandrour teh.ghumarwin, Ghumani, Himachal Pradesh 174004, India",https://www.google.co.kr/maps/place/My+Fitness+Gym/data=!4m5!3m4!1s0x39053d467af0f963:0xdd3e3bd8aadb2ffd!8m2!3d31.396362!4d76.7506891?authuser=0&hl=en&rclk=1,31.396362,76.7506891
Raghav Raj Fitness Center,Gym,"Raghav Raj Fitness Center Teh balh Distt (H.P, Ner Chowk, Himachal Pradesh 175008, India",https://www.google.co.kr/maps/place/Raghav+Raj+Fitness+Center/data=!4m5!3m4!1s0x39051ea3d0bc186d:0x1bfa4a0bf3f2c2ef!8m2!3d31.6075763!4d76.9119003?authuser=0&hl=en&rclk=1,31.6075763,76.9119003
Mcllo Gym,Gym,"Bhagsunag Rd, McLeod Ganj, Dharamshala, Himachal Pradesh 176219, India",https://www.google.co.kr/maps/place/Mcllo+Gym/data=!4m5!3m4!1s0x391b512d6824111f:0xe55f8a5a46277a0e!8m2!3d32.2387356!4d76.3248007?authuser=0&hl=en&rclk=1,32.2387356,76.3248007
"Fitness Point Gym - Best Gym in Una, Best Fitness Gym in Una, Top Gym in Una, Best Trainer Gym in Una, Unisex Gym in Una, Crossfit Gym in Una, Strength & Cardio Gym in Una",Gym,"Opposite amc hospital, Una-Amb Rd, near R.T.O office, Una, Himachal Pradesh 174303, India","https://www.google.co.kr/maps/place/Fitness+Point+Gym+-+Best+Gym+in+Una,+Best+Fitness+Gym+in+Una,+Top+Gym+in+Una,+Best+Trainer+Gym+in+Una,+Unisex+Gym+in+Una,+Crossfit+Gym+in+Una,+Strength+%26+Cardio+Gym+in+Una/data=!4m5!3m4!1s0x391adbba592e5711:0x98ff512365add831!8m2!3d31.4724077!4d76.2562843?authuser=0&hl=en&rclk=1",31.4724077,76.2562843
Fitness with pankaj,Personal trainer,"Joginder Nagar, Himachal Pradesh 175015, India",https://www.google.co.kr/maps/place/Fitness+with+pankaj/data=!4m5!3m4!1s0x3904c1212d738c47:0xd8cce4b39a96efb6!8m2!3d31.9694049!4d76.7967687?authuser=0&hl=en&rclk=1,31.9694049,76.7967687
The Midtown fitness,Gym,"Mall Road, Bajoral Khurd, Solan, Himachal Pradesh 173212, India",https://www.google.co.kr/maps/place/The+Midtown+fitness/data=!4m5!3m4!1s0x390f81b1d26bfe6f:0x43361f5352b92d31!8m2!3d30.9099283!4d77.1034997?authuser=0&hl=en&rclk=1,30.9099283,77.1034997
Gym,Gym,"130, Sai Rd, Housing Board Colony Phases I, Sai Rd, Housing Board Colony Phases I, Baddi, Himachal Pradesh 173205, India",https://www.google.co.kr/maps/place/Gym/data=!4m5!3m4!1s0x390ff55fc0982551:0x1d5ac4ead708ac81!8m2!3d30.9462311!4d76.8042931?authuser=0&hl=en&rclk=1,30.9462311,76.8042931
Sports central gym una,Gym,"Una - Hamirpur Rd, near Suvidha Hotel, Una, Himachal Pradesh 174303, India",https://www.google.co.kr/maps/place/Sports+central+gym+una/data=!4m5!3m4!1s0x391ad07f5a2aa40b:0xc19415eb8ddd6f0c!8m2!3d31.4709356!4d76.271497?authuser=0&hl=en&rclk=1,31.4709356,76.271497
UNISEX GYM BAIJNATH,Gym,"MDR56, Baijnath, Himachal Pradesh 176125, India",https://www.google.co.kr/maps/place/UNISEX+GYM+BAIJNATH/data=!4m5!3m4!1s0x3904b97a0c7cdb65:0x33956d835238bb1!8m2!3d32.049499!4d76.6472866?authuser=0&hl=en&rclk=1,32.049499,76.6472866
Gesundheit Unisex Gym,Gym,"Thakur Niwas, near Laxmi Narayan Temple, Kasumpti, Shimla, Himachal Pradesh 171009, India",https://www.google.co.kr/maps/place/Gesundheit+Unisex+Gym/data=!4m5!3m4!1s0x39057f529531f10f:0x80a671443e12d608!8m2!3d31.0753276!4d77.1845565?authuser=0&hl=en&rclk=1,31.0753276,77.1845565
Gym,Gym,"Sood Residence, Pagog Rd, Neri, Himachal Pradesh 171003, India",https://www.google.co.kr/maps/place/Gym/data=!4m5!3m4!1s0x390579148a0fa50f:0x42beac205d307ce!8m2!3d31.1204752!4d77.1720595?authuser=0&hl=en&rclk=1,31.1204752,77.1720595
GYM,Gym,"5WC7+P4M, Bharal, Himachal Pradesh 176022, India",https://www.google.co.kr/maps/place/GYM/data=!4m5!3m4!1s0x391b64c7ed0cdf41:0x9c7775e4a2a05105!8m2!3d32.1718494!4d75.9127871?authuser=0&hl=en&rclk=1,32.1718494,75.9127871
Rohit Health Club,Gym,"opp. Central Bank, Bangana, Himachal Pradesh 174307, India",https://www.google.co.kr/maps/place/Rohit+Health+Club/data=!4m5!3m4!1s0x391b29e61dba36b5:0x784cc121e2b6372a!8m2!3d31.619215!4d76.3543545?authuser=0&hl=en&rclk=1,31.619215,76.3543545
shoghi fitness center,Gym,"Verma Complex, राष्ट्रीय राजमार्ग 22, Shoghi, Himachal Pradesh 171219, India",https://www.google.co.kr/maps/place/shoghi+fitness+center/data=!4m5!3m4!1s0x39057f3482a9f883:0x7cf7cdbb41f3c9b6!8m2!3d31.0395842!4d77.1239997?authuser=0&hl=en&rclk=1,31.0395842,77.1239997
"Power Gym - Best Gym, Ladies Gym, Nutrition Gym, Unisex Gym, Fitness Centre in Bilaspur",Gym,"First floor, Congress Bhawan Near sai hostel, near hot spot, Bilaspur, Himachal Pradesh 174001, India","https://www.google.co.kr/maps/place/Power+Gym+-+Best+Gym,+Ladies+Gym,+Nutrition+Gym,+Unisex+Gym,+Fitness+Centre+in+Bilaspur/data=!4m5!3m4!1s0x39053f1c03a18d69:0xd3abc9602f915e89!8m2!3d31.3428077!4d76.7618751?authuser=0&hl=en&rclk=1",31.3428077,76.7618751
Health Gym,Gymnastics club,"FMX7+7FM, Chumarwin, Himachal Pradesh 174023, India",https://www.google.co.kr/maps/place/Health+Gym/data=!4m5!3m4!1s0x3905256b287799b9:0xe5b0305c7b78eed5!8m2!3d31.498215!4d76.6636598?authuser=0&hl=en&rclk=1,31.498215,76.6636598
Intensity- The Power Gym,Gym,"North Oak, Sanjauli, Shimla, Himachal Pradesh 171006, India",https://www.google.co.kr/maps/place/Intensity-+The+Power+Gym/data=!4m5!3m4!1s0x3905789e1550317b:0x1374cd6f16792f5c!8m2!3d31.1045036!4d77.1931675?authuser=0&hl=en&rclk=1,31.1045036,77.1931675
Akhada Gym,Fitness center,"3rd floor, Palampur city mall, near V mart, Palampur, Himachal Pradesh 176061, India",https://www.google.co.kr/maps/place/Akhada+Gym/data=!4m5!3m4!1s0x3904b3bc667e568f:0xa14c9c64f11d5a0d!8m2!3d32.1053072!4d76.5338815?authuser=0&hl=en&rclk=1,32.1053072,76.5338815
Body Line,Gym,"MDR9, Deoghat, Solan, Himachal Pradesh 173211, India",https://www.google.co.kr/maps/place/Body+Line/data=!4m5!3m4!1s0x390f86bb3b4c9105:0x6020582c24c3d5bd!8m2!3d30.8988944!4d77.0873764?authuser=0&hl=en&rclk=1,30.8988944,77.0873764
Aman Health & Fitness Gym,Sports nutrition store,"Sai Rd, opp. Krishna hotel, Baddi, Himachal Pradesh 173205, India",https://www.google.co.kr/maps/place/Aman+Health+%26+Fitness+Gym/data=!4m5!3m4!1s0x390ff5f4a0d62f9b:0x12a6ea88f0f6331c!8m2!3d30.9370797!4d76.8001849?authuser=0&hl=en&rclk=1,30.9370797,76.8001849
GYM Center,Gym,"GP7H+FRP, Kuthera, Himachal Pradesh 174026, India",https://www.google.co.kr/maps/place/GYM+Center/data=!4m5!3m4!1s0x390525c53c9f57bb:0x16907c5195368efb!8m2!3d31.5137027!4d76.7295878?authuser=0&hl=en&rclk=1,31.5137027,76.7295878
First fitness gym,Gym,"PW2P+6H6, Kartarpur, Mandi, Himachal Pradesh 175001, India",https://www.google.co.kr/maps/place/First+fitness+gym/data=!4m5!3m4!1s0x3904e3b65b4d0bbb:0x279899ea86f3cebb!8m2!3d31.7005335!4d76.9363982?authuser=0&hl=en&rclk=1,31.7005335,76.9363982
Galaxy Fitness Club,Gym,"CCPC+754, Anni, Himachal Pradesh 172026, India",https://www.google.co.kr/maps/place/Galaxy+Fitness+Club/data=!4m5!3m4!1s0x3905bd1d90d19055:0x59edf0502c0e2813!8m2!3d31.4356383!4d77.4204587?authuser=0&hl=en&rclk=1,31.4356383,77.4204587
333 Fitness Club,Gym,"Kapoor Complex, near Himani Resorts, Mall Road, Solan, Himachal Pradesh 173212, India",https://www.google.co.kr/maps/place/333+Fitness+Club/data=!4m5!3m4!1s0x390f87c734792a99:0x66d095cb3f4c1b02!8m2!3d30.9086392!4d77.0947394?authuser=0&hl=en&rclk=1,30.9086392,77.0947394
GYM,Gymnastics center,"4G2W+53R, Holta, Banuri, Himachal Pradesh 176062, India",https://www.google.co.kr/maps/place/GYM/data=!4m5!3m4!1s0x3904b3e3a57822c1:0x8701f28478e7475f!8m2!3d32.1004936!4d76.545131?authuser=0&hl=en&rclk=1,32.1004936,76.545131
Body Temple gym,Gym,"XR4C+MGV, Baddi, Himachal Pradesh 173205, India",https://www.google.co.kr/maps/place/Body+Temple+gym/data=!4m5!3m4!1s0x39055ffc6b584e3b:0x1191c543f0f56ca1!8m2!3d30.9567476!4d76.8212885?authuser=0&hl=en&rclk=1,30.9567476,76.8212885
Body Temple Gym Raj,Gym,"Road, VPO, Amb, Himachal Pradesh 177203, India",https://www.google.co.kr/maps/place/Body+Temple+Gym+Raj/data=!4m5!3m4!1s0x391b2189a402c289:0xb06349fc60772d80!8m2!3d31.679173!4d76.11586?authuser=0&hl=en&rclk=1,31.679173,76.11586
NHC gym,Gym,"989M+M5J, Poona, Himachal Pradesh 174301, India",https://www.google.co.kr/maps/place/NHC+gym/data=!4m5!3m4!1s0x391acf109a6c58f5:0x9010580da156847!8m2!3d31.369221!4d76.3329022?authuser=0&hl=en&rclk=1,31.369221,76.3329022
Fitness Point,Fitness center,"Luxmi Building Store, Sharma Niwas Hospital Rd, Kotla Nala, Solan, Himachal Pradesh 173212, India",https://www.google.co.kr/maps/place/Fitness+Point/data=!4m5!3m4!1s0x390f8149560b793d:0x42eb153f4f3f58c1!8m2!3d30.906028!4d77.108324?authuser=0&hl=en&rclk=1,30.906028,77.108324
NHC GYM,Gym,"984F+F2V, Santokhgarh, Himachal Pradesh 174301, India",https://www.google.co.kr/maps/place/NHC+GYM/data=!4m5!3m4!1s0x391acf0094a3ea0d:0x1a8bdf73e61bf8ca!8m2!3d31.3562387!4d76.3225553?authuser=0&hl=en&rclk=1,31.3562387,76.3225553
City Fitness Gym Pro,Gym,"Kandaghat Chail Road, Kandaghat, Himachal Pradesh 173215, India",https://www.google.co.kr/maps/place/City+Fitness+Gym+Pro/data=!4m5!3m4!1s0x390f8184fbc3cbdf:0x878301e1c5e85275!8m2!3d30.9664246!4d77.1115245?authuser=0&hl=en&rclk=1,30.9664246,77.1115245
Sirmour Gym House,Gym,"H76W+2F4, Naya Bazar, Nahan, Himachal Pradesh 173001, India",https://www.google.co.kr/maps/place/Sirmour+Gym+House/data=!4m5!3m4!1s0x390f0c0e4b5c35c5:0xa3baccd2b146b2bc!8m2!3d30.5600229!4d77.2962105?authuser=0&hl=en&rclk=1,30.5600229,77.2962105
gym health club,Gym,"Amned - Keharwin Rd, Himachal Pradesh 177501, India",https://www.google.co.kr/maps/place/gym+health+club/data=!4m5!3m4!1s0x3904d62a35859383:0x7182a535066db60b!8m2!3d31.6470064!4d76.590693?authuser=0&hl=en&rclk=1,31.6470064,76.590693
RP FITNESS CENTRE,Gym,"Villlage sanahan PO AG shimla 171003 Pagog, Himachal Pradesh 171003, India",https://www.google.co.kr/maps/place/RP+FITNESS+CENTRE/data=!4m5!3m4!1s0x3905795e82e1b93b:0xdc1eb20ce0631767!8m2!3d31.1187566!4d77.17229?authuser=0&hl=en&rclk=1,31.1187566,77.17229
fitness gym,Gym,"Chunahan PlayGround, Chunahan, Salwahan, Himachal Pradesh 175027, India",https://www.google.co.kr/maps/place/fitness+gym/data=!4m5!3m4!1s0x39051bbbba555555:0xf8a618f43c1026b8!8m2!3d31.5624257!4d76.9490025?authuser=0&hl=en&rclk=1,31.5624257,76.9490025
Diamond Gym,Gym,"Nangal Rd, Professor Colony, Una, Himachal Pradesh 174303, India",https://www.google.co.kr/maps/place/Diamond+Gym/data=!4m5!3m4!1s0x391ad06e120abccd:0x67dd633d6b929800!8m2!3d31.4609592!4d76.2840793?authuser=0&hl=en&rclk=1,31.4609592,76.2840793
The Fitness Connection,Gym,"Ram Nagar, Mant Khas, Himachal Pradesh 176215, India",https://www.google.co.kr/maps/place/The+Fitness+Connection/data=!4m5!3m4!1s0x391b5171492987d1:0xa51c48c5d9878396!8m2!3d32.2176605!4d76.3209667?authuser=0&hl=en&rclk=1,32.2176605,76.3209667
Ozal fitness academy,Fitness center,"Balduhak Rd, near G S S School, Balduhak, Himachal Pradesh 177048, India",https://www.google.co.kr/maps/place/Ozal+fitness+academy/data=!4m5!3m4!1s0x391b2dd04e26f267:0xcf8b1b20f26843c5!8m2!3d31.7575163!4d76.4476288?authuser=0&hl=en&rclk=1,31.7575163,76.4476288
Jalpa Gym,Gym,"HX8X+9W5, Chail-Chowk, Himachal Pradesh 175028, India",https://www.google.co.kr/maps/place/Jalpa+Gym/data=!4m5!3m4!1s0x39051b306ee0b4d9:0xd2a5c032366809d9!8m2!3d31.565898!4d76.9998519?authuser=0&hl=en&rclk=1,31.565898,76.9998519
Lavi Fitness Center and Gym,Gym,"447, Airport Rd, Vijay Nagar, Airport Rd, Vijay Nagar, Totu, Shimla, Himachal Pradesh 171011, India",https://www.google.co.kr/maps/place/Lavi+Fitness+Center+and+Gym/data=!4m5!3m4!1s0x3905796bc0934773:0x74a9ff90df3e5119!8m2!3d31.0969577!4d77.1211042?authuser=0&hl=en&rclk=1,31.0969577,77.1211042
Fitness point,Gym,"Joginder Nagar - Sarkaghat - Ghumarwin, Jhalwan, Himachal Pradesh 175015, India",https://www.google.co.kr/maps/place/Fitness+point/data=!4m5!3m4!1s0x3904c1b22b09edf5:0xd1d1e21156e07ff0!8m2!3d31.982481!4d76.787701?authuser=0&hl=en&rclk=1,31.982481,76.787701
Purewal Gym,Gym,"Ward no 2 Soud, VPO, Samoor Kalan-I, Himachal Pradesh 174303, India",https://www.google.co.kr/maps/place/Purewal+Gym/data=!4m5!3m4!1s0x391ad1ebe0e05a27:0xe7a04c8d282e695!8m2!3d31.5084599!4d76.2945181?authuser=0&hl=en&rclk=1,31.5084599,76.2945181
Fitness First The Gym,Gym,"Mandi - Pathankot Rd, Rait, Himachal Pradesh 176208, India",https://www.google.co.kr/maps/place/Fitness+First+The+Gym/data=!4m5!3m4!1s0x391b5bb4291f0959:0x22299c05238d9134!8m2!3d32.1848461!4d76.213697?authuser=0&hl=en&rclk=1,32.1848461,76.213697
Next Step Fitness,Gym,"opposite rishi Hp,Near Bus Stand, Himachal Pradesh, India",https://www.google.co.kr/maps/place/Next+Step+Fitness/data=!4m5!3m4!1s0x3904e23fbef827c9:0xee1118f84c5644a0!8m2!3d31.705106!4d76.9396254?authuser=0&hl=en&rclk=1,31.705106,76.9396254
Hadimba Fitness Gym,Gym,"Hadimba Motors Building, Gurudwara Rd, Siyal, Manali, Himachal Pradesh 175131, India",https://www.google.co.kr/maps/place/Hadimba+Fitness+Gym/data=!4m5!3m4!1s0x39048750982d5257:0x422c3ad93b381626!8m2!3d32.2462215!4d77.1875007?authuser=0&hl=en&rclk=1,32.2462215,77.1875007
peak Fitness Gym,Gym,"Samlana - Mutlahr - Jawali Rd, Mutlahr, Himachal Pradesh 176023, India",https://www.google.co.kr/maps/place/peak+Fitness+Gym/data=!4m5!3m4!1s0x391b65e15c5ab513:0x7a48210dfae6ac52!8m2!3d32.1315483!4d75.98818?authuser=0&hl=en&rclk=1,32.1315483,75.98818
FitnessWorld,Gym,"Manali-Chandigarh Rd, Ner Chowk, Himachal Pradesh 175008, India",https://www.google.co.kr/maps/place/FitnessWorld/data=!4m5!3m4!1s0x39051f2c3dc1c35f:0x4b139ccfc8a70b16!8m2!3d31.6074027!4d76.9129889?authuser=0&hl=en&rclk=1,31.6074027,76.9129889
FIT MUSCLES GYM,Gym,"#GROUND FLOOR, SIDDHI VINAYAK APARTMENT, below PETROL PUMP, Vikasnagar, Shimla, Himachal Pradesh 171009, India",https://www.google.co.kr/maps/place/FIT+MUSCLES+GYM/data=!4m5!3m4!1s0x390579bf2231bef9:0x4bd4d8f223622498!8m2!3d31.0841645!4d77.1787113?authuser=0&hl=en&rclk=1,31.0841645,77.1787113
SHIVAM GYM,Gym,"R697+WC5, Pragpur, Himachal Pradesh 177107, India",https://www.google.co.kr/maps/place/SHIVAM+GYM/data=!4m5!3m4!1s0x391b3b058f1ff089:0x82ffc042e6c2a983!8m2!3d31.8197512!4d76.2136022?authuser=0&hl=en&rclk=1,31.8197512,76.2136022
Pulse GYM Fitness Center,Gym,"H.Ho 13, Roura Sector 2, Bilaspur, Himachal Pradesh 174001, India",https://www.google.co.kr/maps/place/Pulse+GYM+Fitness+Center/data=!4m5!3m4!1s0x39053f1f152405ef:0xa40ee96a47f31378!8m2!3d31.3461108!4d76.7587427?authuser=0&hl=en&rclk=1,31.3461108,76.7587427
Ethereal GYM,Gym,"SH 39, near BSNL Exchange, Pratap Nagar, Hamirpur, Himachal Pradesh 177001, India",https://www.google.co.kr/maps/place/Ethereal+GYM/data=!4m5!3m4!1s0x3904d5111b85b777:0xb0cd2f87ecaf2e52!8m2!3d31.6920746!4d76.5186147?authuser=0&hl=en&rclk=1,31.6920746,76.5186147
Unique Fitness Center,Gym,"176048, Jahu Inner Market Rd, Jahu, Himachal Pradesh 176048, India",https://www.google.co.kr/maps/place/Unique+Fitness+Center/data=!4m5!3m4!1s0x390526b54042fdbd:0x14a52a097115e69e!8m2!3d31.5885719!4d76.7232213?authuser=0&hl=en&rclk=1,31.5885719,76.7232213
Fitness center,Fitness center,"Nahan road moginand, Nahan, Himachal Pradesh 173030, India",https://www.google.co.kr/maps/place/Fitness+center/data=!4m5!3m4!1s0x390f9d9c43862f1f:0x3668a44c4d7379a9!8m2!3d30.7235875!4d77.1847701?authuser=0&hl=en&rclk=1,30.7235875,77.1847701
M.A.D Unisex Gym & Fitness Center,Physical fitness program,"Ground Kay kay house Lorita Convent School, Kaithu Rd, Upper Kaithu, Shimla, Himachal Pradesh 171003, India",https://www.google.co.kr/maps/place/M.A.D+Unisex+Gym+%26+Fitness+Center/data=!4m5!3m4!1s0x390578f1c1ba381b:0x6c6b99f163f48a2a!8m2!3d31.109768!4d77.164216?authuser=0&hl=en&rclk=1,31.109768,77.164216
Gym,Gym,"447W+WV5, Patlikuhal, Himachal Pradesh 175129, India",https://www.google.co.kr/maps/place/Gym/data=!4m5!3m4!1s0x39048bad3e50aebb:0x8f371fe04f7fc859!8m2!3d32.1147724!4d77.1472339?authuser=0&hl=en&rclk=1,32.1147724,77.1472339
HOC GYM,Gym,"ward no 9 daira shop no. 25d NH, Himachal Pradesh 174001, India",https://www.google.co.kr/maps/place/HOC+GYM/data=!4m5!3m4!1s0x390527efc4e62a3b:0x431882bb56ef3410!8m2!3d31.5726689!4d76.724477?authuser=0&hl=en&rclk=1,31.5726689,76.724477
puri fitness world,Fitness center,"Hiranagar, Himachal Pradesh 177001, India",https://www.google.co.kr/maps/place/puri+fitness+world/data=!4m5!3m4!1s0x3904d445332cf091:0x55a78ff4ce039761!8m2!3d31.6937645!4d76.5123312?authuser=0&hl=en&rclk=1,31.6937645,76.5123312
X-Treame Fitness Gym & Spa,Gymnasium Cz,"Kapoor complex near mecllos restaurant Sheela, Dharamshala, Himachal Pradesh 176213, India",https://www.google.co.kr/maps/place/X-Treame+Fitness+Gym+%26+Spa/data=!4m5!3m4!1s0x391b518169169b53:0xeec8125c208f8841!8m2!3d32.1981127!4d76.3434349?authuser=0&hl=en&rclk=1,32.1981127,76.3434349
Minhas Fitness Centre,Gym,"Dehra Rd, Dehra Gopipur, Himachal Pradesh 177101, India",https://www.google.co.kr/maps/place/Minhas+Fitness+Centre/data=!4m5!3m4!1s0x391b397a8489ed0d:0xaf38f74d70024da9!8m2!3d31.8828759!4d76.2154965?authuser=0&hl=en&rclk=1,31.8828759,76.2154965
Warrior gym 2.0,Gym,"IGMC Rd, Lakkar Bazar, Shimla, Himachal Pradesh 171001, India",https://www.google.co.kr/maps/place/Warrior+gym+2.0/data=!4m5!3m4!1s0x390579155fd8e3fb:0x8b395eb38c6f5db9!8m2!3d31.1062564!4d77.1813707?authuser=0&hl=en&rclk=1,31.1062564,77.1813707
The Fitness Connection Gym and Spa,Gym,"Rajgarh Rd, Bajoral Khurd, Solan, Himachal Pradesh 173212, India",https://www.google.co.kr/maps/place/The+Fitness+Connection+Gym+and+Spa/data=!4m5!3m4!1s0x390f81f03b0f9b93:0xa95e60c12fb4cb95!8m2!3d30.9072932!4d77.1030238?authuser=0&hl=en&rclk=1,30.9072932,77.1030238
The arnold gym,Muay Thai boxing gym,"J53P+8X6, Una, Himachal Pradesh 174314, India",https://www.google.co.kr/maps/place/The+arnold+gym/data=!4m5!3m4!1s0x391b270e9145e259:0xf5b53f25d173951d!8m2!3d31.6032882!4d76.1873971?authuser=0&hl=en&rclk=1,31.6032882,76.1873971
The Health Club,Gym,"WHWP+P65, Majhotli, Himachal Pradesh 171211, India",https://www.google.co.kr/maps/place/The+Health+Club/data=!4m5!3m4!1s0x390f5f4167580e59:0xd0da22e2ff2d60c6!8m2!3d30.9467647!4d77.5856091?authuser=0&hl=en&rclk=1,30.9467647,77.5856091
True Fitness Gym Bhawarna,Gym,"2FXX+2R4, Dhakrehr, Himachal Pradesh 176083, India",https://www.google.co.kr/maps/place/True+Fitness+Gym+Bhawarna/data=!4m5!3m4!1s0x3904b4f9d291218f:0xed4cd0582d25ec59!8m2!3d32.0475052!4d76.4995649?authuser=0&hl=en&rclk=1,32.0475052,76.4995649
Muscles Hub,Gym,"Number 11, Rajgarh Rd, Kotla Nala, Solan, Himachal Pradesh 173212, India",https://www.google.co.kr/maps/place/Muscles+Hub/data=!4m5!3m4!1s0x390f814c113f1da7:0x9078e8972981d6c!8m2!3d30.9045231!4d77.1074232?authuser=0&hl=en&rclk=1,30.9045231,77.1074232
S.S.Fitness GYM,Gym,"Shubham Complex, Meheli, Shimla, Himachal Pradesh 171013, India",https://www.google.co.kr/maps/place/S.S.Fitness+GYM/data=!4m5!3m4!1s0x39057fd2b4b73ee7:0xa6c250b4c0054302!8m2!3d31.0670814!4d77.1936579?authuser=0&hl=en&rclk=1,31.0670814,77.1936579
Pulse Fitness Gym,Gym,"chakka road, near big bazar, Baddi, Himachal Pradesh 173205, India",https://www.google.co.kr/maps/place/Pulse+Fitness+Gym/data=!4m5!3m4!1s0x390ff5b2f90357ad:0xc27de6d07ce8c04!8m2!3d30.9931392!4d76.8041244?authuser=0&hl=en&rclk=1,30.9931392,76.8041244
Paul's BodyFuel Fitness Gym,Gym,"474F+CRP, New Kangra, Kangra, Himachal Pradesh 176001, India",https://www.google.co.kr/maps/place/Paul's+BodyFuel+Fitness+Gym/data=!4m5!3m4!1s0x391b4f81231151b5:0xd21894769c3e2dcd!8m2!3d32.1060808!4d76.2745883?authuser=0&hl=en&rclk=1,32.1060808,76.2745883
Generation Iron,Gym,"Sanjauli Engine Ghar Rd, Engine Ghar, Sanjauli, Shimla, Himachal Pradesh 171006, India",https://www.google.co.kr/maps/place/Generation+Iron/data=!4m5!3m4!1s0x3905789f0753b36b:0xf7d4f771572845fa!8m2!3d31.1025298!4d77.1916164?authuser=0&hl=en&rclk=1,31.1025298,77.1916164
"Bheem Dwar Fitness Hub, Sanjauli",Gym,"Dogra trade center, top floor, Dhingu Mandir Road, Sanjauli, Shimla, Himachal Pradesh 171006, India","https://www.google.co.kr/maps/place/Bheem+Dwar+Fitness+Hub,+Sanjauli/data=!4m5!3m4!1s0x3905789e418b17d3:0x840bc672e22eff63!8m2!3d31.1027811!4d77.1983428?authuser=0&hl=en&rclk=1",31.1027811,77.1983428
M. S. Fitness Club Rangas,Gym,"PCHQ+QWH, Rangas, Himachal Pradesh 177048, India",https://www.google.co.kr/maps/place/M.+S.+Fitness+Club+Rangas/data=!4m5!3m4!1s0x391b2dab6eb1812d:0x5fd07cc0fac777aa!8m2!3d31.7294493!4d76.4398667?authuser=0&hl=en&rclk=1,31.7294493,76.4398667
Power Booster Gym,Gym,"JMXV+VPX, Hamirpur, Himachal Pradesh 177024, India",https://www.google.co.kr/maps/place/Power+Booster+Gym/data=!4m5!3m4!1s0x3905277bf5de7efb:0x4c0084bca06a3c57!8m2!3d31.6497263!4d76.6943526?authuser=0&hl=en&rclk=1,31.6497263,76.6943526
Total fitness gym,Gym,"near honda agency, Upper Nihal, Bilaspur, Himachal Pradesh 174001, India",https://www.google.co.kr/maps/place/Total+fitness+gym/data=!4m5!3m4!1s0x39053fa7c93c8e85:0x895dcf0f18dfd9dc!8m2!3d31.3434006!4d76.7627104?authuser=0&hl=en&rclk=1,31.3434006,76.7627104
RD Fitness Club,Gym,"3, 175001, 178/2/3, Hospital Rd, Palace Colony, Mandi, Himachal Pradesh 175001, India",https://www.google.co.kr/maps/place/RD+Fitness+Club/data=!4m5!3m4!1s0x3904e224ac9ee399:0x4002f2d9d9cb8fa0!8m2!3d31.7084222!4d76.929633?authuser=0&hl=en&rclk=1,31.7084222,76.929633
The Dumbbell Gym,Gym,"Auhar Rd, Bhager, Himachal Pradesh 174024, India",https://www.google.co.kr/maps/place/The+Dumbbell+Gym/data=!4m5!3m4!1s0x39053b0c046ffe49:0x4b6249ba5e620c12!8m2!3d31.3964099!4d76.7305628?authuser=0&hl=en&rclk=1,31.3964099,76.7305628
FRIENDS FITNESS ZONE BANURI,Gym,"3HVC+R4F, Banuri Khas, Himachal Pradesh 176062, India",https://www.google.co.kr/maps/place/FRIENDS+FITNESS+ZONE+BANURI/data=!4m5!3m4!1s0x3904b173460c11c9:0x9b4bbbf0aff88f7f!8m2!3d32.094554!4d76.5702988?authuser=0&hl=en&rclk=1,32.094554,76.5702988
Fitness First Gym,Gym,"Ground Floor, Commercial Shopping Complex, Sanjauli, Shimla, Himachal Pradesh 171006, India",https://www.google.co.kr/maps/place/Fitness+First+Gym/data=!4m5!3m4!1s0x39057982a2a15e8b:0x97180ef98b6333dc!8m2!3d31.1030525!4d77.1993783?authuser=0&hl=en&rclk=1,31.1030525,77.1993783
JUIT Gym,Gym,"Solan, Himachal Pradesh 173221, India",https://www.google.co.kr/maps/place/JUIT+Gym/data=!4m5!3m4!1s0x39057d6357ef91ed:0x840df19e25681c0f!8m2!3d31.0161338!4d77.0701355?authuser=0&hl=en&rclk=1,31.0161338,77.0701355
Friends Gym & Cardio,Gym,"2PG7+CG9, Nalagarh, Himachal Pradesh 174102, India",https://www.google.co.kr/maps/place/Friends+Gym+%26+Cardio/data=!4m5!3m4!1s0x390559abf2ae0e87:0x556bd1b1c06b8371!8m2!3d31.0260296!4d76.7138657?authuser=0&hl=en&rclk=1,31.0260296,76.7138657
Gym 29,Gym,"Unnamed Road, Aweri, Himachal Pradesh 176081, India",https://www.google.co.kr/maps/place/Gym+29/data=!4m5!3m4!1s0x3904b7123c5b33af:0x580e772449fe3e85!8m2!3d32.0655746!4d76.6055601?authuser=0&hl=en&rclk=1,32.0655746,76.6055601
Royal gym,Gym,"near rotary chowk (baddi, Baddi, Himachal Pradesh 173205, India",https://www.google.co.kr/maps/place/Royal+gym/data=!4m5!3m4!1s0x390ff5415ab2bd59:0x2723f29b6ef9c6b7!8m2!3d30.9337046!4d76.7998758?authuser=0&hl=en&rclk=1,30.9337046,76.7998758
"FLUID Gym N Spa, Kullu (H.P.)",Gym,"Shangri Complex, Dhalpur Ground, Kullu, Himachal Pradesh 175131, India","https://www.google.co.kr/maps/place/FLUID+Gym+N+Spa,+Kullu+(H.P.)/data=!4m5!3m4!1s0x390486c6c7ea5bb9:0x9c2c650a2887f8de!8m2!3d31.9580067!4d77.1081444?authuser=0&hl=en&rclk=1",31.9580067,77.1081444
Ronny Fitness Gym & Spa,Fitness center,"1st floor Indian bank, Sai Rd, Baddi, Himachal Pradesh 173205, India",https://www.google.co.kr/maps/place/Ronny+Fitness+Gym+%26+Spa/data=!4m5!3m4!1s0x390ff54cabc17415:0x692870b26c13b10b!8m2!3d30.9367697!4d76.8002272?authuser=0&hl=en&rclk=1,30.9367697,76.8002272
SINGH FITNESS,Fitness center,"NH 21 Highway, Kullu - Naggar - Manali Rd, Patlikuhal, Himachal Pradesh 175129, India",https://www.google.co.kr/maps/place/SINGH+FITNESS/data=!4m5!3m4!1s0x39048b2df7b68301:0x289161f0bd33b2cc!8m2!3d32.1152824!4d77.1490107?authuser=0&hl=en&rclk=1,32.1152824,77.1490107
Fitness,Personal trainer,"Vill chowki po.sera teh.nadaun distt, Nadaun, Himachal Pradesh 177038, India",https://www.google.co.kr/maps/place/Fitness/data=!4m5!3m4!1s0x391b2fcea65e039b:0xd4ca0654d2121ee1!8m2!3d31.7784535!4d76.3445716?authuser=0&hl=en&rclk=1,31.7784535,76.3445716
The hybrid gym,Athletic club,"Home land city mall, Sai chakka road, Baddi, Himachal Pradesh 173205, India",https://www.google.co.kr/maps/place/The+hybrid+gym/data=!4m5!3m4!1s0x390ff5662fa9eeeb:0xe8f651be2f543137!8m2!3d30.936488!4d76.799697?authuser=0&hl=en&rclk=1,30.936488,76.799697
RS Gym Ladraur,Gymnasium Cz,"RS Gym P.O. Ladraur Distt. Hamirpur, Teh. Bhoranj First Floor - Above Punjab National Bank, near Hindustan Petrol Pump, Ladraur, Himachal Pradesh 176043, India",https://www.google.co.kr/maps/place/RS+Gym+Ladraur/data=!4m5!3m4!1s0x390529e4110b3891:0xbc8f21ab71694a8!8m2!3d31.5837032!4d76.6379532?authuser=0&hl=en&rclk=1,31.5837032,76.6379532
Anuraj,Gym,"kharoni, New Nalagarh, Himachal Pradesh 174101, India",https://www.google.co.kr/maps/place/Anuraj/data=!4m5!3m4!1s0x39055bc3436411ef:0x56a02b5829b89b65!8m2!3d31.0400809!4d76.7055371?authuser=0&hl=en&rclk=1,31.0400809,76.7055371
BANSAL GYM PANJEHRA,Gym,"4MP9+JC2, Panjehra, Himachal Pradesh 174101, India",https://www.google.co.kr/maps/place/BANSAL+GYM+PANJEHRA/data=!4m5!3m4!1s0x3905455ebe4889dd:0x6035ee6c088c6455!8m2!3d31.1365224!4d76.6685118?authuser=0&hl=en&rclk=1,31.1365224,76.6685118
GYM BFIT Fitness club,Fitness center,"B-Fit fitness club near DC office, above IDBI Bank, Hamirpur, Himachal Pradesh 177001, India",https://www.google.co.kr/maps/place/GYM+BFIT+Fitness+club/data=!4m5!3m4!1s0x3904d5e6f067a9b1:0x406737d78ee191d6!8m2!3d31.690068!4d76.5190873?authuser=0&hl=en&rclk=1,31.690068,76.5190873
Valhalla Fitness Studio,Gym,"Sood Building, 1st floor, Kotla Nala, Solan, Himachal Pradesh 173212, India",https://www.google.co.kr/maps/place/Valhalla+Fitness+Studio/data=!4m5!3m4!1s0x390f81e313cc725b:0xafbba81232d5f82!8m2!3d30.9054914!4d77.1075492?authuser=0&hl=en&rclk=1,30.9054914,77.1075492
Gesundheit Gym,Gym,"Khem Thakur Niwas, 9, Mashobra - Moolkoti Rd, Kasumpti, Mashobra, Himachal Pradesh 171007, India",https://www.google.co.kr/maps/place/Gesundheit+Gym/data=!4m5!3m4!1s0x390582f819650f1b:0x6a153d9478e9d58!8m2!3d31.1275105!4d77.229504?authuser=0&hl=en&rclk=1,31.1275105,77.229504
Muscle Hub,Fitness center,"W424+X66, Kotla Nala, Solan, Himachal Pradesh 173212, India",https://www.google.co.kr/maps/place/Muscle+Hub/data=!4m5!3m4!1s0x390f814daafadc95:0xfb888f814c9f58cc!8m2!3d30.9024137!4d77.1055123?authuser=0&hl=en&rclk=1,30.9024137,77.1055123
"Sami's Fitness Factory - The Gym, Cafe n Health SPA",Gym,"Model Town Rd, Model Town, Siyal, Manali, Himachal Pradesh 175131, India","https://www.google.co.kr/maps/place/Sami's+Fitness+Factory+-+The+Gym,+Cafe+n+Health+SPA/data=!4m5!3m4!1s0x390488077b0f5aa1:0xd0a8028077508642!8m2!3d32.2427067!4d77.1864639?authuser=0&hl=en&rclk=1",32.2427067,77.1864639
Avaso fitness and Boxing,Gym,"Himachal Pradesh 175036, India",https://www.google.co.kr/maps/place/Avaso+fitness+and+Boxing/data=!4m5!3m4!1s0x390519ee30ed6c5f:0xd140a82cccdb3ce9!8m2!3d31.5550571!4d76.8690783?authuser=0&hl=en&rclk=1,31.5550571,76.8690783
Body temple Gym & mobile repair shop,Gym,"Basal Bus Stop, SH 25, Himachal Pradesh 174303, India",https://www.google.co.kr/maps/place/Body+temple+Gym+%26+mobile+repair+shop/data=!4m5!3m4!1s0x391adb71c6b2031b:0x1dd0d195b6f44f50!8m2!3d31.5137153!4d76.2212107?authuser=0&hl=en&rclk=1,31.5137153,76.2212107
MLC GYM AND SPA SHIMLA,Gym,"35H9+6F6, New Shimla, Shimla, Himachal Pradesh 171009, India",https://www.google.co.kr/maps/place/MLC+GYM+AND+SPA+SHIMLA/data=!4m5!3m4!1s0x39057958605a2f5d:0xc289c95d1ba8491!8m2!3d31.0780498!4d77.1686472?authuser=0&hl=en&rclk=1,31.0780498,77.1686472
The GYM,Gym,"XFC9+9P2, Marhun Buhli, Himachal Pradesh 176093, India",https://www.google.co.kr/maps/place/The+GYM/data=!4m5!3m4!1s0x3904cbca6b22c953:0xe67ea9ee2cf4a2d6!8m2!3d31.9708841!4d76.4692573?authuser=0&hl=en&rclk=1,31.9708841,76.4692573
Power gym - Barmana,Gym,"Vill. Khater, Barmana, Himachal Pradesh 174001, India",https://www.google.co.kr/maps/place/Power+gym+-+Barmana/data=!4m5!3m4!1s0x390517c777fff949:0xe96cd4c167c30e81!8m2!3d31.4114577!4d76.8279917?authuser=0&hl=en&rclk=1,31.4114577,76.8279917
Mv2 the body fitness club,Gym,"49G2+MMV, Theog, Himachal Pradesh 171209, India",https://www.google.co.kr/maps/place/Mv2+the+body+fitness+club/data=!4m5!3m4!1s0x3905850477cbb85d:0x3241bcae35db8e07!8m2!3d31.1267488!4d77.3516749?authuser=0&hl=en&rclk=1,31.1267488,77.3516749
Gym,Gym,"Chhahar, Solan, NH-22, Ambala, Shimla Kaurik Road, Dharampur, Himachal Pradesh 173209, India",https://www.google.co.kr/maps/place/Gym/data=!4m5!3m4!1s0x390f878eb040debb:0x839e2d13c70ed204!8m2!3d30.8971653!4d77.0152362?authuser=0&hl=en&rclk=1,30.8971653,77.0152362
Body Care Gym,Gymnastics club,"opp. Sangam hotel vardhman, Baddi, Himachal Pradesh 173205, India",https://www.google.co.kr/maps/place/Body+Care+Gym/data=!4m5!3m4!1s0x39055fedf3d28c6f:0x322aba5e0d3d5e7c!8m2!3d30.957826!4d76.791356?authuser=0&hl=en&rclk=1,30.957826,76.791356
The Gym,Gym,"Rabon Rd, Deoghat, Solan, Himachal Pradesh 173211, India",https://www.google.co.kr/maps/place/The+Gym/data=!4m5!3m4!1s0x390f87d63f4882e7:0xd6eb3571536d8b7f!8m2!3d30.9015472!4d77.0914621?authuser=0&hl=en&rclk=1,30.9015472,77.0914621
The Xtreme Fitness Gym,Gym,"Near Railway Crossing, Jawali Khas, Jawali, Himachal Pradesh 176023, India",https://www.google.co.kr/maps/place/The+Xtreme+Fitness+Gym/data=!4m5!3m4!1s0x391b67d35ba65f25:0xf842b893fc667584!8m2!3d32.1441393!4d76.0117372?authuser=0&hl=en&rclk=1,32.1441393,76.0117372
RR Fitness Center,Gym,"RR fitness centre, Apple Garden, near SSB training centre, Kasumpti, Shimla, Himachal Pradesh 171009, India",https://www.google.co.kr/maps/place/RR+Fitness+Center/data=!4m5!3m4!1s0x39057f98090c4183:0xf09647caeaa62025!8m2!3d31.0715773!4d77.191024?authuser=0&hl=en&rclk=1,31.0715773,77.191024
Multi Gym Zone,Gym,"Near Lift, Mall Rd, Shimla, Himachal Pradesh 171001, India",https://www.google.co.kr/maps/place/Multi+Gym+Zone/data=!4m5!3m4!1s0x3905789426311c53:0x80705a01c3563563!8m2!3d31.102195!4d77.177061?authuser=0&hl=en&rclk=1,31.102195,77.177061
Fitness On Fire Gym,Gym,"Baddi, Himachal Pradesh 173205, India",https://www.google.co.kr/maps/place/Fitness+On+Fire+Gym/data=!4m5!3m4!1s0x39055fae4a56e82d:0xdf1c99a662101e0e!8m2!3d30.9702876!4d76.8028933?authuser=0&hl=en&rclk=1,30.9702876,76.8028933
Raghav Gymnasium,Gym,"Opp Allahabad Bank Birta Dharamshala Road, kangra (H.P.), Kangra, Himachal Pradesh 176001, India",https://www.google.co.kr/maps/place/Raghav+Gymnasium/data=!4m5!3m4!1s0x391b4f8433e32c25:0x81900e30bac15a8a!8m2!3d32.1100439!4d76.2779074?authuser=0&hl=en&rclk=1,32.1100439,76.2779074
Gym,Gym,"Kahra Rd, Kamand Campus, Suran, Himachal Pradesh 175005, India",https://www.google.co.kr/maps/place/Gym/data=!4m5!3m4!1s0x3904e3614741fb93:0xfbce4d964eff3ce7!8m2!3d31.7705434!4d76.9829584?authuser=0&hl=en&rclk=1,31.7705434,76.9829584
Abhay Fitness Club,Gym,"Badhani, Himachal Pradesh 177601, India",https://www.google.co.kr/maps/place/Abhay+Fitness+Club/data=!4m5!3m4!1s0x3904d9b0812164b3:0x22a45db0f76ddb8c!8m2!3d31.6678783!4d76.6641352?authuser=0&hl=en&rclk=1,31.6678783,76.6641352
Aarohi Fitness Hub,Gym,"35V4+FH6, Tutikandi, Shimla, Himachal Pradesh 171001, India",https://www.google.co.kr/maps/place/Aarohi+Fitness+Hub/data=!4m5!3m4!1s0x3905798ed1005c93:0x3faa19b3717ec973!8m2!3d31.0936709!4d77.1563813?authuser=0&hl=en&rclk=1,31.0936709,77.1563813
Nirog Kaya Fitness Centre and Gym,Gym,"J3XF+7MX, Una, Himachal Pradesh 177201, India",https://www.google.co.kr/maps/place/Nirog+Kaya+Fitness+Centre+and+Gym/data=!4m5!3m4!1s0x391b1f658bbb43cf:0x2be0e3585d13926b!8m2!3d31.6482426!4d76.0742451?authuser=0&hl=en&rclk=1,31.6482426,76.0742451
Mahi fitness Gym,Gym,"WRP2+848, Baddi, Himachal Pradesh 173205, India",https://www.google.co.kr/maps/place/Mahi+fitness+Gym/data=!4m5!3m4!1s0x390ff588846c73c9:0xe67bdc861b69b391!8m2!3d30.9357771!4d76.8003165?authuser=0&hl=en&rclk=1,30.9357771,76.8003165
THE FITNESS LAB,Gym,"Naya Bazar Rd, BBMB Colony, Sundar Nagar, Himachal Pradesh 175019, India",https://www.google.co.kr/maps/place/THE+FITNESS+LAB/data=!4m5!3m4!1s0x3905199018aeb08f:0xd1664bf2fda5e51c!8m2!3d31.5324206!4d76.9033906?authuser=0&hl=en&rclk=1,31.5324206,76.9033906
Morsu Gym,Gym,"Bus Stop, Shimla-Kangra Rd, Jamna, Himachal Pradesh 176041, India",https://www.google.co.kr/maps/place/Morsu+Gym/data=!4m5!3m4!1s0x39052968b2f28c9f:0xe358fe731cb03b0f!8m2!3d31.6167223!4d76.5641049?authuser=0&hl=en&rclk=1,31.6167223,76.5641049
Gym Kotkhai,Gym,"Bus Stand Kki, Shimla, Himachal Pradesh 171202, India",https://www.google.co.kr/maps/place/Gym+Kotkhai/data=!4m5!3m4!1s0x39058daf066b5d0f:0x4e81e2e2fad5a8ea!8m2!3d31.11573!4d77.5412488?authuser=0&hl=en&rclk=1,31.11573,77.5412488
THE FITNESS WORLD (Gym),Gym,"Upper Malyana, Malyana, Shimla, Himachal Pradesh 171006, India",https://www.google.co.kr/maps/place/THE+FITNESS+WORLD+(Gym)/data=!4m5!3m4!1s0x390579ecaba783c9:0x59237de94ec918a1!8m2!3d31.0865495!4d77.1890065?authuser=0&hl=en&rclk=1,31.0865495,77.1890065
Deepu Gym,Gym,"Kawgri, Solan, Himachal Pradesh 173212, India",https://www.google.co.kr/maps/place/Deepu+Gym/data=!4m5!3m4!1s0x390f814601efcae9:0x3eda9bcabf05e6e!8m2!3d30.8916501!4d77.1051407?authuser=0&hl=en&rclk=1,30.8916501,77.1051407
Shardas fitness hub,Gym,"V55F+X5P, Nauni, Solan, Himachal Pradesh 173223, India",https://www.google.co.kr/maps/place/Shardas+fitness+hub/data=!4m5!3m4!1s0x390f83c02914bf53:0x61406a6cc799f7e7!8m2!3d30.859959!4d77.1729605?authuser=0&hl=en&rclk=1,30.859959,77.1729605
Rohit Fitness Club,Gym,"The Mall, Shimla, Himachal Pradesh 171001, India",https://www.google.co.kr/maps/place/Rohit+Fitness+Club/data=!4m5!3m4!1s0x3905791d42c91fb5:0x8d119a655972b0be!8m2!3d31.1048294!4d77.1733901?authuser=0&hl=en&rclk=1,31.1048294,77.1733901
Rimsha Fitness World,Fitness center,"Akhara Bazaar, opp. J&K Bank, Kullu, Himachal Pradesh 175101, India",https://www.google.co.kr/maps/place/Rimsha+Fitness+World/data=!4m5!3m4!1s0x3904f6a649a67d95:0x10ed3827bb05a82f!8m2!3d31.964769!4d77.1157011?authuser=0&hl=en&rclk=1,31.964769,77.1157011
Muscle gym,Gymnasium Cz,"boys school, Near, Auckland Bridge, Housing Board Colony, Lakkar Bazar, Shimla, Himachal Pradesh 171001, India",https://www.google.co.kr/maps/place/Muscle+gym/data=!4m5!3m4!1s0x390582750a78d64b:0xaa4ba7ebda73d480!8m2!3d31.1033436!4d77.1961664?authuser=0&hl=en&rclk=1,31.1033436,77.1961664
Daily Gym,Gym,"Shimla Bypass, Panthaghati, Shimla, Himachal Pradesh 171009, India",https://www.google.co.kr/maps/place/Daily+Gym/data=!4m5!3m4!1s0x39057f4e70348779:0xadeaf0446b31ed8b!8m2!3d31.070154!4d77.1810726?authuser=0&hl=en&rclk=1,31.070154,77.1810726
Mandi Vallabh Gym,Gym,"National Highway 21, Paddal, Kartarpur, Mandi, Himachal Pradesh 175001, India",https://www.google.co.kr/maps/place/Mandi+Vallabh+Gym/data=!4m5!3m4!1s0x3904e23e98860b73:0x3600931a5bef7bbe!8m2!3d31.7072904!4d76.9360086?authuser=0&hl=en&rclk=1,31.7072904,76.9360086
Pumping Weapons Fitness Gym,Gym,"Verma Niwas New Dhalli Near Tunnel, Shimla 12, Shimla, Himachal Pradesh 171012, India",https://www.google.co.kr/maps/place/Pumping+Weapons+Fitness+Gym/data=!4m5!3m4!1s0x390583a49e991a2f:0x1e183975ce677143!8m2!3d31.1041712!4d77.2037188?authuser=0&hl=en&rclk=1,31.1041712,77.2037188
Gym 13 Jeori,Gym,"GQGF+8GH, Jeori, Himachal Pradesh 172101, India",https://www.google.co.kr/maps/place/Gym+13+Jeori/data=!4m5!3m4!1s0x3905db112b4597fb:0x55f26922e465f501!8m2!3d31.5258076!4d77.7738664?authuser=0&hl=en&rclk=1,31.5258076,77.7738664
THE CLASSROOM GYM,Gym,"RXQ5+CG2, Sector 1, Parwanoo, Himachal Pradesh 173220, India",https://www.google.co.kr/maps/place/THE+CLASSROOM+GYM/data=!4m5!3m4!1s0x390f8f7bcfe5345b:0x5630f34d20dceaea!8m2!3d30.8385135!4d76.9587579?authuser=0&hl=en&rclk=1,30.8385135,76.9587579
Mahajan's sports club,Gym,"Kurnu, Himachal Pradesh 172022, India",https://www.google.co.kr/maps/place/Mahajan's+sports+club/data=!4m5!3m4!1s0x3905e9634cf0e967:0x24fd984635b63918!8m2!3d31.342699!4d77.6956786?authuser=0&hl=en&rclk=1,31.342699,77.6956786
World Power Gym,Gym,"LIC Building Ground Floor, near ACC Park, Rohru, Himachal Pradesh 171207, India",https://www.google.co.kr/maps/place/World+Power+Gym/data=!4m5!3m4!1s0x3905fa9feece6eef:0x8c59b6745b1db9a2!8m2!3d31.1988115!4d77.7449824?authuser=0&hl=en&rclk=1,31.1988115,77.7449824
"Fitness Hub By Treeoise Resort, Baddi",Gym,"Baddi Trade Centre Vardhman Road, Height Hilltop, opp. unichem chowk, Baddi, Himachal Pradesh 173205, India","https://www.google.co.kr/maps/place/Fitness+Hub+By+Treeoise+Resort,+Baddi/data=!4m5!3m4!1s0x3905618bde21fbfb:0x62fcabd260f5a51d!8m2!3d30.9582094!4d76.8294107?authuser=0&hl=en&rclk=1",30.9582094,76.8294107
Shapers & Builders Gym,Gym,"Dargah, Kalka - Shimla Rd, Ghora Chowki, Shimla, Himachal Pradesh 171005, India",https://www.google.co.kr/maps/place/Shapers+%26+Builders+Gym/data=!4m5!3m4!1s0x3905791876aaaaab:0x52722220231d0ab4!8m2!3d31.0922202!4d77.1397845?authuser=0&hl=en&rclk=1,31.0922202,77.1397845
Rana TheViper Fitness,Gym,"Chaklot Road, Poshana, Himachal Pradesh 172001, India",https://www.google.co.kr/maps/place/Rana+TheViper+Fitness/data=!4m5!3m4!1s0x3905c12a96902399:0x54262f7c03d436f!8m2!3d31.4485859!4d77.6116752?authuser=0&hl=en&rclk=1,31.4485859,77.6116752
Ysh gym and fitness club,Gym,"jakhar chirgaon highway Road, Rohru, Himachal Pradesh 171207, India",https://www.google.co.kr/maps/place/Ysh+gym+and+fitness+club/data=!4m5!3m4!1s0x3905fb9f67b55369:0x9cdeca5abbd4cd0e!8m2!3d31.2034551!4d77.7658157?authuser=0&hl=en&rclk=1,31.2034551,77.7658157
Mehta Fitness Centre,Gym,"Doordarshan TV Tower, Forest Road, Kotla Nala, Solan, Himachal Pradesh 173212, India",https://www.google.co.kr/maps/place/Mehta+Fitness+Centre/data=!4m5!3m4!1s0x390f81d2aa647257:0x4c82238c602fbe65!8m2!3d30.9052037!4d77.1128694?authuser=0&hl=en&rclk=1,30.9052037,77.1128694
The Fitness Gym,Gym,"Mohalla, Upper Jalukari, Chamba, Himachal Pradesh 176318, India",https://www.google.co.kr/maps/place/The+Fitness+Gym/data=!4m5!3m4!1s0x391cbd32f1ecfcd5:0xe8c1e630e727fe2c!8m2!3d32.549368!4d76.1323642?authuser=0&hl=en&rclk=1,32.549368,76.1323642
kanwar gym,Gym,"35Q9+637, Khalini, Shimla, Himachal Pradesh 171002, India",https://www.google.co.kr/maps/place/kanwar+gym/data=!4m5!3m4!1s0x390578c646942847:0xccf0d75ea2a3df82!8m2!3d31.0880443!4d77.1676807?authuser=0&hl=en&rclk=1,31.0880443,77.1676807
The Pump Factory Gym,Gym,"4FCQ+R9P, Pragati Nagar, Gumma, Himachal Pradesh 171202, India",https://www.google.co.kr/maps/place/The+Pump+Factory+Gym/data=!4m5!3m4!1s0x39058d918f7d2f5f:0xf249aedce823ef29!8m2!3d31.122078!4d77.4884542?authuser=0&hl=en&rclk=1,31.122078,77.4884542
24 Health Fitness Center,Gym,"Sundar Bagh Colony, Nahan, Himachal Pradesh 173001, India",https://www.google.co.kr/maps/place/24+Health+Fitness+Center/data=!4m5!3m4!1s0x390f0c0eadd10875:0x4edc4ee7cc70a0eb!8m2!3d30.561855!4d77.292559?authuser=0&hl=en&rclk=1,30.561855,77.292559
Fitness club diggal,Gym,"3VP7+JR3, Diggal, Himachal Pradesh 173218, India",https://www.google.co.kr/maps/place/Fitness+club+diggal/data=!4m5!3m4!1s0x390567dbbe6f460d:0xb07972ed28b30307!8m2!3d31.0865182!4d76.8645439?authuser=0&hl=en&rclk=1,31.0865182,76.8645439
Devils & Angels-The gym,Fitness center,"Butter Mere estate, Summer Hill, Shimla, Himachal Pradesh 171005, India",https://www.google.co.kr/maps/place/Devils+%26+Angels-The+gym/data=!4m5!3m4!1s0x3905797fd4583c79:0x8f4853ef505737a3!8m2!3d31.1105932!4d77.1382061?authuser=0&hl=en&rclk=1,31.1105932,77.1382061
Pulse GYM,Gym,"4 NH 88 main chowk, Totu, Shimla, Himachal Pradesh 171011, India",https://www.google.co.kr/maps/place/Pulse+GYM/data=!4m5!3m4!1s0x3905796dced5d75f:0xf549d033e245e566!8m2!3d31.101909!4d77.1208095?authuser=0&hl=en&rclk=1,31.101909,77.1208095
Sagar fitness centre (gym) and shooting range,Gym,"NH5, Himachal Pradesh 172001, India",https://www.google.co.kr/maps/place/Sagar+fitness+centre+(gym)+and+shooting+range/data=!4m5!3m4!1s0x3905c3715cf543af:0x93d736ffeea489cf!8m2!3d31.458497!4d77.6662638?authuser=0&hl=en&rclk=1,31.458497,77.6662638
"UTKRISHT YOGA (yoga in shimla, yog in shimla, Power Yoga in Shimla, Family yoga in shimla, yoga studio in Shimla, Yoga in himachal, Yoga, Yoga Class, Fitness, Yoga level, yoga for kids, Home yoga class in Shimla)",Yoga studio,"Eurokids School, new Aggarwal bhawan, opp. Gurudwara, Sanjauli, Shimla, Himachal Pradesh 171006, India","https://www.google.co.kr/maps/place/UTKRISHT+YOGA+(yoga+in+shimla,+yog+in+shimla,+Power+Yoga+in+Shimla,+Family+yoga+in+shimla,+yoga+studio+in+Shimla,+Yoga+in+himachal,+Yoga,+Yoga+Class,+Fitness,+Yoga+level,+yoga+for+kids,+Home+yoga+class+in+Shimla)/data=!4m5!3m4!1s0x3905796ae13cd119:0x1efa1a65b918d9cb!8m2!3d31.1033743!4d77.1927393?authuser=0&hl=en&rclk=1",31.1033743,77.1927393
Synergy Fitness Gym,Gym,"Lavighat, Solan, Himachal Pradesh 173211, India",https://www.google.co.kr/maps/place/Synergy+Fitness+Gym/data=!4m5!3m4!1s0x390f8742a7b604ab:0x53ba16d3a5ca98c4!8m2!3d30.9185726!4d77.0731519?authuser=0&hl=en&rclk=1,30.9185726,77.0731519
Bogyline Gym Gokak,Gym,"Old Bus Stand Rd, Shilli, Shimla, Himachal Pradesh 171001, India",https://www.google.co.kr/maps/place/Bogyline+Gym+Gokak/data=!4m5!3m4!1s0x390578ee9e8ee3bb:0x7646a2d79148f84e!8m2!3d31.1048239!4d77.1655675?authuser=0&hl=en&rclk=1,31.1048239,77.1655675
Nine fitness,Gym,"Sanket heights 1st floor, near apple mandi, Bhattakufer, Shimla, Himachal Pradesh 171006, India",https://www.google.co.kr/maps/place/Nine+fitness/data=!4m5!3m4!1s0x3905833c8772e9dd:0x148c397148017153!8m2!3d31.0978271!4d77.2083869?authuser=0&hl=en&rclk=1,31.0978271,77.2083869
gym,Gym,"Bhareri Maira Badehar Rd, Himachal Pradesh 177024, India",https://www.google.co.kr/maps/place/gym/data=!4m5!3m4!1s0x390527da1c7b7d17:0x73c9bb703ed1ab78!8m2!3d31.649813!4d76.693909?authuser=0&hl=en&rclk=1,31.649813,76.693909
Fitness club thirty's,Gym,"hanuman chowk, Vpo dehra near IFB point, to, Dehra Rd, Dehra Gopipur, Himachal Pradesh 177101, India",https://www.google.co.kr/maps/place/Fitness+club+thirty's/data=!4m5!3m4!1s0x391b393cc5a535a5:0xe8e220cd7776dfe9!8m2!3d31.8803571!4d76.2214508?authuser=0&hl=en&rclk=1,31.8803571,76.2214508
Ultimate gym,Gym,"MDR6, Subathu, Himachal Pradesh 173206, India",https://www.google.co.kr/maps/place/Ultimate+gym/data=!4m5!3m4!1s0x390563336b624cfb:0x6932cbbef706120d!8m2!3d30.9726196!4d76.9948687?authuser=0&hl=en&rclk=1,30.9726196,76.9948687
Kingfit gym,Gym,"GVCP+Q8H, Sundar Nagar, Himachal Pradesh 175019, India",https://www.google.co.kr/maps/place/Kingfit+gym/data=!4m5!3m4!1s0x390519501de468df:0x2e4e979056e775ec!8m2!3d31.5219442!4d76.8858607?authuser=0&hl=en&rclk=1,31.5219442,76.8858607
Reyaansh's Ripped House,Gym,"Una - Jahu - Ner Chowk Rd, Bangana, Himachal Pradesh 174307, India",https://www.google.co.kr/maps/place/Reyaansh's+Ripped+House/data=!4m5!3m4!1s0x391b29739a27b981:0x26fe4477196f2fcf!8m2!3d31.6254804!4d76.3488987?authuser=0&hl=en&rclk=1,31.6254804,76.3488987
"Beast Gym, Khera",Gym,"khera, Himachal Guest House Rajpura Bypass VPO, Nalagarh, Himachal Pradesh 174101, India","https://www.google.co.kr/maps/place/Beast+Gym,+Khera/data=!4m5!3m4!1s0x390559dfd94536a9:0x98c5c39f8a1aa88c!8m2!3d31.0166145!4d76.7183742?authuser=0&hl=en&rclk=1",31.0166145,76.7183742
Monty Gym,Fitness center,"P2V4+RH4, Nangal Jarialan, Amboa, Himachal Pradesh 144209, India",https://www.google.co.kr/maps/place/Monty+Gym/data=!4m5!3m4!1s0x391b199135faf521:0xe7759c862cc83a77!8m2!3d31.7445128!4d76.0064465?authuser=0&hl=en&rclk=1,31.7445128,76.0064465
PHYSIQUE ARCHITECT ( BEST GYM IN THE MOUNTAINS),Gym,"72, Post office, 3, Jail Rd, Palace Colony, Mandi, Himachal Pradesh 175001, India",https://www.google.co.kr/maps/place/PHYSIQUE+ARCHITECT+(+BEST+GYM+IN+THE+MOUNTAINS)/data=!4m5!3m4!1s0x3904e327ce880727:0xf73ca8492d31765e!8m2!3d31.7057418!4d76.9279436?authuser=0&hl=en&rclk=1,31.7057418,76.9279436
ARMOR FITNESS,Gym,"Swanal Garden, Phagli, Shimla, Himachal Pradesh 171003, India",https://www.google.co.kr/maps/place/ARMOR+FITNESS/data=!4m5!3m4!1s0x390579f96c5d3f65:0xe2aae135043dfeba!8m2!3d31.0996569!4d77.1559728?authuser=0&hl=en&rclk=1,31.0996569,77.1559728
SAINJ RAM PUR KEONTHAL,Gym,"34J5+FXQ, Shimla, Himachal Pradesh 171011, India",https://www.google.co.kr/maps/place/SAINJ+RAM+PUR+KEONTHAL/data=!4m5!3m4!1s0x3905792d1a3fb709:0xeb8222a82bfd854c!8m2!3d31.0812186!4d77.1099784?authuser=0&hl=en&rclk=1,31.0812186,77.1099784
JMD GYM,Gym,"8WM5+WQ8, Bhareet, Himachal Pradesh 176202, India",https://www.google.co.kr/maps/place/JMD+GYM/data=!4m5!3m4!1s0x391c9d3de644f495:0x3f60c7d649cb4438!8m2!3d32.334777!4d75.9094376?authuser=0&hl=en&rclk=1,32.334777,75.9094376
Hard Core Gym Bhambla,Gym,"HPRJ+9MG, Lakhahu, Himachal Pradesh 175033, India",https://www.google.co.kr/maps/place/Hard+Core+Gym+Bhambla/data=!4m5!3m4!1s0x3905276b129fee39:0xe9b3e6f99bb52408!8m2!3d31.5909486!4d76.7317068?authuser=0&hl=en&rclk=1,31.5909486,76.7317068
Aim fitness club,Gym,"Sai Rd, Baddi, Himachal Pradesh 173205, India",https://www.google.co.kr/maps/place/Aim+fitness+club/data=!4m5!3m4!1s0x390ff5ef84bbe757:0xd7ec54a6fd0c0db!8m2!3d30.9482361!4d76.8078916?authuser=0&hl=en&rclk=1,30.9482361,76.8078916
R.S GYM,Gym,"Una - Jahu - Ner Chowk Rd, Ladraur, Himachal Pradesh 176043, India",https://www.google.co.kr/maps/place/R.S+GYM/data=!4m5!3m4!1s0x390529547bd8b9b7:0x8d48a3401608e8!8m2!3d31.5833921!4d76.6352019?authuser=0&hl=en&rclk=1,31.5833921,76.6352019
Parmar Gymnasium,Gym,"238F+G2W, Solan, Himachal Pradesh 173221, India",https://www.google.co.kr/maps/place/Parmar+Gymnasium/data=!4m5!3m4!1s0x39057daac2baf9a5:0x14b5edf5477ca9e!8m2!3d31.0163628!4d77.0725777?authuser=0&hl=en&rclk=1,31.0163628,77.0725777
the warriors factory gym,Muay Thai boxing gym,"Chowk Bazar, Lower Bazar, Ganj Bazar, Upper Bazar, Bajoral Khurd, Solan, Himachal Pradesh 173212, India",https://www.google.co.kr/maps/place/the+warriors+factory+gym/data=!4m5!3m4!1s0x390f810268fc791f:0x81866f0521983923!8m2!3d30.9090215!4d77.1061129?authuser=0&hl=en&rclk=1,30.9090215,77.1061129
Blur Star Gym,Gym,"9HVM+678, Duttnagar, Himachal Pradesh 172001, India",https://www.google.co.kr/maps/place/Blur+Star+Gym/data=!4m5!3m4!1s0x3905c145a763f29f:0x96dc8fa407b4da24!8m2!3d31.3930321!4d77.5832173?authuser=0&hl=en&rclk=1,31.3930321,77.5832173
CrossFit Gym,Gym,"Rama Cottage, Beside Civil Hospital Block-E, Palace Rd, near Narsingh Temple, Solan, Himachal Pradesh 173212, India",https://www.google.co.kr/maps/place/CrossFit+Gym/data=!4m5!3m4!1s0x390f814bd7523817:0x623b0c53c4019e02!8m2!3d30.90767!4d77.107873?authuser=0&hl=en&rclk=1,30.90767,77.107873
Astra,Gym,"456G+6J7, Shankli, Longwood, Shimla, Himachal Pradesh 171001, India",https://www.google.co.kr/maps/place/Astra/data=!4m5!3m4!1s0x3905794769d2c019:0x1f6d9e11affda23e!8m2!3d31.1105351!4d77.1765548?authuser=0&hl=en&rclk=1,31.1105351,77.1765548
The Fitness Journey of Pankaj,Physical fitness program,"Baddi -Barotiwala Rd, Jattimajra, Baddi, Himachal Pradesh 174103, India",https://www.google.co.kr/maps/place/The+Fitness+Journey+of+Pankaj/data=!4m5!3m4!1s0x390ff5471a07b607:0x8f938484e0b5c4b7!8m2!3d30.9281198!4d76.8105036?authuser=0&hl=en&rclk=1,30.9281198,76.8105036
X men gym,Fitness center,"Una, Himachal Pradesh 174303, India",https://www.google.co.kr/maps/place/X+men+gym/data=!4m5!3m4!1s0x391ad902e942ec63:0x7bcd0f403ed7e491!8m2!3d31.5304602!4d76.231051?authuser=0&hl=en&rclk=1,31.5304602,76.231051
Muscle Garage,Gym,"opposite post office, Chauntra, Himachal Pradesh 175032, India",https://www.google.co.kr/maps/place/Muscle+Garage/data=!4m5!3m4!1s0x3904c7e7284c1de5:0x40339c4f40a3b030!8m2!3d32.0159705!4d76.7319153?authuser=0&hl=en&rclk=1,32.0159705,76.7319153
धारकोट फागू,Gym,"V82W+M4Q, Phagu, Himachal Pradesh 173101, India",https://www.google.co.kr/maps/place/%E0%A4%A7%E0%A4%BE%E0%A4%B0%E0%A4%95%E0%A5%8B%E0%A4%9F+%E0%A4%AB%E0%A4%BE%E0%A4%97%E0%A5%82/data=!4m5!3m4!1s0x390f7bfe6ef386f1:0xde9b8f72bec47c4f!8m2!3d30.851716!4d77.3453639?authuser=0&hl=en&rclk=1,30.851716,77.3453639
The Muscle Empower Fitness gym,Fitness center,"CJRF+9WV, Brow, Himachal Pradesh 172001, India",https://www.google.co.kr/maps/place/The+Muscle+Empower+Fitness+gym/data=!4m5!3m4!1s0x3905c141f52f9b89:0x68d5a2312dcc92e!8m2!3d31.4409881!4d77.6247878?authuser=0&hl=en&rclk=1,31.4409881,77.6247878
Aryan Fitness Zone,Fitness center,"Thakur Vatika, near Hanumaan Mandir, Khalini, Shimla, Himachal Pradesh 171002, India",https://www.google.co.kr/maps/place/Aryan+Fitness+Zone/data=!4m5!3m4!1s0x390579aed4039af9:0x4224511e98d9b916!8m2!3d31.0843682!4d77.161458?authuser=0&hl=en&rclk=1,31.0843682,77.161458
Tiger Fitness Gym,Gym,"Swastik bhawan, near tower building, Vikasnagar, Shimla, Himachal Pradesh 171009, India",https://www.google.co.kr/maps/place/Tiger+Fitness+Gym/data=!4m5!3m4!1s0x3905797dd75c595b:0x49302c752719359a!8m2!3d31.0786236!4d77.1782503?authuser=0&hl=en&rclk=1,31.0786236,77.1782503
Fitness Zone,Gym,"Bus Stand, National Highway 22, Rajpur, Rampur Bushahr, Himachal Pradesh 172001, India",https://www.google.co.kr/maps/place/Fitness+Zone/data=!4m5!3m4!1s0x3905c1a834eea78b:0xfb2b50c80a90d7cb!8m2!3d31.4504175!4d77.6312439?authuser=0&hl=en&rclk=1,31.4504175,77.6312439
Navya Gym Centre,Gym,"Galog - Dhami Rd, Dhami, Himachal Pradesh 171103, India",https://www.google.co.kr/maps/place/Navya+Gym+Centre/data=!4m5!3m4!1s0x3905716a0b7f7ed9:0x7dab606db4e7ffec!8m2!3d31.1787651!4d77.0326322?authuser=0&hl=en&rclk=1,31.1787651,77.0326322
Iron Temple Fitness Studio,Gym,"DAV School Rd, Sector 4, New Shimla, Shimla, Himachal Pradesh 171002, India",https://www.google.co.kr/maps/place/Iron+Temple+Fitness+Studio/data=!4m5!3m4!1s0x390578c90b816d9d:0x48ed62dd662e9024!8m2!3d31.0824311!4d77.1683054?authuser=0&hl=en&rclk=1,31.0824311,77.1683054
GYM 29,Gym,"Banuri, Himachal Pradesh 176062, India",https://www.google.co.kr/maps/place/GYM+29/data=!4m5!3m4!1s0x3904b186de215067:0x6b050cc4016e881e!8m2!3d32.0952687!4d76.5687059?authuser=0&hl=en&rclk=1,32.0952687,76.5687059
RR Gym,Gym,"Shimla Bypass, Panthaghati, Shimla, Himachal Pradesh 171009, India",https://www.google.co.kr/maps/place/RR+Gym/data=!4m5!3m4!1s0x39057f4e6d0a131b:0x6b3b2cd6925072f2!8m2!3d31.0701582!4d77.1814134?authuser=0&hl=en&rclk=1,31.0701582,77.1814134
Sharanya Fitness Plaza,Gym,"101, Bhagani - Sahib Rd, Main Bazar, Paonta Sahib, Himachal Pradesh 173025, India",https://www.google.co.kr/maps/place/Sharanya+Fitness+Plaza/data=!4m5!3m4!1s0x390f23a64a91a36d:0xd38eaee0fe803a53!8m2!3d30.438447!4d77.6207374?authuser=0&hl=en&rclk=1,30.438447,77.6207374
Heavy Metal Fitness Gym,Gym,"Heavy Metal Fitness Gym, near Paragaon Hotel, Solan, Himachal Pradesh 173212, India",https://www.google.co.kr/maps/place/Heavy+Metal+Fitness+Gym/data=!4m5!3m4!1s0x390f8739480343b5:0x5bca329aa85dd5fe!8m2!3d30.905647!4d77.1082444?authuser=0&hl=en&rclk=1,30.905647,77.1082444
The City Gym,Gymnastics club,"58WC+79P, Jawahar Nagar, Dharamshala, Himachal Pradesh 176215, India",https://www.google.co.kr/maps/place/The+City+Gym/data=!4m5!3m4!1s0x391b513a314f2ec7:0xdab02b2174ce094a!8m2!3d32.1957215!4d76.3209446?authuser=0&hl=en&rclk=1,32.1957215,76.3209446
Step 2 Gym,Fitness center,"near Thakurdawara, R.F.Chanaur-I, Himachal Pradesh 177113, India",https://www.google.co.kr/maps/place/Step+2+Gym/data=!4m5!3m4!1s0x391b3fd96ab97cff:0xa955139a8a07b347!8m2!3d31.8910798!4d76.1218479?authuser=0&hl=en&rclk=1,31.8910798,76.1218479
Muscle Up Gym,Gymnastics club,"Totu, Shimla, Himachal Pradesh 171011, India",https://www.google.co.kr/maps/place/Muscle+Up+Gym/data=!4m5!3m4!1s0x390579efa6e33897:0x7c034ad898ce85e1!8m2!3d31.1005784!4d77.1205942?authuser=0&hl=en&rclk=1,31.1005784,77.1205942
Kalinag fitness club,Gym,"Balu, Nagwain, Himachal Pradesh 175121, India",https://www.google.co.kr/maps/place/Kalinag+fitness+club/data=!4m5!3m4!1s0x3904550b308d75c7:0x94f0d7ce9387bbec!8m2!3d31.7768279!4d77.2175223?authuser=0&hl=en&rclk=1,31.7768279,77.2175223
Body gym,Gym,"M43R+WFH, Chak Sarai, Himachal Pradesh 177211, India",https://www.google.co.kr/maps/place/Body+gym/data=!4m5!3m4!1s0x391b21ec7ae812d9:0x618f2dc8239e2202!8m2!3d31.6548187!4d76.1412372?authuser=0&hl=en&rclk=1,31.6548187,76.1412372
DA SPORTS FACTORY,Sports accessories wholesaler,"DA SPORTS ,Central park area, Shimla Bypass, opposite Nabard Bank, DEVNAGER, Kasumpti, Himachal Pradesh 171009, India",https://www.google.co.kr/maps/place/DA+SPORTS+FACTORY/data=!4m5!3m4!1s0x390579e2fdd5bd1b:0xc4ca74c07f9a2815!8m2!3d31.0866423!4d77.1763538?authuser=0&hl=en&rclk=1,31.0866423,77.1763538
"Original Temple Gym & Fitness Centre , Sangti",Gym,"Boileauganj to Summer Hill, Sangti, Shimla, Himachal Pradesh 171005, India","https://www.google.co.kr/maps/place/Original+Temple+Gym+%26+Fitness+Centre+,+Sangti/data=!4m5!3m4!1s0x39057959d289c61f:0x63730f4561d73afa!8m2!3d31.1178469!4d77.1418802?authuser=0&hl=en&rclk=1",31.1178469,77.1418802
RB FITNESS HUB,Gym,"Ravi Bhawan, near Kali Mata Mandir, Vikasnagar, Shimla, Himachal Pradesh 171009, India",https://www.google.co.kr/maps/place/RB+FITNESS+HUB/data=!4m5!3m4!1s0x390579e49337fa5b:0x22b02bd57e9f28f!8m2!3d31.0779868!4d77.1781136?authuser=0&hl=en&rclk=1,31.0779868,77.1781136
Fitness & Sports Club (GYM),Boxing gym,"GAMMON COLONY, HCC Colony, Sainj, Himachal Pradesh 175134, India",https://www.google.co.kr/maps/place/Fitness+%26+Sports+Club+(GYM)/data=!4m5!3m4!1s0x3904530013e139f5:0x6a0a830e768bbfe2!8m2!3d31.7700785!4d77.3046682?authuser=0&hl=en&rclk=1,31.7700785,77.3046682
Cantonment Board Kasauli,Gym,"MDR6, Kasauli, Himachal Pradesh 173204, India",https://www.google.co.kr/maps/place/Cantonment+Board+Kasauli/data=!4m5!3m4!1s0x390f8902de365405:0x19859320a6e48b40!8m2!3d30.8990783!4d76.9594927?authuser=0&hl=en&rclk=1,30.8990783,76.9594927
Sumit Complex Gym,Gym,"W3HV+3H9, Chambaghat, Himachal Pradesh 173213, India",https://www.google.co.kr/maps/place/Sumit+Complex+Gym/data=!4m5!3m4!1s0x390f87ce86cb6731:0xf77e639053aaa8a7!8m2!3d30.9276631!4d77.0939743?authuser=0&hl=en&rclk=1,30.9276631,77.0939743
PUBLIC GYM LAMLEHRI,Gym,"G88G+X8G, Samur, Himachal Pradesh 174321, India",https://www.google.co.kr/maps/place/PUBLIC+GYM+LAMLEHRI/data=!4m5!3m4!1s0x391ad1c8e40d4485:0x39ca6aa7c5e55584!8m2!3d31.5174279!4d76.3258237?authuser=0&hl=en&rclk=1,31.5174279,76.3258237
Health Club,Gym,"National Highway 88, Kangra, Himachal Pradesh 176032, India",https://www.google.co.kr/maps/place/Health+Club/data=!4m5!3m4!1s0x391b3123cf398e27:0x438da19622543736!8m2!3d31.8650911!4d76.3242407?authuser=0&hl=en&rclk=1,31.8650911,76.3242407
Tuff Look Gym,Gym,"House number.154/155, ward number.3, near nathu sweets, Solan, India",https://www.google.co.kr/maps/place/Tuff+Look+Gym/data=!4m5!3m4!1s0x390f873a234b220d:0xa6bc4fc1dc2ed2dd!8m2!3d30.9084245!4d77.0999031?authuser=0&hl=en&rclk=1,30.9084245,77.0999031
Body Talk Gym,Gym,"Main Market Rd, Cinema Colony, Kosrian Sector, Bilaspur, Himachal Pradesh 174001, India",https://www.google.co.kr/maps/place/Body+Talk+Gym/data=!4m5!3m4!1s0x39053f1a87c7be09:0xea8bcf9fc965d647!8m2!3d31.3382323!4d76.7655051?authuser=0&hl=en&rclk=1,31.3382323,76.7655051
Rohit,Gym,"Himachal Pradesh 171103, India",https://www.google.co.kr/maps/place/Rohit/data=!4m5!3m4!1s0x390571cec16d697d:0x7af093ab049b6e6a!8m2!3d31.1862893!4d77.0310875?authuser=0&hl=en&rclk=1,31.1862893,77.0310875
Hardcore body builders gym,Gym,"VPO/Nagwain, TEH, Aut, Himachal Pradesh 175121, India",https://www.google.co.kr/maps/place/Hardcore+body+builders+gym/data=!4m5!3m4!1s0x3904f970424be077:0xaf0edd7515b94911!8m2!3d31.8139729!4d77.1801057?authuser=0&hl=en&rclk=1,31.8139729,77.1801057
Oxygen Fitness,Gym,"Mandi - Pathankot Rd, Dharman, Himachal Pradesh 176081, India",https://www.google.co.kr/maps/place/Oxygen+Fitness/data=!4m5!3m4!1s0x3904b7958ddf6003:0x8705d5cdefca1a40!8m2!3d32.0773626!4d76.5903751?authuser=0&hl=en&rclk=1,32.0773626,76.5903751
Peach Blossom,Gym,"35RG+8C7, Nigam Vihar, Chotta Shimla, Shimla, Himachal Pradesh 171002, India",https://www.google.co.kr/maps/place/Peach+Blossom/data=!4m5!3m4!1s0x390578b96d83c001:0xe5ce5841a82f7427!8m2!3d31.0907932!4d77.1760325?authuser=0&hl=en&rclk=1,31.0907932,77.1760325
HPU Girls Hostel Gym,Gym,"HPU Girls Hostel Road, Summer Hill, Shimla, Himachal Pradesh 171005, India",https://www.google.co.kr/maps/place/HPU+Girls+Hostel+Gym/data=!4m5!3m4!1s0x3905790405eea86f:0x6b406c91533310d0!8m2!3d31.1113555!4d77.1423596?authuser=0&hl=en&rclk=1,31.1113555,77.1423596
Himalaya,Gym,"Court Road, Janog Ghat, Theog, Himachal Pradesh 171201, India",https://www.google.co.kr/maps/place/Himalaya/data=!4m5!3m4!1s0x390585ecbad79001:0x550a6bd16b11082a!8m2!3d31.1162168!4d77.3619146?authuser=0&hl=en&rclk=1,31.1162168,77.3619146
NIRVANA,Gym,"Near Govt. School Saproon, Solan 173211, Himachal Pradesh 173212, India",https://www.google.co.kr/maps/place/NIRVANA/data=!4m5!3m4!1s0x390f870b4a496937:0xa617faf3006aad08!8m2!3d30.9075956!4d77.081602?authuser=0&hl=en&rclk=1,30.9075956,77.081602
Commando Fitness Gym Balhseena,Gym,"vill - balhseena p.o.- ghandhir teh - jhandutta, distt, Bilaspur, Himachal Pradesh 174029, India",https://www.google.co.kr/maps/place/Commando+Fitness+Gym+Balhseena/data=!4m5!3m4!1s0x390531af4aa1f621:0xde24df836259c13f!8m2!3d31.3762853!4d76.655855?authuser=0&hl=en&rclk=1,31.3762853,76.655855
Fit Life Gymnasium & Sports Club,Gym,"MPHH+MMH, Tataher, Himachal Pradesh 175024, India",https://www.google.co.kr/maps/place/Fit+Life+Gymnasium+%26+Sports+Club/data=!4m5!3m4!1s0x3904d986f8c2808d:0x5b2b904414ec28f7!8m2!3d31.6791989!4d76.7292311?authuser=0&hl=en&rclk=1,31.6791989,76.7292311
Vayam FitPhysio Revolution ( Aerobics & Fitness for Women),Aerobics instructor,"361 2nd Floor, Housing Board Phase-3, Baddi, Himachal Pradesh 173205, India",https://www.google.co.kr/maps/place/Vayam+FitPhysio+Revolution+(+Aerobics+%26+Fitness+for+Women)/data=!4m5!3m4!1s0x390ff56dd0bafc47:0xb4ebe865980c254c!8m2!3d30.9414928!4d76.8104157?authuser=0&hl=en&rclk=1,30.9414928,76.8104157
Muscular planet,Gym,"near Ashoka jewellers, Banjar, Himachal Pradesh 174123, India",https://www.google.co.kr/maps/place/Muscular+planet/data=!4m5!3m4!1s0x3905ad170207bfa1:0x2190a05a074d1fdb!8m2!3d31.6375849!4d77.3442221?authuser=0&hl=en&rclk=1,31.6375849,77.3442221
नितेश फल व सब्जी भंडार,Gym,"Near, Sabzi Mandi, Dhalli, Himachal Pradesh 171012, India",https://www.google.co.kr/maps/place/%E0%A4%A8%E0%A4%BF%E0%A4%A4%E0%A5%87%E0%A4%B6+%E0%A4%AB%E0%A4%B2+%E0%A4%B5+%E0%A4%B8%E0%A4%AC%E0%A5%8D%E0%A4%9C%E0%A5%80+%E0%A4%AD%E0%A4%82%E0%A4%A1%E0%A4%BE%E0%A4%B0/data=!4m5!3m4!1s0x390579a5759d7b99:0xa64596de1cc75d1e!8m2!3d31.1038152!4d77.1748953?authuser=0&hl=en&rclk=1,31.1038152,77.1748953
Vijay fitness club,Gym,"near bus stop, Kais, Himachal Pradesh 175138, India",https://www.google.co.kr/maps/place/Vijay+fitness+club/data=!4m5!3m4!1s0x3904f532e2afa437:0x62572bee29cc0543!8m2!3d32.02019!4d77.1349623?authuser=0&hl=en&rclk=1,32.02019,77.1349623
YUVA CLUB SURAJPUR GYM,Gym,"5WQ8+MCX, Solan, Himachal Pradesh 171102, India",https://www.google.co.kr/maps/place/YUVA+CLUB+SURAJPUR+GYM/data=!4m5!3m4!1s0x3905692b6e08bb17:0xdd8d7622574e5e11!8m2!3d31.1892294!4d76.9161109?authuser=0&hl=en&rclk=1,31.1892294,76.9161109
Chakhra,Gym,"Junga Rd., Pujarli, Himachal Pradesh 171218, India",https://www.google.co.kr/maps/place/Chakhra/data=!4m5!3m4!1s0x39057f7e332aa925:0xa2c900946e1a6bf1!8m2!3d31.0354782!4d77.1936146?authuser=0&hl=en&rclk=1,31.0354782,77.1936146
kingsports sports goods,Gym,"shskti market middel bazar, Rampur Bushahr, Himachal Pradesh 172001, India",https://www.google.co.kr/maps/place/kingsports+sports+goods/data=!4m5!3m4!1s0x3905c11298d0bae3:0xc55710f7e1008e9d!8m2!3d31.4477756!4d77.6291166?authuser=0&hl=en&rclk=1,31.4477756,77.6291166
Athelatic trac,Gym,"Cricket Stadium Bilaspur Rd, Upper Nihal, Bilaspur, Himachal Pradesh 174001, India",https://www.google.co.kr/maps/place/Athelatic+trac/data=!4m5!3m4!1s0x39053f03969ddeb9:0xc20db10075190b66!8m2!3d31.3453921!4d76.7567663?authuser=0&hl=en&rclk=1,31.3453921,76.7567663
MAHAVIR GYM,Gym,"64QC+WV2, Suni, Himachal Pradesh 171301, India",https://www.google.co.kr/maps/place/MAHAVIR+GYM/data=!4m5!3m4!1s0x390576a32c2e8eb1:0x39338f779fab8c5!8m2!3d31.2397589!4d77.122151?authuser=0&hl=en&rclk=1,31.2397589,77.122151
Ojas Fitness And Gym,Gym,"Village nangabagh P.O Bandrol teh &, Himachal Pradesh, India",https://www.google.co.kr/maps/place/Ojas+Fitness+And+Gym/data=!4m5!3m4!1s0x3904f57e7c1a2613:0x63acd51818104f21!8m2!3d32.0389213!4d77.1254799?authuser=0&hl=en&rclk=1,32.0389213,77.1254799
The Brother's gym junga,Fitness center,"Junga Rd., Junga, Himachal Pradesh 171218, India",https://www.google.co.kr/maps/place/The+Brother's+gym+junga/data=!4m5!3m4!1s0x39057fc5528d1e09:0xbe129dfe3ccb918!8m2!3d31.024054!4d77.190653?authuser=0&hl=en&rclk=1,31.024054,77.190653
ZUMBA Fitness with ZIN vasundhara,Fitness center,"Gaiety theatre, the, Mall Rd, Shimla, Himachal Pradesh 171001, India",https://www.google.co.kr/maps/place/ZUMBA+Fitness+with+ZIN+vasundhara/data=!4m5!3m4!1s0x39057950643c3d2d:0x8dee6796b1b0edfa!8m2!3d31.0989034!4d77.175584?authuser=0&hl=en&rclk=1,31.0989034,77.175584
MUSCLE MANIA GYM OPPOSITE ESIC OFFICE BADDI,Gym,"WRV3+G2W, Housing Board Colony Phases I & II, Baddi, Himachal Pradesh 173205, India",https://www.google.co.kr/maps/place/MUSCLE+MANIA+GYM+OPPOSITE+ESIC+OFFICE+BADDI/data=!4m5!3m4!1s0x390ff54b0d87df43:0x4a7bed4a299badac!8m2!3d30.943857!4d76.8025805?authuser=0&hl=en&rclk=1,30.943857,76.8025805
RSV,Gym,"8W35+WRP, Malokhar, Himachal Pradesh 174033, India",https://www.google.co.kr/maps/place/RSV/data=!4m5!3m4!1s0x39056b66d1f5075d:0x4a19acd57928fb74!8m2!3d31.304849!4d76.9095646?authuser=0&hl=en&rclk=1,31.304849,76.9095646
Sharda's Fitness Hub,Gym,"Nauni, Solan, Himachal Pradesh 173223, India",https://www.google.co.kr/maps/place/Sharda's+Fitness+Hub/data=!4m5!3m4!1s0x390f8267eaaaaaab:0xc7cb08c0366e0e8!8m2!3d30.8671473!4d77.1693296?authuser=0&hl=en&rclk=1,30.8671473,77.1693296
Muscle Gym,Gym,"Bharari Rd, near Auckland School, Longwood, Shimla, Himachal Pradesh 171001, India",https://www.google.co.kr/maps/place/Muscle+Gym/data=!4m5!3m4!1s0x390579d2d7f961ab:0x9beacea66b0cc8c6!8m2!3d31.108363!4d77.1786639?authuser=0&hl=en&rclk=1,31.108363,77.1786639
Bajrang Health Club,Gym,"R439+MRF, Naina Tikker, Himachal Pradesh 173229, India",https://www.google.co.kr/maps/place/Bajrang+Health+Club/data=!4m5!3m4!1s0x390f83917e1a3e0d:0x3783640ed7ae0cc0!8m2!3d30.8041774!4d77.1195588?authuser=0&hl=en&rclk=1,30.8041774,77.1195588
Shiva Health Club (Unisex Gym),Gym,"SH 19, Makdena, Himachal Pradesh 175015, India",https://www.google.co.kr/maps/place/Shiva+Health+Club+(Unisex+Gym)/data=!4m5!3m4!1s0x3904c18e0ec4db17:0x9e61f660428eb662!8m2!3d31.9882194!4d76.7885837?authuser=0&hl=en&rclk=1,31.9882194,76.7885837
Anji Bhrahmana 😎,Gym,"V3FH+2J7, Solan, Himachal Pradesh 173229, India",https://www.google.co.kr/maps/place/Anji+Bhrahmana+%F0%9F%98%8E/data=!4m5!3m4!1s0x390f852b40b27d4b:0x681e3124bc355922!8m2!3d30.8725497!4d77.0790375?authuser=0&hl=en&rclk=1,30.8725497,77.0790375
Sana's Fitness Point,Gym,"Paonta Sahib - Purwala - Bharli Rd, Paonta Sahib, Himachal Pradesh 173025, India",https://www.google.co.kr/maps/place/Sana's+Fitness+Point/data=!4m5!3m4!1s0x390f23a864aab40b:0x7accdbf686f8138e!8m2!3d30.4387179!4d77.6185275?authuser=0&hl=en&rclk=1,30.4387179,77.6185275
CERAGEM CHAHAL SPINE CARE (SHIMLA),Fitness center,"Ratan Kunj, Khalini, Shimla, Himachal Pradesh 171002, India",https://www.google.co.kr/maps/place/CERAGEM+CHAHAL+SPINE+CARE+(SHIMLA)/data=!4m5!3m4!1s0x3905796e6afb8217:0x36238f22e216562f!8m2!3d31.0893781!4d77.1715248?authuser=0&hl=en&rclk=1,31.0893781,77.1715248
shashi Kumar,Gym,"Baddi - Jhar Majri Rd, Shivalik Nagar, Baddi, Himachal Pradesh 174103, India",https://www.google.co.kr/maps/place/shashi+Kumar/data=!4m5!3m4!1s0x390f8be72a501a45:0xbf9318e20c76292e!8m2!3d30.9280427!4d76.8362308?authuser=0&hl=en&rclk=1,30.9280427,76.8362308
Rajan,Gym,"W452+G4R, Mall Road, Bajoral Khurd, Solan, Himachal Pradesh 173212, India",https://www.google.co.kr/maps/place/Rajan/data=!4m5!3m4!1s0x390f86b50d9a0d01:0x55b892a3d4c9f0e4!8m2!3d30.908855!4d77.1002698?authuser=0&hl=en&rclk=1,30.908855,77.1002698
IRON TRIBE GYM,Gym,"Lakkar Bazar, Shimla, Himachal Pradesh 171001, India",https://www.google.co.kr/maps/place/IRON+TRIBE+GYM/data=!4m5!3m4!1s0x390579bdfbbc8111:0x64a10b9d1aa7716d!8m2!3d31.107347!4d77.177894?authuser=0&hl=en&rclk=1,31.107347,77.177894
Sagar Shooting Range,Gym,"Rohru - Sungri - Rampur Rd, Himachal Pradesh 172022, India",https://www.google.co.kr/maps/place/Sagar+Shooting+Range/data=!4m5!3m4!1s0x3905e9e3ded916eb:0xbaa1fec5e6ca340b!8m2!3d31.3397178!4d77.6704899?authuser=0&hl=en&rclk=1,31.3397178,77.6704899
Dhalku Sheel,Gym,"171209 tiyali theog, Himachal Pradesh, India",https://www.google.co.kr/maps/place/Dhalku+Sheel/data=!4m5!3m4!1s0x390587ad914a5797:0xd91303606a36acb8!8m2!3d31.0437598!4d77.3428632?authuser=0&hl=en&rclk=1,31.0437598,77.3428632
A.R GYM,Gym,"AR niwas, Sainj, Himachal Pradesh 171220, India",https://www.google.co.kr/maps/place/A.R+GYM/data=!4m5!3m4!1s0x3905893f00e256b3:0x1d087da22b2239b1!8m2!3d31.0782762!4d77.3888458?authuser=0&hl=en&rclk=1,31.0782762,77.3888458
Gym Point,Gym,"P275+4WM, Mathyani, Himachal Pradesh 175124, India",https://www.google.co.kr/maps/place/Gym+Point/data=!4m5!3m4!1s0x3904e362bfbea9ef:0xb008f87c511f2705!8m2!3d31.712834!4d77.0098036?authuser=0&hl=en&rclk=1,31.712834,77.0098036
Jangli ground,Gym,"35W2+PP9, Tutikandi, Shimla, Himachal Pradesh 171004, India",https://www.google.co.kr/maps/place/Jangli+ground/data=!4m5!3m4!1s0x390578e08682b1ed:0x42de92693758391b!8m2!3d31.0967943!4d77.1518559?authuser=0&hl=en&rclk=1,31.0967943,77.1518559
lana chabiual,Gym,"P74G+4R8, Lana Chabyul, Himachal Pradesh 173001, India",https://www.google.co.kr/maps/place/lana+chabiual/data=!4m5!3m4!1s0x390f75a504dd4cad:0xdee457ff3a0c52f0!8m2!3d30.7052863!4d77.2770683?authuser=0&hl=en&rclk=1,30.7052863,77.2770683
Diwan Assoiciates,Gym,"Central Park, -9, Shimla Bypass, Dev Nagar, Kasumpti, Shimla, Himachal Pradesh 171009, India",https://www.google.co.kr/maps/place/Diwan+Assoiciates/data=!4m5!3m4!1s0x390578b2e16752b9:0xccbc2c32a131201a!8m2!3d31.0781557!4d77.1804161?authuser=0&hl=en&rclk=1,31.0781557,77.1804161
BB Gym,Rock climbing gym,"35CJ+3H3, Panthaghati, Shimla, Himachal Pradesh 171002, India",https://www.google.co.kr/maps/place/BB+Gym/data=!4m5!3m4!1s0x39057f4e6d77169b:0x6e6506d88b54774!8m2!3d31.0701284!4d77.1814229?authuser=0&hl=en&rclk=1,31.0701284,77.1814229
AD FITNESS (PERSONAL TRAINER),Gym,"WRC2+W7J, Baddi, Himachal Pradesh 174103, India",https://www.google.co.kr/maps/place/AD+FITNESS+(PERSONAL+TRAINER)/data=!4m5!3m4!1s0x390ff53c73b356f9:0x34e94f8af470a15c!8m2!3d30.9223498!4d76.8006282?authuser=0&hl=en&rclk=1,30.9223498,76.8006282
SUNSHINE GYM,Gym,"Near royal palace, near binniz pizza, Nahan, Himachal Pradesh 173001, India",https://www.google.co.kr/maps/place/SUNSHINE+GYM/data=!4m5!3m4!1s0x390f0d167c6dde9f:0xb07f58c7cc4efbbe!8m2!3d30.5594215!4d77.2938363?authuser=0&hl=en&rclk=1,30.5594215,77.2938363
Sumit lab,Yoga studio,"5 minute walk from, Jakhoo road Sumit lab new folly estate near town's end cottage, Ridge, Jakhu, Shimla, Himachal Pradesh 171001, India",https://www.google.co.kr/maps/place/Sumit+lab/data=!4m5!3m4!1s0x390579f2149d7765:0x180d7e55bfed2a17!8m2!3d31.1035897!4d77.1798861?authuser=0&hl=en&rclk=1,31.1035897,77.1798861
Sankalp Upasana Niketan,Gym,"Shoghi Lagroo Rd, Shoghi, Himachal Pradesh 171219, India",https://www.google.co.kr/maps/place/Sankalp+Upasana+Niketan/data=!4m5!3m4!1s0x39057e934f0d16e5:0x1adb90fb9fc643cc!8m2!3d31.041728!4d77.1248828?authuser=0&hl=en&rclk=1,31.041728,77.1248828
INTEN CITY GYM,Gym,"S.O Anil Bhawan, Sanjauli, Shimla, Himachal Pradesh 171006, India",https://www.google.co.kr/maps/place/INTEN+CITY+GYM/data=!4m5!3m4!1s0x3905833e092d9f09:0x4e520d35efb98084!8m2!3d31.0986853!4d77.2030634?authuser=0&hl=en&rclk=1,31.0986853,77.2030634
"Shoghi, Ankush Cottage",Gym,"24QF+26Q, Shoghi, Himachal Pradesh 171219, India","https://www.google.co.kr/maps/place/Shoghi,+Ankush+Cottage/data=!4m5!3m4!1s0x39057f0657c3e425:0x30a2fcee470e01dc!8m2!3d31.0375859!4d77.1231011?authuser=0&hl=en&rclk=1",31.0375859,77.1231011
S M INDUSTRIES,Gym,"Baddi - Jhar Majri Rd, Baddi, Himachal Pradesh 174103, India",https://www.google.co.kr/maps/place/S+M+INDUSTRIES/data=!4m5!3m4!1s0x390f8b26fb86aa37:0x440e00cc48f81f91!8m2!3d30.9297725!4d76.8299165?authuser=0&hl=en&rclk=1,30.9297725,76.8299165
BROCK HOUSE (VIBHAV),Gym,"PW5P+994, Kartarpur, Mandi, Himachal Pradesh 175001, India",https://www.google.co.kr/maps/place/BROCK+HOUSE+(VIBHAV)/data=!4m5!3m4!1s0x3904e23eac213a7d:0x2aca30d1e109fee!8m2!3d31.7083795!4d76.9359676?authuser=0&hl=en&rclk=1,31.7083795,76.9359676
Vk health Club,Gym,"Kangoo, Himachal Pradesh 177007, India",https://www.google.co.kr/maps/place/Vk+health+Club/data=!4m5!3m4!1s0x3904d30166bfdd13:0x7a16ff833eb8d904!8m2!3d31.7715282!4d76.4995093?authuser=0&hl=en&rclk=1,31.7715282,76.4995093
Salman Hair Saloon,Gym,"Barotiwala, Himachal Pradesh 174103, India",https://www.google.co.kr/maps/place/Salman+Hair+Saloon/data=!4m5!3m4!1s0x390f8b20974d3b01:0x7e5d81a62cbceb15!8m2!3d30.90626!4d76.8450648?authuser=0&hl=en&rclk=1,30.90626,76.8450648
Radha Soami satsang,Gym,"Unnamed Road, Himachal Pradesh 171103, India",https://www.google.co.kr/maps/place/Radha+Soami+satsang/data=!4m5!3m4!1s0x39057bf20849b3b7:0x3a2d701a13e7a86!8m2!3d31.1327605!4d77.0414915?authuser=0&hl=en&rclk=1,31.1327605,77.0414915
Vijay hometown,Gym,"Vill ghathu p.o Urtoo teh nirmand, distt, Rahnu, Himachal Pradesh 17223, India",https://www.google.co.kr/maps/place/Vijay+hometown/data=!4m5!3m4!1s0x3905bf9c9b1c319f:0x5f29bbda4bd72e26!8m2!3d31.4610095!4d77.5147341?authuser=0&hl=en&rclk=1,31.4610095,77.5147341
sandeep sanjeev bro's,Physical fitness program,"Ghuggar, Palampur, Himachal Pradesh 176061, India",https://www.google.co.kr/maps/place/sandeep+sanjeev+bro's/data=!4m5!3m4!1s0x3904b3c72661ddcb:0x2ea41d9fcb2c33f8!8m2!3d32.1135395!4d76.5283203?authuser=0&hl=en&rclk=1,32.1135395,76.5283203
Iron Tribe Gym with Spa,Gym,"Om bhawan, Cart Rd, Lakkar Bazar, Shimla, India",https://www.google.co.kr/maps/place/Iron+Tribe+Gym+with+Spa/data=!4m5!3m4!1s0x39057904baa89dcd:0x1284114bed78bdd4!8m2!3d31.1070725!4d77.178003?authuser=0&hl=en&rclk=1,31.1070725,77.178003
Aura Wellness Studio,Yoga studio,"Khalsa Niwas, Ram Bazar, Shimla, Himachal Pradesh 171001, India",https://www.google.co.kr/maps/place/Aura+Wellness+Studio/data=!4m5!3m4!1s0x390578ec917d55ab:0xe76661dcae394a3d!8m2!3d31.104619!4d77.1696264?authuser=0&hl=en&rclk=1,31.104619,77.1696264
GHAMBER RIVER,Gym,"3W3M+XFP, Solan, Himachal Pradesh 173207, India",https://www.google.co.kr/maps/place/GHAMBER+RIVER/data=!4m5!3m4!1s0x3905656b3383f29b:0xaf8bbef6685ec64b!8m2!3d31.0549666!4d76.9337105?authuser=0&hl=en&rclk=1,31.0549666,76.9337105
Pandit Empire Kolmu,Gym,"vill kolmu, po, teh, Tiyali, Himachal Pradesh, India",https://www.google.co.kr/maps/place/Pandit+Empire+Kolmu/data=!4m5!3m4!1s0x39058794a3d419d5:0xe21c235a97cf4f7d!8m2!3d31.0426397!4d77.3372547?authuser=0&hl=en&rclk=1,31.0426397,77.3372547
Yoga teacher,Yoga studio,"p, Cottage 5, dev bhoomi mount view, kalka-shimla rd, deonghat, P.O, Saproon, Solan, Himachal Pradesh 173211, India",https://www.google.co.kr/maps/place/Yoga+teacher/data=!4m5!3m4!1s0x390f873f07e82a9f:0xc9670887baabe419!8m2!3d30.9046837!4d77.0850341?authuser=0&hl=en&rclk=1,30.9046837,77.0850341
Yog Teerth The Health Pilgrimage,Yoga studio,"Sita Ram Mandir Village. Kathani, Post Subathu, Near Dharampur, Solan, Himachal Pradesh - 173 206, India, Himachal Pradesh 173206, India",https://www.google.co.kr/maps/place/Yog+Teerth+The+Health+Pilgrimage/data=!4m5!3m4!1s0x390f861900000001:0x230fd9089229b24f!8m2!3d31.0016831!4d76.9988669?authuser=0&hl=en&rclk=1,31.0016831,76.9988669
OYO 72170 Vrinda Home Stay,Gym,"1201 - 1210, 13, Major District Road, Basant Vihar, Mehli, Shimla, Himachal Pradesh 171009, India",https://www.google.co.kr/maps/place/OYO+72170+Vrinda+Home+Stay/data=!4m5!3m4!1s0x39057f02f185c609:0x656b495319600623!8m2!3d31.069991!4d77.1873035?authuser=0&hl=en&rclk=1,31.069991,77.1873035
Thaila tracking park (natural),Gym,"Mashobra - Moolkoti Rd, Mashobra, Himachal Pradesh 171007, India",https://www.google.co.kr/maps/place/Thaila+tracking+park+(natural)/data=!4m5!3m4!1s0x39058369123f6dd1:0xf52c2db6eeae69e!8m2!3d31.149478!4d77.2709605?authuser=0&hl=en&rclk=1,31.149478,77.2709605
Tata Service Station Mehar Services,Gym,"8VCH+38W, Kharsi Kanaitan, Himachal Pradesh 174033, India",https://www.google.co.kr/maps/place/Tata+Service+Station+Mehar+Services/data=!4m5!3m4!1s0x390515143f4446ed:0xe0087076dc42f122!8m2!3d31.320241!4d76.87833?authuser=0&hl=en&rclk=1,31.320241,76.87833
Fitness Express Gym Mandi .,Butcher shop,"Indira market /, near woodland showroom, Mandi, Himachal Pradesh 175001, India",https://www.google.co.kr/maps/place/Fitness+Express+Gym+Mandi+./data=!4m5!3m4!1s0x3904e23c98409173:0x698863177a25e778!8m2!3d31.70762!4d76.931281?authuser=0&hl=en&rclk=1,31.70762,76.931281
Krishna Sports Fitness Complex,Sports school,"Krishna Sports Fitness Complex Near Parimehal Shimla-9, Kasumpti, Shimla, Himachal Pradesh 171009, India",https://www.google.co.kr/maps/place/Krishna+Sports+Fitness+Complex/data=!4m5!3m4!1s0x390578ad1555554b:0x2fa6e07f7b706078!8m2!3d31.078233!4d77.184462?authuser=0&hl=en&rclk=1,31.078233,77.184462
"Curio, Whitematter",University,"Sharma Niwas, Near SJVN Commercial Block, Phase-ii, New Shimla, Shimla, Himachal Pradesh 171009, India","https://www.google.co.kr/maps/place/Curio,+Whitematter/data=!4m5!3m4!1s0x390578b66d2fbfa9:0x474d497941f27594!8m2!3d31.0821381!4d77.1730076?authuser=0&hl=en&rclk=1",31.0821381,77.1730076
Indian Heritage Classes,Yoga studio,"Sharma Niwas, BCS, New Shimla, below BCS, Shimla, Himachal Pradesh 171009, India",https://www.google.co.kr/maps/place/Indian+Heritage+Classes/data=!4m5!3m4!1s0x390578b615049b75:0xa36eb67082453095!8m2!3d31.0827221!4d77.172646?authuser=0&hl=en&rclk=1,31.0827221,77.172646
Happy Yoga Group,Yoga studio,"2nd floor, Kotla-nala, Bhagnal Complex, Solan, Himachal Pradesh 173212, India",https://www.google.co.kr/maps/place/Happy+Yoga+Group/data=!4m5!3m4!1s0x390f81478fed9689:0x844acd1d6eeff6ee!8m2!3d30.904483!4d77.107263?authuser=0&hl=en&rclk=1,30.904483,77.107263
RK Gym _Totally Transform Your Body,Fitness center,"SCO:300, Dhasmesh Nagar, Nada Rd, near Sat Sahib Cement, Nayagaon, 160103, India",https://www.google.co.kr/maps/place/RK+Gym+_Totally+Transform+Your+Body/data=!4m5!3m4!1s0x390ff307bd8efd17:0x736c193df0f71100!8m2!3d30.7741163!4d76.7955246?authuser=0&hl=en&rclk=1,30.7741163,76.7955246
Ravya fitness gym & physiotherapy centre,Physical therapist,"Una - Hamirpur Rd, Himachal Pradesh 174303, India",https://www.google.co.kr/maps/place/Ravya+fitness+gym+%26+physiotherapy+centre/data=!4m5!3m4!1s0x391ad1e5eb07b759:0x93583c9ff5641e51!8m2!3d31.4966679!4d76.2762091?authuser=0&hl=en&rclk=1,31.4966679,76.2762091
The Power House Gym,Gym,"Arun Nagar Kalyari Morh, near Jio Office, Sujanpur, Punjab 145023, India",https://www.google.co.kr/maps/place/The+Power+House+Gym/data=!4m5!3m4!1s0x391c79acdda41b41:0xed6d50722cc845fc!8m2!3d32.3085478!4d75.6072211?authuser=0&hl=en&rclk=1,32.3085478,75.6072211
Shri Mahaprabhu Ram Mulkh Dayal Sadhna Mandir Yog Asharam,Gym,"Village Sheri Monja Rehu, Gandhi Gram, Himachal Pradesh, India",https://www.google.co.kr/maps/place/Shri+Mahaprabhu+Ram+Mulkh+Dayal+Sadhna+Mandir+Yog+Asharam/data=!4m5!3m4!1s0x390f8468a2d7fa2f:0x832bbd6419ff5a4b!8m2!3d30.8530789!4d77.0839646?authuser=0&hl=en&rclk=1,30.8530789,77.0839646
Golds Gym Kharar,Gym,"SCO 1, 2, 3, 4, 2nd Floor, Shivjot Enclave, Chandigarh-Chintapurni-Dharamshala Rd, Guru Teg Bahadur Nagar, Kharar, Punjab 140301, India",https://www.google.co.kr/maps/place/Golds+Gym+Kharar/data=!4m5!3m4!1s0x390ffaa957b99cc1:0x814a8eaffe80c9c5!8m2!3d30.7557564!4d76.6360921?authuser=0&hl=en&rclk=1,30.7557564,76.6360921
Vivekananda Kendra Shimla Branch,Meditation center,"Cart Road-Nabha-Phagli Rd, Nabha, Shimla, Himachal Pradesh 171004, India",https://www.google.co.kr/maps/place/Vivekananda+Kendra+Shimla+Branch/data=!4m5!3m4!1s0x390578e672433799:0xbfaa8fbe2dc24ea6!8m2!3d31.101764!4d77.158355?authuser=0&hl=en&rclk=1,31.101764,77.158355
Personal Car Trainer,Personal trainer,"Chakkar - Boileauganj Rd, Boileauganj, Shimla, Himachal Pradesh 171005, India",https://www.google.co.kr/maps/place/Personal+Car+Trainer/data=!4m5!3m4!1s0x3905798452c95bcd:0x5ed7cbcd08721ab8!8m2!3d31.0973734!4d77.1421289?authuser=0&hl=en&rclk=1,31.0973734,77.1421289
ANGIRASH FITNESS,Vitamin & supplements store,"G-01 A, HOME LAND CITY MALL, Sai Rd, Baddi, Himachal Pradesh 173205, India",https://www.google.co.kr/maps/place/ANGIRASH+FITNESS/data=!4m5!3m4!1s0x390ff501853d102b:0x1c230503f940c75e!8m2!3d30.9366918!4d76.7993361?authuser=0&hl=en&rclk=1,30.9366918,76.7993361
Herbalife,Gym,"Unnamed Road, Azad Colony, Kalka, Haryana 133302, India",https://www.google.co.kr/maps/place/Herbalife/data=!4m5!3m4!1s0x390f8e8e5d9b453f:0x506d31bfb7cff211!8m2!3d30.8348703!4d76.9340091?authuser=0&hl=en&rclk=1,30.8348703,76.9340091
"Osho Meditation Center, LowerSummerhill",Gym,"Near Artrac Primary school, MI room, Lower Summer Hill, Shimla, 171005, India","https://www.google.co.kr/maps/place/Osho+Meditation+Center,+LowerSummerhill/data=!4m5!3m4!1s0x390579a410939055:0xe01a6864bbec0c7e!8m2!3d31.1050411!4d77.1365253?authuser=0&hl=en&rclk=1",31.1050411,77.1365253
Intensity Raw Gym,Gymnasium Cz,"Sanjauli - Bhattakufer Rd, Cemetery, Sanjauli, Shimla, Himachal Pradesh 171006, India",https://www.google.co.kr/maps/place/Intensity+Raw+Gym/data=!4m5!3m4!1s0x3905820d1d5a74f9:0x598de2ae8edf01d1!8m2!3d31.0991742!4d77.2031781?authuser=0&hl=en&rclk=1,31.0991742,77.2031781
Dietitian Vipasha,Medical clinic,"Mall Rd, Middle Bazar, Gunj Bazar, Shimla, Himachal Pradesh 171001, India",https://www.google.co.kr/maps/place/Dietitian+Vipasha/data=!4m5!3m4!1s0x3905839070829699:0xd10a525a9f6c8d71!8m2!3d31.104731!4d77.17246?authuser=0&hl=en&rclk=1,31.104731,77.17246
City Fitness Gym,Gym,"sco 325 top floor, Sector 40 Market Rd, 40D, Sector 40D, Chandigarh, 160036, India",https://www.google.co.kr/maps/place/City+Fitness+Gym/data=!4m5!3m4!1s0x390fee0ae44e9e9b:0x86c3938505cc4541!8m2!3d30.73922!4d76.7312839?authuser=0&hl=en&rclk=1,30.73922,76.7312839
JUNDOKAN GOJU-RYU KARATE-DO FEDERATION OF INDIA,Karate school,"Head Quarters Kedar Cottage, Thakur Bagh, Annadale, Shimla (H.P.)-171003 India,, Shimla, Himachal Pradesh 171003, India",https://www.google.co.kr/maps/place/JUNDOKAN+GOJU-RYU+KARATE-DO+FEDERATION+OF+INDIA/data=!4m5!3m4!1s0x390578fa40000001:0x52aa24f478adeafb!8m2!3d31.1124859!4d77.1596921?authuser=0&hl=en&rclk=1,31.1124859,77.1596921
JUNDOKAN GOJU-RYU KARATE-DO FEDERATION OF INDIA,Karate school,"Head Quarters Kedar Cottage, Thakur Bagh, Annadale, Shimla (H.P.)-171003 India,, Shimla, Himachal Pradesh 171003, India",https://www.google.co.kr/maps/place/JUNDOKAN+GOJU-RYU+KARATE-DO+FEDERATION+OF+INDIA/data=!4m5!3m4!1s0x390578fa40000001:0x52aa24f478adeafb!8m2!3d31.1124859!4d77.1596921?authuser=0&hl=en&rclk=1,31.1124859,77.1596921
Herbalife Branch Office,Gym,"31.026070, 77.053535, India",https://www.google.co.kr/maps/place/Herbalife+Branch+Office/data=!4m5!3m4!1s0x39057cf91d839fa9:0x2bba3b7875f5376e!8m2!3d31.02607!4d77.053535?authuser=0&hl=en&rclk=1,31.02607,77.053535
Gold's Gym,Gym,"Gold's Gym, Una Rd, Jattan Mohalla, Hoshiarpur, Punjab 146001, India",https://www.google.co.kr/maps/place/Gold's+Gym/data=!4m5!3m4!1s0x391ae3631d24fbf7:0x1a879d8f6a21429a!8m2!3d31.5398363!4d75.9198693?authuser=0&hl=en&rclk=1,31.5398363,75.9198693
The Fit Nation Gym,Gymnasium Cz,"Bhattakufer, Shimla, Himachal Pradesh 171006, India",https://www.google.co.kr/maps/place/The+Fit+Nation+Gym/data=!4m5!3m4!1s0x39058211d5f26009:0x9659be22d05b51ce!8m2!3d31.0933177!4d77.2060575?authuser=0&hl=en&rclk=1,31.0933177,77.2060575
Ravya's fitness gym & physiotherapy centre,Health consultant,"Kuriala morh, India",https://www.google.co.kr/maps/place/Ravya's+fitness+gym+%26+physiotherapy+centre/data=!4m5!3m4!1s0x391ad1f7cf8620a7:0xf726e09a8e12eead!8m2!3d31.494262!4d76.2754403?authuser=0&hl=en&rclk=1,31.494262,76.2754403
Anytime Fitness,Fitness center,"SCO 107-108, 1st & 2nd floor, Himalaya Marg, above Honda showroom, 43B, Chandigarh, 160044, India",https://www.google.co.kr/maps/place/Anytime+Fitness/data=!4m5!3m4!1s0x390fed4348bab429:0xcd7d5790b5cd7f65!8m2!3d30.7171971!4d76.7530493?authuser=0&hl=en&rclk=1,30.7171971,76.7530493
Vishwa vijay,Yoga studio,"169, Palace Rd, Kotla Nala, Solan, Himachal Pradesh 173212, India",https://www.google.co.kr/maps/place/Vishwa+vijay/data=!4m5!3m4!1s0x390f86b3fcf94185:0x8bcacf479773acfa!8m2!3d30.9068432!4d77.1080871?authuser=0&hl=en&rclk=1,30.9068432,77.1080871
Swagger Dance & Fitness studio Baddi,Dance club,"Sai Rd, Baddi, Himachal Pradesh 173205, India",https://www.google.co.kr/maps/place/Swagger+Dance+%26+Fitness+studio+Baddi/data=!4m5!3m4!1s0x390ff5abbd0a3147:0xa9345f43d79d8792!8m2!3d30.9424199!4d76.8056697?authuser=0&hl=en&rclk=1,30.9424199,76.8056697
Star Goju-Ryu Karate Federation Of India,Martial arts school,"Star Goju-Ryu Karate Academy Above URS Supermarket VPO- Shamti, Teh, &, Distt, Solan, Himachal Pradesh 173212, India",https://www.google.co.kr/maps/place/Star+Goju-Ryu+Karate+Federation+Of+India/data=!4m5!3m4!1s0x390f810deb246649:0x9874d669d93a3d5e!8m2!3d30.8894086!4d77.1058233?authuser=0&hl=en&rclk=1,30.8894086,77.1058233
Oxizone Fitness & Spa - Gym In Mohali,Gym,"Site No. 1, Sector 70, Sahibzada Ajit Singh Nagar, Punjab 160071, India",https://www.google.co.kr/maps/place/Oxizone+Fitness+%26+Spa+-+Gym+In+Mohali/data=!4m5!3m4!1s0x390fee93f90fa237:0x915565f32f73ede4!8m2!3d30.6965211!4d76.7160333?authuser=0&hl=en&rclk=1,30.6965211,76.7160333
Sub Zero Fitness,Gym,"SCO 9-10-11, 12-13, Madhya Marg, 9-D, Chandigarh, 160009, India",https://www.google.co.kr/maps/place/Sub+Zero+Fitness/data=!4m5!3m4!1s0x390fed118800e803:0x39e23385b099521c!8m2!3d30.7453597!4d76.7873747?authuser=0&hl=en&rclk=1,30.7453597,76.7873747
Metro Sports The Fitness Store,Fitness equipment wholesaler,"SCF 14, Sector 7-C, Sector 7, Chandigarh, 160019, India",https://www.google.co.kr/maps/place/Metro+Sports+The+Fitness+Store/data=!4m5!3m4!1s0x390fed164d4c6dbd:0xd892445546e576f9!8m2!3d30.7361062!4d76.80081?authuser=0&hl=en&rclk=1,30.7361062,76.80081
Shanti Narayan Kutir Aol Centre,Meditation center,"Seri, Summer Hill, Shimla, Himachal Pradesh 171005, India",https://www.google.co.kr/maps/place/Shanti+Narayan+Kutir+Aol+Centre/data=!4m5!3m4!1s0x390579e3d2324565:0x66045bd87c1b6867!8m2!3d31.1371559!4d77.1404349?authuser=0&hl=en&rclk=1,31.1371559,77.1404349
Barbell GYM,Fitness center,"Sco no. 359-360; Sector 44d, Chandigarh, 160047, India",https://www.google.co.kr/maps/place/Barbell+GYM/data=!4m5!3m4!1s0x390fec33c92ecb53:0x15732cfcd503c945!8m2!3d30.7141943!4d76.7514244?authuser=0&hl=en&rclk=1,30.7141943,76.7514244
Lions Mma Fight Club And Fitness Chandigarh,Gym,"Sector 28 D, Sector 28, Chandigarh, 160002, India",https://www.google.co.kr/maps/place/Lions+Mma+Fight+Club+And+Fitness+Chandigarh/data=!4m5!3m4!1s0x390fece0c8fe3a3d:0x8da8606e6eadbf11!8m2!3d30.7168063!4d76.7993263?authuser=0&hl=en&rclk=1,30.7168063,76.7993263
Mahashe Enterprises,Fitness equipment wholesaler,"The Mall Rd, Near Lift, The Mall, Shimla, Himachal Pradesh 171001, India",https://www.google.co.kr/maps/place/Mahashe+Enterprises/data=!4m5!3m4!1s0x390578969cf6c9db:0xc647cc9d5d5e4841!8m2!3d31.102338!4d77.177515?authuser=0&hl=en&rclk=1,31.102338,77.177515
The Fitness World,Gymnasium Cz,"Malyana, Shimla, Himachal Pradesh 171006, India",https://www.google.co.kr/maps/place/The+Fitness+World/data=!4m5!3m4!1s0x390579c137c7e235:0xc69a248f7a169f7c!8m2!3d31.0865584!4d77.1890194?authuser=0&hl=en&rclk=1,31.0865584,77.1890194
Herbalife,Gym,"Udyog Path, 22B, Sector 22, Chandigarh, 160022, India",https://www.google.co.kr/maps/place/Herbalife/data=!4m5!3m4!1s0x390feda774b50a07:0x60b411e28278cfd2!8m2!3d30.734016!4d76.778386?authuser=0&hl=en&rclk=1,30.734016,76.778386
Grand Slam Fitness,Fitness equipment wholesaler,"Shop No 9, Ram Mandir Market, Ram Bazar, Shimla, Himachal Pradesh 171001, India",https://www.google.co.kr/maps/place/Grand+Slam+Fitness/data=!4m5!3m4!1s0x3905799444735d51:0x4b9ea56fdfc34494!8m2!3d31.1046388!4d77.1704444?authuser=0&hl=en&rclk=1,31.1046388,77.1704444
"AIR Fitness & Bikes - FITNESS PRODUCTS STORE, Gym bikes - Gym products, Powermax Motorised treadmill dealer in chandigarh zirakpur Mohali Himachal pradesh Derabassi Ambala Panchkula",Fitness equipment wholesaler,"Showroom No. 37, Silver City, Main, Ambala Chandigarh Expy, near Hotel Mannat, Highway, Zirakpur, Punjab 140603, India","https://www.google.co.kr/maps/place/AIR+Fitness+%26+Bikes+-+FITNESS+PRODUCTS+STORE,+Gym+bikes+-+Gym+products,+Powermax+Motorised+treadmill+dealer+in+chandigarh+zirakpur+Mohali+Himachal+pradesh+Derabassi+Ambala+Panchkula/data=!4m5!3m4!1s0x390feb4b4fc90b01:0xf4f020e5163fbcf7!8m2!3d30.63361!4d76.8229726?authuser=0&hl=en&rclk=1",30.63361,76.8229726
Turning Point Gym.,Body shaping class,"Unnamed Road, Arki, Himachal Pradesh 173208, India",https://www.google.co.kr/maps/place/Turning+Point+Gym./data=!4m5!3m4!1s0x39056f8273915603:0xe2d959cdcf0496c7!8m2!3d31.1518943!4d76.9647321?authuser=0&hl=en&rclk=1,31.1518943,76.9647321
Anytime Fitness,Gym,"SF A-202 Parsvnath Eleganza Plot No.103 (New No.542/935, Block-A, Hathibarkala Salwala, Dehradun, Uttarakhand 248001, India",https://www.google.co.kr/maps/place/Anytime+Fitness/data=!4m5!3m4!1s0x390929d3f629942d:0x4157b5697dc2d4ad!8m2!3d30.342917!4d78.060203?authuser=0&hl=en&rclk=1,30.342917,78.060203
Crossfit Mussoorie,Gym,"Firs Estate, Char Dukan Chakar, Cantt, Landour, Mussoorie, Uttarakhand 248179, India",https://www.google.co.kr/maps/place/Crossfit+Mussoorie/data=!4m5!3m4!1s0x3908d095fb631d33:0x8efe4c00ee75091!8m2!3d30.4637296!4d78.093349?authuser=0&hl=en&rclk=1,30.4637296,78.093349
Fitness Planet,Physical fitness program,"Gole Market, Mandi Gobindgarh, Punjab 147301, India",https://www.google.co.kr/maps/place/Fitness+Planet/data=!4m5!3m4!1s0x39101a8cd3dc849d:0xa20e32f043f025df!8m2!3d30.6666753!4d76.2916717?authuser=0&hl=en&rclk=1,30.6666753,76.2916717
The S Fitness Club,Gymnastics club,"behind civil dispensary, Khanyara - Dari Rd, near shanidev mandir, Himachal Pradesh, India",https://www.google.co.kr/maps/place/The+S+Fitness+Club/data=!4m5!3m4!1s0x391b51e642641e05:0x68198271fe529065!8m2!3d32.2075863!4d76.3386628?authuser=0&hl=en&rclk=1,32.2075863,76.3386628
Gym,Gymnastics club,"RUPESH KUMAR S/O SUKH RAM VILL REWALSAR PO REWALSAR DISTT MAMDI HP PIN NO 175023, Balh, Himachal Pradesh 175023, India",https://www.google.co.kr/maps/place/Gym/data=!4m5!3m4!1s0x39051fbc0d90a053:0x1d0b4dae2655d418!8m2!3d31.6321926!4d76.8331743?authuser=0&hl=en&rclk=1,31.6321926,76.8331743
NEO FITNESS & SPORTS,Gym,"115 sayyad mohalla krishan nagar chowk chakrta road dehradun, India",https://www.google.co.kr/maps/place/NEO+FITNESS+%26+SPORTS/data=!4m5!3m4!1s0x390929fa6dd27e33:0xabc113b56980c3e8!8m2!3d30.3329838!4d78.0269864?authuser=0&hl=en&rclk=1,30.3329838,78.0269864
RAJPUT ENTERPRISES,Gym,"Shiv Mandir Road Katora Talab Raipur Chattisgarh, Raipur, India",https://www.google.co.kr/maps/place/RAJPUT+ENTERPRISES/data=!4m5!3m4!1s0x390fedd4b792232f:0x2b11c6d956721c9d!8m2!3d30.7161252!4d76.7380909?authuser=0&hl=en&rclk=1,30.7161252,76.7380909
Powermax Fitness,Fitness equipment wholesaler,"Sports Studio 1st Floor Capri Trade Center, Connaught Place, Dehradun, Uttarakhand 248001, India",https://www.google.co.kr/maps/place/Powermax+Fitness/data=!4m5!3m4!1s0x39092b891d14623f:0xe1e33ece819c5000!8m2!3d30.3264497!4d78.0365761?authuser=0&hl=en&rclk=1,30.3264497,78.0365761
Oxyfit Gym,Gym,"2666, Sector 70, Sahibzada Ajit Singh Nagar, Punjab 160071, India",https://www.google.co.kr/maps/place/Oxyfit+Gym/data=!4m5!3m4!1s0x390fee93f94ec97d:0x7bef28a257d1ad48!8m2!3d30.6965316!4d76.7159461?authuser=0&hl=en&rclk=1,30.6965316,76.7159461
Fitness Planet,Fitness center,"Sco No 3, Pakhowal, Pakhowal Road, Green Park Avenue, Pakhowal Road, Ludhiana, Punjab 141001, India",https://www.google.co.kr/maps/place/Fitness+Planet/data=!4m5!3m4!1s0x391a8187aafc9dcb:0x56e52a8e56bf2b78!8m2!3d30.8749329!4d75.804585?authuser=0&hl=en&rclk=1,30.8749329,75.804585
gym and school Pind Chaklan,Gymnastics center,"Chaklan, Punjab 140103, India",https://www.google.co.kr/maps/place/gym+and+school+Pind+Chaklan/data=!4m5!3m4!1s0x390ff8d597e02345:0xf8b10ca072644000!8m2!3d30.8779508!4d76.5525191?authuser=0&hl=en&rclk=1,30.8779508,76.5525191
Anytime Fitness,Gym,"SCO 32, 33, 34, 3rd Floor, Sector 32A, Ludhiana, Punjab 141010, India",https://www.google.co.kr/maps/place/Anytime+Fitness/data=!4m5!3m4!1s0x391a9d24ee108bf1:0xeaf07bc08b9250af!8m2!3d30.9054833!4d75.8956336?authuser=0&hl=en&rclk=1,30.9054833,75.8956336
Fitness Planet,Gym,"Doon University Rd, Tehri Nagar, Mothrowala, Dehradun, Uttarakhand 248001, India",https://www.google.co.kr/maps/place/Fitness+Planet/data=!4m5!3m4!1s0x3909292ba00edce1:0xa7963d2a86262b65!8m2!3d30.2797969!4d78.0403882?authuser=0&hl=en&rclk=1,30.2797969,78.0403882
Anytime Fitness,Gym,"Sushma Infinium, Ambala Chandigarh Expy, Zirakpur, Punjab 140603, India",https://www.google.co.kr/maps/place/Anytime+Fitness/data=!4m5!3m4!1s0x390fc184c1739c3d:0xad447d10cff1aebe!8m2!3d30.5174818!4d76.8087158?authuser=0&hl=en&rclk=1,30.5174818,76.8087158
Good life fitness,Gym,"Amloh - Khanna Rd, Gulmohar Nagar, Khanna, Punjab 147301, India",https://www.google.co.kr/maps/place/Good+life+fitness/data=!4m5!3m4!1s0x3910115b2f623053:0x2bb8a719bafc09a9!8m2!3d30.6847167!4d76.2279983?authuser=0&hl=en&rclk=1,30.6847167,76.2279983
Gold Gym,Gym,"202-203, Trade Avenue, 2nd Floor Suren Road, Off, Western Express Hwy, Andheri East, Mumbai, Maharashtra 400093, India",https://www.google.co.kr/maps/place/Gold+Gym/data=!4m5!3m4!1s0x391a838847841b8f:0xd154ad5df9a4be19!8m2!3d30.932974!4d75.8397345?authuser=0&hl=en&rclk=1,30.932974,75.8397345
Herbalife,Gym,"Maheshpur Rd, Sector 7, Panchkula, Haryana 134109, India",https://www.google.co.kr/maps/place/Herbalife/data=!4m5!3m4!1s0x390f936ab108c0b1:0x9914bb4d67f4b03!8m2!3d30.703935!4d76.849952?authuser=0&hl=en&rclk=1,30.703935,76.849952
Gold's Gym,Fitness center,"G.T Road, Near McDonald's, Bullepur, Khanna, Punjab 141401, India",https://www.google.co.kr/maps/place/Gold's+Gym/data=!4m5!3m4!1s0x39101b9362be20f9:0xa18b8a58ed8a3100!8m2!3d30.684493!4d76.2562028?authuser=0&hl=en&rclk=1,30.684493,76.2562028
Anytime Fitness,Gym,"1st floor Plot no.11 E & 12 E, Malhar Cinema Rd, Sarabha Nagar, Ludhiana, Punjab 141001, India",https://www.google.co.kr/maps/place/Anytime+Fitness/data=!4m5!3m4!1s0x391a83ceed1aaaab:0x862f7e09abc0679e!8m2!3d30.8946629!4d75.8222997?authuser=0&hl=en&rclk=1,30.8946629,75.8222997
Powermax Fitness Usa Based Brand,Fitness equipment wholesaler,"13-B, New Vijay Nagar, Vijay Nagar, Jalandhar, Punjab 144001, India",https://www.google.co.kr/maps/place/Powermax+Fitness+Usa+Based+Brand/data=!4m5!3m4!1s0x391a5be046a53f8d:0x80023b26a6dbef88!8m2!3d31.3270758!4d75.563568?authuser=0&hl=en&rclk=1,31.3270758,75.563568
Anytime Fitness,Gym,"Floor, B-19-400, Second and Third, 2, Rani Jhansi Rd, Civil Lines, Ludhiana, Punjab 141010, India",https://www.google.co.kr/maps/place/Anytime+Fitness/data=!4m5!3m4!1s0x391a8328d2220465:0xbab38fcb9d93c7cf!8m2!3d30.9098562!4d75.8369025?authuser=0&hl=en&rclk=1,30.9098562,75.8369025
Trishma Resort,·3-star hotel,"Nangal, Una Rd, Behdala, Himachal Pradesh 174306, India",https://www.google.co.kr/maps/place/Trishma+Resort/data=!4m5!3m4!1s0x391ad032dfb76419:0x482b20901a222ee5!8m2!3d31.4494945!4d76.3160774?authuser=0&hl=en&rclk=1,31.4494945,76.3160774
Herbalife,Gym,"Unnamed Road, Sector 82, JLPL Industrial Area, Punjab 140308, India",https://www.google.co.kr/maps/place/Herbalife/data=!4m5!3m4!1s0x390fe9591e42e39f:0xba3272d5e5ca9017!8m2!3d30.6542655!4d76.7306387?authuser=0&hl=en&rclk=1,30.6542655,76.7306387
Body Building Supplement,Vitamin & supplements store,"road, The Mall, Shimla, Himachal Pradesh 171001, India",https://www.google.co.kr/maps/place/Body+Building+Supplement/data=!4m5!3m4!1s0x3905796cd02baacd:0x64c9663174e1fd50!8m2!3d31.1002149!4d77.1769763?authuser=0&hl=en&rclk=1,31.1002149,77.1769763
Gold Gym,Gym,"Lower Mall Rd, Moti Bagh, Patiala, Punjab 147001, India",https://www.google.co.kr/maps/place/Gold+Gym/data=!4m5!3m4!1s0x3910291dbd14d0c1:0xe0fa75a1532af30d!8m2!3d30.3164625!4d76.3947239?authuser=0&hl=en&rclk=1,30.3164625,76.3947239
