Company_Name,Category,Address,Url,latitude,longtitude
Dr.T.L.Vasudevan's ENT Surgical Clinic,Hospital,"216, Bussy Street, AKA Lal Bahadur Sastry Street, Puducherry, 605001, India",https://www.google.co.kr/maps/place/Dr.T.L.Vasudevan's+ENT+Surgical+Clinic/data=!4m5!3m4!1s0x3a536181a474a0bb:0xf1cab3e454ad3b4f!8m2!3d11.9300902!4d79.825839?authuser=0&hl=en&rclk=1,11.9300902,79.825839
Jipmer Hospital,Hospital,"Jipmer Campus Rd, Jipmer Campus, Puducherry, 605006, India",https://www.google.co.kr/maps/place/Jipmer+Hospital/data=!4m5!3m4!1s0x3a5361e45536c1c3:0xe02d3465683f42d0!8m2!3d11.9529719!4d79.7966828?authuser=0&hl=en&rclk=1,11.9529719,79.7966828
Be Well Hospital Puducherry,Private hospital,"15, East Coast Rd, Maduvu Pet, Green Gardens, Kottupalayam, Puducherry, 605008, India",https://www.google.co.kr/maps/place/Be+Well+Hospital+Puducherry/data=!4m5!3m4!1s0x3a5361691bec3449:0x1f5365f45605099e!8m2!3d11.9508098!4d79.8153199?authuser=0&hl=en&rclk=1,11.9508098,79.8153199
St. Joseph's Hospital Cluny,General hospital,"Romain Rolland St, White Town, Puducherry, 605001, India",https://www.google.co.kr/maps/place/St.+Joseph's+Hospital+Cluny/data=!4m5!3m4!1s0x3a53622bb751eb0f:0xebca77aa7d5194da!8m2!3d11.9304444!4d79.8341531?authuser=0&hl=en&rclk=1,11.9304444,79.8341531
AUM HOSPITALS,General hospital,"No. 1,2, 3,4, Solai Nagar Main Rd, Near Water Tank, Muthialpet, Puducherry, 605003, India",https://www.google.co.kr/maps/place/AUM+HOSPITALS/data=!4m5!3m4!1s0x3a5363ddbfb4008b:0x4e371e12684a9c58!8m2!3d11.9531717!4d79.8366684?authuser=0&hl=en&rclk=1,11.9531717,79.8366684
MVR Medical Centre,General hospital,"12 & 13 ECR Main Road Near Sivaji Statue Lawspet, Karuvadikuppam, Puducherry, 605008, India",https://www.google.co.kr/maps/place/MVR+Medical+Centre/data=!4m5!3m4!1s0x3a53615d8a642f0b:0xe7280cc731be1d91!8m2!3d11.9549946!4d79.8225409?authuser=0&hl=en&rclk=1,11.9549946,79.8225409
CERT India Hospital,Hospital,"WRCJ+X92, Vambakeerapalayam, Puducherry, 605004, India",https://www.google.co.kr/maps/place/CERT+India+Hospital/data=!4m5!3m4!1s0x3a5362280e0e55c3:0xedfd50fd0a613ac0!8m2!3d11.9223855!4d79.830892?authuser=0&hl=en&rclk=1,11.9223855,79.830892
JIPMER Women and Children's Hospital,Hospital,"Jipmer Campus Rd, Jipmer Campus, Puducherry, 605006, India",https://www.google.co.kr/maps/place/JIPMER+Women+and+Children's+Hospital/data=!4m5!3m4!1s0x3a536117dfca8c3f:0x171c4ba8dbc84356!8m2!3d11.952942!4d79.7994389?authuser=0&hl=en&rclk=1,11.952942,79.7994389
New Medical Centre - Multispeciality Hospital In Pondicherry,Hospital,"No:470, Mahatma Gandhi Rd, MG Road Area, Puducherry, 605001, India",https://www.google.co.kr/maps/place/New+Medical+Centre+-+Multispeciality+Hospital+In+Pondicherry/data=!4m5!3m4!1s0x3a5361805f1e8eff:0x57f05a1ee197aba2!8m2!3d11.930015!4d79.828274?authuser=0&hl=en&rclk=1,11.930015,79.828274
Clinic Nallam - MULTI SPECIALITY HOSPITAL IN PONDICHERRY,Hospital,"No.86, Eswaran Kovil Street, near MG Road, cutting, Puducherry, 605001, India",https://www.google.co.kr/maps/place/Clinic+Nallam+-+MULTI+SPECIALITY+HOSPITAL+IN+PONDICHERRY/data=!4m5!3m4!1s0x3a5363d6182be3f7:0x4e78cd9a1ceedfc0!8m2!3d11.9395206!4d79.8304048?authuser=0&hl=en&rclk=1,11.9395206,79.8304048
Rani Hospital Pondicherry- A Multi Speciality Hospital,Hospital,"No: 27, Vazhudavoor Rd, near Rajiv Gandhi Statue, Pettaiyanchathiram, Aruthra Nagar, Puducherry, 605009, India",https://www.google.co.kr/maps/place/Rani+Hospital+Pondicherry-+A+Multi+Speciality+Hospital/data=!4m5!3m4!1s0x3a53619afd7ede61:0xbab9764020ecc5e6!8m2!3d11.9412493!4d79.8070789?authuser=0&hl=en&rclk=1,11.9412493,79.8070789
Pondicherry Dispensary Service,Hospital,"Anglo French Textiles, Anglo French Textiles, Cuddalore Road, opposite to INDIAN BANK, Puducherry, 605004, India",https://www.google.co.kr/maps/place/Pondicherry+Dispensary+Service/data=!4m5!3m4!1s0x3a536195339cdbe3:0x9ce2d17d1ea5812f!8m2!3d11.90955!4d79.80906?authuser=0&hl=en&rclk=1,11.90955,79.80906
Rajiv Gandhi Government Women And Children's Hospital,Maternity hospital,"Iyyanar Koil St, Aruthra Nagar, Puducherry, 605005, India",https://www.google.co.kr/maps/place/Rajiv+Gandhi+Government+Women+And+Children's+Hospital/data=!4m5!3m4!1s0x3a53610cab7291f9:0xcd1f16ef29647a65!8m2!3d11.9375646!4d79.8069801?authuser=0&hl=en&rclk=1,11.9375646,79.8069801
Pondicherry City Hospital,Hospital,"WRQF+F5C, Pattinakkadai, Kamaraj Nagar, Puducherry, 605005, India",https://www.google.co.kr/maps/place/Pondicherry+City+Hospital/data=!4m5!3m4!1s0x3a53617be63b2441:0x3c6ed01ba2f13ece!8m2!3d11.9386864!4d79.8228896?authuser=0&hl=en&rclk=1,11.9386864,79.8228896
ESIC Hospital,Hospital,"Victory Research institute,Dhoordarsan, VCRC Rd, Gorimedu, Puducherry, 605006, India",https://www.google.co.kr/maps/place/ESIC+Hospital/data=!4m5!3m4!1s0x3a536118979b98a5:0x53bbaa85bc23af2e!8m2!3d11.9529269!4d79.792119?authuser=0&hl=en&rclk=1,11.9529269,79.792119
SRI SAI KRUPA HOSPITAL - Orthopedic Speciality Hospital in Pondicherry,Orthopedic surgeon,"No.31, Cuddalore Road, next to Daily Thandi Office, Ambedkar Nagar, Orleanpet, Puducherry, 605001, India",https://www.google.co.kr/maps/place/SRI+SAI+KRUPA+HOSPITAL+-+Orthopedic+Speciality+Hospital+in+Pondicherry/data=!4m5!3m4!1s0x3a5361833b8ec687:0x38dfeb532f65791!8m2!3d11.9283565!4d79.8197655?authuser=0&hl=en&rclk=1,11.9283565,79.8197655
East Coast Hospitals & Vaccination Centre,Hospital,"194, Bussy St, MG Road Area, Puducherry, 605001, India",https://www.google.co.kr/maps/place/East+Coast+Hospitals+%26+Vaccination+Centre/data=!4m5!3m4!1s0x3a536181abcfffa7:0x169fd0b0836549a6!8m2!3d11.9299266!4d79.8265964?authuser=0&hl=en&rclk=1,11.9299266,79.8265964
Pondicherry institute of medical sciences - laswpet centre,Hospital,"XR36+6HW, Rajaji Nagar, Avvai Nagar, Lawspet, Puducherry, 605008, India",https://www.google.co.kr/maps/place/Pondicherry+institute+of+medical+sciences+-+laswpet+centre/data=!4m5!3m4!1s0x3a53616a15555555:0x56873fa69760849c!8m2!3d11.9531034!4d79.811464?authuser=0&hl=en&rclk=1,11.9531034,79.811464
East Coast Hospitals,Hospital,"Thiruvalluvar Salai, Naveena Garden, Brindavan Colony, Puducherry, 605005, India",https://www.google.co.kr/maps/place/East+Coast+Hospitals/data=!4m5!3m4!1s0x3a53617747335ddb:0x77d6f87ff4cb4e89!8m2!3d11.9368215!4d79.8171546?authuser=0&hl=en&rclk=1,11.9368215,79.8171546
Government Hospital,Hospital,"Suffren St, White Town, Puducherry, 605001, India",https://www.google.co.kr/maps/place/Government+Hospital/data=!4m5!3m4!1s0x3a53622ba5394007:0x8085b0460c546c61!8m2!3d11.9293101!4d79.8332798?authuser=0&hl=en&rclk=1,11.9293101,79.8332798
Sri Arunachalam Hospital,Hospital,"205, CHINNA SUBBRAYA, Yanam Vengadasalam Pillai St, opposite to KAMBAN KALAI ARANGAM, Puducherry, 605001, India",https://www.google.co.kr/maps/place/Sri+Arunachalam+Hospital/data=!4m5!3m4!1s0x3a5361818e5c1eb5:0xfe6489ba1f7a1722!8m2!3d11.9304401!4d79.8248605?authuser=0&hl=en&rclk=1,11.9304401,79.8248605
Dr.T.L.Vasudevan's ENT Surgical Clinic,Hospital,"216, Bussy Street, AKA Lal Bahadur Sastry Street, Puducherry, 605001, India",https://www.google.co.kr/maps/place/Dr.T.L.Vasudevan's+ENT+Surgical+Clinic/data=!4m5!3m4!1s0x3a536181a474a0bb:0xf1cab3e454ad3b4f!8m2!3d11.9300902!4d79.825839?authuser=0&hl=en&rclk=1,11.9300902,79.825839
Madhavan hospital,Hospital,"No.5, First Floor ChinnaKosapalayam, Natesan Nagar E Rd, Nellithope, Puducherry, 605005, India",https://www.google.co.kr/maps/place/Madhavan+hospital/data=!4m5!3m4!1s0x3a53619e33602437:0x73972cb5326b04fd!8m2!3d11.9304582!4d79.8100826?authuser=0&hl=en&rclk=1,11.9304582,79.8100826
JIPMER Super Speciality Block,Hospital,"Jipmer Campus Rd, Dhanvantari Nagar, Puducherry, 605006, India",https://www.google.co.kr/maps/place/JIPMER+Super+Speciality+Block/data=!4m5!3m4!1s0x3a536117d6498ad9:0x35f2464d921c0db3!8m2!3d11.9535875!4d79.7983652?authuser=0&hl=en&rclk=1,11.9535875,79.7983652
Pondy Surgical Centre,Hospital,"305, Bharathiyar St, Ashok Nagar, Lawspet, Puducherry, 605008, India",https://www.google.co.kr/maps/place/Pondy+Surgical+Centre/data=!4m5!3m4!1s0x3a536141ad4e3023:0xd027e79b67d30871!8m2!3d11.9565848!4d79.8101029?authuser=0&hl=en&rclk=1,11.9565848,79.8101029
PIMS Hospital City Centre,Hospital,"WRW6+HGH, Annamalai Nagar, Puducherry, 605013, India",https://www.google.co.kr/maps/place/PIMS+Hospital+City+Centre/data=!4m5!3m4!1s0x3a53616c4991b097:0xf0e92aa4800f4002!8m2!3d11.9464356!4d79.8113598?authuser=0&hl=en&rclk=1,11.9464356,79.8113598
Heart Care Hospital,Hospital,"E.C. Main Road, E C Main Road, Pondicherry, near Auto Stand, Puducherry, 605008, India",https://www.google.co.kr/maps/place/Heart+Care+Hospital/data=!4m5!3m4!1s0x3a5361691c76951b:0x595fee639475262e!8m2!3d11.950844!4d79.8152946?authuser=0&hl=en&rclk=1,11.950844,79.8152946
EVK Siddha Hospital Pondicherry,Hospital,"Opposites to Vardaraja Perumal Temple, 57, Mahatma Gandhi Rd, Heritage Town, Puducherry, 605001, India",https://www.google.co.kr/maps/place/EVK+Siddha+Hospital+Pondicherry/data=!4m5!3m4!1s0x3a536327400d582f:0x882d4bf3c09f8b08!8m2!3d11.9408378!4d79.830299?authuser=0&hl=en&rclk=1,11.9408378,79.830299
Sri Ramachandra Hospital,Hospital,"160, Near New Medicals Centre, Bussy Street, Puducherry, 605001, India",https://www.google.co.kr/maps/place/Sri+Ramachandra+Hospital/data=!4m5!3m4!1s0x3a536180f68d905f:0xc6b3975330a9c2a4!8m2!3d11.92954!4d79.82785?authuser=0&hl=en&rclk=1,11.92954,79.82785
Senthil Women & Child Hospital & Vaccination Centre,Hospital,"No. 10 & 12,, Thillai Maistry Street', MG Road Area, Puducherry, 605001, India",https://www.google.co.kr/maps/place/Senthil+Women+%26+Child+Hospital+%26+Vaccination+Centre/data=!4m5!3m4!1s0x3a536180c0fd85fb:0xddc684048456b8a6!8m2!3d11.928151!4d79.8281?authuser=0&hl=en&rclk=1,11.928151,79.8281
Hamdam Hospital,Hospital,"M.G. Road, MG Road, near Hamdam Hospital, Kottakuppam, Puducherry, Tamil Nadu 605104, India",https://www.google.co.kr/maps/place/Hamdam+Hospital/data=!4m5!3m4!1s0x3a5363e40239a657:0xb7150a86e19aac56!8m2!3d11.96115!4d79.8357?authuser=0&hl=en&rclk=1,11.96115,79.8357
Puducherry HG,Hospital,"WRJM+H2V, White Town, Puducherry, 605001, India",https://www.google.co.kr/maps/place/Puducherry+HG/data=!4m5!3m4!1s0x3a53622b204243d9:0xbb6c524c0c3b6e02!8m2!3d11.9314754!4d79.8325387?authuser=0&hl=en&rclk=1,11.9314754,79.8325387
A.G. Padmavati's Hospital Ltd,General hospital,"R.S. 127/1A, ARUMATHAPURAM Villanur Main Road, Arumparthapuram, Marie Oulgaret, Puducherry, 605110, India",https://www.google.co.kr/maps/place/A.G.+Padmavati's+Hospital+Ltd/data=!4m5!3m4!1s0x3a536051123149e5:0x3382a687d3990958!8m2!3d11.9232429!4d79.7776094?authuser=0&hl=en&rclk=1,11.9232429,79.7776094
JIPMER EMS,Hospital,"Jipmer Campus Rd, Dhanvantari Nagar, Puducherry, 605006, India",https://www.google.co.kr/maps/place/JIPMER+EMS/data=!4m5!3m4!1s0x3a53613d826f5ed9:0x9adab424bcfb6507!8m2!3d11.9544564!4d79.7988679?authuser=0&hl=en&rclk=1,11.9544564,79.7988679
Mahatma Gandhi Govt. Leprosy Hospital,Hospital,"6, Lazar Kovil St, Vambakeerapalayam, Puducherry, 605004, India",https://www.google.co.kr/maps/place/Mahatma+Gandhi+Govt.+Leprosy+Hospital/data=!4m5!3m4!1s0x3a5362276e6b83c9:0xf5fa65c9e68d0899!8m2!3d11.9182349!4d79.8316645?authuser=0&hl=en&rclk=1,11.9182349,79.8316645
Pudhuvai Life Line,Hospital,"178/14, ECR Road, Opp. Sri Sankara Vidyalaya School, Lawspet, Puducherry, 605012, India",https://www.google.co.kr/maps/place/Pudhuvai+Life+Line/data=!4m5!3m4!1s0x3a536168f96d1137:0xdde680e24e4b9fbb!8m2!3d11.951594!4d79.816141?authuser=0&hl=en&rclk=1,11.951594,79.816141
East Coast Hospitals,General hospital,"No.1, Pichaiveerampattinam - Moolakulam Road, Paris Nagar, Marie Oulgaret, Puducherry 605010, India",https://www.google.co.kr/maps/place/East+Coast+Hospitals/data=!4m5!3m4!1s0x3a536055e356991d:0xdcdc7fa75ed06f48!8m2!3d11.93019!4d79.779575?authuser=0&hl=en&rclk=1,11.93019,79.779575
ayurveda panchakarma special therapy unit (govt of pondicherry),Hospital,"Lenin St, Kuyavarpalayam, Puducherry, 605005, India",https://www.google.co.kr/maps/place/ayurveda+panchakarma+special+therapy+unit+(govt+of+pondicherry)/data=!4m5!3m4!1s0x3a53617683c01b83:0x549111291c06e4cf!8m2!3d11.9352914!4d79.8131261?authuser=0&hl=en&rclk=1,11.9352914,79.8131261
Kidney Center Hospital,Hospital,"No.206, Anna Salai,, (Near Old Bus Stand, Opp to Botanical Garden), Puducherry, 605001, India",https://www.google.co.kr/maps/place/Kidney+Center+Hospital/data=!4m5!3m4!1s0x3a53618166b4c61b:0x58fe384cd2aaf9f!8m2!3d11.9282047!4d79.824484?authuser=0&hl=en&rclk=1,11.9282047,79.824484
S S Remedy Hospital,Hospital,"491, Kamaraj Salai Road, Near Annamalai Hotel, Puducherry 605013, India",https://www.google.co.kr/maps/place/S+S+Remedy+Hospital/data=!4m5!3m4!1s0x3a5361722830d27f:0x802547714ae50e98!8m2!3d11.940828!4d79.8127899?authuser=0&hl=en&rclk=1,11.940828,79.8127899
St. Joseph's Hospital (Cluny) Out Patients Department,Hospital,"16, Romain Rolland St, White Town, Puducherry, 605001, India",https://www.google.co.kr/maps/place/St.+Joseph's+Hospital+(Cluny)+Out+Patients+Department/data=!4m5!3m4!1s0x3a53622b73cec927:0xb5d1c99220e8e223!8m2!3d11.930591!4d79.8337699?authuser=0&hl=en&rclk=1,11.930591,79.8337699
Apollo Hospitals Information Centre,Hospital,"No: 60, 100 Feet Rd, opposite NT Mahal, Ellaipillaichavady, Anna Nagar, Puducherry, 605001, India",https://www.google.co.kr/maps/place/Apollo+Hospitals+Information+Centre/data=!4m5!3m4!1s0x1106ae60a10f0c59:0x246a00730030d3d2!8m2!3d11.9349703!4d79.8078302?authuser=0&hl=en&rclk=1,11.9349703,79.8078302
Dr.T.L.Vasudevan's ENT Surgical Clinic,Hospital,"216, Bussy Street, AKA Lal Bahadur Sastry Street, Puducherry, 605001, India",https://www.google.co.kr/maps/place/Dr.T.L.Vasudevan's+ENT+Surgical+Clinic/data=!4m5!3m4!1s0x3a536181a474a0bb:0xf1cab3e454ad3b4f!8m2!3d11.9300902!4d79.825839?authuser=0&hl=en&rclk=1,11.9300902,79.825839
ESI Dispensary Reddiyarpalayam (NEW),Hospital,"behind telecom quarters, 8th Cross, Jaya Nagar, Reddiarpalayam, Puducherry, India",https://www.google.co.kr/maps/place/ESI+Dispensary+Reddiyarpalayam+(NEW)/data=!4m5!3m4!1s0x3a5361dbd7a52291:0x1ac1f15b04f7cdae!8m2!3d11.93006!4d79.7974535?authuser=0&hl=en&rclk=1,11.93006,79.7974535
Indian Systems Of Medicine And Homeopathy Department,Government hospital,"Chest Hospital, Government Maternity Hospital, H.M.Kassim Salai, Puducherry, 605001, India",https://www.google.co.kr/maps/place/Indian+Systems+Of+Medicine+And+Homeopathy+Department/data=!4m5!3m4!1s0x3a53622ae89f2c85:0xa568d19371fccd8c!8m2!3d11.9311808!4d79.8318198?authuser=0&hl=en&rclk=1,11.9311808,79.8318198
Ashwini Maternity Hospital,Maternity hospital,"90, Vazhudavoor Rd, near Rani Hospital, Vedapureeswarar Varadaraja Perumal Nagar, Puducherry, 605009, India",https://www.google.co.kr/maps/place/Ashwini+Maternity+Hospital/data=!4m5!3m4!1s0x3a53610df5694d37:0x316d09bb1c5fce16!8m2!3d11.9420179!4d79.803348?authuser=0&hl=en&rclk=1,11.9420179,79.803348
"St. Joseph's Hospital, Maternity",Hospital,"Romain Rolland St, White Town, Puducherry, 605001, India","https://www.google.co.kr/maps/place/St.+Joseph's+Hospital,+Maternity/data=!4m5!3m4!1s0x3a5363c6dd51e6b5:0x67daae9f5dd71c8a!8m2!3d11.9284273!4d79.8336437?authuser=0&hl=en&rclk=1",11.9284273,79.8336437
V.K.N. Hospital,Hospital,"Shop No. 2A, Police St, Near Police Station, Bharathidasan Nagar, Mudaliarpet, Puducherry, 605004, India",https://www.google.co.kr/maps/place/V.K.N.+Hospital/data=!4m5!3m4!1s0x3a53619522d71243:0x481fedccc613094b!8m2!3d11.92188!4d79.8155645?authuser=0&hl=en&rclk=1,11.92188,79.8155645
CGHS Puducherry,Hospital,"CGHS wellness center, IGMC&RI, Kathirkamam, Puducherry, 605009, India",https://www.google.co.kr/maps/place/CGHS+Puducherry/data=!4m5!3m4!1s0x3a53610f7dcf77d3:0x692d6224b2f9f171!8m2!3d11.9394642!4d79.7961871?authuser=0&hl=en&rclk=1,11.9394642,79.7961871
Dr. Kumaran's Diabetes Medicare Centre,Hospital,"No. 51, 52, 2nd Cross St, Sithananda Nagar, Ellaipillaichavadi, Thanthai Periyar Nagar, Puducherry, 605005, India",https://www.google.co.kr/maps/place/Dr.+Kumaran's+Diabetes+Medicare+Centre/data=!4m5!3m4!1s0x3a53610a986fff37:0xbcc8c6834e1695a3!8m2!3d11.9323122!4d79.8058526?authuser=0&hl=en&rclk=1,11.9323122,79.8058526
TB and Chest Diseases Hospital,Hospital,"Indira Nagar, Gorimedu, Priyadarshini Nagar, Puducherry, 605006, India",https://www.google.co.kr/maps/place/TB+and+Chest+Diseases+Hospital/data=!4m5!3m4!1s0x3a536122c62a51b1:0x24783abc6a533400!8m2!3d11.9555221!4d79.7953427?authuser=0&hl=en&rclk=1,11.9555221,79.7953427
Padmavathi Hospital,Hospital,"XR3J+XV6, Simonpet, Puducherry, 605003, India",https://www.google.co.kr/maps/place/Padmavathi+Hospital/data=!4m5!3m4!1s0x3a5363dfd3ffffff:0x791f82a8be052369!8m2!3d11.9549114!4d79.8321254?authuser=0&hl=en&rclk=1,11.9549114,79.8321254
Thayar amma hospital pondicherry,Hospital,"WRV9+C95, Annamalai Nagar, Puducherry, 605013, India",https://www.google.co.kr/maps/place/Thayar+amma+hospital+pondicherry/data=!4m5!3m4!1s0x3a5361d318c016dd:0x64632e7e96cf064f!8m2!3d11.9435014!4d79.818484?authuser=0&hl=en&rclk=1,11.9435014,79.818484
ESV Hospital,Hospital,"Sethilal Nagar St, Murungapakkam, Puducherry, 605004, India",https://www.google.co.kr/maps/place/ESV+Hospital/data=!4m5!3m4!1s0x3a5361ea39200c21:0x6b22b2f80a3f201a!8m2!3d11.9049815!4d79.8090938?authuser=0&hl=en&rclk=1,11.9049815,79.8090938
L.K. Nursing Home,Hospital,"Surya Institute, block, no 370, 2nd Main Rd, Mahaveer Nagar, Lawspet, Puducherry 605008, India",https://www.google.co.kr/maps/place/L.K.+Nursing+Home/data=!4m5!3m4!1s0x3a53615c3f601ee9:0xcb10f2764906b305!8m2!3d11.9589079!4d79.8226404?authuser=0&hl=en&rclk=1,11.9589079,79.8226404
Le Pondy Clinic,Hospital,"Cuddalore Road, Mudaliarpet, Puducherry, 605004, India",https://www.google.co.kr/maps/place/Le+Pondy+Clinic/data=!4m5!3m4!1s0x3a53617bac03475f:0xcdc3d4ac4fd2e718!8m2!3d11.9249511!4d79.8181294?authuser=0&hl=en&rclk=1,11.9249511,79.8181294
Dr. Kumaran's Mutispeciality Hospital,Hospital,"No 1, 2nd Cross St, Sithananda Nagar, Thanthai Periyar Nagar, Ellapillaichavady, Puducherry 605005, India",https://www.google.co.kr/maps/place/Dr.+Kumaran's+Mutispeciality+Hospital/data=!4m5!3m4!1s0x3a53610726e148f7:0x868002e2ca7f40e!8m2!3d11.9320673!4d79.8056193?authuser=0&hl=en&rclk=1,11.9320673,79.8056193
Vannakulam Hospital,Hospital,"WR95+WVP, Thiru Vi Ka Nagar, Ozhandai Keerapalaiyam, Mudaliarpet, Puducherry, 605004, India",https://www.google.co.kr/maps/place/Vannakulam+Hospital/data=!4m5!3m4!1s0x3a5361979b66d613:0x4bd6b5bb6770ceb0!8m2!3d11.9198354!4d79.8096888?authuser=0&hl=en&rclk=1,11.9198354,79.8096888
Apollo Dental Clinic & Hospital- Best Dental Implant Clinic in Puducherry India,Dental clinic,"268 & 270, Kamaraj Salai, Near Old Collector Office, Brindavan Colony, Puducherry, 605013, India",https://www.google.co.kr/maps/place/Apollo+Dental+Clinic+%26+Hospital-+Best+Dental+Implant+Clinic+in+Puducherry+India/data=!4m5!3m4!1s0x3a53617942d098cf:0x4243c808e5a66727!8m2!3d11.9391114!4d79.8164205?authuser=0&hl=en&rclk=1,11.9391114,79.8164205
Rajiv Gandhi Government Women and Children Hospital,Government hospital,"WRQ4+2Q6, Aruthra Nagar, Puducherry, 605009, India",https://www.google.co.kr/maps/place/Rajiv+Gandhi+Government+Women+and+Children+Hospital/data=!4m5!3m4!1s0x3a53610ca98c605b:0x9db864d646e31c84!8m2!3d11.937544!4d79.8068839?authuser=0&hl=en&rclk=1,11.937544,79.8068839
Dakshin Women Care Hospital and Fertility Center,Hospital,"No.1, Lawspet Main Road, Pakkamudayanpet, Saram, Puducherry, 605008, India",https://www.google.co.kr/maps/place/Dakshin+Women+Care+Hospital+and+Fertility+Center/data=!4m5!3m4!1s0x3a53617132403e0f:0x72628cfc39ad7b02!8m2!3d11.9434268!4d79.8091577?authuser=0&hl=en&rclk=1,11.9434268,79.8091577
Cretwell Surgicals,Hospital,"No. 200, Old Serom, Kamaraj Salai, Kamaraj Salai, Annai Dental Clinic, Kamaraj Salai, Puducherry, 605013, India",https://www.google.co.kr/maps/place/Cretwell+Surgicals/data=!4m5!3m4!1s0x3a5361710c0da0db:0x6d4d0e6d7254a1e2!8m2!3d11.94015!4d79.81454?authuser=0&hl=en&rclk=1,11.94015,79.81454
PKB Hospital Pvt Ltd,Hospital,"No. 1, Muthupillaipalayam Road, G.N. Palayam, Sulthanpet Post, Puducherry 605110, India",https://www.google.co.kr/maps/place/PKB+Hospital+Pvt+Ltd/data=!4m5!3m4!1s0x3a536127f73ea161:0x4655b2ac7d0afc30!8m2!3d11.9461915!4d79.7886277?authuser=0&hl=en&rclk=1,11.9461915,79.7886277
Dr.T.L.Vasudevan's ENT Surgical Clinic,Hospital,"216, Bussy Street, AKA Lal Bahadur Sastry Street, Puducherry, 605001, India",https://www.google.co.kr/maps/place/Dr.T.L.Vasudevan's+ENT+Surgical+Clinic/data=!4m5!3m4!1s0x3a536181a474a0bb:0xf1cab3e454ad3b4f!8m2!3d11.9300902!4d79.825839?authuser=0&hl=en&rclk=1,11.9300902,79.825839
Indira Gandhi Government General Hosptial & Post Graduate Institute,Hospital,"Victor Simonel St, White Town, Puducherry, 605001, India",https://www.google.co.kr/maps/place/Indira+Gandhi+Government+General+Hosptial+%26+Post+Graduate+Institute/data=!4m5!3m4!1s0x3a5363ed09b07051:0x4af3fd26928250fc!8m2!3d11.9317449!4d79.8328977?authuser=0&hl=en&rclk=1,11.9317449,79.8328977
Govt Hospital,Government hospital,"Lawspet Main Road, Pethuchettypet, Lawspet, Puducherry, 605008, India",https://www.google.co.kr/maps/place/Govt+Hospital/data=!4m5!3m4!1s0x3a5361680040d2b7:0xcfa6ee2898b03442!8m2!3d11.9545765!4d79.8187053?authuser=0&hl=en&rclk=1,11.9545765,79.8187053
Home For Orthopaedically Handicapped Children,Government hospital,"No.3, 1st Cross, Sithankudi, Brindavanam, Puducherry, 605011, India",https://www.google.co.kr/maps/place/Home+For+Orthopaedically+Handicapped+Children/data=!4m5!3m4!1s0x3a536179f68b1cf5:0xc6cf8203bd4fdbc7!8m2!3d11.9377129!4d79.819439?authuser=0&hl=en&rclk=1,11.9377129,79.819439
Muthiyan Clinic,Hospital,"No. 101, Vazhudavur Road, Kathirkamam, Near Arrack Shop, Kathirkamam, Puducherry, 605009, India",https://www.google.co.kr/maps/place/Muthiyan+Clinic/data=!4m5!3m4!1s0x3a53610de46bb93f:0xc5c5386701721f2a!8m2!3d11.9419509!4d79.802075?authuser=0&hl=en&rclk=1,11.9419509,79.802075
Eye Clinic And La Clinique,Hospital,"WRQP+C8V, White Town, Puducherry 605001, India",https://www.google.co.kr/maps/place/Eye+Clinic+And+La+Clinique/data=!4m5!3m4!1s0x3a5363d157bc4b45:0xe214bef7e90757ba!8m2!3d11.9386157!4d79.8357909?authuser=0&hl=en&rclk=1,11.9386157,79.8357909
The Posh - PONDY ORTHO SPECIALITY HOSPITAL / BEST SPORTS INJURY SURGERY / SPINE SURGEON / BEST HOSPITAL IN PONDICHERRY,Orthopedic surgeon,"1st Cross Rd, Ratna Nagar, Thanthai Periyar Nagar, Puducherry, 605009, India",https://www.google.co.kr/maps/place/The+Posh+-+PONDY+ORTHO+SPECIALITY+HOSPITAL+%2F+BEST+SPORTS+INJURY+SURGERY+%2F+SPINE+SURGEON+%2F+BEST+HOSPITAL+IN+PONDICHERRY/data=!4m5!3m4!1s0x3a53610bf6d95d1f:0xf2c72f578de80da7!8m2!3d11.936685!4d79.8027681?authuser=0&hl=en&rclk=1,11.936685,79.8027681
"Dr.Agarwals Eye Hospital, Puducherry",Eye care center,"601 Kamarajar Salai,NSJ Avenue, 601 Kamarajar Salai, Rajiv Gandhi Square Near Rajiv Gandhi Statue, Muruga Theatre, Puducherry 605005, India","https://www.google.co.kr/maps/place/Dr.Agarwals+Eye+Hospital,+Puducherry/data=!4m5!3m4!1s0x3a536172e9dd63c1:0x43d18f899c70c94c!8m2!3d11.9413362!4d79.8084412?authuser=0&hl=en&rclk=1",11.9413362,79.8084412
Jothi Eye Care Centre,Hospital,"152 & 154, Calve Subraya, Chetty St, Heritage Town, Puducherry, 605001, India",https://www.google.co.kr/maps/place/Jothi+Eye+Care+Centre/data=!4m5!3m4!1s0x3a53617dd418e30f:0xff599bc13978eabb!8m2!3d11.9385125!4d79.8271728?authuser=0&hl=en&rclk=1,11.9385125,79.8271728
PIMS City Center,Hospital,"SH 49, Pakkamudayanpet, Annamalai Nagar, Puducherry, 605012, India",https://www.google.co.kr/maps/place/PIMS+City+Center/data=!4m5!3m4!1s0x3a5363dfaa1a15e1:0x8eab0fd1148db757!8m2!3d11.9468495!4d79.8116227?authuser=0&hl=en&rclk=1,11.9468495,79.8116227
Shinel Clinic Works,Hospital,"99, 100 Feet Rd, near RTO, Ozhandai Keerapalaiyam, Mudaliarpet, Puducherry, 605004, India",https://www.google.co.kr/maps/place/Shinel+Clinic+Works/data=!4m5!3m4!1s0x3a5361978bca69c3:0x33aa06e53a6a8377!8m2!3d11.92043!4d79.80893?authuser=0&hl=en&rclk=1,11.92043,79.80893
Shibi Clinic,Hospital,"59, Savarirayalu St, MG Road Area, Puducherry, 605001, India",https://www.google.co.kr/maps/place/Shibi+Clinic/data=!4m5!3m4!1s0x3a5361802ff5afb7:0x1b1a94d0a3762984!8m2!3d11.931794!4d79.8280641?authuser=0&hl=en&rclk=1,11.931794,79.8280641
Pims Urban Health Centre,Hospital,"214, M.G. Road, MG Road, Na, Muthialpet, Puducherry, 605003, India",https://www.google.co.kr/maps/place/Pims+Urban+Health+Centre/data=!4m5!3m4!1s0x3a5363d8cfe0359b:0xdaf326778fdd6c0f!8m2!3d11.9524986!4d79.8321662?authuser=0&hl=en&rclk=1,11.9524986,79.8321662
Sowba,Hospital,"12, Pudupet, Ashok Nagar, Lawspet, Puducherry, 605008, India",https://www.google.co.kr/maps/place/Sowba/data=!4m5!3m4!1s0x3a5361cfa939ea9f:0x646b623fd76b2b21!8m2!3d11.9515062!4d79.815498?authuser=0&hl=en&rclk=1,11.9515062,79.815498
"Opthalmology Department, JIPMER",Hospital,"No 12, Jipmer Campus Road, Opp to Jipmer hospital, Gorimedu, Puducherry, 605006, India","https://www.google.co.kr/maps/place/Opthalmology+Department,+JIPMER/data=!4m5!3m4!1s0x3a5361c7e7f0a46d:0x7de859912e3c48b1!8m2!3d11.952771!4d79.797274?authuser=0&hl=en&rclk=1",11.952771,79.797274
Call Pet Clinic Hospital,Hospital,"Sathya Nagar East, Puducherry, 605009, India",https://www.google.co.kr/maps/place/Call+Pet+Clinic+Hospital/data=!4m5!3m4!1s0x3a536181f5d41873:0x8a35229fe8372730!8m2!3d11.9415915!4d79.8083133?authuser=0&hl=en&rclk=1,11.9415915,79.8083133
ARC Fertility Hospitals Pondicherry,Fertility clinic,"116, Villianur Rd, Reddiarpalayam, Puducherry, 605010, India",https://www.google.co.kr/maps/place/ARC+Fertility+Hospitals+Pondicherry/data=!4m5!3m4!1s0x3a53614534b0ad3d:0x3311378a34850efa!8m2!3d11.9312459!4d79.7970995?authuser=0&hl=en&rclk=1,11.9312459,79.7970995
Out Patient Department,Hospital,"Jipmer Campus, Gorimedu, Dhanvantari Nagar, Puducherry, 605006, India",https://www.google.co.kr/maps/place/Out+Patient+Department/data=!4m5!3m4!1s0x3a53613d59c986ad:0x37251fb8249aede3!8m2!3d11.9541779!4d79.796831?authuser=0&hl=en&rclk=1,11.9541779,79.796831
FEME LIFE -Fertility Hospital,Hospital,"WRV4+45W, Vedapureeswarar Varadaraja Perumal Nagar, Puducherry, 605009, India",https://www.google.co.kr/maps/place/FEME+LIFE+-Fertility+Hospital/data=!4m5!3m4!1s0x3a53610d623a9d63:0x1abcd68d528bd2cd!8m2!3d11.942859!4d79.8054469?authuser=0&hl=en&rclk=1,11.942859,79.8054469
தி போஷ் மருத்துவமனை,Hospital,"WRP3+P2V, Sri Ambal Nagar, Puducherry, 605009, India",https://www.google.co.kr/maps/place/%E0%AE%A4%E0%AE%BF+%E0%AE%AA%E0%AF%8B%E0%AE%B7%E0%AF%8D+%E0%AE%AE%E0%AE%B0%E0%AF%81%E0%AE%A4%E0%AF%8D%E0%AE%A4%E0%AF%81%E0%AE%B5%E0%AE%AE%E0%AE%A9%E0%AF%88/data=!4m5!3m4!1s0x3a53617efc426a1d:0xc4463315bd23c950!8m2!3d11.9368548!4d79.8025354?authuser=0&hl=en&rclk=1,11.9368548,79.8025354
Primary Health Centre,Government hospital,"Gorimedu, Priyadarshini Nagar, Puducherry, 605006, India",https://www.google.co.kr/maps/place/Primary+Health+Centre/data=!4m5!3m4!1s0x3a536119ca074803:0x4c136e56f0389124!8m2!3d11.9507246!4d79.7946205?authuser=0&hl=en&rclk=1,11.9507246,79.7946205
Dr.T.L.Vasudevan's ENT Surgical Clinic,Hospital,"216, Bussy Street, AKA Lal Bahadur Sastry Street, Puducherry, 605001, India",https://www.google.co.kr/maps/place/Dr.T.L.Vasudevan's+ENT+Surgical+Clinic/data=!4m5!3m4!1s0x3a536181a474a0bb:0xf1cab3e454ad3b4f!8m2!3d11.9300902!4d79.825839?authuser=0&hl=en&rclk=1,11.9300902,79.825839
"PHC (Primary Health Centre), Kosapalayam",Government hospital,"WRQ7+PR7, Naveena Garden, Brindavan Colony, Puducherry, 605013, India","https://www.google.co.kr/maps/place/PHC+(Primary+Health+Centre),+Kosapalayam/data=!4m5!3m4!1s0x3a53617111792289:0x2e810dc4f8862d0e!8m2!3d11.9392936!4d79.8145376?authuser=0&hl=en&rclk=1",11.9392936,79.8145376
Government Chest Clinic,Hospital,"6, Montorsier St, MG Road Area, Puducherry, 605001, India",https://www.google.co.kr/maps/place/Government+Chest+Clinic/data=!4m5!3m4!1s0x3a53622ae8582fe5:0xe616d4dcffd171c5!8m2!3d11.931132!4d79.8317121?authuser=0&hl=en&rclk=1,11.931132,79.8317121
Mom Doc,Hospital,"Lawspet Main Road, Ashok Nagar, Lawspet, Puducherry, 605008, India",https://www.google.co.kr/maps/place/Mom+Doc/data=!4m5!3m4!1s0x3a536142a874c799:0xcab3db880166df94!8m2!3d11.9547988!4d79.8178162?authuser=0&hl=en&rclk=1,11.9547988,79.8178162
Dr Dhandapani Children's Hospital and Vaccination centre,Medical clinic,"44, Mettu St, Kuyavarpalayam, Puducherry, 605013, India",https://www.google.co.kr/maps/place/Dr+Dhandapani+Children's+Hospital+and+Vaccination+centre/data=!4m5!3m4!1s0x3a5361ba281f41c1:0xc10863750fa1b0!8m2!3d11.9370872!4d79.8140948?authuser=0&hl=en&rclk=1,11.9370872,79.8140948
Urban Health Centre,Hospital,"No 214, Mahatma Gandhi Rd, Muthialpet, Puducherry, 605003, India",https://www.google.co.kr/maps/place/Urban+Health+Centre/data=!4m5!3m4!1s0x3a5363d6025b2987:0x41ecc64a29695872!8m2!3d11.9387626!4d79.8297941?authuser=0&hl=en&rclk=1,11.9387626,79.8297941
Pundai Eye Care Clinic,Hospital,"52, Kamaraj Nagar St, Murungapakkam, Puducherry, 605004, India",https://www.google.co.kr/maps/place/Pundai+Eye+Care+Clinic/data=!4m5!3m4!1s0x3a5361c8a7d642e9:0x3a689f7ffe626d7b!8m2!3d11.9057354!4d79.806046?authuser=0&hl=en&rclk=1,11.9057354,79.806046
Dr. Murali Paediatric Clinic,Hospital,"Mahatma Gandhi Rd, opposite to vinayagar temple, MG Road Area, Puducherry, 605001, India",https://www.google.co.kr/maps/place/Dr.+Murali+Paediatric+Clinic/data=!4m5!3m4!1s0x3a53618067e2c895:0x10a12ced160e61c7!8m2!3d11.9304713!4d79.8283198?authuser=0&hl=en&rclk=1,11.9304713,79.8283198
"Herbocare Hospital Pvt Ltd.,",Hospital,"6, 2nd Cross, Sathya Nagar, Gnanapragasam Nagar, Saram, Puducherry, 605008, India","https://www.google.co.kr/maps/place/Herbocare+Hospital+Pvt+Ltd.,/data=!4m5!3m4!1s0x3a536114a996107d:0xb2feef3464330c24!8m2!3d11.9432243!4d79.8126956?authuser=0&hl=en&rclk=1",11.9432243,79.8126956
ESIC Office,Hospital,"Point Care St, Bharathidasan Nagar, Mudaliarpet, Puducherry, 605004, India",https://www.google.co.kr/maps/place/ESIC+Office/data=!4m5!3m4!1s0x3a536196dea0e21d:0x74690de6a3724e6b!8m2!3d11.9175655!4d79.8117417?authuser=0&hl=en&rclk=1,11.9175655,79.8117417
Dr.Karunanithy Clinic,Hospital,"kamarajar Salai, Puduchery Rd, Puducherry, 605006, India",https://www.google.co.kr/maps/place/Dr.Karunanithy+Clinic/data=!4m5!3m4!1s0x3a536172edbdf439:0x7936fae41483ed71!8m2!3d11.9415186!4d79.8092741?authuser=0&hl=en&rclk=1,11.9415186,79.8092741
New Medical Center Branch,Hospital,"WRHH+Q2Q, Chinnakadai, MG Road Area, Puducherry, 605001, India",https://www.google.co.kr/maps/place/New+Medical+Center+Branch/data=!4m5!3m4!1s0x3a536180f76fd5e1:0xd35e07d72b5d59f8!8m2!3d11.9294719!4d79.8276137?authuser=0&hl=en&rclk=1,11.9294719,79.8276137
Aravind Eye Hospital - City Centre,Eye care center,"1st Floor, Bussy St, next to Apollo Pharmacy, Chinnakadai, MG Road Area, Puducherry, 605001, India",https://www.google.co.kr/maps/place/Aravind+Eye+Hospital+-+City+Centre/data=!4m5!3m4!1s0x3a536180f686f44b:0x9239dacd067c3dd6!8m2!3d11.9297142!4d79.8277847?authuser=0&hl=en&rclk=1,11.9297142,79.8277847
New Beginning Hospital,Mental health clinic,"A New Beginning Psychiatric and De-Adiction Center,, mahaveer nagar,Karuvadikuppam, Lawspet,, Puducherry, 605008, India",https://www.google.co.kr/maps/place/New+Beginning+Hospital/data=!4m5!3m4!1s0x3a53615b9f4b92bb:0x2a376a50dd9d93f3!8m2!3d11.9618621!4d79.8216011?authuser=0&hl=en&rclk=1,11.9618621,79.8216011
Old Building,Hospital,"Jipmer Campus Rd, Dhanvantari Nagar, Puducherry, 605006, India",https://www.google.co.kr/maps/place/Old+Building/data=!4m5!3m4!1s0x3a5361144b0f99cb:0x50231ed5b99fd95b!8m2!3d11.9503023!4d79.7996963?authuser=0&hl=en&rclk=1,11.9503023,79.7996963
"Praba's VCare Health Clinic (P) Ltd., - Puducherry",Hair transplantation clinic,"No:221, Mission St, opp. Satguru Hotel, Heritage Town, Puducherry, 605001, India","https://www.google.co.kr/maps/place/Praba's+VCare+Health+Clinic+(P)+Ltd.,+-+Puducherry/data=!4m5!3m4!1s0x3a53618089311ce9:0xb22ec36a624b9393!8m2!3d11.9344428!4d79.8309731?authuser=0&hl=en&rclk=1",11.9344428,79.8309731
Rajiv Gandhi maternity and child government hospital,Hospital,"Bus Stop, Rajiv Gandhi Hospital, 100 Feet Rd, Ellaipillaichavady, Aruthra Nagar, Puducherry, 605009, India",https://www.google.co.kr/maps/place/Rajiv+Gandhi+maternity+and+child+government+hospital/data=!4m5!3m4!1s0x3a5361ba401d2ced:0xb36b7161cfe2fbd0!8m2!3d11.9374305!4d79.8070462?authuser=0&hl=en&rclk=1,11.9374305,79.8070462
"PHC (Primary Health Centre), Lawspet",Hospital,"Lawspet Main Road, Pethuchettypet, Lawspet, Puducherry, 605008, India","https://www.google.co.kr/maps/place/PHC+(Primary+Health+Centre),+Lawspet/data=!4m5!3m4!1s0x3a536167fe4eb1b1:0x614d621e9e9a79ae!8m2!3d11.9545696!4d79.8185797?authuser=0&hl=en&rclk=1",11.9545696,79.8185797
Pondicherry City Hospitals Pvt Ltd,,"12, Goubert St, Sanjay Gandhi Nagar, Kamaraj Nagar, Puducherry, 605011, India",https://www.google.co.kr/maps/place/Pondicherry+City+Hospitals+Pvt+Ltd/data=!4m5!3m4!1s0x3a53617824538399:0x4fab65b6ff575d13!8m2!3d11.934175!4d79.8189699?authuser=0&hl=en&rclk=1,11.934175,79.8189699
Barathi Medicals,Medical Center,"WRR4+M9Q, Pettaiyanchathiram, Vedapureeswarar Varadaraja Perumal Nagar, Puducherry, 605009, India",https://www.google.co.kr/maps/place/Barathi+Medicals/data=!4m5!3m4!1s0x3a53610d40683acd:0xe121604cfce8ec10!8m2!3d11.9417217!4d79.8059837?authuser=0&hl=en&rclk=1,11.9417217,79.8059837
Natural Health Care,Hospital,"Main Road, Karuvadikuppam, Main Road, Karuvadikuppam, Lawspet, near Shivaji Cool Drinks, Puducherry, 605008, India",https://www.google.co.kr/maps/place/Natural+Health+Care/data=!4m5!3m4!1s0x3a53615e3159d111:0xfac1202f35e2572!8m2!3d11.95607!4d79.82651?authuser=0&hl=en&rclk=1,11.95607,79.82651
Dr.T.L.Vasudevan's ENT Surgical Clinic,Hospital,"216, Bussy Street, AKA Lal Bahadur Sastry Street, Puducherry, 605001, India",https://www.google.co.kr/maps/place/Dr.T.L.Vasudevan's+ENT+Surgical+Clinic/data=!4m5!3m4!1s0x3a536181a474a0bb:0xf1cab3e454ad3b4f!8m2!3d11.9300902!4d79.825839?authuser=0&hl=en&rclk=1,11.9300902,79.825839
Vasudevaiah clinic,Hospital,"XR39+V4H, Ashok Nagar, Lawspet, Puducherry, 605008, India",https://www.google.co.kr/maps/place/Vasudevaiah+clinic/data=!4m5!3m4!1s0x3a53616802968d73:0xd4d1a72fc5f8c9de!8m2!3d11.954684!4d79.8178689?authuser=0&hl=en&rclk=1,11.954684,79.8178689
Dr.T.L.Vasudevan's ENT Surgical Clinic,Hospital,"216, Bussy Street, AKA Lal Bahadur Sastry Street, Puducherry, 605001, India",https://www.google.co.kr/maps/place/Dr.T.L.Vasudevan's+ENT+Surgical+Clinic/data=!4m5!3m4!1s0x3a536181a474a0bb:0xf1cab3e454ad3b4f!8m2!3d11.9300902!4d79.825839?authuser=0&hl=en&rclk=1,11.9300902,79.825839
"Sri Manakula Vinayagar Hospital, City Center",Hospital,"WRJ2+JHP, Pavazha Nagar, Kavery Nagar, Thanthai Periyar Nagar, Puducherry, 605009, India","https://www.google.co.kr/maps/place/Sri+Manakula+Vinayagar+Hospital,+City+Center/data=!4m5!3m4!1s0x3a5361a7558393b1:0x15df82e66f382b49!8m2!3d11.9315858!4d79.8014634?authuser=0&hl=en&rclk=1",11.9315858,79.8014634
"City Centre, Urban Health Centre",Hospital,"Ilango Nagar, Puducherry, 605013, India","https://www.google.co.kr/maps/place/City+Centre,+Urban+Health+Centre/data=!4m5!3m4!1s0x3a536179e33ec305:0xba00b32746a3dfdf!8m2!3d11.9370998!4d79.8187168?authuser=0&hl=en&rclk=1",11.9370998,79.8187168
Global Health City,Medical clinic,"43, Kandappa Mudaliar Street, MG Road Area, Puducherry, 605001, India",https://www.google.co.kr/maps/place/Global+Health+City/data=!4m5!3m4!1s0x1106ae60b5a5b95f:0x420e5752a3533b3!8m2!3d11.929309!4d79.829741?authuser=0&hl=en&rclk=1,11.929309,79.829741
Vasan Eye Care,Eye care center,"National Highway 45A, near Indira Gandhi Statue, Sithananda Nagar, Thanthai Periyar Nagar, Puducherry, 605004, India",https://www.google.co.kr/maps/place/Vasan+Eye+Care/data=!4m5!3m4!1s0x3a536175554a3e8d:0x56c3d980e3cac0d4!8m2!3d11.93186!4d79.807219?authuser=0&hl=en&rclk=1,11.93186,79.807219
"UHC , Kurchikuppam",Hospital,"WRRM+RFM, Kuruchikuppam, Puducherry, 605003, India","https://www.google.co.kr/maps/place/UHC+,+Kurchikuppam/data=!4m5!3m4!1s0x3a5363d7170502f7:0x4667b674eda27823!8m2!3d11.9420812!4d79.8336661?authuser=0&hl=en&rclk=1",11.9420812,79.8336661
SD Diabetes & Healthcare,Hospital,"No12, 2nd Cross St, Vivekananda Nagar, Thanthai Periyar Nagar, Puducherry, 605005, India",https://www.google.co.kr/maps/place/SD+Diabetes+%26+Healthcare/data=!4m5!3m4!1s0x3a53610a6572a601:0xdd206b52b492e261!8m2!3d11.9325427!4d79.8038172?authuser=0&hl=en&rclk=1,11.9325427,79.8038172
Aiims Medical College Ponducheri,Hospital,"Thengaithittu Main Rd, Vasantha Nagar, Nainar Mandapam, Thengaithittu, Puducherry, 605004, India",https://www.google.co.kr/maps/place/Aiims+Medical+College+Ponducheri/data=!4m5!3m4!1s0x3a536193c08cf939:0x6587014a3329f1ef!8m2!3d11.9138598!4d79.8144722?authuser=0&hl=en&rclk=1,11.9138598,79.8144722
JIPMER Department of Transfusion Medicine,Hospital,"Jipmer Campus Rd, Dhanvantari Nagar, Puducherry, 605006, India",https://www.google.co.kr/maps/place/JIPMER+Department+of+Transfusion+Medicine/data=!4m5!3m4!1s0x3a5361e6e21a6455:0xddd0c5e2687d98a3!8m2!3d11.9503023!4d79.7996963?authuser=0&hl=en&rclk=1,11.9503023,79.7996963
Psychiatry OPD,Hospital,"Psychiatry OPD, Hospital Block, JIPMER, Puducherry, 605006, India",https://www.google.co.kr/maps/place/Psychiatry+OPD/data=!4m5!3m4!1s0x3a53613d5d1dc0f7:0x2fe3dd2cf2b5d668!8m2!3d11.9545834!4d79.7972829?authuser=0&hl=en&rclk=1,11.9545834,79.7972829
Shrish Dental Clinic,Hospital,"Bussy St, MG Road Area, Puducherry, 605001, India",https://www.google.co.kr/maps/place/Shrish+Dental+Clinic/data=!4m5!3m4!1s0x3a536180831f7047:0x60ef0dc1d93e3c18!8m2!3d11.9296335!4d79.8269029?authuser=0&hl=en&rclk=1,11.9296335,79.8269029
Kandhan Clinic,Hospital,"144, Bussy St, Chinnakadai, MG Road Area, Puducherry, 605001, India",https://www.google.co.kr/maps/place/Kandhan+Clinic/data=!4m5!3m4!1s0x3a53619441e6b6e1:0xf45543f811a65f9e!8m2!3d11.9297294!4d79.8278616?authuser=0&hl=en&rclk=1,11.9297294,79.8278616
Department of Physical Medicine & Rehabilitation,Hospital,"PMRC Block, Jipmer Campus, Puducherry, 605006, India",https://www.google.co.kr/maps/place/Department+of+Physical+Medicine+%26+Rehabilitation/data=!4m5!3m4!1s0x3a5361de6ee72f9d:0xc0e6d58631f14487!8m2!3d11.9538964!4d79.7974574?authuser=0&hl=en&rclk=1,11.9538964,79.7974574
Herbocare Hospital Pvt Ltd,Hospital,"No 6, 2nd Cross St, Saram, Puducherry, 605013, India",https://www.google.co.kr/maps/place/Herbocare+Hospital+Pvt+Ltd/data=!4m5!3m4!1s0x3a53617b87ecb27b:0x342112706bd96660!8m2!3d11.9402667!4d79.8240087?authuser=0&hl=en&rclk=1,11.9402667,79.8240087
Trudent Dental Hospital,Hospital,"No.144,100 feet,East Coast Road,(near latha steel and vasantha Bhavan hotel), Annamalai Nagar,lawspet, Puducherry, 605013, India",https://www.google.co.kr/maps/place/Trudent+Dental+Hospital/data=!4m5!3m4!1s0x3a53616c1880c9e5:0x4e005252a5f4fa10!8m2!3d11.9474638!4d79.8123104?authuser=0&hl=en&rclk=1,11.9474638,79.8123104
Mithra Medical Centre,Hospital,"64, Madha Koil St, Ariyankuppam, Puducherry 605007, India",https://www.google.co.kr/maps/place/Mithra+Medical+Centre/data=!4m5!3m4!1s0x3a5361dd7131db23:0xbb49239fcc45bf3e!8m2!3d11.895475!4d79.80663?authuser=0&hl=en&rclk=1,11.895475,79.80663
Urban Primary Health Center,Hospital,"Maraimalai Adigal Salai, Maraimalai Adigal Salai, Near Signal, Orleanpet, Puducherry, 605005, India",https://www.google.co.kr/maps/place/Urban+Primary+Health+Center/data=!4m5!3m4!1s0x3a53617c20bb9237:0x49b1c792a55fbc2d!8m2!3d11.9381799!4d79.8258112?authuser=0&hl=en&rclk=1,11.9381799,79.8258112
U K R Hospital,Hospital,"No. 156, 1st Floor, Kamaraj Salai, Kamaraj Salai, Sri Menaka Bakery, Kamaraj Salai, Puducherry, 605013, India",https://www.google.co.kr/maps/place/U+K+R+Hospital/data=!4m5!3m4!1s0x3a536170ae6eafdd:0xc6df91bbc55ff475!8m2!3d11.9383366!4d79.8179201?authuser=0&hl=en&rclk=1,11.9383366,79.8179201
مستشفى جلوبال,Hospital,"439, Cheran Street, Kamaraj Nagar, Puducherry, 605011, India",https://www.google.co.kr/maps/place/%D9%85%D8%B3%D8%AA%D8%B4%D9%81%D9%89+%D8%AC%D9%84%D9%88%D8%A8%D8%A7%D9%84%E2%80%AD/data=!4m5!3m4!1s0x3a53617bf5dec1c1:0x7946a2c1623818ac!8m2!3d11.9391372!4d79.8239672?authuser=0&hl=en&rclk=1,11.9391372,79.8239672
Dr.T.L.Vasudevan's ENT Surgical Clinic,Hospital,"216, Bussy Street, AKA Lal Bahadur Sastry Street, Puducherry, 605001, India",https://www.google.co.kr/maps/place/Dr.T.L.Vasudevan's+ENT+Surgical+Clinic/data=!4m5!3m4!1s0x3a536181a474a0bb:0xf1cab3e454ad3b4f!8m2!3d11.9300902!4d79.825839?authuser=0&hl=en&rclk=1,11.9300902,79.825839
Savery Medical Center And Lab,Medical Center,"No. 444, Bharathi St, MG Road Area, Puducherry, 605001, India",https://www.google.co.kr/maps/place/Savery+Medical+Center+And+Lab/data=!4m5!3m4!1s0x1106ae60a10e17ef:0x3f07d1baaf3ac676!8m2!3d11.930308!4d79.826092?authuser=0&hl=en&rclk=1,11.930308,79.826092
Esic Hospital,Hospital,"WRV2+3GX, Subbiahnagar, Thattanchavady, Puducherry, 605009, India",https://www.google.co.kr/maps/place/Esic+Hospital/data=!4m5!3m4!1s0x3a53610e019bef29:0xc47f3985ebf40e99!8m2!3d11.9427267!4d79.8013689?authuser=0&hl=en&rclk=1,11.9427267,79.8013689
Pondicherry Speciality Centre,Medical Center,"No. 9, 2nd Cross St, Nellithope, Anna Nagar, Puducherry, 605005, India",https://www.google.co.kr/maps/place/Pondicherry+Speciality+Centre/data=!4m5!3m4!1s0x3a5361756188fd0f:0xf0039ee0ab4cea35!8m2!3d11.9319863!4d79.8089944?authuser=0&hl=en&rclk=1,11.9319863,79.8089944
"Visalatchi Dental Hospital,",Hospital,"WRRF+J36, Chellan Nagar, Venkata Nagar, Puducherry, 605011, India","https://www.google.co.kr/maps/place/Visalatchi+Dental+Hospital,/data=!4m5!3m4!1s0x3a53612227a03345:0x554e9aecf506001!8m2!3d11.9415367!4d79.8226287?authuser=0&hl=en&rclk=1",11.9415367,79.8226287
Dr. Mohan's Diabetes Specialities Centre,Diabetes center,"192, Kamaraj Salai, Pillaithotam, Brindavan Colony, Puducherry, 605013, India",https://www.google.co.kr/maps/place/Dr.+Mohan's+Diabetes+Specialities+Centre/data=!4m5!3m4!1s0x3a5361798fabaa4f:0xd1b341eceface1b7!8m2!3d11.9396699!4d79.8158249?authuser=0&hl=en&rclk=1,11.9396699,79.8158249
Karthick Medicals and Clinic,Hospital,"Bharathi Street, Off, Petit Canal St, MG Road Area, Puducherry, 605001, India",https://www.google.co.kr/maps/place/Karthick+Medicals+and+Clinic/data=!4m5!3m4!1s0x3a536190c124e8ab:0xaba049063b1fa74a!8m2!3d11.9325573!4d79.8266679?authuser=0&hl=en&rclk=1,11.9325573,79.8266679
Srishti Hospital,Hospital,"Srishti Hospital, No. 16, Pondicherry-Vilianur main road, Thattakutai,Moolakulam, Puducherry, 605010, India",https://www.google.co.kr/maps/place/Srishti+Hospital/data=!4m5!3m4!1s0x3a536112793033bb:0x27480b4248d656fe!8m2!3d11.9268114!4d79.7816628?authuser=0&hl=en&rclk=1,11.9268114,79.7816628
ram Hospital,Hospital,"No: 342, Cuddalore Road, Ariyankuppam, Puducherry, 605007, India",https://www.google.co.kr/maps/place/ram+Hospital/data=!4m5!3m4!1s0x3a5361a29ca15915:0x1aceddaf362f2b1!8m2!3d11.893813!4d79.802412?authuser=0&hl=en&rclk=1,11.893813,79.802412
"Dr. Giridharan, Heart & Vascular Clinic",Heart hospital,"12, 2nd Cross St, Nellithope, Anna Nagar, Puducherry, 605005, India","https://www.google.co.kr/maps/place/Dr.+Giridharan,+Heart+%26+Vascular+Clinic/data=!4m5!3m4!1s0x3a5361efb7c9c207:0xd4ba7895456e85c1!8m2!3d11.9321791!4d79.8093578?authuser=0&hl=en&rclk=1",11.9321791,79.8093578
Jawaharlal Institute of Postgraduate Medical Education and Research,Hospital,"Jipmer Campus Rd, Gorimedu, Puducherry, 605006, India",https://www.google.co.kr/maps/place/Jawaharlal+Institute+of+Postgraduate+Medical+Education+and+Research/data=!4m5!3m4!1s0x3a5361d30739a33b:0x259e7163fe954adc!8m2!3d11.9544606!4d79.7987671?authuser=0&hl=en&rclk=1,11.9544606,79.7987671
டாக்டர் அகர்வால் கண் மருத்துவமனை,Hospital,"Kamaraj Salai, Sathya Nagar East, Puducherry, 605006, India",https://www.google.co.kr/maps/place/%E0%AE%9F%E0%AE%BE%E0%AE%95%E0%AF%8D%E0%AE%9F%E0%AE%B0%E0%AF%8D+%E0%AE%85%E0%AE%95%E0%AE%B0%E0%AF%8D%E0%AE%B5%E0%AE%BE%E0%AE%B2%E0%AF%8D+%E0%AE%95%E0%AE%A3%E0%AF%8D+%E0%AE%AE%E0%AE%B0%E0%AF%81%E0%AE%A4%E0%AF%8D%E0%AE%A4%E0%AF%81%E0%AE%B5%E0%AE%AE%E0%AE%A9%E0%AF%88/data=!4m5!3m4!1s0x3a536190eeb28d95:0xd77cc9e6c233c669!8m2!3d11.941266!4d79.8087024?authuser=0&hl=en&rclk=1,11.941266,79.8087024
Department Of Orthopedic Surgery,Hospital,"Jipmer Hospital, Gorimedu, Puducherry, 605011, India",https://www.google.co.kr/maps/place/Department+Of+Orthopedic+Surgery/data=!4m5!3m4!1s0x3a536117e172daa5:0x9c4c89da583a96f1!8m2!3d11.95378!4d79.7971879?authuser=0&hl=en&rclk=1,11.95378,79.7971879
UHTC mahatma gandhi,Hospital,"WRP9+WMV, Ilango Nagar, Puducherry, 605013, India",https://www.google.co.kr/maps/place/UHTC+mahatma+gandhi/data=!4m5!3m4!1s0x3a536179f0806c65:0xd808ee3080623be4!8m2!3d11.9373671!4d79.8191751?authuser=0&hl=en&rclk=1,11.9373671,79.8191751
DOCTOR SASIDHARAN,Hospital,"DR.STUDY HALL, Vedapureeswarar Varadaraja Perumal Nagar, Puducherry, 605008, India",https://www.google.co.kr/maps/place/DOCTOR+SASIDHARAN/data=!4m5!3m4!1s0x3a53611ebe03e98d:0xf0180aa7fcc45952!8m2!3d11.9426245!4d79.8041088?authuser=0&hl=en&rclk=1,11.9426245,79.8041088
Mortuary JIPMER,Hospital,"XQ4X+62R, Jipmer Campus, Puducherry, 605006, India",https://www.google.co.kr/maps/place/Mortuary+JIPMER/data=!4m5!3m4!1s0x3a53613d159910c9:0xd677113549bcb0d1!8m2!3d11.9556175!4d79.797527?authuser=0&hl=en&rclk=1,11.9556175,79.797527
Arthur Eye Clinic,Eye care center,"Shop No, 39, Villianur Main Rd, near Indira Gandhi Statue, Ellaipillaichavadi, Natesan Nagar, Puducherry, 605001, India",https://www.google.co.kr/maps/place/Arthur+Eye+Clinic/data=!4m5!3m4!1s0x3a5361a0737edc57:0xef37bba3db8c6fc8!8m2!3d11.9313989!4d79.8056979?authuser=0&hl=en&rclk=1,11.9313989,79.8056979
Vasan Eye Care - Pondicherry 2,Eye care center,"Heritage Town, Puducherry, 605001, India",https://www.google.co.kr/maps/place/Vasan+Eye+Care+-+Pondicherry+2/data=!4m5!3m4!1s0x3a5363d5fb81fb67:0xf7043641581857a0!8m2!3d11.93792!4d79.830198?authuser=0&hl=en&rclk=1,11.93792,79.830198
Government siddha hospital,Medical Center,"South Boulevard, Ambedkar Nagar, Orleanpet, Puducherry, 605001, India",https://www.google.co.kr/maps/place/Government+siddha+hospital/data=!4m5!3m4!1s0x3a536169e2ac5605:0xac3ee4f37684bdb4!8m2!3d11.930225!4d79.8238093?authuser=0&hl=en&rclk=1,11.930225,79.8238093
vetrinary hospital,Hospital,"Veterinary Hospital St, Karuvadikuppam, Puducherry, 605104, India",https://www.google.co.kr/maps/place/vetrinary+hospital/data=!4m5!3m4!1s0x3a53615ee60d7f1b:0x60a46fbc74249fff!8m2!3d11.9589668!4d79.8262498?authuser=0&hl=en&rclk=1,11.9589668,79.8262498
Alpha Ortho Clinic,Orthopedic clinic,"265, Bussy St, next to Kamban Kalai Arangam, Lal Bahadur, Sastri Street, Puducherry, 605001, India",https://www.google.co.kr/maps/place/Alpha+Ortho+Clinic/data=!4m5!3m4!1s0x3a5363d61f1f4617:0x54c52e6a5f55aa58!8m2!3d11.929975!4d79.8248416?authuser=0&hl=en&rclk=1,11.929975,79.8248416
Dr.T.L.Vasudevan's ENT Surgical Clinic,Hospital,"216, Bussy Street, AKA Lal Bahadur Sastry Street, Puducherry, 605001, India",https://www.google.co.kr/maps/place/Dr.T.L.Vasudevan's+ENT+Surgical+Clinic/data=!4m5!3m4!1s0x3a536181a474a0bb:0xf1cab3e454ad3b4f!8m2!3d11.9300902!4d79.825839?authuser=0&hl=en&rclk=1,11.9300902,79.825839
Sai Apollo Poly Clinic,Hospital,"Sri Vijaya Complex, 356, Villianur Road, Nellithope, Pondicherry-605005, opp. to Vijaya Medicals, India",https://www.google.co.kr/maps/place/Sai+Apollo+Poly+Clinic/data=!4m5!3m4!1s0x3a53612fe103b769:0x2c63739633ed3f5e!8m2!3d11.9383945!4d79.8150039?authuser=0&hl=en&rclk=1,11.9383945,79.8150039
AG Bathmavathi Hospital,Hospital,"WQFH+FCV, Marie Oulgaret, Puducherry, 605110, India",https://www.google.co.kr/maps/place/AG+Bathmavathi+Hospital/data=!4m5!3m4!1s0x3a5360515d553dc3:0x7183e8f73703523c!8m2!3d11.923746!4d79.778541?authuser=0&hl=en&rclk=1,11.923746,79.778541
Apollo Hospital information centre,Ambulance service,"No. 60, 100 Feet Rd, opp. to NT Mahal, Ellaipillaichavady, Anna Nagar, Puducherry, 605005, India",https://www.google.co.kr/maps/place/Apollo+Hospital+information+centre/data=!4m5!3m4!1s0x3a536174d4c29111:0x51a6f64b2895ed3a!8m2!3d11.9348745!4d79.8073313?authuser=0&hl=en&rclk=1,11.9348745,79.8073313
Dr. M. Verappan,Medical clinic,"No.187, Cuddalore Road, Mudalali Society, Bharathidasan Nagar, Mudaliarpet, Puducherry, 605004, India",https://www.google.co.kr/maps/place/Dr.+M.+Verappan/data=!4m5!3m4!1s0x3a536190831c45b1:0xaaea0c4442c25e4f!8m2!3d11.9206539!4d79.815083?authuser=0&hl=en&rclk=1,11.9206539,79.815083
Institute Of Neuro Sciences-Psychiatry-Rheumatology-Pondicherry,Medical clinic,"244, Lenin St, opposite to Govt Manimegalai school, Kuyavarpalayam, Puducherry, 605013, India",https://www.google.co.kr/maps/place/Institute+Of+Neuro+Sciences-Psychiatry-Rheumatology-Pondicherry/data=!4m5!3m4!1s0x1106ae5f66dd713f:0x99d6cdbf98657825!8m2!3d11.9347093!4d79.8128557?authuser=0&hl=en&rclk=1,11.9347093,79.8128557
ECHS Polyclinic Puducherry,Medical clinic,"Lawspet Main Road, Parry Nagar, Pethuchettypet, Lawspet, Puducherry, 605008, India",https://www.google.co.kr/maps/place/ECHS+Polyclinic+Puducherry/data=!4m5!3m4!1s0x3a53616bf310a085:0x229f08014641a781!8m2!3d11.9543185!4d79.8213494?authuser=0&hl=en&rclk=1,11.9543185,79.8213494
JIPMER Urban Health Centre,Medical clinic,"Anna Salai, White Town, Puducherry, 605001, India",https://www.google.co.kr/maps/place/JIPMER+Urban+Health+Centre/data=!4m5!3m4!1s0x3a5361875ef2cd6d:0xe4e5f27c4be80ae2!8m2!3d11.9401327!4d79.8339595?authuser=0&hl=en&rclk=1,11.9401327,79.8339595
Vijaya Hospital Auto Stand,Auto rickshaw stand,"E.C. Main Road, E C Main Road, Near Vijaya Hospital, Pondicherry, Puducherry, 605008, India",https://www.google.co.kr/maps/place/Vijaya+Hospital+Auto+Stand/data=!4m5!3m4!1s0x3a5361691928c5b3:0x6a4ccc90b9ca942b!8m2!3d11.95062!4d79.81528?authuser=0&hl=en&rclk=1,11.95062,79.81528
ESIC Gandhinagar Dispensary,Hospital,"Vazhudavoor Rd, Subbiahnagar, Gandhi Nagar, Puducherry, 605009, India",https://www.google.co.kr/maps/place/ESIC+Gandhinagar+Dispensary/data=!4m5!3m4!1s0x3a53610e03b54e63:0x8e6c8b685076d32a!8m2!3d11.9426936!4d79.8012157?authuser=0&hl=en&rclk=1,11.9426936,79.8012157
"PHC (Primary Health Centre), Ariyankuppam",Hospital,"Cuddalore Road, Cuddalore Road, Ariyankuppam, near Bharathiar School, Puducherry, 605007, India","https://www.google.co.kr/maps/place/PHC+(Primary+Health+Centre),+Ariyankuppam/data=!4m5!3m4!1s0x3a536196d52452bb:0xbc6e170fb6395266!8m2!3d11.9178135!4d79.8127832?authuser=0&hl=en&rclk=1",11.9178135,79.8127832
VIGNESH SKIN & HAIR CLINIC,Skin care clinic,"No.80, Lenin St, near Kamaraj Statue, Pillaithotam, Kuyavarpalayam, Puducherry, 605013, India",https://www.google.co.kr/maps/place/VIGNESH+SKIN+%26+HAIR+CLINIC/data=!4m5!3m4!1s0x3a536176ae008323:0xc1f473fa96204e0d!8m2!3d11.9377057!4d79.8134942?authuser=0&hl=en&rclk=1,11.9377057,79.8134942
Chickmore,Hospital,"WRR5+J8P, Sathya Nagar East, Puducherry, 605009, India",https://www.google.co.kr/maps/place/Chickmore/data=!4m5!3m4!1s0x3a5361fbb537fa59:0xb07bcc39a12cc9cf!8m2!3d11.9415915!4d79.8083133?authuser=0&hl=en&rclk=1,11.9415915,79.8083133
Iswarya Fertility Centre Pondicherry,Fertility clinic,"402, Indira Gandhi St, Sithananda Nagar, Junction, Puducherry, 605005, India",https://www.google.co.kr/maps/place/Iswarya+Fertility+Centre+Pondicherry/data=!4m5!3m4!1s0x3a53614043dca71b:0xfc7318a8df41101b!8m2!3d11.9318086!4d79.8072652?authuser=0&hl=en&rclk=1,11.9318086,79.8072652
PUDUCHERRY CANCER TRUST HOSPITAL & RESEARCH CENTRE,Hospital,"M.A.Shanmugam Sengeni Ammal Square South River Bank, Road, Thavalakuppam, Puducherry 605007, India",https://www.google.co.kr/maps/place/PUDUCHERRY+CANCER+TRUST+HOSPITAL+%26+RESEARCH+CENTRE/data=!4m5!3m4!1s0x3a549e22fb0e5feb:0xe7b3686caaee888f!8m2!3d11.8776813!4d79.8049245?authuser=0&hl=en&rclk=1,11.8776813,79.8049245
C M L Tata Centeprises,Hospital,"100 Feet Road, 100 Feet Road, Ellaipillaichavady, opposite Govt Hospital, Puducherry, 605014, India",https://www.google.co.kr/maps/place/C+M+L+Tata+Centeprises/data=!4m5!3m4!1s0x3a53617347ef488d:0x9e94d6ae2d262095!8m2!3d11.93883!4d79.80801?authuser=0&hl=en&rclk=1,11.93883,79.80801
Regional Cancer Center JIPMER,Cancer treatment center,"Jawaharlal Institute of Postgraduate Medical Education & Research, Gorimedu, Priyadarshini Nagar, Puducherry, 605013, India",https://www.google.co.kr/maps/place/Regional+Cancer+Center+JIPMER/data=!4m5!3m4!1s0x3a5361160fec4ed7:0xffad98859e85b4c4!8m2!3d11.952897!4d79.800831?authuser=0&hl=en&rclk=1,11.952897,79.800831
Rajeshwari Clinic,Medical clinic,"No. 36, Vazhudavur Road, Kavundampalayam, Near Spi Tech, Kavundampalayam, Puducherry, 605009, India",https://www.google.co.kr/maps/place/Rajeshwari+Clinic/data=!4m5!3m4!1s0x3a53610d409812ab:0xfd92855921618b4f!8m2!3d11.94168!4d79.80612?authuser=0&hl=en&rclk=1,11.94168,79.80612
"Megalai Speciality Clinic - General, Children and Dental Care",Medical clinic,"St Anthony Koil St, Kavery Nagar, Reddiarpalayam, Puducherry, 605009, India","https://www.google.co.kr/maps/place/Megalai+Speciality+Clinic+-+General,+Children+and+Dental+Care/data=!4m5!3m4!1s0x3a5361a7e98c92fd:0xf934a0b051d58155!8m2!3d11.930142!4d79.7970764?authuser=0&hl=en&rclk=1",11.930142,79.7970764
Siddhar Siddha Clinic,Medical clinic,"5, Near Rajiv Gandhi Women And Child Hospital, Mohan Nagar, Ellaipillai Chavady, Puducherry, 605005, India",https://www.google.co.kr/maps/place/Siddhar+Siddha+Clinic/data=!4m5!3m4!1s0x1106aef71ddc0b5f:0x61a4a2365e7e25d3!8m2!3d11.938702!4d79.807543?authuser=0&hl=en&rclk=1,11.938702,79.807543
Herbal Beauty Clinic and Care,Women's health clinic,"1st Main-Gayathri Nagar, Ozhandai Keerapalaiyam, Mudaliarpet, Puducherry, 605004, India",https://www.google.co.kr/maps/place/Herbal+Beauty+Clinic+and+Care/data=!4m5!3m4!1s0x3a5361989b704c1b:0x51d418f1b462f1a2!8m2!3d11.924234!4d79.8076648?authuser=0&hl=en&rclk=1,11.924234,79.8076648
Dr.T.L.Vasudevan's ENT Surgical Clinic,Hospital,"216, Bussy Street, AKA Lal Bahadur Sastry Street, Puducherry, 605001, India",https://www.google.co.kr/maps/place/Dr.T.L.Vasudevan's+ENT+Surgical+Clinic/data=!4m5!3m4!1s0x3a536181a474a0bb:0xf1cab3e454ad3b4f!8m2!3d11.9300902!4d79.825839?authuser=0&hl=en&rclk=1,11.9300902,79.825839
Mind Zone,Medical clinic,"No.4, 100 Feet Rd, near Indira Gandhi Statue, Ellaipillaichavady, Natesan Nagar, Puducherry, 605005, India",https://www.google.co.kr/maps/place/Mind+Zone/data=!4m5!3m4!1s0x1106aef67344d6e7:0x99efb649c660056c!8m2!3d11.9364052!4d79.8075535?authuser=0&hl=en&rclk=1,11.9364052,79.8075535
RJR Herbal Hospitals - Pondichery,Alternative medicine practitioner,"No.24, Carpenter St, opp. to sumangali Kalyana Mandapam, Nellithope, Nellitope, Puducherry, 605005, India",https://www.google.co.kr/maps/place/RJR+Herbal+Hospitals+-+Pondichery/data=!4m5!3m4!1s0x3a53619e1d686ae7:0x9d26baa156b57711!8m2!3d11.9319488!4d79.8122463?authuser=0&hl=en&rclk=1,11.9319488,79.8122463
Dr. Vigneshvar Chandrasekaran - EIMS Neuro - Psychiatric clinic,Psychiatrist,"133, 100 Feet Road, Natesan Nagar Next to Seven Hills restaurant, near Indra Gandhi Statue, Puducherry 605005, India",https://www.google.co.kr/maps/place/Dr.+Vigneshvar+Chandrasekaran+-+EIMS+Neuro+-+Psychiatric+clinic/data=!4m5!3m4!1s0x3a53615fe35f7ad3:0x938ee8c8a463d835!8m2!3d11.9305992!4d79.8074532?authuser=0&hl=en&rclk=1,11.9305992,79.8074532
chaithanya ayurveda & siddha hospital,Alternative medicine practitioner,"No.96,G/F,Near Athithi Hotel,, S.V Patel Salai,, Puducherry, 605001, India",https://www.google.co.kr/maps/place/chaithanya+ayurveda+%26+siddha+hospital/data=!4m5!3m4!1s0x3a5363d7b9a1551f:0x2b6927ac112c8c4!8m2!3d11.941948!4d79.831246?authuser=0&hl=en&rclk=1,11.941948,79.831246
Le Braces Dental Hospital,Dental clinic,"WRP5+J8X, 6th Cross Extension, Anna Nagar, Puducherry, 605009, India",https://www.google.co.kr/maps/place/Le+Braces+Dental+Hospital/data=!4m5!3m4!1s0x3a536174bc7c4aad:0xceb0a3b23cabe3b5!8m2!3d11.9366059!4d79.8083589?authuser=0&hl=en&rclk=1,11.9366059,79.8083589
SANTHIGIRI AYURVEDA & SIDDHA HOSPITAL,Alternative medicine practitioner,"No.6, Sardar Vallabhai Patel Salai, near acharya school, Heritage Town, Puducherry, 605001, India",https://www.google.co.kr/maps/place/SANTHIGIRI+AYURVEDA+%26+SIDDHA+HOSPITAL/data=!4m5!3m4!1s0x3a53617daeb7b40d:0xdf40b96a897e38c0!8m2!3d11.9394536!4d79.8357243?authuser=0&hl=en&rclk=1,11.9394536,79.8357243
Rajiv Gandhi Institute Of Veterinary Education And Research Hospital,Veterinary care,"No.2, 1st Main Rd, Pipdic Industrial Estate, Kurumbapet, Mettupalayam, Puducherry, 605009, India",https://www.google.co.kr/maps/place/Rajiv+Gandhi+Institute+Of+Veterinary+Education+And+Research+Hospital/data=!4m5!3m4!1s0x3a536102cdafbf33:0x6e559f9d1b7f50fe!8m2!3d11.94216!4d79.7867366?authuser=0&hl=en&rclk=1,11.94216,79.7867366
Gh Hospital,Hospital,"WQ64+9H5, Villianur, Puducherry 605110, India",https://www.google.co.kr/maps/place/Gh+Hospital/data=!4m5!3m4!1s0x3a53606c79f52635:0x26a4284374a03fee!8m2!3d11.910877!4d79.7564708?authuser=0&hl=en&rclk=1,11.910877,79.7564708
Deeban Nature Clinic,Hospital,"Pondy Main Rd, Padmini Nagar, Villianur, Puducherry 605110, India",https://www.google.co.kr/maps/place/Deeban+Nature+Clinic/data=!4m5!3m4!1s0x3a53606f2c2cb5bd:0xfd0cc1444b79b464!8m2!3d11.9164244!4d79.7564718?authuser=0&hl=en&rclk=1,11.9164244,79.7564718
New Ashoka Nursing Home,Nursing home,"No. 12, Goubert St, Kamaraj Nagar, Puducherry, 605011, India",https://www.google.co.kr/maps/place/New+Ashoka+Nursing+Home/data=!4m5!3m4!1s0x3a53617be625b477:0x4da97b54bbaaa0f2!8m2!3d11.938708!4d79.822976?authuser=0&hl=en&rclk=1,11.938708,79.822976
Government Of Puducherry Health Department Health Sub Center,Government hospital,"Moolakulam Main Road, Poraiyur, Puducherry, 605110, India",https://www.google.co.kr/maps/place/Government+Of+Puducherry+Health+Department+Health+Sub+Center/data=!4m5!3m4!1s0x3a536087732b3187:0xfcd63b76a8e9db22!8m2!3d11.9310415!4d79.7478815?authuser=0&hl=en&rclk=1,11.9310415,79.7478815
Public health Center,Hospital,"Unnamed Road, Veerampattinam, Puducherry 605007, India",https://www.google.co.kr/maps/place/Public+health+Center/data=!4m5!3m4!1s0x3a5361590e0b5b07:0x9121a21db004a51d!8m2!3d11.8937966!4d79.8219914?authuser=0&hl=en&rclk=1,11.8937966,79.8219914
Sri Venkateshwaraa Medical College Hospital & Research Centre - Puducherry,University hospital,"13-A, Pondy Villupuram Main Road, Ariyur, Ariyur, Puducherry 605107, India",https://www.google.co.kr/maps/place/Sri+Venkateshwaraa+Medical+College+Hospital+%26+Research+Centre+-+Puducherry/data=!4m5!3m4!1s0x3a535f98aeea02cb:0xb232ad9401674411!8m2!3d11.903647!4d79.7016602?authuser=0&hl=en&rclk=1,11.903647,79.7016602
Siddha Regional Research Institute,Research institute,"Chella Perumal Kovil St, 2nd Cross Extension, Kuyavarpalayam, Puducherry, 605013, India",https://www.google.co.kr/maps/place/Siddha+Regional+Research+Institute/data=!4m5!3m4!1s0x3a5361741164b36f:0xea096c5b3d1ba36e!8m2!3d11.9367815!4d79.8118177?authuser=0&hl=en&rclk=1,11.9367815,79.8118177
Sowmya Homeopathy Clinic,Hospital,"WRX6+J2H, Tagore Nagar, Pakkamudayanpet, Lawspet, Puducherry, 605013, India",https://www.google.co.kr/maps/place/Sowmya+Homeopathy+Clinic/data=!4m5!3m4!1s0x3a53616b8116482d:0xfb8ea186b520c71b!8m2!3d11.949064!4d79.8101046?authuser=0&hl=en&rclk=1,11.949064,79.8101046
Neurology centre,Medical Center,"244, Lenin St, Kuyavarpalayam, Puducherry, 605013, India",https://www.google.co.kr/maps/place/Neurology+centre/data=!4m5!3m4!1s0x3a5361becacf9681:0xf9944f755a9452e0!8m2!3d11.9343395!4d79.812637?authuser=0&hl=en&rclk=1,11.9343395,79.812637
ECHS,Medical clinic,"WRX6+VJP, Rajaji Nagar, Lawspet, Puducherry, 605008, India",https://www.google.co.kr/maps/place/ECHS/data=!4m5!3m4!1s0x3a53616bed1a8c23:0x2348a218f2fd1b79!8m2!3d11.9497229!4d79.8115861?authuser=0&hl=en&rclk=1,11.9497229,79.8115861
Rajiv Gandhi Hospital Bus Stop,Bus station,"100 Feet Rd, Ellaipillaichavady, Aruthra Nagar, Puducherry, 605009, India",https://www.google.co.kr/maps/place/Rajiv+Gandhi+Hospital+Bus+Stop/data=!4m5!3m4!1s0x3a5361735729c509:0xcf040f450de734c7!8m2!3d11.9377913!4d79.807826?authuser=0&hl=en&rclk=1,11.9377913,79.807826
Pondicherry University Health Centre,Hospital,"2V92+Q7R, Pondicherry University, Kalapet, Puducherry 605014, India",https://www.google.co.kr/maps/place/Pondicherry+University+Health+Centre/data=!4m5!3m4!1s0x3a536435bfd3efb5:0x730236c86e8b665c!8m2!3d12.019493!4d79.8506424?authuser=0&hl=en&rclk=1,12.019493,79.8506424
Surgical Oncologist Dr.Rajkumar,Cancer treatment center,"at Kumaran multi speciality Hospital, 78, 2nd Cross St, Sithananda Nagar, Thanthai Periyar Nagar, Puducherry, 605005, India",https://www.google.co.kr/maps/place/Surgical+Oncologist+Dr.Rajkumar/data=!4m5!3m4!1s0x3a5361edfd7ed29d:0xd0ca4deb2f35ec32!8m2!3d11.9321307!4d79.8056999?authuser=0&hl=en&rclk=1,11.9321307,79.8056999
Le Dental Implant Centre (Dental Hospital),Dental clinic,"18,Vallalar High Road, Venkata Nagar Extension,, 605011, Puducherry, 605011, India",https://www.google.co.kr/maps/place/Le+Dental+Implant+Centre+(Dental+Hospital)/data=!4m5!3m4!1s0x3a53617c6fffffe5:0xf6f551271e07d7fc!8m2!3d11.9409575!4d79.8216338?authuser=0&hl=en&rclk=1,11.9409575,79.8216338
Chandri Clinic,Doctor,"5, Kannan Complex, Old Age Care Unit, Subbaiah Nagar, Puducherry, 605013, India",https://www.google.co.kr/maps/place/Chandri+Clinic/data=!4m5!3m4!1s0x3a536177bfff5edb:0xba4bdada45adc9e6!8m2!3d11.93359!4d79.81705?authuser=0&hl=en&rclk=1,11.93359,79.81705
Swastham Ayurveda Hospital -Ayurvedic Specialist in Puducherry,Ayurvedic clinic,"No.3, III main Road 11th Cross street, 2nd Cross-Chellam Pappu Nagar, Reddiarpalayam, Puducherry, 605010, India",https://www.google.co.kr/maps/place/Swastham+Ayurveda+Hospital+-Ayurvedic+Specialist+in+Puducherry/data=!4m5!3m4!1s0x3a536159a685b503:0x2cd7ec7e6003e222!8m2!3d11.9252068!4d79.8004676?authuser=0&hl=en&rclk=1,11.9252068,79.8004676
East Coast Hospitals Blood Bank,Blood donation center,"No. 1, Perambai Rd, Paris Nagar, Moolakulam, Puducherry, 605010, India",https://www.google.co.kr/maps/place/East+Coast+Hospitals+Blood+Bank/data=!4m5!3m4!1s0x3a5360ff7fe4082d:0xea832d9efcff4a39!8m2!3d11.9309265!4d79.7819771?authuser=0&hl=en&rclk=1,11.9309265,79.7819771
Aravind Eye Hospital - Pondicherry,Eye care center,"Cuddalore Main Rd, Thavalakuppam, Puducherry 605007, India",https://www.google.co.kr/maps/place/Aravind+Eye+Hospital+-+Pondicherry/data=!4m5!3m4!1s0x3a549e3603930b29:0x73c4c1231e6c7e63!8m2!3d11.8646038!4d79.7904448?authuser=0&hl=en&rclk=1,11.8646038,79.7904448
A New Beginning Psychiatric and De-Adiction Center,Mental health service,"Karuvadikuppam, Lawspet, Puducherry, 605008, India",https://www.google.co.kr/maps/place/A+New+Beginning+Psychiatric+and+De-Adiction+Center/data=!4m5!3m4!1s0x3a536159eaaaaaab:0x8ef8a16e410e323e!8m2!3d11.9648822!4d79.8254722?authuser=0&hl=en&rclk=1,11.9648822,79.8254722
AG DENTAL CLINIC,Dental clinic,"Sedhu Nursing Home 130, 1st floor, Perumal Koil St, Puducherry, 605001, India",https://www.google.co.kr/maps/place/AG+DENTAL+CLINIC/data=!4m5!3m4!1s0x3a53617d9e7b703f:0xc3c6cdfb6459fa3f!8m2!3d11.9410243!4d79.8277032?authuser=0&hl=en&rclk=1,11.9410243,79.8277032
Shree Varma Ayush Hospitals,Ayurvedic clinic,"No: 12, Goubert Avenue, Beach Rd, White Town, Puducherry, 605001, India",https://www.google.co.kr/maps/place/Shree+Varma+Ayush+Hospitals/data=!4m5!3m4!1s0x3a5363d368e753c9:0x184b7c7bbba53786!8m2!3d11.9345881!4d79.8359889?authuser=0&hl=en&rclk=1,11.9345881,79.8359889
Dr. Manimarane'S Clinic,Health consultant,"27, 15th Cross St, 6th Cross Extension, Anna Nagar, Puducherry, 605005, India",https://www.google.co.kr/maps/place/Dr.+Manimarane'S+Clinic/data=!4m5!3m4!1s0x3a5361727adc1b37:0xa150aa0c95e4a6f1!8m2!3d11.9369551!4d79.8088275?authuser=0&hl=en&rclk=1,11.9369551,79.8088275
Jackey patient / Nursing Care @ Home & Hospital,Nursing agency,"Thennansalai Rd, Sanjay Gandhi Nagar, Pudupalaiyam, Puducherry, 605005, India",https://www.google.co.kr/maps/place/Jackey+patient+%2F+Nursing+Care+@+Home+%26+Hospital/data=!4m5!3m4!1s0x3a5361eee9641797:0x55d477145b8db821!8m2!3d11.9314844!4d79.8192579?authuser=0&hl=en&rclk=1,11.9314844,79.8192579
JIPMER Institute Of Oncology,Cancer treatment center,"Jawaharlal Institute of Postgraduate Medical Education & Research, Gorimedu, Puducherry 605013, India",https://www.google.co.kr/maps/place/JIPMER+Institute+Of+Oncology/data=!4m5!3m4!1s0x3a5361b3ffd5d7a1:0x315569e12bb0c0aa!8m2!3d11.9529351!4d79.8007527?authuser=0&hl=en&rclk=1,11.9529351,79.8007527
Indira Gandhi Medical College and Research Institute,Medical school,"Kathirkamam, Puducherry, 605009, India",https://www.google.co.kr/maps/place/Indira+Gandhi+Medical+College+and+Research+Institute/data=!4m5!3m4!1s0x3a53610f4234e05d:0xd8214c15dbb8d241!8m2!3d11.9404142!4d79.7962791?authuser=0&hl=en&rclk=1,11.9404142,79.7962791
Sri Mahalakshmi Nursing Home,Doctor,"7, 2nd Cross St, Lambert Saravanan Nagar, Kavery Nagar, Reddiarpalayam, Puducherry, 605009, India",https://www.google.co.kr/maps/place/Sri+Mahalakshmi+Nursing+Home/data=!4m5!3m4!1s0x3a5361a7e0936115:0x8ae388be632ec399!8m2!3d11.9300944!4d79.7962906?authuser=0&hl=en&rclk=1,11.9300944,79.7962906
Sai Keerthi Mind Care,Doctor,"No.1, 100 Feet Road, IIIrd Cross Mohan Nagar, Next to Rajiv Gandhi Women & Children's Hospital, Puducherry, 605005, India",https://www.google.co.kr/maps/place/Sai+Keerthi+Mind+Care/data=!4m5!3m4!1s0x3a5361d8c1ccb7ef:0x949195fa3fadb8fe!8m2!3d11.9391391!4d79.8079047?authuser=0&hl=en&rclk=1,11.9391391,79.8079047
Pondicherry institute of medical sciences,Hospital,"Kalapet, Puducherry, 605014, India",https://www.google.co.kr/maps/place/Pondicherry+institute+of+medical+sciences/data=!4m5!3m4!1s0x3a536595f5d9ac21:0xb5ac04f5051c8960!8m2!3d12.0469844!4d79.8556822?authuser=0&hl=en&rclk=1,12.0469844,79.8556822
Hospital,Hospital,"VR47+F56, Nallavadu, Puducherry 605007, India",https://www.google.co.kr/maps/place/Hospital/data=!4m5!3m4!1s0x3a549fc04b9f82d3:0x7c3d0a215f7446ef!8m2!3d11.8561654!4d79.812889?authuser=0&hl=en&rclk=1,11.8561654,79.812889
Jai Jyothi Eye Testing,Eye care center,"153, Bharathi Street, Bharathi Street, Puducherry, 605001, India",https://www.google.co.kr/maps/place/Jai+Jyothi+Eye+Testing/data=!4m5!3m4!1s0x3a5363d5edc34eb7:0x7fe1bc5ecda137e6!8m2!3d11.9372277!4d79.8304855?authuser=0&hl=en&rclk=1,11.9372277,79.8304855
Arul Psychological Wellness Clinic,Psychiatrist,"7, Arch Rd, Vedapureeswarar Varadaraja Perumal Nagar, Puducherry, 605009, India",https://www.google.co.kr/maps/place/Arul+Psychological+Wellness+Clinic/data=!4m5!3m4!1s0x3a53610d75fac43b:0xd2ec0bea0912cd99!8m2!3d11.9418927!4d79.804617?authuser=0&hl=en&rclk=1,11.9418927,79.804617
CIPACA- Sri Lakshmi Narayana Institute of Medical Science & Hospital - 24 Hrs Emergency Hospital,Hospital,"Osudu Agaram Village, Villianur Commune, Koodapakkam Rd, Post, Puducherry, Tamil Nadu 605502, India",https://www.google.co.kr/maps/place/CIPACA-+Sri+Lakshmi+Narayana+Institute+of+Medical+Science+%26+Hospital+-+24+Hrs+Emergency+Hospital/data=!4m5!3m4!1s0x3a535fedb53fdd2f:0x175959be8a6132ba!8m2!3d11.9382665!4d79.7358961?authuser=0&hl=en&rclk=1,11.9382665,79.7358961
Cure Medical Center Pondicherry,Medical clinic,"8, Ground Floor, Karuvadikuppam Main Rd, Muthialpet, Puducherry, 605003, India",https://www.google.co.kr/maps/place/Cure+Medical+Center+Pondicherry/data=!4m5!3m4!1s0x3a5363df4271fc23:0xdad7d9a930f26986!8m2!3d11.9508729!4d79.8311354?authuser=0&hl=en&rclk=1,11.9508729,79.8311354
Dr.T.L.Vasudevan's ENT Surgical Clinic,Hospital,"216, Bussy Street, AKA Lal Bahadur Sastry Street, Puducherry, 605001, India",https://www.google.co.kr/maps/place/Dr.T.L.Vasudevan's+ENT+Surgical+Clinic/data=!4m5!3m4!1s0x3a536181a474a0bb:0xf1cab3e454ad3b4f!8m2!3d11.9300902!4d79.825839?authuser=0&hl=en&rclk=1,11.9300902,79.825839
Hospital Block,Hospital,"RQ7H+99Q, Pillayarkuppam, Puducherry 607402, India",https://www.google.co.kr/maps/place/Hospital+Block/data=!4m5!3m4!1s0x3a549f4564c6dae7:0x9c71bc60f9fee7e9!8m2!3d11.8134584!4d79.7784749?authuser=0&hl=en&rclk=1,11.8134584,79.7784749
Nirnayapattu Hospital,Hospital,"Bahour Rd, Aranganoor, Puducherry 607402, India",https://www.google.co.kr/maps/place/Nirnayapattu+Hospital/data=!4m5!3m4!1s0x3a549f7a9a6fc38f:0x86617b0d179840c3!8m2!3d11.8303153!4d79.7505498?authuser=0&hl=en&rclk=1,11.8303153,79.7505498
Mottain Bone Hospital,Hospital,"VQ3Q+47G, Periyakattupalayan, Tamil Nadu 605007, India",https://www.google.co.kr/maps/place/Mottain+Bone+Hospital/data=!4m5!3m4!1s0x3a549e4d85a5f13b:0x9a23ff7da8dd8148!8m2!3d11.8528084!4d79.7882157?authuser=0&hl=en&rclk=1,11.8528084,79.7882157
"I Block, MGMC&RI",,"RQ6H+G4W, Puducherry, 607402, India","https://www.google.co.kr/maps/place/I+Block,+MGMC%26RI/data=!4m5!3m4!1s0x3a549f241645286d:0x6afe962844dfda48!8m2!3d11.8113661!4d79.7778321?authuser=0&hl=en&rclk=1",11.8113661,79.7778321
Dr.Thomas Fertility center and Research Institute,Fertility clinic,"No:100, Elango Nagar, Kamaraj salai, Pondycherry, Puducherry 605005, India",https://www.google.co.kr/maps/place/Dr.Thomas+Fertility+center+and+Research+Institute/data=!4m5!3m4!1s0x3a53617eb8e84aa1:0xe4428f8dd0d28951!8m2!3d11.9373121!4d79.8195847?authuser=0&hl=en&rclk=1,11.9373121,79.8195847
AEON Ayush Clinic,Alternative medicine practitioner,"ellaipillai chavaty, Bajanai Madam Street, Thanthai Periyar Nagar, Puducherry, 605005, India",https://www.google.co.kr/maps/place/AEON+Ayush+Clinic/data=!4m5!3m4!1s0x3a53610ad1a74439:0x1378f76295f92db1!8m2!3d11.9340928!4d79.8067977?authuser=0&hl=en&rclk=1,11.9340928,79.8067977
Krishna Nursing Home,Nursing home,"WRQ7+6C2, Pillaithotam, Saram, Puducherry, 605013, India",https://www.google.co.kr/maps/place/Krishna+Nursing+Home/data=!4m5!3m4!1s0x3a53617152051947:0xa780173dd7006888!8m2!3d11.9380035!4d79.8135281?authuser=0&hl=en&rclk=1,11.9380035,79.8135281
Pondicherry Institute of Medical Sciences,Medical school,"Kalathumettupathai, Ganapathichettikulam Village No.20, Kalapet, Puducherry 605014, India",https://www.google.co.kr/maps/place/Pondicherry+Institute+of+Medical+Sciences/data=!4m5!3m4!1s0x3a5365b12a917d59:0x1c5c78490b607e95!8m2!3d12.0462822!4d79.8551148?authuser=0&hl=en&rclk=1,12.0462822,79.8551148
JIPMER ACADEMIC CENTER,College,"Jipmer Campus Rd, Dhanvantari Nagar, Puducherry, 605006, India",https://www.google.co.kr/maps/place/JIPMER+ACADEMIC+CENTER/data=!4m5!3m4!1s0x3a536116661f8107:0xe4c8e58b97dd4d9f!8m2!3d11.9519901!4d79.8005193?authuser=0&hl=en&rclk=1,11.9519901,79.8005193
Care Pondicherry,Home health care service,"154 First Floor, Car Street,, Thilaspet,, Puducherry, 605009, India",https://www.google.co.kr/maps/place/Care+Pondicherry/data=!4m5!3m4!1s0x3a53610fe3a6a8e9:0x65b8ce3d7ef37bca!8m2!3d11.942477!4d79.7969589?authuser=0&hl=en&rclk=1,11.942477,79.7969589
Govt. Veterinary Clinic,Veterinarian,"74, Maraimalai Adigal Salai, Pudupalaiyam, Puducherry, 605001, India",https://www.google.co.kr/maps/place/Govt.+Veterinary+Clinic/data=!4m5!3m4!1s0x3a536182a690ba79:0xc626bf0ad9fad23!8m2!3d11.9316769!4d79.818792?authuser=0&hl=en&rclk=1,11.9316769,79.818792
Metropolis Healthcare Ltd,Diagnostic center,"No 5 Peter Nagar Near JK Tower, Puducherry, 605013, India",https://www.google.co.kr/maps/place/Metropolis+Healthcare+Ltd/data=!4m5!3m4!1s0x3a53617306fc3033:0x46787c41c966564f!8m2!3d11.9389923!4d79.8084572?authuser=0&hl=en&rclk=1,11.9389923,79.8084572
"Dr PARTHEEBAN.,MBBS,MD(NIMHANS) NEURO PSYCHIATRIST",Psychiatrist,"SMV MEDICAL ,LENIN STREET NEAR GUARANTEE LAB, opposite to BEST NEEDS SUPER MARKET, Puducherry, 605005, India","https://www.google.co.kr/maps/place/Dr+PARTHEEBAN.,MBBS,MD(NIMHANS)+NEURO+PSYCHIATRIST/data=!4m5!3m4!1s0x3a5361760749d52b:0x558f85de2a4ef623!8m2!3d11.9366415!4d79.8133819?authuser=0&hl=en&rclk=1",11.9366415,79.8133819
JIPMER UHC,Medical clinic,"WRRM+RCF, Ponnaiyapet, Puducherry, 605012, India",https://www.google.co.kr/maps/place/JIPMER+UHC/data=!4m5!3m4!1s0x3a53634aa419ded9:0x45fa1e096fe6000a!8m2!3d11.9420659!4d79.8335508?authuser=0&hl=en&rclk=1,11.9420659,79.8335508
Sri Manakula Vinayagar Medical College,Medical school,"Madagadipet, Kalitheerthalkuppam, Puducherry 605107, India",https://www.google.co.kr/maps/place/Sri+Manakula+Vinayagar+Medical+College/data=!4m5!3m4!1s0x3a5358e08a628251:0x8800c6db5c49b833!8m2!3d11.9213856!4d79.628235?authuser=0&hl=en&rclk=1,11.9213856,79.628235
Metropolis Healthcare Ltd,Diagnostic center,"No 5 Peter Nagar Near JK Tower, Puducherry, 605013, India",https://www.google.co.kr/maps/place/Metropolis+Healthcare+Ltd/data=!4m5!3m4!1s0x3a5361eb2c2e0de3:0x71d2cf5f6784b72c!8m2!3d11.946256!4d79.815667?authuser=0&hl=en&rclk=1,11.946256,79.815667
LIMRA DENTAL CARE,Dental clinic,"No, 66, 45 Feet Rd, Extn, Venkateshwara Nagar, Saram, Puducherry, 605013, India",https://www.google.co.kr/maps/place/LIMRA+DENTAL+CARE/data=!4m5!3m4!1s0x3a536171a6588499:0x2e2e356925b3f4fb!8m2!3d11.9424155!4d79.8178061?authuser=0&hl=en&rclk=1,11.9424155,79.8178061
32 Dental Care,Dental clinic,"Raman Towers, Kamaraj St, near Accord, Puducherry, 605013, India",https://www.google.co.kr/maps/place/32+Dental+Care/data=!4m5!3m4!1s0x3a5361a7f3472a6d:0x534c5d55dba755a6!8m2!3d11.9412546!4d79.8085298?authuser=0&hl=en&rclk=1,11.9412546,79.8085298
"Health and wellness centre, Bahour",Government hospital,"Hospital St, Bahour, Puducherry 607402, India","https://www.google.co.kr/maps/place/Health+and+wellness+centre,+Bahour/data=!4m5!3m4!1s0x3a549f43c8436df9:0x6b410754d83ffb03!8m2!3d11.8062121!4d79.7421487?authuser=0&hl=en&rclk=1",11.8062121,79.7421487
Pettaiyanchathiram,,,https://www.google.co.kr/maps/place/Pettaiyanchathiram/data=!4m5!3m4!1s0x3a53610d3f448245:0x83528d8eb4359af5!8m2!3d11.9414751!4d79.8063854?authuser=0&hl=en&rclk=1,11.9414751,79.8063854
Dr.T.L.Vasudevan's ENT Surgical Clinic,Hospital,"216, Bussy Street, AKA Lal Bahadur Sastry Street, Puducherry, 605001, India",https://www.google.co.kr/maps/place/Dr.T.L.Vasudevan's+ENT+Surgical+Clinic/data=!4m5!3m4!1s0x3a536181a474a0bb:0xf1cab3e454ad3b4f!8m2!3d11.9300902!4d79.825839?authuser=0&hl=en&rclk=1,11.9300902,79.825839
Dr. S Anandaraja,Cardiologist,"No. 297, Mahatma Gandhi Rd, Muthialpet, Puducherry, 605003, India",https://www.google.co.kr/maps/place/Dr.+S+Anandaraja/data=!4m5!3m4!1s0x3a5363df1fa10a43:0xcf46eb6d70453b8c!8m2!3d11.9511691!4d79.8321084?authuser=0&hl=en&rclk=1,11.9511691,79.8321084
Metropolis Healthcare Ltd,Diagnostic center,"Jipmer Campus Rd, Dhanvantari Nagar, Puducherry, 605006, India",https://www.google.co.kr/maps/place/Metropolis+Healthcare+Ltd/data=!4m5!3m4!1s0x3a53612b3028ce75:0xc3e58eee3247b010!8m2!3d11.945504!4d79.8001033?authuser=0&hl=en&rclk=1,11.945504,79.8001033
Sri Lakshmi Narayana Institute of Medical Science Medical College & Hospital,College,"Osudu Agaram Village, Villianur Commune, Kudapakkam Post, Puducherry, 605502, India",https://www.google.co.kr/maps/place/Sri+Lakshmi+Narayana+Institute+of+Medical+Science+Medical+College+%26+Hospital/data=!4m5!3m4!1s0x3a535e28540a249d:0x4b3747ebd8b3d1d9!8m2!3d11.938203!4d79.7360129?authuser=0&hl=en&rclk=1,11.938203,79.7360129
Gorimedu,,,https://www.google.co.kr/maps/place/Gorimedu/data=!4m5!3m4!1s0x3a5361229d420551:0x8208cbcc83bfac5e!8m2!3d11.9561057!4d79.7942973?authuser=0&hl=en&rclk=1,11.9561057,79.7942973
Newborn,Baby store,"No36, 100 FT, Opp. Rajiv Gandhi govt. Hospital, Sirngeri madam street, Puducherry, 605005, India",https://www.google.co.kr/maps/place/Newborn/data=!4m5!3m4!1s0x3a536174a52cdd0d:0xd5b2aeb6151dd10d!8m2!3d11.9367469!4d79.8079977?authuser=0&hl=en&rclk=1,11.9367469,79.8079977
"Primary Health Centre, Bahour",Government hospital,"West St, Bahour, Puducherry, 607402, India","https://www.google.co.kr/maps/place/Primary+Health+Centre,+Bahour/data=!4m5!3m4!1s0x3a549f583aaa9fb3:0x1b36caf5664c0f40!8m2!3d11.8063785!4d79.7421675?authuser=0&hl=en&rclk=1",11.8063785,79.7421675
Intermediate Reference Laboratory,Medical laboratory,"XQ4W+76M, Gorimedu, Priyadarshini Nagar, Puducherry, 605006, India",https://www.google.co.kr/maps/place/Intermediate+Reference+Laboratory/data=!4m5!3m4!1s0x3a536122ced66b1f:0xaba06ef73ef46759!8m2!3d11.9557186!4d79.7955328?authuser=0&hl=en&rclk=1,11.9557186,79.7955328
Sri Balaji Gastro & Endoscopy Centre,Gastroenterologist,"Opp. Rajiv Gandhi Govt Childrens Hospital, 41, 14th Cross St, Anna Nagar, Puducherry, 605005, India",https://www.google.co.kr/maps/place/Sri+Balaji+Gastro+%26+Endoscopy+Centre/data=!4m5!3m4!1s0x3a536193c08cf925:0xb7f0c441a45e24ab!8m2!3d11.9365792!4d79.8086062?authuser=0&hl=en&rclk=1,11.9365792,79.8086062
St. Joseph's Hospice - Pondicherry,Hospital,"Pulichapallam, Tamil Nadu 605109, India",https://www.google.co.kr/maps/place/St.+Joseph's+Hospice+-+Pondicherry/data=!4m5!3m4!1s0x3a536751f03d797b:0xce0d7d27808a66ae!8m2!3d12.038352!4d79.7614798?authuser=0&hl=en&rclk=1,12.038352,79.7614798
Mahatma Gandhi Postgraduate Institute of Dental Sciences,Dental school,"No. 4/477,1 st cross stree, opp. to Mahathma Dental College, Kalaivaanar Nagar, Puducherry, 605006, India",https://www.google.co.kr/maps/place/Mahatma+Gandhi+Postgraduate+Institute+of+Dental+Sciences/data=!4m5!3m4!1s0x3a53612302674a1d:0x45fbd57e14946028!8m2!3d11.9573847!4d79.7933491?authuser=0&hl=en&rclk=1,11.9573847,79.7933491
Homoeo Clinic,Homeopath,"No. 58, Vazhudavur Road, Kavundampalayam, Near Arrack Shop, Kavundampalayam, Puducherry, 605009, India",https://www.google.co.kr/maps/place/Homoeo+Clinic/data=!4m5!3m4!1s0x3a53610d478e76db:0x484ef305c8d6a40!8m2!3d11.94169!4d79.80645?authuser=0&hl=en&rclk=1,11.94169,79.80645
Dr. Smilez Dental Clinic PONDICHERRY,Dentist,"No.2, JN Street, Opp. Raj Niwas Backside, White Town, Puducherry, 605001, India",https://www.google.co.kr/maps/place/Dr.+Smilez+Dental+Clinic+PONDICHERRY/data=!4m5!3m4!1s0x3a5363d48440d8e1:0x2dcd4f39d31c0343!8m2!3d11.9351832!4d79.8347539?authuser=0&hl=en&rclk=1,11.9351832,79.8347539
Government Homeopathy Clinic,Doctor,"13, 1st Cross street, Subaiya Nagar, Mangalalakshmi Nagar, Pudupalaiyam, Puducherry, 605013, India",https://www.google.co.kr/maps/place/Government+Homeopathy+Clinic/data=!4m5!3m4!1s0x3a536177c13a41f1:0x26fe4ecea3250aa3!8m2!3d11.9333539!4d79.8167561?authuser=0&hl=en&rclk=1,11.9333539,79.8167561
"Advoate in Pondicherry, J. Sharmila, M.B.A., LL.B., deals with criminal,civil, divorce,property dispute, cheque bounce cases",Criminal justice attorney,"No : 36, 3rd Cross St, Sankaradas swamigal Nagar, Lawspet, Puducherry, 605008, India","https://www.google.co.kr/maps/place/Advoate+in+Pondicherry,+J.+Sharmila,+M.B.A.,+LL.B.,+deals+with+criminal,civil,+divorce,property+dispute,+cheque+bounce+cases/data=!4m5!3m4!1s0x3a5361ca90794cb5:0x3c91b4a3768112f9!8m2!3d11.9537022!4d79.8186371?authuser=0&hl=en&rclk=1",11.9537022,79.8186371
BRAIN PSYCHOLOGICAL COUNSELLING CENTRE,Psychologist,"Lenin St, Puducherry, 605013, India",https://www.google.co.kr/maps/place/BRAIN+PSYCHOLOGICAL+COUNSELLING+CENTRE/data=!4m5!3m4!1s0x3a536176a4577dd5:0x1f78ef14d65af806!8m2!3d11.936757!4d79.8133779?authuser=0&hl=en&rclk=1,11.936757,79.8133779
Rajiv Gandhi Statue,Statue,,https://www.google.co.kr/maps/place/Rajiv+Gandhi+Statue/data=!4m5!3m4!1s0x3a536172c72c0635:0x866f120cbbada7e5!8m2!3d11.9415672!4d79.8082924?authuser=0&hl=en&rclk=1,11.9415672,79.8082924
Ensure Support Services India Limited,Computer store,"No-3B, Villianur Rd, Pon Nagar, Kavery Nagar, Natesan Nagar, Puducherry, 605005, India",https://www.google.co.kr/maps/place/Ensure+Support+Services+India+Limited/data=!4m5!3m4!1s0x1106ae5e306d1ef9:0x8ccafcfaebd2020f!8m2!3d11.9309493!4d79.8029692?authuser=0&hl=en&rclk=1,11.9309493,79.8029692
Veterinary Hospital,Animal hospital,"WQVP+2P6, Pipdic Industrial Estate, Mettupalayam, Ozhukarat, Puducherry, 605009, India",https://www.google.co.kr/maps/place/Veterinary+Hospital/data=!4m5!3m4!1s0x3a53611d326db79d:0xd1de253fc528f50d!8m2!3d11.9425404!4d79.7867804?authuser=0&hl=en&rclk=1,11.9425404,79.7867804
Indhira Gandhi Government General Hospital Blood Bank,Blood donation center,"White Town, Puducherry, 605001, India",https://www.google.co.kr/maps/place/Indhira+Gandhi+Government+General+Hospital+Blood+Bank/data=!4m5!3m4!1s0x3a53622b24fa4c45:0xa8fba25acb6a8c7a!8m2!3d11.9318337!4d79.8330275?authuser=0&hl=en&rclk=1,11.9318337,79.8330275
Spa Psycho Center,Psychologist,"42, Third cross Street, Thilagar Nagar, Aruthra nagar, India",https://www.google.co.kr/maps/place/Spa+Psycho+Center/data=!4m5!3m4!1s0x3a53610d20ef4bc5:0xb4be7b0582d1e812!8m2!3d11.9404559!4d79.8062171?authuser=0&hl=en&rclk=1,11.9404559,79.8062171
Dr.T.L.Vasudevan's ENT Surgical Clinic,Hospital,"216, Bussy Street, AKA Lal Bahadur Sastry Street, Puducherry, 605001, India",https://www.google.co.kr/maps/place/Dr.T.L.Vasudevan's+ENT+Surgical+Clinic/data=!4m5!3m4!1s0x3a536181a474a0bb:0xf1cab3e454ad3b4f!8m2!3d11.9300902!4d79.825839?authuser=0&hl=en&rclk=1,11.9300902,79.825839
"Molecular Diagnostics Laboratory, Aarupadai Veedu Medical College and Hospital",Diagnostic center,"Commune Panchayat, Pondy - Cuddalore Main road, Kirumampakkam, Bahour, 607403, India","https://www.google.co.kr/maps/place/Molecular+Diagnostics+Laboratory,+Aarupadai+Veedu+Medical+College+and+Hospital/data=!4m5!3m4!1s0x3a549f035da22cc1:0xf1d548c8a217595c!8m2!3d11.8305978!4d79.7793493?authuser=0&hl=en&rclk=1",11.8305978,79.7793493
Sri Krishna's Catering Service - CATERING SERVICE IN CUDDALORE / CATERING SERVICE IN PONDICHERRY,Contractor,"No 1 Saminathan Street,Kolathar, Thoppu,Canal South West, Vanarapet, Puducherry, 605001, India",https://www.google.co.kr/maps/place/Sri+Krishna's+Catering+Service+-+CATERING+SERVICE+IN+CUDDALORE+%2F+CATERING+SERVICE+IN+PONDICHERRY/data=!4m5!3m4!1s0x3a5361d94623fd91:0xc27434aa379bbde!8m2!3d11.9253879!4d79.8221729?authuser=0&hl=en&rclk=1,11.9253879,79.8221729
Star Health & Allied Insurance Co Ltd,Health insurance agency,"146, Anna Salai, Pondicherry-605001, (Chetty Street Cutting), Puducherry, 605001, India",https://www.google.co.kr/maps/place/Star+Health+%26+Allied+Insurance+Co+Ltd/data=!4m5!3m4!1s0x3a53617c20ef6059:0x467e6e90d5b99d86!8m2!3d11.93826!4d79.825707?authuser=0&hl=en&rclk=1,11.93826,79.825707
A. G. Padmavathi Hospital Blood Bank,Blood donation center,"Arumparthapuram, Marie Oulgaret, Puducherry 605110, India",https://www.google.co.kr/maps/place/A.+G.+Padmavathi+Hospital+Blood+Bank/data=!4m5!3m4!1s0x3a5360511300039d:0x455a8a00d4795228!8m2!3d11.92318!4d79.777662?authuser=0&hl=en&rclk=1,11.92318,79.777662
Vennila Apartment,Apartment building,"100 Feet Road, 100 Feet Road, Ellaipillaichavady, opposite Govt Hospital, Puducherry, 605014, India",https://www.google.co.kr/maps/place/Vennila+Apartment/data=!4m5!3m4!1s0x3a536173253b39ef:0x901e5248895f8ef8!8m2!3d11.93966!4d79.80809?authuser=0&hl=en&rclk=1,11.93966,79.80809
Metropolis Healthcare Ltd,Diagnostic center,"No 70 Manveli, Villianur Main Rd, near AG Pathmavathi Hospital, Villianur, Puducherry 605110, India",https://www.google.co.kr/maps/place/Metropolis+Healthcare+Ltd/data=!4m5!3m4!1s0x3a5361a47c121577:0xa07f0a52b6e55604!8m2!3d11.9232429!4d79.7776094?authuser=0&hl=en&rclk=1,11.9232429,79.7776094
SIDDHA AYURVEDA PHARMACY (SIDDHA PHARMACY IN PONDYCHERRY/AYURVEDHA PHARMACY IN PONDYCHERRY/HERBAL PHARMACY IN PONDYCHERRY),Herbal medicine store,"# 71, Lenin St, near BONAPPETITE, Naveena Garden, Kuyavarpalayam, Puducherry, 605013, India",https://www.google.co.kr/maps/place/SIDDHA+AYURVEDA+PHARMACY+(SIDDHA+PHARMACY+IN+PONDYCHERRY%2FAYURVEDHA+PHARMACY+IN+PONDYCHERRY%2FHERBAL+PHARMACY+IN+PONDYCHERRY)/data=!4m5!3m4!1s0x3a53612375e5f537:0xe3d8ae12e806d917!8m2!3d11.9385749!4d79.8138197?authuser=0&hl=en&rclk=1,11.9385749,79.8138197
Star Health and Allied Insurance Co. Ltd,Health insurance agency,"NO-8 I FLOOR,, BAJANAIMADAM ST,ELLAIPILLAICHAVADY, PONDICHERRY. CELL-9994437777, Puducherry, 605001, India",https://www.google.co.kr/maps/place/Star+Health+and+Allied+Insurance+Co.+Ltd/data=!4m5!3m4!1s0x3a53610ad266e89f:0x94ba0ccaa6c48ee0!8m2!3d11.9340594!4d79.8070258?authuser=0&hl=en&rclk=1,11.9340594,79.8070258
Star health Insurance Pondicherry,Health insurance agency,"60, Veerampattinam Rd, opp. to Mahalakshmi finance and jewellery, Ariyankuppam, Puducherry 605007, India",https://www.google.co.kr/maps/place/Star+health+Insurance+Pondicherry/data=!4m5!3m4!1s0x3a5361d490ce688d:0x2f2aff648f61d0fd!8m2!3d11.8961267!4d79.8052936?authuser=0&hl=en&rclk=1,11.8961267,79.8052936
Metropolis Healthcare Ltd,Diagnostic center,"No 11, Villianur Main Rd, near Srishti Hospital, Marie Oulgaret, Thattanchavadi, Puducherry 605009, India",https://www.google.co.kr/maps/place/Metropolis+Healthcare+Ltd/data=!4m5!3m4!1s0x3a5361b5be6d9a33:0xba3df8a969ceba1d!8m2!3d11.9203621!4d79.7674271?authuser=0&hl=en&rclk=1,11.9203621,79.7674271
Pondicherry Kidney Foundation,Charity,"No:1, VelayuthamPillai Street, Manjini Nagar, Muthialpet,, Puducherry, 605003, India",https://www.google.co.kr/maps/place/Pondicherry+Kidney+Foundation/data=!4m5!3m4!1s0x3a536167bb1e9cf9:0xb2eee50f4f5a108b!8m2!3d11.952917!4d79.820461?authuser=0&hl=en&rclk=1,11.952917,79.820461
GV SPARES,Electronics store,"6, First Cross St, Thilagar Nagar, Aruthra Nagar, Puducherry, 605009, India",https://www.google.co.kr/maps/place/GV+SPARES/data=!4m5!3m4!1s0x3a536116fd796e95:0x34e7f9c81d4e7332!8m2!3d11.9412127!4d79.8066142?authuser=0&hl=en&rclk=1,11.9412127,79.8066142
Hotel Annamalaipondy,,"3/4 East Coast Road, Cuddalore Road, near Mahathma Gandhi Hospital, Pillayarkuppam, Puducherry 607402, India",https://www.google.co.kr/maps/place/Hotel+Annamalaipondy/data=!4m5!3m4!1s0x3a53612170446595:0xcef87adef71dbc52!8m2!3d11.9441716!4d79.809011?authuser=0&hl=en&rclk=1,11.9441716,79.809011
LifeCell International Pvt. Ltd,Biotechnology company,"No.273, 1st Floor, Airport Main Road, Ashok Nagar, near Vanavil Bus Stop, Lawspet, Puducherry, 605008, India",https://www.google.co.kr/maps/place/LifeCell+International+Pvt.+Ltd/data=!4m5!3m4!1s0x3a53614089555555:0x5cbce1f0276cdaa9!8m2!3d11.9560511!4d79.8137448?authuser=0&hl=en&rclk=1,11.9560511,79.8137448
Sri Sai Home Health Care Society,Home health care service,"No 143,2nd Main Road, Velmurugan Nagar 2nd Main Rd, near Rajiv Gandhi Hospital, Puducherry 605013, India",https://www.google.co.kr/maps/place/Sri+Sai+Home+Health+Care+Society/data=!4m5!3m4!1s0x3a536168512fbfff:0xae0e880c48097c8a!8m2!3d11.9371148!4d79.8102158?authuser=0&hl=en&rclk=1,11.9371148,79.8102158
Star health insurance,Health insurance agency,"14, Carpenter St, Nellithope, Nellitope, Puducherry, 605007, India",https://www.google.co.kr/maps/place/Star+health+insurance/data=!4m5!3m4!1s0x3a5361639f6fad35:0x7acfef8d9fc586a7!8m2!3d11.932019!4d79.8124059?authuser=0&hl=en&rclk=1,11.932019,79.8124059
Georgia Visa Application Centre in Puducherry,Visa and passport office,"Good Shepherd Square I Floor, No.33 East Coast Road Elaipillaichavady Opposite to Rajiv Gandhi Govt Hospital, Puducherry, 605005, India",https://www.google.co.kr/maps/place/Georgia+Visa+Application+Centre+in+Puducherry/data=!4m5!3m4!1s0x3a5361049cffdb7b:0x2a8066adbc6a844e!8m2!3d11.941552!4d79.808289?authuser=0&hl=en&rclk=1,11.941552,79.808289
SANGEETHA HARDWARE,Hardware store,"koundanpalayam, Opp to Aswin Hospital, 55, Vazhudavoor Rd, Aruthra Nagar, Puducherry, 605009, India",https://www.google.co.kr/maps/place/SANGEETHA+HARDWARE/data=!4m5!3m4!1s0x3a53610d992d463b:0x30a1d8d28f54da43!8m2!3d11.9417836!4d79.8041058?authuser=0&hl=en&rclk=1,11.9417836,79.8041058
Eeswar Creative Studio,Photo shop,"No.17, Sundara Maistry St, near Govt. Primary Hospital, Naveena Garden, Kuyavarpalayam, Puducherry, 605013, India",https://www.google.co.kr/maps/place/Eeswar+Creative+Studio/data=!4m5!3m4!1s0x3a5361773e80f707:0x3506291548127bbc!8m2!3d11.93937!4d79.814543?authuser=0&hl=en&rclk=1,11.93937,79.814543
Nova IVF Fertility Center - Best IVF Center In Pondicherry,Fertility clinic,"Gkm Arcade, Building No 81, 3Rd Floor, 100Ft Road, Junction, near Indira Gandhi Statue, Puducherry, 605005, India",https://www.google.co.kr/maps/place/Nova+IVF+Fertility+Center+-+Best+IVF+Center+In+Pondicherry/data=!4m5!3m4!1s0x3a5361f23cf3af1f:0x55afe3ab0037954f!8m2!3d11.9323715!4d79.8078418?authuser=0&hl=en&rclk=1,11.9323715,79.8078418
Dr.T.L.Vasudevan's ENT Surgical Clinic,Hospital,"216, Bussy Street, AKA Lal Bahadur Sastry Street, Puducherry, 605001, India",https://www.google.co.kr/maps/place/Dr.T.L.Vasudevan's+ENT+Surgical+Clinic/data=!4m5!3m4!1s0x3a536181a474a0bb:0xf1cab3e454ad3b4f!8m2!3d11.9300902!4d79.825839?authuser=0&hl=en&rclk=1,11.9300902,79.825839
J.B.R Furnitures,Furniture store,"No172 Vycial street, near jothi eye hospital, Puducherry 605001, India",https://www.google.co.kr/maps/place/J.B.R+Furnitures/data=!4m5!3m4!1s0x3a53617c29514ecf:0x27d035817fafbdb7!8m2!3d11.9384189!4d79.8264126?authuser=0&hl=en&rclk=1,11.9384189,79.8264126
"Vallikodi Vanniyar Matrimony, Kavundarpalayam",Marriage or relationship counselor,"No.79, Vazhudavur Road, V.V.P Nagar, Gounderpalayam(Near by Employment Exchange), Vedapureeswarar Varadaraja Perumal Nagar, Puducherry, 605009, India","https://www.google.co.kr/maps/place/Vallikodi+Vanniyar+Matrimony,+Kavundarpalayam/data=!4m5!3m4!1s0x3a53610dec89ac4d:0x2c34336af7caa551!8m2!3d11.9419319!4d79.8028918?authuser=0&hl=en&rclk=1",11.9419319,79.8028918
Sara Lady World Tailoring Institute,Clothing alteration service,"No. 17, 15th Cross, Ayyanar Koil St, opp. Rajivgandhi Hospital, Puducherry, 605005, India",https://www.google.co.kr/maps/place/Sara+Lady+World+Tailoring+Institute/data=!4m5!3m4!1s0x1106aef6664ec9d7:0x4cfb561aad7566e!8m2!3d11.9370599!4d79.809319?authuser=0&hl=en&rclk=1,11.9370599,79.809319
Vasanth&Co,Appliance store,"Shop No, New Medical Centre - Multispeciality Hospital In Pondicherry, 414, Mahatma Gandhi Rd, Thiruvalluvar Nagar, Puducherry, 605001, India",https://www.google.co.kr/maps/place/Vasanth%26Co/data=!4m5!3m4!1s0x3a5265fdfba012cb:0xf1fc8afc6ae8fe0b!8m2!3d11.9313741!4d79.8283583?authuser=0&hl=en&rclk=1,11.9313741,79.8283583
Oriental Stores,Store,"61, Bharathi Street, Near Meenakshi Amman Temple, Bharathi Street, Puducherry, 605001, India",https://www.google.co.kr/maps/place/Oriental+Stores/data=!4m5!3m4!1s0x3a5363d687e1d729:0x20819be63f6b36bb!8m2!3d11.93908!4d79.83255?authuser=0&hl=en&rclk=1,11.93908,79.83255
IFFCO TOKIO GENERAL INSURANCE COMPANY LIMITED,Insurance company,"58A, Villianur Main Rd, opp. toDarling bakery, Pavazha Nagar, Reddiarpalayam, Puducherry, 605005, India",https://www.google.co.kr/maps/place/IFFCO+TOKIO+GENERAL+INSURANCE+COMPANY+LIMITED/data=!4m5!3m4!1s0x3a536128af750ebf:0xea032f7a4c5fff8d!8m2!3d11.9314981!4d79.8014823?authuser=0&hl=en&rclk=1,11.9314981,79.8014823
Future Generali Insurance,Insurance company,"2nd Floor, No. 83/84, East Coast Rd, Ellaipillaichavady, Sithananda Nagar, Puducherry, 605005, India",https://www.google.co.kr/maps/place/Future+Generali+Insurance/data=!4m5!3m4!1s0x3a5361754979d267:0xa59c01d97e1cfbdb!8m2!3d11.9247956!4d79.8085406?authuser=0&hl=en&rclk=1,11.9247956,79.8085406
Iffco Tokio Bank,Bank,"43/3, 100 Feet Road, 100 Feet Road, Opposite PSC Bank, Mudaliarpet, Puducherry, 605004, India",https://www.google.co.kr/maps/place/Iffco+Tokio+Bank/data=!4m5!3m4!1s0x3a5361964ef789c9:0xc3ff2a1b2fc1d66f!8m2!3d11.9172354!4d79.8089382?authuser=0&hl=en&rclk=1,11.9172354,79.8089382
Sri Ragavendra infotech,Health insurance agency,starhealth.in,https://www.google.co.kr/maps/place/Sri+Ragavendra+infotech/data=!4m5!3m4!1s0x3a5363f6cd3ff157:0x9d90c5ad82c6e605!8m2!3d11.8534264!4d79.7908229?authuser=0&hl=en&rclk=1,11.8534264,79.7908229
Sara fancy dress costume,Costume store,"No.17,15th cross anna nagar,pondicherry-5, Puducherry, 605005, India",https://www.google.co.kr/maps/place/Sara+fancy+dress+costume/data=!4m5!3m4!1s0x3a536174a387667b:0xc56fc08427641c11!8m2!3d11.936997!4d79.808314?authuser=0&hl=en&rclk=1,11.936997,79.808314
Navajyoti Karyalaya,Publisher,"Door No: 2, St Ange Road, Near General Hospital, Puducherry, 605001, India",https://www.google.co.kr/maps/place/Navajyoti+Karyalaya/data=!4m5!3m4!1s0x3a5363d52cbec83b:0xb02071e8d5a36fa3!8m2!3d11.9328589!4d79.8320642?authuser=0&hl=en&rclk=1,11.9328589,79.8320642
Eshwar Communication,Telecommunications service provider,"NO 13, 100 Feet Road, 100 Feet Road, Opposite Govt Hospital, Ellaipillaichavady, Puducherry, 605014, India",https://www.google.co.kr/maps/place/Eshwar+Communication/data=!4m5!3m4!1s0x3a53617325d2e15b:0x151d6675c45e1c9b!8m2!3d11.93992!4d79.80813?authuser=0&hl=en&rclk=1,11.93992,79.80813
Auro Green Garden,Garden,"M.G. Road, MG Road, Kottakuppam, near Hamdam Hospital, Puducherry, 605104, India",https://www.google.co.kr/maps/place/Auro+Green+Garden/data=!4m5!3m4!1s0x3a5363e14b590f0b:0x74fc1626380eb3c5!8m2!3d11.95994!4d79.83522?authuser=0&hl=en&rclk=1,11.95994,79.83522
Belgium Visa Application Centre in Puducherry,Visa and passport office,"Good Shepherd Square I Floor, No.33 East Coast Road Elaipillaichavady Opposite to Rajiv Gandhi Govt Hospital, Puducherry, 605005, India",https://www.google.co.kr/maps/place/Belgium+Visa+Application+Centre+in+Puducherry/data=!4m5!3m4!1s0x3a5361cadbd57915:0x8dba9dd00387fefc!8m2!3d11.941552!4d79.808289?authuser=0&hl=en&rclk=1,11.941552,79.808289
Welcare India Fitness Equipments,Fitness equipment wholesaler,"NO,7, 100 Feet Rd, near Rajiv Gandhi Hospital, Mohan Nagar, Aruthra Nagar, Puducherry, 605005, India",https://www.google.co.kr/maps/place/Welcare+India+Fitness+Equipments/data=!4m5!3m4!1s0x3a5361bf4db4bb57:0x7fc0c648a66288b6!8m2!3d11.9392273!4d79.8079733?authuser=0&hl=en&rclk=1,11.9392273,79.8079733
